{"type":"Feature","bbox":[-64.886,32.2481,-64.6476,32.3887],"properties":{"iso":"BM","name":"Bermuda","name_de":"Bermuda","key":"BM"},"geometry":{"type":"MultiPolygon","coordinates":[[[[-64.6761,32.3887],[-64.6476,32.3682],[-64.6554,32.3593],[-64.6558,32.3504],[-64.6674,32.3589],[-64.6808,32.3617],[-64.6852,32.3574],[-64.6914,32.364],[-64.7081,32.3516],[-64.705,32.343],[-64.6779,32.3345],[-64.6984,32.3264],[-64.7406,32.3004],[-64.7549,32.2931],[-64.7639,32.2826],[-64.7833,32.2675],[-64.8093,32.2562],[-64.8341,32.2481],[-64.8608,32.2489],[-64.8763,32.2578],[-64.8829,32.2717],[-64.886,32.2826],[-64.8766,32.2789],[-64.878,32.2861],[-64.8745,32.2957],[-64.8798,32.3054],[-64.8724,32.3031],[-64.8689,32.3089],[-64.8643,32.3031],[-64.8581,32.2977],[-64.867,32.2911],[-64.8698,32.2798],[-64.872,32.2764],[-64.867,32.2729],[-64.8488,32.2709],[-64.8488,32.2678],[-64.8631,32.269],[-64.8643,32.2624],[-64.8577,32.2547],[-64.8468,32.2547],[-64.8329,32.2597],[-64.829,32.2667],[-64.8197,32.2675],[-64.7809,32.2875],[-64.779,32.2911],[-64.7945,32.2895],[-64.8054,32.2934],[-64.814,32.304],[-64.8108,32.3076],[-64.7801,32.3034],[-64.7618,32.3109],[-64.7512,32.3136],[-64.7403,32.324],[-64.736,32.3229],[-64.7186,32.3237],[-64.7139,32.3295],[-64.7054,32.3361],[-64.7131,32.3426],[-64.7246,32.3388],[-64.7329,32.3337],[-64.7347,32.3277],[-64.7395,32.3287],[-64.7417,32.3331],[-64.7364,32.3438],[-64.722,32.3525],[-64.7131,32.3644],[-64.6973,32.3735],[-64.6761,32.3887]]],[[[-64.8209,32.2872],[-64.812,32.2899],[-64.8077,32.2864],[-64.8,32.2833],[-64.8027,32.281],[-64.8112,32.2822],[-64.8205,32.281],[-64.8298,32.2818],[-64.8325,32.2872],[-64.8294,32.2892],[-64.8209,32.2872]]]]}}