{"type":"Feature","bbox":[-141.0056,41.6719,-52.6288,83.1165],"properties":{"iso":"CA","name":"Canada","name_de":"Kanada","key":"CA"},"geometry":{"type":"MultiPolygon","coordinates":[[[[-95.1606,49.3695],[-95.1771,48.9927],[-123.0905,48.9925],[-123.0407,49.151],[-123.212,49.13],[-123.2469,49.2746],[-122.9608,49.2819],[-122.8557,49.4418],[-123.27,49.3354],[-123.171,49.7053],[-123.5027,49.5054],[-123.5336,49.3885],[-124.0611,49.6308],[-123.9393,49.7436],[-123.7771,49.5053],[-123.5335,49.7053],[-123.7945,49.644],[-123.9276,49.7636],[-123.8836,49.9011],[-123.9536,49.9897],[-123.7545,50.0937],[-123.8284,50.1584],[-123.9935,50.2198],[-123.8079,50.1032],[-123.9932,50.0108],[-123.9382,49.8288],[-124.0375,49.925],[-124.283,49.7466],[-124.8289,50.0548],[-124.6849,49.9865],[-124.6029,50.2403],[-124.7134,50.3314],[-124.4112,50.4457],[-124.359,50.5093],[-125.0815,50.3247],[-124.8699,50.583],[-124.8138,50.9272],[-125.1278,50.437],[-125.3567,50.5431],[-125.5771,50.4707],[-125.4546,50.7204],[-125.7033,50.4379],[-125.7872,50.5316],[-126.0077,50.4715],[-126.2806,50.5194],[-125.9599,50.6456],[-126.2773,50.6259],[-125.7056,50.6817],[-125.5073,50.9392],[-125.637,51.1037],[-125.5421,50.9392],[-125.6477,50.7824],[-126.1866,50.6719],[-126.0345,50.7951],[-126.1838,50.8679],[-126.5474,50.8374],[-126.1731,50.9388],[-126.5147,51.0764],[-126.6742,50.8782],[-127.1658,50.9392],[-126.922,50.8723],[-127.0423,50.8229],[-127.5308,51.0037],[-127.4811,51.1099],[-127.777,51.1672],[-127.1266,51.3388],[-127.7797,51.3306],[-127.5519,51.4709],[-127.492,51.6206],[-126.6772,51.6457],[-126.6034,51.7138],[-127.4232,51.6719],[-127.3501,51.8702],[-127.6456,51.7001],[-127.4674,51.6623],[-127.7139,51.4577],[-127.8737,51.6734],[-127.8496,51.9201],[-127.4305,52.0888],[-127.1726,52.3165],[-126.6723,51.9875],[-126.9385,52.3059],[-126.753,52.3934],[-127.225,52.4561],[-126.9318,52.7128],[-126.9696,52.8294],[-127.0764,52.8851],[-126.9869,52.7109],[-127.6166,52.2985],[-127.8724,52.2195],[-127.8883,52.5151],[-128.0159,52.3467],[-128.0531,52.4852],[-127.8777,52.5841],[-128.0924,52.5133],[-128.2967,52.2756],[-128.3922,52.296],[-128.2262,52.4605],[-128.1322,52.8731],[-128.0288,52.9167],[-128.443,52.8277],[-128.481,53.1457],[-128.8491,53.2786],[-128.831,53.4883],[-128.9745,53.5566],[-128.4939,53.3441],[-128.127,53.4509],[-127.8715,53.2283],[-128.1111,53.4883],[-128.5294,53.4337],[-128.8077,53.6154],[-128.7751,53.7983],[-128.4737,53.8415],[-128.6939,53.8993],[-128.5983,54.0302],[-128.9329,53.7764],[-128.9062,53.8447],[-129.0092,53.8993],[-128.9732,53.7776],[-129.2283,53.6327],[-129.2898,53.3854],[-130.1047,53.9471],[-129.9613,54.1668],[-129.715,53.9538],[-129.9272,54.1873],[-129.6119,54.1839],[-129.4918,54.2515],[-130.1249,54.1609],[-130.1763,54.1952],[-130.2815,54.2144],[-130.1947,54.263],[-130.2494,54.4064],[-130.4825,54.3737],[-130.4312,54.633],[-130.053,54.3374],[-129.9589,54.3221],[-130.0849,54.3921],[-129.9814,54.5154],[-130.1011,54.4263],[-130.3724,54.6643],[-130.2344,54.7114],[-130.0116,54.6199],[-129.8795,54.6206],[-130.2015,54.7285],[-130.0501,54.893],[-130.1737,54.8445],[-130.022,54.9739],[-129.6413,54.9896],[-130.001,55.0224],[-129.478,55.4835],[-129.713,55.4208],[-129.8248,55.6192],[-129.7862,55.3568],[-130.1248,55.0053],[-129.9494,55.2932],[-130.1306,55.7363],[-129.9613,55.9208],[-130.0715,56.0841],[-131.8256,56.5933],[-131.8716,56.7935],[-132.1074,56.8588],[-132.0319,57.0284],[-132.3412,57.0804],[-132.231,57.1968],[-133.3922,58.4039],[-134.9578,59.281],[-135.0958,59.4189],[-135.0329,59.5731],[-135.4828,59.7925],[-136.2585,59.6216],[-136.5695,59.1722],[-137.4869,58.9001],[-137.6114,59.2393],[-139.1821,60.0734],[-139.0795,60.341],[-140.0158,60.1874],[-140.9949,60.3044],[-141.0056,69.6509],[-139.1438,69.5137],[-138.6026,69.2427],[-138.357,69.3047],[-137.2237,68.9509],[-135.149,68.6605],[-135.5054,68.8454],[-135.3409,68.8386],[-136.005,68.9479],[-135.519,69.0298],[-135.9194,69.0935],[-135.9678,69.2222],[-135.4159,69.0987],[-135.8554,69.2905],[-135.1667,69.263],[-135.2843,69.4145],[-135.1554,69.4797],[-134.4763,69.4438],[-134.5945,69.5129],[-134.4055,69.6369],[-134.4809,69.7275],[-134.1209,69.5443],[-133.7513,69.5512],[-134.2222,69.2726],[-134.313,69.154],[-133.0455,69.4345],[-132.8873,69.6611],[-132.5301,69.632],[-132.333,69.6846],[-132.6272,69.6741],[-132.5484,69.743],[-132.1389,69.6879],[-131.4083,69.9615],[-131.1885,69.8249],[-130.8936,70.106],[-129.9317,70.0761],[-129.6739,70.2699],[-129.4065,70.1212],[-130.9412,69.5659],[-131.048,69.6437],[-131.9836,69.5369],[-132.3249,69.2492],[-132.4348,69.3041],[-132.4975,69.1601],[-132.5447,69.2905],[-132.7712,69.2563],[-132.9079,69.1308],[-132.892,68.9827],[-133.1007,69.072],[-133.4913,68.8425],[-133.2094,68.7151],[-132.922,68.694],[-133.3882,68.8454],[-132.4832,68.8054],[-132.3939,68.8659],[-132.7845,68.851],[-132.6756,68.9274],[-132.8736,69.0578],[-132.4838,69.1471],[-132.4153,69.2379],[-132.4696,69.113],[-132.2163,69.154],[-131.7154,69.4003],[-131.9112,69.4281],[-131.4276,69.4351],[-131.5149,69.3359],[-131.2521,69.5039],[-131.3478,69.3171],[-131.1611,69.3935],[-131.2431,69.5854],[-131.1381,69.3698],[-131.1278,69.621],[-131.1195,69.3253],[-130.9477,69.5389],[-131.0513,69.3389],[-130.9009,69.3856],[-131.0262,69.206],[-130.9278,69.1396],[-130.9451,69.2767],[-130.3797,69.6945],[-128.8861,69.9763],[-129.1737,69.8323],[-129.1536,69.7035],[-128.9415,69.6824],[-128.3104,69.9627],[-128.3372,70.1298],[-127.5152,70.2221],[-128.2005,70.4009],[-127.9915,70.5929],[-127.1365,70.2529],[-126.7018,69.7674],[-126.2452,69.5253],[-125.4488,69.3192],[-125.089,69.4543],[-125.624,69.4208],[-125.1169,69.4897],[-125.4384,69.6126],[-125.3701,69.6945],[-124.822,69.715],[-125.2814,69.8112],[-124.6302,69.9863],[-125.2062,70.0031],[-124.5456,70.0189],[-124.4173,70.0515],[-124.7538,70.1266],[-124.4081,70.1554],[-124.3703,70.0417],[-124.5409,69.9695],[-124.4037,69.8597],[-124.5067,69.7362],[-124.0344,69.6815],[-124.5211,69.4078],[-124.4228,69.3666],[-123.3827,69.414],[-122.9797,69.8348],[-121.6439,69.789],[-120.0858,69.3636],[-117.1654,68.8939],[-115.9712,68.8093],[-116.318,68.9683],[-115.5673,68.9719],[-114.5226,68.7172],[-113.9054,68.3998],[-114.0355,68.2412],[-114.9415,68.2913],[-114.7551,68.1943],[-115.2417,68.1869],[-115.112,68.0162],[-115.5434,67.9234],[-115.1182,67.8039],[-111.8855,67.6852],[-110.0596,68.0051],[-109.7167,67.7192],[-109.067,67.7202],[-109.0131,67.4613],[-108.8241,67.3572],[-108.6399,67.6295],[-108.4713,67.3515],[-108.3703,67.4476],[-107.9925,67.2825],[-107.8854,67.0482],[-108.6221,67.1528],[-107.2415,66.3485],[-107.7997,66.7686],[-107.6898,66.7686],[-107.7659,66.9963],[-107.6079,66.9741],[-107.643,67.0771],[-107.4844,66.9194],[-107.6973,66.9536],[-107.563,66.8395],[-107.4093,66.8171],[-107.401,66.9743],[-107.0877,66.8307],[-107.4034,67.0412],[-107.2032,67.1249],[-107.7164,67.4046],[-107.5858,67.5012],[-108.0057,67.7097],[-107.6593,67.9467],[-107.9095,67.9951],[-107.8795,68.093],[-107.6973,68.0776],[-107.7741,67.9886],[-106.7582,68.105],[-106.8134,68.208],[-106.6315,68.2496],[-106.4435,68.1528],[-106.4457,68.3513],[-105.7271,68.4266],[-105.6483,68.6387],[-106.5533,68.5159],[-106.4224,68.5159],[-106.6352,68.4687],[-106.4879,68.4074],[-106.5527,68.2968],[-106.7867,68.4149],[-107.889,68.2695],[-107.6147,68.1671],[-108.3892,68.111],[-108.4166,68.3042],[-108.8151,68.2742],[-108.2808,68.6216],[-106.2218,68.946],[-105.4696,68.722],[-105.3241,68.4825],[-105.5439,68.4139],[-105.0392,68.2591],[-104.8942,68.3514],[-104.9352,68.2359],[-104.602,68.2353],[-104.6757,68.1397],[-104.4839,68.0339],[-103.4149,68.1694],[-103.3635,68.0115],[-102.2189,67.6918],[-100.7074,67.8511],[-98.9364,67.6968],[-98.3634,67.7946],[-98.727,67.9578],[-98.5846,68.0964],[-97.9272,67.6969],[-97.5579,67.5954],[-97.2132,67.6246],[-97.0611,67.6804],[-97.2262,67.7145],[-97.1208,67.793],[-97.2496,67.9246],[-97.6932,68.0226],[-98.095,67.8366],[-98.5899,68.1528],[-98.3155,68.1671],[-98.7134,68.3793],[-97.7476,68.3687],[-97.9796,68.5471],[-97.2604,68.4687],[-96.9935,68.3377],[-97.0806,68.2657],[-96.621,68.1857],[-96.592,68.2542],[-96.4038,68.3179],[-96.7645,68.0172],[-95.8967,68.2967],[-96.0817,68.1459],[-96.1819,67.6429],[-96.3439,67.6894],[-96.4652,67.478],[-96.0959,67.4675],[-96.253,67.2477],[-96.1107,67.2219],[-95.5814,67.3848],[-95.8353,67.1658],[-95.4374,67.2006],[-95.3303,67.0104],[-96.4557,67.0598],[-95.852,66.7581],[-95.821,66.5911],[-95.6435,66.6693],[-96.0935,66.9202],[-95.2183,66.9741],[-95.3481,67.1527],[-95.1728,67.2786],[-95.4138,67.4566],[-95.3381,67.5522],[-95.7077,67.7333],[-95.4784,68.0634],[-94.7982,68.0381],[-93.3749,68.6387],[-93.7523,68.6121],[-93.5707,68.8441],[-93.9093,68.9957],[-93.8271,69.0692],[-94.0806,68.8523],[-93.8262,68.8793],[-94.0942,68.7629],[-94.6361,68.756],[-94.602,68.9683],[-94.0055,69.1601],[-94.324,69.1558],[-94.2816,69.3221],[-93.5257,69.4414],[-93.8403,69.1687],[-93.3619,69.373],[-93.5878,69.3662],[-93.4506,69.4897],[-94.3222,69.453],[-94.6299,69.6877],[-94.8751,69.5716],[-95.7869,69.743],[-96.5319,70.1362],[-96.546,70.3406],[-96.233,70.5712],[-95.7934,70.5441],[-96.0539,70.607],[-95.8148,70.7156],[-96.1903,70.6247],[-96.6024,70.7913],[-96.376,71.0941],[-96.5615,71.1271],[-96.3759,71.1606],[-96.5069,71.2779],[-96.1335,71.4142],[-95.5364,71.2961],[-95.376,71.5107],[-95.9104,71.6069],[-94.6081,71.8676],[-95.2252,71.9495],[-94.492,71.9904],[-94.4603,71.8574],[-94.6492,71.8198],[-94.3549,71.7987],[-94.4155,71.6655],[-93.7209,71.7653],[-93.8205,71.6553],[-92.9801,71.3474],[-92.8541,70.8596],[-93.0408,70.8624],[-92.2154,70.6163],[-92.2856,70.4896],[-91.9764,70.3668],[-92.0863,70.3047],[-91.7232,70.3558],[-91.511,70.1613],[-92.3675,70.2364],[-92.2654,70.2065],[-92.5872,70.0788],[-91.9429,70.0241],[-92.923,69.6741],[-92.3674,69.7087],[-91.7983,69.4897],[-91.1676,69.6557],[-91.5724,69.5233],[-90.3118,69.4543],[-90.7028,69.4543],[-90.5855,69.4208],[-90.7978,69.3662],[-90.8052,69.2563],[-91.4495,69.3525],[-90.4353,68.879],[-90.5998,68.8039],[-90.4421,68.8312],[-90.607,68.4439],[-90.2708,68.2421],[-89.8646,68.4883],[-89.9009,68.6605],[-89.7159,68.6462],[-89.7432,68.9683],[-89.3317,69.2495],[-89.0359,69.2672],[-88.0226,68.8087],[-87.7922,68.3312],[-87.9438,68.2009],[-88.1796,68.2453],[-88.1994,68.3834],[-88.3984,68.2908],[-88.2833,68.126],[-88.3736,67.9758],[-88.1405,67.6707],[-87.3629,67.2672],[-87.5162,67.1187],[-86.9607,67.2552],[-87.0777,67.3577],[-86.5019,67.3794],[-86.5293,67.6872],[-85.9017,68.0544],[-85.6681,68.727],[-84.7882,68.7356],[-85.1929,68.8693],[-84.5282,69.0236],[-85.4735,69.2768],[-85.337,69.3184],[-85.5083,69.4078],[-85.3444,69.4414],[-85.534,69.4633],[-85.3854,69.5642],[-85.5145,69.7703],[-85.3332,69.7914],[-85.5632,69.8581],[-84.3398,69.8597],[-83.7312,69.709],[-82.2534,69.6406],[-82.7537,69.5779],[-82.5161,69.4937],[-83.2533,69.5581],[-83.2938,69.5399],[-82.2816,69.4194],[-82.39,69.4003],[-82.1435,69.2979],[-82.2696,69.2382],[-81.753,69.2679],[-81.2733,69.0987],[-82.0616,68.879],[-81.3788,68.8676],[-81.2665,68.6387],[-81.9537,68.4306],[-82.2738,68.537],[-82.1769,68.4881],[-82.6506,68.4339],[-82.2727,68.2916],[-82.3148,68.1466],[-81.9936,68.215],[-82.1776,68.0094],[-82.1016,67.9104],[-81.2379,67.4605],[-81.5029,67.001],[-81.9549,66.9768],[-82.1566,66.714],[-83.5605,66.3494],[-84.0136,66.6321],[-83.8566,66.6867],[-83.9181,66.8859],[-84.2694,66.7279],[-84.2681,66.7823],[-84.4394,66.8307],[-84.2401,66.8375],[-84.5828,66.9815],[-84.3705,66.9741],[-84.9391,67.056],[-84.6374,66.9815],[-85.0046,66.9681],[-85.2271,66.8859],[-84.6033,66.9399],[-84.7473,66.8996],[-84.3221,66.7761],[-84.4525,66.7208],[-84.1446,66.6867],[-84.211,66.5945],[-83.6908,66.1992],[-84.5375,66.4052],[-84.6367,66.3439],[-84.3783,66.173],[-85.2416,66.2701],[-85.4655,66.5744],[-86.7825,66.5222],[-86.6206,66.3144],[-85.8567,66.1628],[-86.4263,65.8984],[-86.5498,65.6725],[-87.3808,65.3297],[-88.0639,65.3595],[-88.8314,65.6452],[-88.4137,65.6315],[-89.688,65.9468],[-90.0039,65.9468],[-89.7706,65.8227],[-90.4353,65.8848],[-90.237,65.9269],[-91.4973,65.9468],[-89.9581,65.7943],[-89.0399,65.3282],[-86.9382,65.142],[-88.1127,64.1409],[-88.7346,63.9724],[-89.2907,64.1369],[-89.0493,63.9464],[-89.7069,64.0317],[-89.7864,64.2502],[-90.1274,64.1301],[-89.8133,63.946],[-90.2777,64.0072],[-89.9659,63.8133],[-90.2206,63.6132],[-92.3738,63.7791],[-92.5063,63.831],[-92.7511,63.8631],[-92.7862,63.901],[-93.4481,64.0231],[-93.6349,64.1649],[-93.7795,64.1915],[-93.5556,64.0336],[-93.7659,63.9935],[-93.6473,63.8815],[-93.2172,63.8427],[-93.4006,63.9774],[-93.1041,63.8806],[-92.6349,63.7839],[-92.4994,63.8206],[-92.4125,63.7465],[-92.1,63.6993],[-92.5456,63.5548],[-92.4674,63.5284],[-91.7784,63.7144],[-91.3909,63.4877],[-90.7847,63.3976],[-90.9765,63.4244],[-90.6891,63.3567],[-90.6265,63.0613],[-91.3943,62.7868],[-92.4527,62.8249],[-91.8881,62.6204],[-92.6185,62.6225],[-92.532,62.4449],[-92.8274,62.3555],[-92.4705,62.1501],[-92.7443,62.2941],[-93.252,62.3698],[-92.7647,62.2184],[-93.1152,62.1597],[-92.9298,62.1166],[-93.1702,61.9856],[-93.4165,62.034],[-93.2793,61.8968],[-93.617,61.9523],[-93.2646,61.7445],[-93.985,61.458],[-93.8223,61.3499],[-94.1147,61.3283],[-93.9862,61.1007],[-94.52,60.5468],[-94.8006,60.4984],[-94.6156,60.3923],[-94.8214,59.9481],[-94.6601,59.3588],[-94.7931,59.0938],[-94.9673,59.0859],[-94.9992,59.0528],[-94.804,59.0631],[-94.746,58.8331],[-94.4369,58.7238],[-94.2041,58.8065],[-94.3617,58.223],[-94.1774,58.7791],[-93.1895,58.7597],[-92.4236,57.3544],[-92.5972,57.0483],[-92.882,56.9145],[-91.0311,57.2646],[-88.8792,56.8599],[-87.9796,56.4429],[-87.6186,56.0028],[-85.9043,55.662],[-85.1279,55.3498],[-85.389,55.1121],[-85.4173,54.9992],[-85.0539,55.2941],[-82.3309,55.1625],[-82.1986,54.8558],[-82.4309,54.2282],[-82.126,53.8122],[-82.2192,53.6044],[-82.1144,53.289],[-82.3012,52.9676],[-81.4787,52.3035],[-81.8202,52.2594],[-81.8828,52.1936],[-81.512,52.2393],[-80.5949,51.7114],[-80.4298,51.3572],[-81.0126,51.0354],[-80.41,51.3395],[-80.1361,51.3013],[-79.3343,50.7269],[-79.7257,51.1218],[-79.6968,51.3985],[-79.3232,51.667],[-79.0115,51.4674],[-78.9532,51.2192],[-78.847,51.1645],[-78.8822,51.4033],[-78.69,51.4873],[-79.0388,51.7685],[-78.4082,52.2482],[-78.8502,52.7574],[-78.69,52.8851],[-78.9842,53.0284],[-78.8954,53.2686],[-79.1146,53.5089],[-78.9231,53.5667],[-79.1561,53.7081],[-78.9017,53.8173],[-79.1351,53.9614],[-78.9796,54.0192],[-79.2926,54.0911],[-79.0463,54.1805],[-79.3821,54.1941],[-79.2859,54.2556],[-79.464,54.3102],[-79.5255,54.5914],[-79.7656,54.6596],[-77.7816,55.2735],[-77.138,55.6577],[-76.6815,56.0429],[-76.5151,56.4382],[-76.5327,57.1153],[-76.9498,57.8278],[-77.4706,58.212],[-78.5665,58.6208],[-78.4686,58.706],[-78.5657,58.9577],[-78.3164,58.9255],[-78.1066,59.2099],[-77.6752,59.4023],[-77.9154,59.4191],[-77.7303,59.5487],[-77.7782,59.7101],[-77.5703,59.6934],[-77.443,59.5776],[-77.3127,59.5668],[-77.5455,59.7449],[-77.2916,59.7995],[-77.425,59.9193],[-77.1892,60.0602],[-77.6342,60.0665],[-77.4083,60.1353],[-77.7423,60.4258],[-77.4151,60.5468],[-77.8297,60.6492],[-77.5106,60.841],[-78.1965,60.7927],[-77.6927,61.2073],[-77.7853,61.4547],[-77.4766,61.54],[-77.9897,61.7148],[-78.1549,62.2973],[-77.4718,62.5938],[-75.5922,62.273],[-75.8938,62.1638],[-75.3277,62.3175],[-74.5581,62.1091],[-74.755,62.2136],[-73.6707,62.4821],[-72.9474,62.1227],[-72.6291,62.1169],[-72.796,61.8354],[-72.2323,61.8813],[-71.9952,61.6771],[-72.0851,61.6063],[-72.2435,61.6176],[-72.3031,61.5679],[-71.9795,61.6038],[-71.9568,61.7112],[-71.581,61.6138],[-71.8916,61.4307],[-71.5831,61.4102],[-71.8227,61.355],[-71.5729,61.1557],[-70.1553,61.0876],[-70.1512,60.882],[-69.9159,60.81],[-69.6623,60.8852],[-69.5854,61.0881],[-69.3697,60.9168],[-69.829,60.5257],[-69.5956,60.1789],[-69.7949,59.9913],[-71.0351,60.0665],[-69.5615,59.8647],[-69.6577,59.7033],[-69.5162,59.6493],[-69.7485,59.5161],[-69.6321,59.3851],[-69.7551,59.3177],[-69.2325,59.2413],[-69.5426,59.1695],[-69.3424,59.0938],[-69.5035,59.0733],[-69.4517,58.8952],[-69.6652,58.7922],[-69.8631,59.0597],[-69.8017,58.8263],[-70.2542,58.7717],[-69.9212,58.7791],[-69.8135,58.5965],[-69.3782,58.8695],[-68.7734,58.9217],[-68.4103,58.8239],[-68.191,58.5464],[-68.3541,58.1237],[-68.9701,57.9604],[-69.3697,57.7705],[-68.4176,58.0386],[-68.0062,58.5795],[-67.8627,58.3093],[-68.1295,58.083],[-67.8627,58.2373],[-67.7385,58.4692],[-67.7135,57.9271],[-67.5679,58.2304],[-66.6151,58.498],[-66.3824,58.8536],[-65.9442,58.6208],[-66.0534,58.3328],[-65.8275,58.5799],[-66.1086,58.7791],[-65.7956,58.8635],[-65.9822,58.9172],[-65.3197,59.046],[-65.7176,59.1583],[-65.7393,59.2706],[-65.4917,59.2583],[-65.559,59.3767],[-65.3576,59.2822],[-65.5599,59.491],[-64.984,59.3812],[-65.4119,59.5179],[-65.4979,59.7927],[-64.984,59.7648],[-65.2297,59.8924],[-64.8605,60.3613],[-64.3806,60.2452],[-64.6365,60.293],[-64.7587,60.2383],[-64.3806,60.1701],[-64.8283,59.9912],[-64.3772,60.1297],[-64.5184,59.9025],[-64.1826,60.0323],[-64.2646,59.7648],[-64.1479,59.6828],[-63.922,59.6555],[-64.0316,59.645],[-64.1206,59.5184],[-64.0073,59.624],[-63.8641,59.6113],[-63.9807,59.5064],[-63.7277,59.52],[-64.0607,59.3873],[-63.7096,59.3681],[-63.8258,59.2446],[-63.6517,59.3681],[-63.5241,59.3231],[-63.629,59.217],[-63.3807,59.2788],[-63.4422,59.1206],[-63.9735,59.079],[-64.0399,59.0179],[-63.1316,59.0623],[-63.3398,59.0323],[-63.1616,58.9225],[-63.3261,58.861],[-63.0145,58.8974],[-62.9146,58.7512],[-63.0449,58.7102],[-62.8446,58.6852],[-63.4422,58.5246],[-63.3398,58.4632],[-63.593,58.3055],[-63.264,58.47],[-63.0858,58.4564],[-63.1571,58.395],[-63.1616,58.3676],[-62.5583,58.4775],[-62.9076,58.2143],[-62.6352,58.1868],[-63.0791,58.1553],[-63.3398,57.984],[-62.4621,58.182],[-62.5173,58.0585],[-62.305,58.0312],[-62.5345,58.0057],[-62.675,57.9356],[-62.1409,57.9783],[-62.1187,57.7975],[-61.8867,57.6376],[-62.5337,57.496],[-61.9004,57.4155],[-61.8048,57.3671],[-62.0116,57.243],[-61.3591,57.0896],[-61.3448,56.9555],[-61.5018,56.9789],[-61.9047,56.7938],[-61.6881,56.6203],[-62.5031,56.7849],[-62.0887,56.8413],[-62.5856,56.7978],[-61.712,56.5754],[-62.1474,56.4553],[-61.6055,56.2839],[-62.0785,56.2982],[-61.3448,56.2225],[-61.4553,56.0581],[-61.235,56.0438],[-61.5031,56.0102],[-60.7285,55.8253],[-60.9439,55.7298],[-60.602,55.8196],[-60.6813,55.5646],[-60.5079,55.804],[-60.3347,55.782],[-60.5254,55.6168],[-60.304,55.5305],[-60.4547,55.4479],[-60.4821,55.3523],[-60.3277,55.4948],[-60.1941,55.4274],[-60.6876,54.9954],[-60.0228,55.2766],[-60.2971,55.0234],[-59.7764,55.3319],[-59.7354,55.2015],[-59.9745,55.156],[-59.964,55.1171],[-59.43,55.142],[-59.7354,54.9681],[-59.922,54.7432],[-59.1598,55.2387],[-59.3826,54.978],[-59.0274,55.162],[-58.9138,54.8482],[-57.3504,54.5894],[-57.707,54.4753],[-57.419,54.461],[-57.6339,54.3834],[-59.5797,54.0504],[-58.3712,54.2282],[-59.4745,53.8281],[-60.1327,53.7831],[-60.0166,53.7081],[-60.1361,53.5294],[-60.8594,53.8351],[-60.9203,53.7143],[-60.0637,53.5089],[-60.4123,53.358],[-60.129,53.2755],[-59.7838,53.4815],[-59.8795,53.5382],[-59.0222,53.7143],[-58.8407,53.9471],[-57.7958,54.0712],[-58.3218,54.0928],[-58.3561,54.2096],[-57.4662,54.2003],[-57.0758,53.8242],[-57.5494,53.5908],[-57.3178,53.5852],[-57.3774,53.4337],[-56.9835,53.7275],[-56.4799,53.79],[-56.7269,53.687],[-55.9796,53.5498],[-56.2635,53.5537],[-55.8165,53.3404],[-55.9114,53.3096],[-55.7469,53.1457],[-56.1652,53.0284],[-55.8021,52.8407],[-56.1625,52.818],[-55.7537,52.625],[-56.5004,52.5977],[-55.7406,52.4929],[-55.6539,52.3651],[-56.1987,52.4468],[-55.6165,52.2203],[-56.9665,51.4252],[-57.6859,51.4804],[-58.672,51.2557],[-58.6256,51.1515],[-59.008,51.015],[-59.008,50.7611],[-59.0878,50.8877],[-59.4195,50.6649],[-59.424,50.54],[-60.1349,50.213],[-60.8026,50.2671],[-61.7179,50.1],[-61.5761,50.1874],[-62.7091,50.3154],[-66.4682,50.2685],[-66.5495,50.1983],[-66.4349,50.1575],[-66.6356,50.185],[-67.1315,49.8313],[-67.3763,49.3392],[-68.0546,49.2944],[-68.3923,49.0639],[-68.4443,49.0616],[-68.3698,49.1156],[-68.4033,49.1845],[-68.4443,49.1982],[-69.676,48.1499],[-70.3692,48.3741],[-70.9872,48.4652],[-71.0698,48.4446],[-69.736,48.1225],[-69.932,47.7731],[-70.4869,47.4448],[-70.7506,47.0918],[-70.9569,47.0207],[-71.3417,46.7423],[-71.8805,46.6907],[-72.9945,46.2108],[-73.022,46.1096],[-73.1586,46.0749],[-73.4203,45.7651],[-73.7554,45.6764],[-73.9792,45.4984],[-74.3795,45.5616],[-73.9615,45.3542],[-74.1533,45.3201],[-74.713,44.9993],[-75.2702,44.8638],[-76.4546,44.0842],[-76.7972,43.6453],[-78.7508,43.6171],[-79.1743,43.4645],[-78.9091,42.9302],[-79.0194,42.8027],[-80.2466,42.3655],[-81.2767,42.2087],[-82.4513,41.6719],[-83.0684,41.8477],[-83.1595,42.0463],[-83.08,42.3051],[-82.5262,42.6199],[-82.1457,43.5764],[-82.5321,45.2935],[-83.6369,45.7739],[-83.4628,46.0078],[-83.9646,46.0632],[-84.1104,46.5265],[-84.5666,46.4612],[-84.8787,46.8979],[-88.3473,48.2987],[-89.3636,47.9796],[-90.7503,48.084],[-90.8738,48.2343],[-91.5748,48.0482],[-92.0705,48.3467],[-92.3719,48.2226],[-92.4906,48.4331],[-92.7189,48.4598],[-92.6486,48.5363],[-92.9797,48.6177],[-93.7568,48.5165],[-94.5929,48.7264],[-94.8391,49.3089],[-95.1606,49.3695]]],[[[-66.4407,45.0799],[-67.4713,45.2663],[-67.4313,45.5979],[-67.807,45.7129],[-67.8136,47.0819],[-68.2997,47.3678],[-68.9062,47.1902],[-69.222,47.4597],[-70.0078,46.7041],[-70.2809,46.2119],[-70.2625,45.923],[-70.8924,45.2346],[-70.9932,45.3478],[-71.3343,45.2887],[-71.5041,45.0137],[-74.713,44.9993],[-73.519,45.4263],[-73.1561,46.0497],[-72.731,46.1766],[-72.1899,46.5262],[-71.8671,46.6667],[-71.7142,46.6322],[-71.3025,46.7452],[-71.1579,46.8408],[-70.9736,46.8619],[-70.5349,47.0106],[-68.8248,48.3658],[-66.6221,49.1226],[-65.5658,49.2665],[-64.5526,49.0974],[-64.2212,48.8944],[-64.1688,48.7618],[-64.3033,48.8303],[-64.5594,48.8829],[-64.1888,48.5266],[-65.2856,48.0126],[-65.8957,48.2255],[-66.8479,47.999],[-66.3859,48.0751],[-65.8179,47.9074],[-65.6357,47.6223],[-65.2093,47.8197],[-64.8,47.8093],[-64.6686,47.7321],[-64.9088,47.3553],[-65.3675,47.0878],[-64.7996,47.0816],[-64.8542,46.6763],[-64.7136,46.6872],[-64.704,46.3275],[-64.5585,46.3691],[-64.5594,46.2238],[-63.8131,46.1403],[-64.0933,46.0326],[-63.2298,45.8061],[-63.3807,45.772],[-63.2948,45.7257],[-62.675,45.772],[-62.7497,45.6129],[-61.9115,45.889],[-61.8763,45.6927],[-61.4925,45.6907],[-61.3387,45.5528],[-61.2372,45.5058],[-61.4615,45.3548],[-60.9986,45.3332],[-60.9687,45.2716],[-61.6871,45.1754],[-61.6396,45.0873],[-62.8304,44.7178],[-63.1194,44.7907],[-63.439,44.5963],[-63.6619,44.7168],[-63.5233,44.5181],[-63.6328,44.4407],[-63.9294,44.5113],[-63.8884,44.6964],[-64.0758,44.4766],[-64.3055,44.566],[-64.269,44.2671],[-64.4291,44.34],[-65.025,43.7162],[-65.3675,43.7436],[-65.3408,43.5449],[-65.4569,43.5995],[-65.4748,43.4709],[-65.566,43.574],[-65.7296,43.5135],[-65.8616,43.8056],[-66.1217,43.7436],[-66.1906,44.1654],[-65.8405,44.5734],[-66.1803,44.4344],[-64.4778,45.3411],[-64.1553,44.9837],[-64.1151,45.2161],[-63.3602,45.3611],[-64.5762,45.4156],[-64.9293,45.3263],[-64.2646,45.7651],[-64.3472,45.8887],[-64.4809,45.7279],[-64.5458,45.7316],[-64.5315,45.9022],[-64.7487,46.0899],[-64.5724,45.8607],[-64.7716,45.6143],[-65.7523,45.2444],[-66.136,45.3126],[-66.0019,45.3986],[-66.0098,45.4643],[-66.1968,45.3338],[-66.0602,45.258],[-66.4407,45.0799]]],[[[-66.9049,44.9558],[-66.9193,44.8373],[-66.9818,44.8725],[-66.9049,44.9558]]],[[[-66.9479,44.9831],[-67.0169,44.9792],[-66.9388,45.0248],[-66.9479,44.9831]]],[[[-55.8431,47.2734],[-55.9281,47.2734],[-55.9499,47.2681],[-55.8881,47.2949],[-55.8431,47.2734]]],[[[-54.126,47.6701],[-54.244,47.4077],[-54.3627,47.41],[-54.126,47.6701]]],[[[-56.11,47.6365],[-55.9241,47.6387],[-55.8772,47.616],[-56.11,47.6365]]],[[[-54.0985,47.4918],[-54.0815,47.6911],[-54.0815,47.4782],[-54.0985,47.4918]]],[[[-53.5677,48.1908],[-53.6188,48.0821],[-53.8752,48.1065],[-53.9314,48.2084],[-53.6775,48.1498],[-53.5677,48.1908]]],[[[-54.6796,49.4929],[-54.6986,49.4077],[-54.7499,49.4243],[-54.6796,49.4929]]],[[[-55.7332,49.5135],[-55.6575,49.5619],[-55.6571,49.5414],[-55.7332,49.5135]]],[[[-55.7257,49.5818],[-55.5729,49.5981],[-55.6703,49.5711],[-55.7257,49.5818]]],[[[-54.744,49.4938],[-54.885,49.5952],[-54.5293,49.6251],[-54.744,49.4938]]],[[[-54.2768,49.5756],[-54.2698,49.7272],[-53.9785,49.6643],[-53.9872,49.6511],[-54.2768,49.5756]]],[[[-59.3411,50.538],[-59.3763,50.6523],[-59.3375,50.6444],[-59.296,50.5723],[-59.3411,50.538]]],[[[-55.6199,50.7918],[-55.5236,50.721],[-55.6427,50.7233],[-55.6199,50.7918]]],[[[-55.6392,50.9615],[-55.5476,50.8908],[-55.6234,50.9119],[-55.6392,50.9615]]],[[[-58.4795,51.278],[-58.4742,51.2204],[-58.5629,51.2334],[-58.4795,51.278]]],[[[-52.6288,47.5267],[-53.0669,46.6656],[-53.3553,46.739],[-53.5547,46.6184],[-53.5602,47.2045],[-53.9478,46.8581],[-54.1885,46.8284],[-53.9962,47.3172],[-53.8079,47.4237],[-54.0815,47.8755],[-54.2665,47.9035],[-54.4037,47.4509],[-54.616,47.369],[-54.4173,47.6092],[-54.6644,47.3758],[-54.8379,47.4193],[-55.2509,46.9188],[-55.7394,46.8544],[-55.98,46.9704],[-54.6986,47.6706],[-55.0885,47.6017],[-54.9381,47.7873],[-55.1312,47.5836],[-55.4273,47.7195],[-55.4071,47.5015],[-55.5985,47.3993],[-55.6643,47.4372],[-55.5892,47.5124],[-55.6384,47.5453],[-55.9176,47.4372],[-55.7469,47.5881],[-56.1619,47.4919],[-55.6295,47.6775],[-55.9144,47.6592],[-55.7394,47.9239],[-55.7804,47.9581],[-56.0593,47.6995],[-56.151,47.842],[-56.1808,47.6307],[-56.3086,47.7526],[-56.3358,47.616],[-56.7543,47.6365],[-56.7915,47.5301],[-58.3547,47.6491],[-58.2613,47.7526],[-59.1464,47.561],[-59.4058,47.8966],[-58.2722,48.5209],[-59.2624,48.4726],[-58.769,48.7805],[-58.9589,48.6162],[-58.7137,48.5682],[-58.3984,49.1367],[-58.3575,49.0617],[-58.2134,49.0742],[-58.0686,48.9792],[-57.8845,48.9722],[-58.1354,49.1269],[-57.9125,49.13],[-57.8504,49.1845],[-58.08,49.1468],[-57.9261,49.2466],[-58.1934,49.2431],[-58.2287,49.371],[-58.0012,49.5619],[-57.7003,49.4628],[-57.9481,49.6795],[-57.3553,50.6066],[-57.1984,50.5969],[-57.1548,50.6257],[-57.397,50.7086],[-56.9255,50.9182],[-57.0894,51.0211],[-56.9007,51.0182],[-56.7202,51.3193],[-55.8928,51.6278],[-55.8729,51.4956],[-55.6097,51.4804],[-55.7379,51.555],[-55.6322,51.6101],[-55.4042,51.563],[-55.5961,51.3091],[-56.0895,51.3706],[-56.0758,51.2334],[-55.7645,51.2175],[-55.7331,51.0831],[-56.0806,50.7206],[-56.1614,50.8782],[-56.1001,50.6686],[-56.5004,50.3911],[-56.9051,49.7537],[-56.7816,49.7294],[-56.8567,49.5482],[-56.1168,50.1584],[-56.1919,49.925],[-55.9591,50.0411],[-55.4651,49.9626],[-56.0019,49.7525],[-56.1654,49.5747],[-55.8356,49.6916],[-56.1307,49.4291],[-55.5209,49.4936],[-55.5693,49.3627],[-55.3701,49.5067],[-55.4452,49.3559],[-55.3148,49.3149],[-55.3148,49.5346],[-55.1988,49.5067],[-55.2125,49.5346],[-55.1557,49.5493],[-55.1361,49.5408],[-55.3831,49.0473],[-55.0821,49.3627],[-55.034,49.2302],[-54.8337,49.4096],[-54.817,49.2756],[-54.4693,49.5461],[-54.4835,49.2676],[-54.0447,49.4818],[-53.4925,49.2875],[-53.5899,49.0521],[-54.1976,48.7742],[-53.8445,48.8391],[-54.0201,48.7463],[-53.9314,48.6296],[-53.8352,48.7504],[-53.6041,48.6767],[-54.1641,48.3907],[-53.8554,48.4752],[-53.856,48.3684],[-53.6568,48.5466],[-53.7253,48.4316],[-53.5819,48.5266],[-53.6154,48.4099],[-53.0768,48.7036],[-52.9848,48.5545],[-53.6395,48.1693],[-53.9253,48.237],[-53.9413,48.1767],[-53.9052,48.0851],[-53.6632,48.0611],[-53.9084,48.0211],[-53.6086,48.0543],[-53.7916,47.7746],[-53.8675,47.8435],[-53.9289,47.8524],[-53.5539,47.5393],[-53.2765,48.0164],[-52.9233,48.171],[-52.8367,48.1055],[-53.2598,47.5585],[-53.1294,47.4168],[-52.8764,47.5883],[-52.7725,47.801],[-52.6288,47.5267]]],[[[-127.9187,51.522],[-128.0503,51.4599],[-128.1566,51.6279],[-128.0099,51.7237],[-127.9187,51.522]]],[[[-55.286,51.9595],[-55.4274,51.8913],[-55.2701,52.0056],[-55.286,51.9595]]],[[[-128.0176,51.7722],[-128.251,51.8759],[-128.1592,52.0348],[-127.9534,52.049],[-128.0176,51.7722]]],[[[-131.1268,52.1116],[-131.0714,52.061],[-131.024,51.9466],[-131.1268,52.1116]]],[[[-128.077,52.1452],[-127.9615,52.0828],[-128.123,52.1517],[-128.077,52.1452]]],[[[-128.1626,52.0732],[-128.2907,52.1247],[-128.1453,52.1936],[-128.1626,52.0732]]],[[[-128.2278,52.2128],[-128.3398,52.0793],[-128.5224,52.1576],[-128.4473,52.238],[-128.2278,52.2128]]],[[[-128.0713,52.1823],[-127.9853,52.3021],[-127.9077,52.2009],[-128.0713,52.1823]]],[[[-127.2408,52.4264],[-127.238,52.3129],[-127.9022,51.9682],[-127.751,52.2502],[-127.2408,52.4264]]],[[[-128.6182,52.4537],[-128.6232,52.3301],[-128.6796,52.2681],[-128.7638,52.4495],[-128.6182,52.4537]]],[[[-128.563,52.6114],[-128.4979,52.4363],[-128.8175,52.522],[-128.732,52.5955],[-128.563,52.6114]]],[[[-131.7024,52.7213],[-131.6569,52.7216],[-131.6744,52.7069],[-131.4527,52.6452],[-131.602,52.5952],[-131.7024,52.7213]]],[[[-128.3104,52.4294],[-128.4664,52.3827],[-128.3913,52.7965],[-128.3186,52.6876],[-128.3104,52.4294]]],[[[-128.9301,52.6144],[-128.9813,52.4537],[-129.2751,52.8247],[-129.1018,52.7434],[-128.9301,52.6144]]],[[[-128.275,52.6025],[-128.323,52.7788],[-128.1732,52.8236],[-128.275,52.6025]]],[[[-128.5099,52.6539],[-128.536,52.7664],[-128.5021,52.872],[-128.5099,52.6539]]],[[[-129.5721,53.0197],[-129.6205,52.9582],[-129.6535,53.0222],[-129.5721,53.0197]]],[[[-129.6187,53.0563],[-129.5197,53.0266],[-129.6876,53.0639],[-129.6187,53.0563]]],[[[-129.694,53.1389],[-129.5889,53.0718],[-129.7429,53.1321],[-129.694,53.1389]]],[[[-129.3041,53.0359],[-129.3949,53.0004],[-129.5504,53.1662],[-129.4611,53.1867],[-129.3041,53.0359]]],[[[-131.0097,52.2271],[-131.2772,52.2408],[-131.2797,52.1324],[-132.086,52.7343],[-131.9388,52.7731],[-132.3423,52.9425],[-132.1139,53.0012],[-132.5658,53.1457],[-132.3731,53.1327],[-132.0655,53.1613],[-131.798,53.2556],[-131.5956,53.0419],[-132.004,53.0639],[-131.613,52.9267],[-131.9221,52.9403],[-131.9836,52.8782],[-131.829,52.8032],[-131.6609,52.8057],[-131.8395,52.7138],[-131.4076,52.3581],[-131.2484,52.4469],[-131.3597,52.3444],[-131.0097,52.2271]]],[[[-128.8038,52.7007],[-129.1212,52.8445],[-129.0168,52.8593],[-129.0707,52.8925],[-128.838,53.0359],[-128.8773,53.072],[-129.0155,53.1457],[-128.8646,53.0359],[-129.1837,52.9495],[-129.0781,53.3028],[-128.5387,53.0197],[-128.5946,52.6144],[-128.7554,52.6039],[-128.6484,52.9161],[-128.6645,52.9709],[-128.8038,52.7007]]],[[[-129.2935,53.1079],[-129.2757,53.331],[-129.1978,53.3217],[-129.1396,53.1048],[-129.2935,53.1079]]],[[[-128.9972,53.5439],[-128.94,53.3239],[-129.1482,53.3637],[-128.9972,53.5439]]],[[[-129.743,53.2353],[-129.9394,53.1689],[-130.5153,53.6304],[-129.974,53.458],[-129.743,53.2353]]],[[[-129.1662,53.3854],[-129.16,53.627],[-128.8236,53.7081],[-128.8843,53.5762],[-128.9805,53.5847],[-129.0939,53.5089],[-129.1662,53.3854]]],[[[-130.3319,53.624],[-130.2609,53.7978],[-130.0917,53.5703],[-130.3319,53.624]]],[[[-130.2528,53.8925],[-129.831,53.7354],[-129.3287,53.2634],[-129.585,53.2237],[-130.2528,53.8925]]],[[[-130.3313,53.9676],[-130.6758,53.961],[-130.7155,53.8577],[-130.6739,53.9892],[-130.4216,54.1],[-130.2289,53.9538],[-130.4786,53.8439],[-130.3313,53.9676]]],[[[-131.963,53.2829],[-132.7098,53.2618],[-132.5384,53.327],[-132.703,53.3785],[-132.4001,53.3303],[-132.9773,53.5566],[-132.8911,53.6197],[-133.1444,53.8969],[-133.0729,54.1668],[-132.5757,54.1184],[-132.6614,53.9409],[-132.4068,54.0994],[-132.161,54.0085],[-132.2406,53.777],[-132.6579,53.6907],[-132.3529,53.6728],[-132.4838,53.5771],[-132.1592,53.6999],[-132.0785,53.8925],[-132.1822,54.0439],[-131.6608,54.1668],[-131.963,53.2829]]],[[[-130.1559,54.1416],[-130.2528,54.1907],[-130.1625,54.161],[-130.1559,54.1416]]],[[[-130.7565,54.2145],[-130.6976,54.1149],[-130.8048,54.1737],[-130.7565,54.2145]]],[[[-130.4206,54.3319],[-130.3654,54.2425],[-130.4691,54.3039],[-130.4206,54.3319]]],[[[-130.2985,54.2536],[-130.305,54.3337],[-130.253,54.3113],[-130.2985,54.2536]]],[[[-130.6911,54.3671],[-130.756,54.3939],[-130.6876,54.3996],[-130.6911,54.3671]]],[[[-130.9312,54.6227],[-130.7769,54.5504],[-130.9691,54.462],[-130.9312,54.6227]]],[[[-130.5919,54.7422],[-130.4836,54.8104],[-130.4343,54.7695],[-130.4618,54.7121],[-130.5919,54.7422]]],[[[-130.3404,54.7369],[-130.24,54.7305],[-130.3777,54.6982],[-130.3404,54.7369]]],[[[-58.2274,54.8714],[-57.8436,54.8247],[-57.8572,54.8034],[-58.0223,54.7564],[-58.1571,54.7639],[-58.2274,54.8714]]],[[[-130.2698,54.8315],[-130.4616,54.8315],[-130.1674,55.0165],[-130.2698,54.8315]]],[[[-60.8998,55.8768],[-60.6876,55.9283],[-60.7449,55.8869],[-60.8998,55.8768]]],[[[-61.0438,56.1611],[-60.9407,56.0189],[-61.1741,56.0324],[-61.2323,56.0998],[-61.0438,56.1611]]],[[[-61.4621,56.4081],[-61.597,56.3332],[-61.7974,56.4211],[-61.4621,56.4081]]],[[[-61.4623,56.55],[-61.1468,56.4422],[-61.6396,56.4969],[-61.4623,56.55]]],[[[-61.2157,56.5856],[-61.1649,56.6918],[-61.0575,56.634],[-61.0575,56.6265],[-61.2157,56.5856]]],[[[-61.6471,56.7365],[-61.3387,56.935],[-61.5847,56.7717],[-61.3844,56.7722],[-61.3884,56.6232],[-61.6471,56.7365]]],[[[-61.6129,57.4155],[-61.8489,57.4151],[-61.9004,57.449],[-61.6794,57.5375],[-61.8253,57.4353],[-61.6129,57.4155]]],[[[-61.9671,57.5894],[-61.7939,57.5073],[-62.0171,57.5179],[-61.9671,57.5894]]],[[[-61.9004,57.7643],[-61.8004,57.8449],[-61.6541,57.79],[-61.7452,57.713],[-61.9004,57.7643]]],[[[-61.9314,57.7954],[-62.0922,57.8159],[-62.1058,57.8386],[-61.9314,57.9151],[-61.9314,57.7954]]],[[[-69.102,59.1313],[-69.2189,58.9634],[-69.3635,58.9634],[-69.2862,59.0698],[-69.3542,59.1406],[-69.102,59.1313]]],[[[-64.1019,59.863],[-63.9629,59.7518],[-64.2031,59.7449],[-64.1019,59.863]]],[[[-107.9505,66.858],[-107.7934,66.9946],[-107.8307,66.9027],[-107.9505,66.858]]],[[[-108.115,67.0368],[-107.9936,66.956],[-107.9368,66.9536],[-108.115,67.0368]]],[[[-107.6242,67.2045],[-107.3205,67.1044],[-107.5436,67.0884],[-107.6242,67.2045]]],[[[-107.9073,67.3168],[-108.1491,67.4129],[-107.8816,67.4675],[-107.9073,67.3168]]],[[[-108.2869,67.5358],[-108.3825,67.4675],[-108.4992,67.5358],[-108.4582,67.5737],[-108.2869,67.5358]]],[[[-108.1287,67.6457],[-108.0038,67.6605],[-107.9225,67.5495],[-108.1058,67.4682],[-108.1287,67.6457]]],[[[-97.562,67.694],[-97.3353,67.6798],[-97.5512,67.6453],[-97.562,67.694]]],[[[-109.1361,67.7681],[-109.0707,67.811],[-109.0398,67.7897],[-109.1361,67.7681]]],[[[-114.2965,67.8996],[-113.9745,67.8918],[-113.9265,67.8791],[-114.2378,67.8791],[-114.2965,67.8996]]],[[[-113.6037,67.9063],[-113.2843,67.9385],[-113.248,67.92],[-113.5284,67.8953],[-113.6037,67.9063]]],[[[-111.0893,67.8654],[-110.8445,67.9556],[-110.8082,67.961],[-110.8787,67.8925],[-111.0893,67.8654]]],[[[-108.1771,67.961],[-108.0922,67.8847],[-108.2589,67.8927],[-108.1771,67.961]]],[[[-108.9351,67.9706],[-108.9411,67.8759],[-109.1981,67.9951],[-108.9351,67.9706]]],[[[-98.9918,68.0766],[-98.954,67.9851],[-99.0834,68.0572],[-98.9918,68.0766]]],[[[-109.4839,68.0993],[-109.3175,67.9852],[-109.5475,68.0572],[-109.4839,68.0993]]],[[[-110.1648,68.082],[-109.8758,68.1323],[-110.2594,68.0429],[-110.1648,68.082]]],[[[-109.782,68.1426],[-109.6432,68.2426],[-109.568,68.2496],[-109.782,68.1426]]],[[[-111.7687,68.2299],[-111.5287,68.314],[-111.5002,68.3042],[-111.7687,68.2299]]],[[[-100.1186,68.3793],[-100.121,68.2786],[-100.234,68.324],[-100.1186,68.3793]]],[[[-111.034,68.5097],[-110.6989,68.4886],[-111.0952,68.48],[-111.034,68.5097]]],[[[-110.7605,68.5662],[-110.5207,68.5507],[-110.6143,68.5226],[-110.7605,68.5662]]],[[[-104.4901,68.5159],[-104.6552,68.398],[-105.086,68.5507],[-104.6813,68.5786],[-104.4901,68.5159]]],[[[-113.9674,68.6121],[-113.8353,68.6144],[-113.762,68.5978],[-113.7958,68.5817],[-113.9674,68.6121]]],[[[-114.1927,68.681],[-114.0718,68.6446],[-114.0478,68.6272],[-114.1927,68.681]]],[[[-101.694,68.7703],[-101.8448,68.5711],[-102.3519,68.6872],[-102.0246,68.8238],[-101.694,68.7703]]],[[[-114.3822,68.8692],[-114.4384,68.9004],[-114.3305,68.8862],[-114.3822,68.8692]]],[[[-100.1249,68.9069],[-100.6033,68.7556],[-100.6313,68.9957],[-100.3235,69.0031],[-100.1249,68.9069]]],[[[-100.1385,69.1471],[-100.0218,68.9404],[-100.2552,69.0503],[-100.1385,69.1471]]],[[[-101.6891,69.2112],[-101.5506,69.113],[-101.7014,69.0987],[-101.6891,69.2112]]],[[[-135.5668,69.3861],[-135.3534,69.397],[-135.2726,69.3488],[-135.3076,69.3091],[-135.5668,69.3861]]],[[[-100.9814,69.4822],[-101.2425,69.3743],[-101.1868,69.4822],[-101.3815,69.5382],[-100.9814,69.4822]]],[[[-96.1431,69.3525],[-96.7402,69.5854],[-96.1013,69.4673],[-96.1431,69.3525]]],[[[-133.8304,69.5935],[-134.0183,69.5825],[-133.8127,69.6058],[-133.8304,69.5935]]],[[[-95.9445,69.4208],[-95.8011,69.6331],[-95.3712,69.5136],[-95.5336,69.3314],[-95.7459,69.3389],[-95.7218,69.5556],[-95.9445,69.4208]]],[[[-139.3356,69.5717],[-138.921,69.617],[-138.8701,69.5921],[-139.3356,69.5717]]],[[[-135.4889,69.5793],[-135.511,69.6484],[-135.4029,69.6542],[-135.4889,69.5793]]],[[[-102.2262,69.7261],[-102.1593,69.6542],[-102.2358,69.6846],[-102.2262,69.7261]]],[[[-95.2149,68.8622],[-96.5205,68.4476],[-98.1193,68.675],[-98.3638,68.8576],[-98.5224,68.7503],[-98.97,68.9547],[-99.1923,68.8298],[-99.5973,69.0267],[-98.4096,69.3078],[-98.6113,69.4492],[-98.4186,69.4761],[-98.5494,69.5851],[-98.0238,69.4346],[-98.3702,69.6058],[-97.9252,69.8959],[-97.3423,69.7088],[-97.4932,69.6741],[-97.3907,69.6002],[-97.284,69.697],[-96.2198,69.314],[-96.2256,69.0544],[-96.0482,69.2297],[-95.8282,68.8759],[-95.2149,68.8622]]],[[[-97.4658,69.9006],[-97.3884,69.9624],[-97.2262,69.8795],[-97.2754,69.8589],[-97.4658,69.9006]]],[[[-124.9592,70.1675],[-125.0662,70.1208],[-125.1237,70.1266],[-125.0846,70.1649],[-124.9592,70.1675]]],[[[-113.2071,70.2978],[-113.0563,70.3113],[-112.9464,70.2904],[-113.2071,70.2978]]],[[[-100.8269,70.329],[-100.7692,70.2569],[-100.8722,70.2978],[-100.8269,70.329]]],[[[-112.3226,70.3562],[-111.6715,70.3122],[-112.1085,70.3009],[-112.3226,70.3562]]],[[[-116.7909,70.5107],[-116.5712,70.4698],[-116.8319,70.5107],[-116.7909,70.5107]]],[[[-116.4435,70.5432],[-116.1256,70.5381],[-116.4962,70.5238],[-116.4435,70.5432]]],[[[-116.7773,70.5517],[-116.6105,70.571],[-116.5098,70.5517],[-116.7773,70.5517]]],[[[-115.9096,70.5748],[-115.8158,70.5737],[-116.0641,70.5517],[-115.9096,70.5748]]],[[[-117.2397,70.5927],[-116.8798,70.5517],[-117.3043,70.5716],[-117.2397,70.5927]]],[[[-128.2552,70.6472],[-128.0837,70.6132],[-128.3445,70.5449],[-128.2552,70.6472]]],[[[-100.2292,70.4645],[-100.6556,70.5516],[-100.7145,70.6815],[-100.1938,70.579],[-100.3924,70.5853],[-100.2292,70.4645]]],[[[-125.9091,71.9643],[-125.9884,71.9704],[-125.9969,71.977],[-125.9091,71.9643]]],[[[-110.5276,72.6005],[-110.4723,72.5733],[-110.5959,72.6007],[-110.5276,72.6005]]],[[[-110.4692,72.6254],[-110.3489,72.6075],[-110.4935,72.6205],[-110.4692,72.6254]]],[[[-110.3642,72.6528],[-110.2799,72.6484],[-110.4109,72.6422],[-110.3642,72.6528]]],[[[-100.8722,69.8078],[-100.9643,69.6645],[-101.2948,69.6705],[-101.4574,69.9062],[-101.6735,69.6467],[-102.225,69.9205],[-102.3359,69.767],[-102.6726,69.7694],[-102.5096,69.5642],[-102.7838,69.5369],[-103.4896,69.6945],[-103.0167,69.4822],[-103.1981,69.1203],[-102.8429,69.3847],[-102.2826,69.5036],[-101.9391,69.4206],[-102.2215,69.2291],[-101.756,69.1601],[-101.8468,68.9883],[-102.9659,68.7987],[-105.123,68.8964],[-105.2778,68.9547],[-104.9184,69.0751],[-106.4121,69.1881],[-106.3175,69.4013],[-106.5839,69.5036],[-107.3348,69.0256],[-108.5395,68.947],[-109.0286,68.7268],[-113.244,68.4544],[-113.0391,68.4949],[-113.6681,68.8154],[-113.5497,69.0441],[-113.6931,69.1949],[-113.5411,69.1907],[-115.9748,69.3002],[-116.6327,69.4618],[-116.5961,69.564],[-117.236,69.756],[-117.442,69.9894],[-114.5094,70.3153],[-112.5863,70.2],[-111.4866,70.332],[-113.9884,70.7162],[-117.5854,70.6064],[-118.4215,70.9905],[-115.7289,71.3872],[-116.1903,71.4445],[-115.419,71.4518],[-115.0568,71.525],[-118.162,71.379],[-118.3083,71.4699],[-117.6721,71.5587],[-117.9693,71.6217],[-117.6953,71.6684],[-118.8886,71.583],[-119.1376,71.7744],[-118.6782,72.1423],[-118.1278,72.2272],[-118.5934,72.4287],[-118.1898,72.6354],[-117.3693,72.9178],[-114.5843,73.3846],[-113.9584,73.1401],[-113.9811,72.8091],[-114.5461,72.5678],[-113.5088,72.703],[-113.734,72.6142],[-113.6596,72.6131],[-113.4398,72.6852],[-113.604,72.7775],[-113.3909,72.9116],[-113.015,73.016],[-111.2196,72.7241],[-111.2893,72.566],[-111.8875,72.3677],[-111.6588,72.3595],[-111.7533,72.2071],[-111.2952,72.4707],[-111.3767,72.3542],[-111.0279,72.2853],[-111.0863,72.4083],[-110.7041,72.5788],[-109.7803,72.4362],[-110.2943,72.6757],[-109.7734,72.7167],[-110.2545,72.739],[-110.7357,73.0014],[-109.6226,72.916],[-109.7523,72.8812],[-108.946,72.6738],[-109.0472,72.5733],[-108.6334,72.5656],[-108.5402,72.1487],[-108.1915,71.963],[-108.246,71.723],[-107.741,71.6181],[-107.8344,71.7099],[-107.2516,71.9017],[-107.7792,72.1413],[-107.786,72.4634],[-107.9852,72.5181],[-107.8754,72.5733],[-108.2983,73.1338],[-107.8679,73.1896],[-108.0876,73.3542],[-107.0732,73.178],[-106.8734,73.3156],[-105.3672,72.7924],[-105.5106,72.7788],[-104.9663,72.1935],[-105.0246,72.073],[-104.3653,71.5772],[-104.2813,71.3502],[-104.487,71.3476],[-104.5912,71.0732],[-103.5718,70.6055],[-102.9278,70.4991],[-103.0869,70.6775],[-102.1922,70.3334],[-101.595,70.2773],[-101.5294,70.1129],[-101.0223,70.1862],[-100.8722,69.8078]]],[[[-72.949,66.7346],[-72.8035,67.043],[-72.1933,67.2757],[-72.663,67.6848],[-72.6082,67.7863],[-72.944,67.9323],[-72.9946,68.2359],[-73.4949,68.2769],[-73.2137,68.3793],[-73.2791,68.3997],[-73.6191,68.2496],[-73.8444,68.3496],[-73.9474,68.4135],[-73.7386,68.5192],[-73.7556,68.6872],[-74.1876,68.7294],[-73.8852,68.5549],[-74.22,68.5158],[-74.7208,68.7355],[-74.5745,68.8419],[-74.9827,68.8113],[-74.6848,68.8798],[-75.0441,68.9069],[-74.6401,69.0236],[-74.8091,69.0833],[-75.116,68.893],[-75.4864,69.022],[-76.625,68.6824],[-76.5338,68.8814],[-76.6381,69.0159],[-75.9899,69.0109],[-75.621,69.088],[-75.5956,69.2291],[-76.6296,69.546],[-76.1819,69.6679],[-77.2029,69.6467],[-76.7948,69.7225],[-76.9012,69.7771],[-76.7767,69.8361],[-77.3128,69.842],[-76.9764,69.9422],[-77.6343,69.8249],[-77.4425,69.7908],[-77.6144,69.743],[-77.6827,69.8249],[-77.7039,70.2012],[-78.4083,70.2159],[-78.5393,70.3122],[-78.3884,70.3388],[-79.1009,70.5033],[-78.7174,70.5517],[-78.8399,70.6357],[-79.1555,70.6318],[-79.0032,70.6186],[-79.2134,70.4208],[-79.3468,70.4487],[-79.2307,70.5585],[-79.5913,70.4113],[-78.9254,70.3021],[-78.6651,70.0138],[-78.7999,69.8795],[-79.6809,69.8486],[-79.9061,69.9831],[-81.7624,70.1229],[-80.7703,69.7823],[-80.9512,69.715],[-81.5676,69.9695],[-83.0479,70.3122],[-81.7115,69.9348],[-82.1384,69.786],[-83.0516,70.0105],[-84.6948,70.0066],[-84.8117,70.1187],[-85.8748,70.072],[-85.2346,69.9962],[-85.7829,69.9952],[-86.5499,70.2365],[-86.5908,70.3668],[-86.297,70.4774],[-86.3709,70.5266],[-86.6638,70.3801],[-86.6392,70.3251],[-86.9746,70.4727],[-87.2487,70.3941],[-86.9744,70.2904],[-87.8525,70.238],[-88.9072,70.5449],[-89.4491,70.908],[-89.1884,70.9626],[-89.5577,71.093],[-87.0023,70.9968],[-87.8641,71.2748],[-89.8531,71.3393],[-90.0449,71.5967],[-89.7979,71.7646],[-90.1186,71.9289],[-89.5782,72.1624],[-89.9009,72.1898],[-89.913,72.426],[-89.4683,72.6689],[-89.5782,72.7924],[-89.2766,72.7582],[-89.4136,72.8309],[-89.3607,72.9802],[-88.8867,73.217],[-89.0512,73.2517],[-88.6192,73.2858],[-88.8594,73.3337],[-88.6875,73.423],[-87.1341,73.8027],[-85.1057,73.812],[-84.8367,73.7452],[-86.0303,73.3024],[-86.7375,72.7309],[-86.242,72.4225],[-86.4325,72.2768],[-86.4082,72.0058],[-84.8376,71.2866],[-85.1932,71.2993],[-86.8236,70.9905],[-84.9726,71.1962],[-84.8777,71.0725],[-84.9823,71.1078],[-85.1452,71.0861],[-84.7992,70.9279],[-84.7971,71.1849],[-84.6648,71.2233],[-84.7613,71.4077],[-84.5283,71.4731],[-84.6224,71.6658],[-85.2579,71.6684],[-85.5834,71.7918],[-85.4378,71.8148],[-85.5555,71.9017],[-86.0214,71.9841],[-86.0506,72.0146],[-85.4978,72.0799],[-85.4764,72.2663],[-84.1645,72.0246],[-84.9392,72.2921],[-84.4321,72.3815],[-85.5145,72.4634],[-85.6182,72.5454],[-85.4736,72.5795],[-85.7064,72.6385],[-85.6821,72.8936],[-85.3179,72.9631],[-83.9529,72.7582],[-85.5356,73.0258],[-85.4636,73.1119],[-83.6376,72.9848],[-85.193,73.2313],[-84.7972,73.3909],[-84.3426,73.2313],[-84.658,73.3951],[-84.1822,73.4777],[-83.6052,73.3015],[-83.6652,73.4561],[-84.0075,73.5049],[-82.8311,73.7367],[-81.5284,73.7162],[-81.2291,73.5397],[-81.1876,73.2646],[-80.6197,73.1601],[-80.6403,72.9279],[-80.2455,72.7378],[-81.3826,72.2443],[-80.5062,72.4976],[-80.9718,72.2034],[-80.5669,72.0823],[-81.0263,72.0935],[-80.8004,72.0178],[-80.9853,71.8881],[-80.3967,72.0501],[-80.4829,72.1807],[-80.2452,72.2999],[-80.0053,72.1828],[-79.6764,72.1276],[-80.1698,72.3263],[-79.8188,72.5064],[-79.5938,72.3405],[-79.768,72.2224],[-79.4504,72.1959],[-79.546,72.2921],[-79.3316,72.4023],[-78.9572,72.2831],[-79.2307,71.9763],[-78.5045,71.8745],[-78.9144,72.0141],[-78.8304,72.1727],[-78.209,71.8238],[-77.9086,71.7714],[-78.3083,71.9499],[-77.7476,71.7517],[-78.8751,72.2307],[-78.6043,72.3578],[-78.4276,72.1794],[-78.4088,72.329],[-77.6914,72.2166],[-77.661,72.1003],[-76.9974,72.1345],[-78.5548,72.4448],[-78.4274,72.5937],[-77.601,72.7558],[-76.7835,72.7295],[-76.103,72.4797],[-75.9399,72.5922],[-75.1984,72.4976],[-74.9417,72.2574],[-76.0288,72.0887],[-76.4146,71.8608],[-75.6577,72.1243],[-75.2223,72.0693],[-75.5854,72.0041],[-75.8045,71.7578],[-76.0999,71.6963],[-75.8664,71.708],[-75.6714,71.8167],[-75.5506,71.9835],[-75.196,72.0242],[-75.0632,72.1282],[-74.2423,72.0799],[-74.118,71.9672],[-74.215,71.8371],[-75.3518,71.7001],[-74.9398,71.6617],[-75.4141,71.525],[-74.6494,71.6789],[-74.7322,71.583],[-75.0196,71.5427],[-75.1534,71.4697],[-74.8437,71.5233],[-74.9281,71.456],[-74.7047,71.3949],[-75.0459,71.1872],[-74.631,71.3902],[-74.7425,71.5141],[-74.5227,71.6626],[-74.1083,71.7379],[-74.2495,71.6088],[-74.146,71.5386],[-74.2168,71.6209],[-73.996,71.7542],[-73.621,71.7725],[-73.9962,71.4618],[-74.1024,71.466],[-74.3179,71.4151],[-74.03,71.4424],[-74.2423,71.2028],[-73.8662,71.5353],[-73.5638,71.5585],[-73.6389,71.3605],[-73.3789,71.3872],[-73.8996,71.0595],[-73.4409,71.3468],[-73.0499,71.2705],[-73.2764,71.2233],[-73.4546,71.0316],[-73.3789,70.9831],[-72.5494,71.6651],[-71.5443,71.5051],[-71.1171,71.2705],[-71.4705,71.0657],[-72.0451,71.0848],[-72.7761,70.818],[-72.1654,70.8397],[-72.5707,70.6132],[-70.6214,71.0693],[-70.5212,70.9143],[-70.8055,70.7244],[-71.5764,70.6132],[-71.9674,70.4214],[-71.7298,70.4255],[-71.8237,70.2937],[-71.5149,70.579],[-71.1689,70.5351],[-71.5422,70.0241],[-70.9853,70.6337],[-69.915,70.8799],[-69.7745,70.8562],[-70.4487,70.6352],[-70.4945,70.4829],[-69.4735,70.7913],[-68.3623,70.5843],[-68.2805,70.5176],[-68.4586,70.373],[-68.5913,70.467],[-68.72,70.3223],[-69.8083,70.1667],[-70.1799,70.0205],[-69.8322,69.9831],[-70.1444,69.9695],[-70.4728,69.8454],[-69.7585,69.9729],[-69.6832,70.1396],[-68.6436,70.147],[-69.4082,69.8293],[-69.7882,69.8323],[-69.9912,69.6774],[-69.982,69.6178],[-69.7469,69.8044],[-69.3906,69.7839],[-68.6492,69.9429],[-68.1911,70.1266],[-68.3487,70.1887],[-68.157,70.3183],[-67.8085,70.2637],[-67.2253,69.9484],[-67.1155,69.7287],[-68.0131,69.7761],[-68.3492,69.6331],[-70.0216,69.5369],[-68.5875,69.591],[-66.788,69.34],[-66.6494,69.2222],[-66.7423,69.1369],[-67.678,69.1772],[-68.1979,69.311],[-69.0135,69.3594],[-69.2606,69.2768],[-68.0825,69.2197],[-68.9641,69.2235],[-68.507,69.2011],[-69.0699,69.1137],[-68.9248,69.1055],[-69.0183,68.9684],[-68.3734,69.1796],[-67.7045,69.0236],[-68.5512,68.9841],[-67.999,68.8559],[-68.4928,68.8995],[-67.7734,68.784],[-68.5825,68.8499],[-68.4928,68.7971],[-68.6196,68.7862],[-69.3021,68.8828],[-69.3978,68.8585],[-68.0477,68.6872],[-68.1057,68.6302],[-68.644,68.6654],[-68.9043,68.6052],[-67.9334,68.56],[-67.9584,68.3998],[-67.6641,68.5647],[-67.4923,68.5301],[-67.63,68.4931],[-67.6063,68.3841],[-67.5486,68.4923],[-66.6636,68.4408],[-67.4031,68.397],[-67.7939,68.3377],[-67.8762,68.2834],[-67.0325,68.3266],[-67.6021,68.1671],[-66.7882,68.2494],[-66.9714,68.0367],[-66.6932,68.1455],[-66.7387,67.989],[-66.5814,68.1484],[-66.3135,68.1291],[-66.478,68.0776],[-66.1832,68.0162],[-66.3278,67.9753],[-66.4136,67.8691],[-66.7456,67.8791],[-66.3887,67.7815],[-65.9282,68.1648],[-66.0118,67.6366],[-65.8096,67.9749],[-65.4519,67.9986],[-65.6145,67.7895],[-65.3612,67.5979],[-65.5495,67.793],[-65.4194,67.9138],[-64.7497,68.0007],[-65.0666,67.9343],[-64.9431,67.9138],[-65.1088,67.8666],[-65.012,67.793],[-65.1641,67.7355],[-65.1948,67.6437],[-64.5035,67.8065],[-64.3676,67.7589],[-64.6414,67.6667],[-64.3124,67.7351],[-64.042,67.5365],[-64.4434,67.4811],[-63.9971,67.4538],[-63.9084,67.3068],[-64.7997,67.3515],[-64.2305,67.2962],[-64.8195,67.2069],[-64.7727,67.1983],[-63.963,67.2757],[-64.6091,67.1403],[-64.7004,67.0089],[-63.4491,67.228],[-63.7681,67.0259],[-63.8004,66.993],[-63.7712,66.9604],[-63.1636,67.3376],[-62.9769,67.2219],[-63.2808,67.1108],[-63.2368,66.9741],[-63.5506,66.9068],[-63.6146,66.8298],[-63.8197,66.8171],[-63.528,66.8182],[-63.4425,66.9108],[-63.4285,66.7078],[-63.3491,66.8907],[-62.8653,66.9691],[-62.9016,66.6383],[-62.7471,66.9431],[-62.3113,66.7277],[-62.425,66.9282],[-62.09,67.0598],[-62.1059,66.9194],[-61.7536,66.9512],[-62.0083,66.8801],[-61.6056,66.8716],[-61.7297,66.8307],[-61.2675,66.6316],[-61.4382,66.5465],[-61.9993,66.6989],[-62.1884,66.6321],[-61.8215,66.6286],[-61.582,66.4779],[-61.9898,66.4123],[-61.4622,66.3714],[-61.5646,66.3441],[-62.6267,66.4403],[-62.3188,66.3031],[-62.6643,66.2196],[-62.8942,66.3372],[-62.699,66.1981],[-62.1059,66.1448],[-61.9542,66.0198],[-62.3188,65.9809],[-62.9237,66.1512],[-63.0655,66.1243],[-62.2915,65.8227],[-62.8708,65.9081],[-62.5718,65.7626],[-62.8464,65.7687],[-62.598,65.6749],[-62.6572,65.5888],[-62.9321,65.7606],[-62.9597,65.59],[-63.1962,65.6337],[-63.5101,65.9365],[-63.3467,65.6725],[-63.7214,65.6793],[-63.3666,65.6335],[-63.6204,65.549],[-63.2914,65.4323],[-63.6551,65.467],[-63.3876,65.3981],[-63.5242,65.3851],[-63.3133,65.2098],[-63.5179,65.1927],[-63.3398,65.1449],[-63.535,64.8985],[-63.8258,64.9866],[-63.6551,65.0419],[-63.871,65.0445],[-63.8091,65.1859],[-64.2783,65.1039],[-64.079,65.2001],[-64.3743,65.1793],[-64.2374,65.4323],[-64.5571,65.0932],[-64.9089,65.3026],[-64.6824,65.3435],[-64.9151,65.3435],[-64.4585,65.4211],[-64.4086,65.4807],[-65.0102,65.3694],[-65.1696,65.4875],[-64.9294,65.5285],[-64.7103,65.6588],[-65.3409,65.5832],[-64.7922,65.7277],[-65.5054,65.7551],[-65.3358,65.9213],[-64.7376,65.9742],[-64.8543,66.0356],[-64.7172,66.2246],[-64.354,66.3503],[-64.7103,66.2826],[-64.9636,66.0759],[-65.8994,65.9537],[-65.9604,66.0527],[-65.6392,66.1728],[-65.4775,66.3918],[-66.0119,66.1175],[-66.2573,66.2236],[-66.1496,66.2895],[-66.5208,66.2187],[-66.5742,66.3714],[-66.4432,66.4143],[-66.766,66.3851],[-66.6772,66.4601],[-66.8616,66.5427],[-66.725,66.5911],[-67.0603,66.6457],[-66.8827,66.57],[-67.7461,66.57],[-67.2862,66.5262],[-67.1556,66.3685],[-67.4103,66.4328],[-67.146,66.3028],[-67.3989,66.2965],[-67.6294,66.4465],[-67.9925,66.5085],[-67.7529,66.2547],[-67.1633,66.0424],[-67.3142,66.0015],[-67.1871,65.9162],[-67.9228,65.9032],[-67.9726,66.0834],[-68.5135,66.3031],[-68.8497,66.1933],[-68.0273,66.0759],[-68.2116,66.0076],[-68.116,65.9667],[-68.3479,66.0398],[-68.0823,65.8328],[-68.2054,65.796],[-67.8143,65.8159],[-68.0334,65.4875],[-67.2731,65.6452],[-67.4587,65.5012],[-67.0599,65.4241],[-67.4171,65.351],[-66.9373,65.2412],[-67.1086,65.0623],[-66.725,65.1859],[-66.9168,65.0493],[-66.7592,65.0692],[-66.7052,64.7688],[-66.6822,65.0442],[-66.1496,64.8706],[-66.3415,64.7744],[-66.218,64.6924],[-66.0187,64.8576],[-66.0414,64.7194],[-65.8074,64.6374],[-65.9521,64.8845],[-65.7168,64.8442],[-65.7103,64.6924],[-65.56,64.7129],[-65.7524,64.59],[-65.7069,64.4901],[-65.0734,64.4491],[-65.227,64.3005],[-65.5259,64.3293],[-65.6562,64.3014],[-65.0529,64.0687],[-65.1931,64.0219],[-64.6661,64.0326],[-64.9914,63.8284],[-64.5223,63.6691],[-64.5076,63.4221],[-64.6352,63.4182],[-64.5368,63.2552],[-64.7171,63.281],[-64.9427,63.6327],[-65.3024,63.8127],[-64.9875,63.6031],[-65.1491,63.4312],[-64.9021,63.2394],[-65.1491,63.2878],[-64.6278,62.9111],[-65.272,63.0067],[-64.9294,62.6435],[-65.1696,62.5684],[-65.3546,62.6845],[-65.2447,62.7801],[-65.3751,62.7869],[-65.2515,62.8354],[-65.3273,62.9179],[-65.6038,62.8251],[-65.7122,63.0512],[-65.7882,62.8732],[-65.9635,62.9375],[-65.8343,63.0334],[-66.2832,63.1369],[-66.1039,62.9516],[-66.3967,62.9998],[-66.6437,63.3746],[-66.7387,63.294],[-66.5504,62.9963],[-66.807,63.2748],[-66.8343,63.1507],[-67.0199,63.2394],[-66.974,63.3959],[-67.2011,63.2885],[-67.9242,63.7676],[-67.6977,63.3697],[-68.2889,63.6991],[-68.993,63.7607],[-67.9857,63.0755],[-67.6113,63.0971],[-67.8007,63.0141],[-67.7734,62.9588],[-67.5369,63.045],[-67.6766,62.9287],[-67.4238,62.9794],[-66.91,62.6982],[-67.0062,62.6572],[-66.7597,62.6839],[-66.5122,62.4238],[-66.3524,62.4475],[-66.4739,62.3367],[-65.9871,62.2421],[-66.04,62.0753],[-66.1787,62.1347],[-66.2043,62.1166],[-65.9488,61.9088],[-66.0631,61.8749],[-68.5537,62.2497],[-69.5868,62.6577],[-69.3902,62.767],[-70.2403,62.7541],[-71.158,62.9936],[-70.8228,63.1301],[-70.9265,63.1726],[-71.402,63.0556],[-71.7135,63.1779],[-71.7809,63.4145],[-72.0152,63.3976],[-72.1423,63.4483],[-71.6145,63.4269],[-71.2269,63.6025],[-71.5619,63.5815],[-71.5354,63.7123],[-71.9228,63.8196],[-72.0084,63.754],[-71.8445,63.7607],[-71.9298,63.655],[-72.2006,63.7804],[-72.3176,63.6789],[-72.0903,63.911],[-72.2418,63.9594],[-72.3782,63.7825],[-72.6662,63.8564],[-72.5912,64.0277],[-72.6632,64.0839],[-72.7342,63.9699],[-73.1045,64.2815],[-73.3863,64.2815],[-73.2656,64.3703],[-73.4819,64.4051],[-73.1672,64.59],[-73.3031,64.6657],[-73.314,64.5382],[-73.4642,64.508],[-73.4272,64.603],[-73.6464,64.6657],[-73.7519,64.5416],[-73.9217,64.6093],[-73.7829,64.4802],[-74.0777,64.3293],[-74.1262,64.5416],[-73.9548,64.515],[-74.1671,64.5695],[-74.0026,64.5826],[-74.0498,64.7259],[-74.3945,64.5768],[-74.7084,64.7402],[-74.4866,64.8367],[-74.6463,64.9047],[-74.7314,64.7722],[-74.9889,64.8023],[-74.4687,64.5621],[-74.681,64.3778],[-75.82,64.6222],[-75.6332,64.4597],[-75.9218,64.487],[-75.736,64.3725],[-76.7109,64.3054],[-76.689,64.1916],[-77.854,64.3703],[-78.299,64.7067],[-78.0731,64.8159],[-78.1206,64.9742],[-77.3128,65.2001],[-77.5142,65.3261],[-77.2917,65.3814],[-77.3916,65.4731],[-75.7979,65.2323],[-75.4186,65.0305],[-75.6679,64.9456],[-75.5805,64.8578],[-75.4603,64.8431],[-75.5376,64.7812],[-75.297,64.7341],[-75.3458,64.9252],[-75.5717,64.8842],[-75.2626,64.957],[-75.1987,65.1057],[-75.3631,65.0076],[-75.9491,65.3225],[-75.1932,65.2563],[-75.1051,65.3961],[-74.5512,65.3334],[-74.1184,65.5371],[-73.4744,65.4596],[-73.7178,65.7746],[-74.4722,66.1486],[-72.949,66.7346]]],[[[-115.3236,73.5087],[-119.1639,72.6298],[-119.3402,72.3467],[-120.2548,72.2608],[-120.1581,72.1284],[-120.434,71.9643],[-120.3824,71.6917],[-120.6352,71.4914],[-121.7006,71.4681],[-122.7978,71.0878],[-123.2553,71.1304],[-124.0646,71.7004],[-125.2534,71.9557],[-124.9589,71.9666],[-125.8776,71.964],[-125.4384,72.4157],[-124.9524,72.5696],[-125.1026,72.6347],[-124.9455,72.703],[-125.1134,72.8675],[-124.476,72.9331],[-124.8599,73.0903],[-123.7738,73.7656],[-124.2132,73.8792],[-124.7557,74.3486],[-121.5808,74.5559],[-119.5183,74.2311],[-119.818,74.1043],[-119.7652,74.0353],[-119.4799,74.2261],[-119.1444,74.2091],[-119.0692,74.0905],[-119.1893,73.9922],[-118.7254,74.2208],[-117.4165,74.2325],[-115.3236,73.5087]]],[[[-123.3053,48.6188],[-123.3029,48.597],[-123.3375,48.6484],[-123.3053,48.6188]]],[[[-123.369,48.7742],[-123.5311,48.7344],[-123.5956,48.9518],[-123.496,48.8455],[-123.369,48.7742]]],[[[-123.3945,48.8724],[-123.6973,49.1093],[-123.3171,48.8698],[-123.3945,48.8724]]],[[[-123.8339,49.2012],[-123.7767,49.1333],[-123.8698,49.1905],[-123.8339,49.2012]]],[[[-126.0065,49.2141],[-125.9689,49.1487],[-126.035,49.2018],[-126.0065,49.2141]]],[[[-126.1317,49.3968],[-126.2235,49.2771],[-126.2314,49.3786],[-126.1317,49.3968]]],[[[-123.35,49.4175],[-123.3759,49.3371],[-123.4294,49.3467],[-123.35,49.4175]]],[[[-124.3546,49.5224],[-124.1717,49.4547],[-124.3791,49.5073],[-124.3546,49.5224]]],[[[-123.3427,49.4429],[-123.4181,49.5309],[-123.3225,49.4861],[-123.3427,49.4429]]],[[[-124.6837,49.5493],[-124.6629,49.4943],[-124.7038,49.5212],[-124.6837,49.5493]]],[[[-124.836,49.5977],[-124.6908,49.4829],[-124.8254,49.5401],[-124.836,49.5977]]],[[[-124.0745,49.7414],[-124.2051,49.7053],[-124.0201,49.781],[-124.0745,49.7414]]],[[[-124.6644,49.7469],[-124.3479,49.7042],[-124.1232,49.4998],[-124.4388,49.6119],[-124.6644,49.7469]]],[[[-126.7685,49.8835],[-126.6794,49.5918],[-126.987,49.8151],[-126.7685,49.8835]]],[[[-127.286,50.0371],[-127.2723,49.978],[-127.3186,49.9996],[-127.286,50.0371]]],[[[-125.0055,50.0176],[-124.9957,50.2321],[-124.891,50.069],[-125.0055,50.0176]]],[[[-125.1988,50.0411],[-125.3237,50.1433],[-125.336,50.2745],[-125.1715,50.219],[-125.1988,50.0411]]],[[[-124.8323,50.1174],[-124.9171,50.3035],[-124.7538,50.1683],[-124.8323,50.1174]]],[[[-124.8026,50.2286],[-124.7251,50.3045],[-124.6507,50.2244],[-124.7233,50.2929],[-124.8026,50.2286]]],[[[-125.336,50.3017],[-125.288,50.4374],[-125.048,50.2056],[-125.1422,50.1258],[-125.1361,50.2324],[-125.2125,50.3223],[-125.336,50.3017]]],[[[-125.5469,50.4434],[-125.6358,50.3825],[-125.7834,50.3974],[-125.5469,50.4434]]],[[[-125.478,50.4295],[-125.3924,50.3674],[-125.5448,50.3778],[-125.478,50.4295]]],[[[-125.8058,50.475],[-125.8236,50.4088],[-125.9654,50.4382],[-125.8058,50.475]]],[[[-126.5869,50.5949],[-126.6149,50.5527],[-126.6709,50.5896],[-126.5869,50.5949]]],[[[-126.3676,50.583],[-126.2267,50.5693],[-126.6245,50.5346],[-126.3676,50.583]]],[[[-126.4713,50.6282],[-126.3635,50.6188],[-126.5585,50.6032],[-126.4713,50.6282]]],[[[-127.1075,50.6711],[-126.8331,50.6252],[-127.1504,50.64],[-127.1075,50.6711]]],[[[-126.6177,50.6723],[-126.2895,50.8286],[-126.1789,50.7508],[-126.2881,50.6546],[-126.6177,50.6723]]],[[[-126.5624,50.8021],[-126.9051,50.8293],[-126.641,50.8498],[-126.5624,50.8021]]],[[[-123.3212,48.4958],[-123.6539,48.3143],[-125.094,48.73],[-125.1852,48.801],[-124.847,49.0205],[-124.7794,49.152],[-124.8084,49.2466],[-124.9077,49.0064],[-125.6066,48.9619],[-125.8717,49.0902],[-125.6129,49.2064],[-125.7467,49.1481],[-125.7748,49.3701],[-126.0281,49.2739],[-125.9509,49.3203],[-125.912,49.4384],[-126.0144,49.3223],[-126.0551,49.4453],[-126.5727,49.4143],[-126.5488,49.596],[-126.1075,49.6833],[-126.5731,49.7069],[-126.6497,49.898],[-126.8436,49.9735],[-127.1419,49.8666],[-127.2375,49.9618],[-127.0887,50.1107],[-127.0969,50.1509],[-127.3625,50.0325],[-127.4634,50.187],[-127.8981,50.1141],[-127.747,50.2432],[-127.9681,50.3422],[-127.9258,50.4621],[-127.4469,50.3769],[-127.5625,50.5211],[-127.419,50.6035],[-127.8777,50.6301],[-127.5926,50.5436],[-128.0602,50.4526],[-128.4172,50.7719],[-127.8825,50.8669],[-126.8642,50.5301],[-125.4767,50.339],[-125.1783,49.925],[-124.8821,49.7249],[-124.9762,49.668],[-124.7947,49.4726],[-123.9549,49.2292],[-123.5799,48.8216],[-123.5355,48.5401],[-123.4168,48.6911],[-123.3212,48.4958]]],[[[-127.9154,50.9396],[-127.875,50.8904],[-127.983,50.9167],[-127.9154,50.9396]]],[[[-127.5579,51.0893],[-127.542,51.0522],[-127.6117,51.0751],[-127.5579,51.0893]]],[[[-131.7594,52.8571],[-131.7435,52.8113],[-131.8376,52.841],[-131.7594,52.8571]]],[[[-132.3647,53.0073],[-132.3031,52.9667],[-132.3826,53.0041],[-132.3647,53.0073]]],[[[-133.0614,54.2563],[-133.0005,54.1901],[-133.0818,54.2318],[-133.0614,54.2563]]],[[[-64.6413,60.4923],[-64.4267,60.2862],[-64.8616,60.4655],[-64.6413,60.4923]]],[[[-67.8808,60.4968],[-67.9728,60.2903],[-68.4194,60.2097],[-68.2413,60.5856],[-67.8808,60.4968]]],[[[-64.7165,60.6049],[-64.6256,60.6146],[-64.7135,60.5976],[-64.7165,60.6049]]],[[[-78.6161,60.7764],[-78.2785,60.7728],[-78.6961,60.7141],[-78.6161,60.7764]]],[[[-64.8406,61.3515],[-64.9754,61.3494],[-65.4842,61.6225],[-64.717,61.6635],[-64.8406,61.3515]]],[[[-65.7915,61.8725],[-65.6915,61.7504],[-65.9464,61.8011],[-65.7915,61.8725]]],[[[-93.0664,61.9378],[-93.0589,61.8299],[-93.2247,61.9064],[-93.0664,61.9378]]],[[[-65.2412,61.9204],[-64.9778,61.8969],[-64.8279,61.7612],[-65.1473,61.7839],[-65.2412,61.9204]]],[[[-92.3749,62.3903],[-92.1415,62.404],[-92.1415,62.3965],[-92.3749,62.3903]]],[[[-79.2825,62.2699],[-79.326,61.9884],[-79.7589,61.5822],[-80.2611,61.8563],[-80.215,62.1377],[-79.9346,62.3781],[-79.7036,62.3767],[-79.6111,62.4176],[-79.5586,62.4204],[-79.5397,62.4176],[-79.2825,62.2699]]],[[[-92.5992,62.4001],[-92.5289,62.433],[-92.4022,62.4108],[-92.5992,62.4001]]],[[[-64.3806,62.5275],[-64.5941,62.3698],[-64.9635,62.4648],[-64.8013,62.5685],[-64.3806,62.5275]]],[[[-77.887,62.5992],[-77.8606,62.5505],[-78.1134,62.5747],[-77.887,62.5992]]],[[[-77.8335,62.6026],[-77.6205,62.5883],[-77.7621,62.54],[-77.8335,62.6026]]],[[[-64.8406,62.5821],[-65.1144,62.5385],[-65.1416,62.5541],[-64.8406,62.5821]]],[[[-91.6707,62.671],[-91.5751,62.6244],[-91.6891,62.6708],[-91.6707,62.671]]],[[[-91.2714,62.692],[-91.0448,62.6826],[-90.984,62.664],[-91.2714,62.692]]],[[[-74.5301,62.7534],[-73.9647,62.6094],[-74.6531,62.7193],[-74.5301,62.7534]]],[[[-70.2406,62.6156],[-70.7279,62.5534],[-70.9252,62.7459],[-70.774,62.7713],[-71.236,62.8864],[-70.4925,62.767],[-70.2406,62.6156]]],[[[-83.4187,62.8923],[-81.8624,62.9248],[-81.9398,62.7116],[-83.0662,62.1872],[-83.7052,62.1435],[-83.9398,62.4238],[-83.4187,62.8923]]],[[[-90.6511,63.4903],[-90.7022,63.4449],[-90.7568,63.5001],[-90.6511,63.4903]]],[[[-77.538,63.2878],[-77.9408,63.0871],[-78.5443,63.4492],[-77.8443,63.4725],[-77.538,63.2878]]],[[[-90.7613,63.5539],[-90.8118,63.5001],[-90.9697,63.5548],[-90.7613,63.5539]]],[[[-91.5391,63.607],[-91.3595,63.5927],[-91.2987,63.5678],[-91.5391,63.607]]],[[[-64.0864,63.335],[-64.2792,63.3411],[-64.4979,63.6168],[-64.3549,63.6688],[-64.0864,63.335]]],[[[-77.4461,63.6611],[-76.5449,63.4665],[-76.9821,63.4073],[-77.4461,63.6611]]],[[[-72.5006,63.7128],[-72.5997,63.6467],[-72.7829,63.6645],[-72.5006,63.7128]]],[[[-92.9969,63.9132],[-92.9717,63.8747],[-93.0937,63.911],[-92.9969,63.9132]]],[[[-64.8883,63.7949],[-64.5626,63.9086],[-64.6134,63.7875],[-64.3881,63.7329],[-64.8883,63.7949]]],[[[-77.7372,63.9321],[-77.9054,64.0245],[-77.5455,64.0277],[-77.7372,63.9321]]],[[[-81.4231,64.1965],[-81.5368,64.2232],[-81.3826,64.2132],[-81.4231,64.1965]]],[[[-73.3378,64.2399],[-73.1733,64.2058],[-73.3998,64.1649],[-73.3378,64.2399]]],[[[-73.5296,64.5041],[-73.5153,64.3703],[-73.6542,64.3232],[-73.578,64.4931],[-73.6842,64.5248],[-73.5296,64.5041]]],[[[-65.2098,64.644],[-65.6881,64.5476],[-65.4119,64.7398],[-65.2098,64.644]]],[[[-62.4696,65.7488],[-62.1344,65.6545],[-62.4857,65.7237],[-62.4696,65.7488]]],[[[-83.2895,65.8352],[-83.5825,65.8615],[-83.2912,65.8469],[-83.2895,65.8352]]],[[[-80.1833,63.7676],[-81.1249,63.4638],[-82.4818,63.6852],[-82.3709,63.913],[-83.0845,63.9582],[-82.9658,64.137],[-83.0843,64.1898],[-83.6853,64.0141],[-83.6338,63.771],[-84.2843,63.6268],[-84.5902,63.3151],[-85.2739,63.1234],[-85.6352,63.2431],[-85.5902,63.6133],[-85.7137,63.7744],[-86.8682,63.5618],[-87.2238,63.6601],[-86.8959,63.9302],[-86.1929,64.1034],[-86.4194,64.5969],[-86.173,64.8296],[-86.1515,65.3961],[-85.9389,65.7632],[-85.4865,65.9241],[-85.4883,65.7966],[-85.1719,65.7891],[-85.0524,65.6142],[-85.3165,65.5415],[-85.0076,65.4157],[-84.9318,65.2182],[-84.5547,65.4859],[-84.0985,65.2095],[-83.3977,65.1366],[-83.2084,64.9477],[-81.7713,64.512],[-81.6066,64.1341],[-81.9916,63.9987],[-81.3988,64.1015],[-80.9307,63.9935],[-80.8888,64.1226],[-80.4969,63.9177],[-80.6746,63.894],[-80.1833,63.7676]]],[[[-85.1793,65.9878],[-84.8572,65.9667],[-84.5741,65.6356],[-84.8009,65.5671],[-85.1127,65.7621],[-85.1793,65.9878]]],[[[-84.1246,65.9067],[-84.4578,66.1461],[-84.0214,66.0877],[-83.6927,65.9257],[-83.7864,65.8128],[-83.2123,65.706],[-83.8389,65.6522],[-83.6853,65.7551],[-84.1427,65.7668],[-84.1246,65.9067]]],[[[-83.0776,66.1978],[-83.2331,66.3441],[-82.9044,66.2684],[-83.0776,66.1978]]],[[[-62.4075,67.187],[-62.7469,67.0181],[-62.9015,67.0634],[-62.639,67.1784],[-62.4075,67.187]]],[[[-63.6316,67.3561],[-63.3602,67.2962],[-63.8332,67.29],[-63.6316,67.3561]]],[[[-63.7575,67.5228],[-63.9824,67.5067],[-64.038,67.5296],[-63.9547,67.655],[-63.7575,67.5228]]],[[[-73.3583,67.8381],[-74.4023,67.7789],[-74.7752,68.0294],[-74.3384,68.1807],[-74.2554,68.0635],[-73.4462,67.993],[-73.3583,67.8381]]],[[[-66.6611,68.2095],[-66.1831,68.2626],[-66.2706,68.1614],[-66.6611,68.2095]]],[[[-86.5771,68.2906],[-86.4078,68.2078],[-86.3725,67.9366],[-86.6801,67.7351],[-86.9874,68.0843],[-86.5771,68.2906]]],[[[-75.0335,68.1733],[-75.1614,67.9531],[-75.0651,67.5524],[-75.5959,67.3111],[-76.9816,67.2433],[-77.3227,67.708],[-76.6889,68.2626],[-75.9112,68.3445],[-75.0335,68.1733]]],[[[-79.1561,68.3445],[-78.83,68.2527],[-79.1835,68.2217],[-79.1561,68.3445]]],[[[-82.0001,68.3514],[-82.1493,68.3344],[-82.3489,68.3651],[-82.0001,68.3514]]],[[[-74.2217,68.2496],[-74.2978,68.4644],[-74.0807,68.3327],[-74.2217,68.2496]]],[[[-78.6142,68.5063],[-78.7841,68.4459],[-78.9706,68.4749],[-78.6689,68.5848],[-78.8863,68.6589],[-78.4634,68.6195],[-78.7242,68.5233],[-78.6142,68.5063]]],[[[-74.7882,68.5613],[-74.7926,68.6757],[-74.5171,68.5643],[-74.7882,68.5613]]],[[[-75.0199,68.681],[-74.8113,68.324],[-74.9962,68.3377],[-75.4004,68.6087],[-75.0199,68.681]]],[[[-68.4176,68.8175],[-67.6634,68.7014],[-68.4586,68.7936],[-68.4176,68.8175]]],[[[-90.1547,69.1396],[-90.1274,69.0578],[-90.2768,69.114],[-90.1547,69.1396]]],[[[-90.4974,69.2427],[-90.6854,69.2291],[-90.656,69.3498],[-90.777,69.3287],[-90.619,69.3764],[-90.4974,69.2427]]],[[[-79.0798,68.879],[-79.423,68.9274],[-78.6217,69.2631],[-78.7101,69.3416],[-78.214,69.3029],[-79.0798,68.879]]],[[[-90.2019,69.4481],[-90.3276,69.239],[-90.5067,69.3666],[-90.2019,69.4481]]],[[[-76.6923,69.4109],[-76.9012,69.1055],[-77.3872,69.2665],[-77.2501,69.4351],[-76.6923,69.4109]]],[[[-67.5201,69.6058],[-67.3078,69.5581],[-67.7528,69.5233],[-67.5201,69.6058]]],[[[-67.7311,69.6588],[-67.9674,69.5299],[-68.3077,69.5921],[-67.7311,69.6588]]],[[[-78.8807,69.4807],[-78.1761,69.7564],[-77.942,69.6467],[-78.8807,69.4807]]],[[[-79.3268,69.7088],[-80.0775,69.6369],[-79.9986,69.5001],[-80.814,69.6945],[-79.6724,69.8204],[-79.3268,69.7088]]],[[[-83.701,69.7228],[-83.8976,69.8187],[-83.5277,69.7908],[-83.701,69.7228]]],[[[-91.8402,69.8249],[-91.7475,69.883],[-91.6413,69.8597],[-91.8402,69.8249]]],[[[-91.4085,69.8795],[-91.5568,69.7292],[-91.7375,69.7976],[-91.4085,69.8795]]],[[[-86.7769,69.9713],[-87.379,70.106],[-86.4604,70.0168],[-86.7769,69.9713]]],[[[-71.8597,71.0786],[-71.3435,71.0076],[-72.0021,70.8119],[-72.228,70.9217],[-71.8597,71.0786]]],[[[-73.3788,71.5175],[-72.817,71.4486],[-73.0536,71.2964],[-73.3788,71.5175]]],[[[-72.7379,71.6615],[-72.7653,71.529],[-73.0436,71.5864],[-72.9263,71.6553],[-72.7379,71.6615]]],[[[-95.4517,71.826],[-95.3185,71.7425],[-95.4921,71.7435],[-95.4517,71.826]]],[[[-95.7932,72.8806],[-95.7323,72.8077],[-95.8558,72.8607],[-95.7932,72.8806]]],[[[-96.6483,72.8009],[-97.014,72.7788],[-96.7594,72.8962],[-96.6483,72.8009]]],[[[-97.072,73.1381],[-96.8092,73.1921],[-96.5683,73.0525],[-96.973,72.9296],[-97.072,73.1381]]],[[[-108.0876,73.5906],[-107.8489,73.6334],[-107.5799,73.6005],[-107.994,73.5466],[-108.0876,73.5906]]],[[[-105.3814,73.7707],[-104.5008,73.5672],[-104.5727,73.3322],[-105.3597,72.9501],[-105.285,72.8514],[-106.1207,73.2927],[-107.0393,73.4844],[-106.5996,73.7106],[-105.3814,73.7707]]],[[[-80.9034,73.6074],[-80.8618,73.7514],[-80.5602,73.7725],[-78.1138,73.6657],[-77.2135,73.5108],[-76.0583,72.9017],[-79.5684,72.7598],[-80.0018,72.8712],[-80.1638,73.2334],[-80.8601,73.319],[-80.8498,73.4753],[-80.6973,73.4844],[-80.9034,73.6074]]],[[[-96.3213,72.4669],[-96.8768,72.3263],[-96.5342,72.2443],[-96.5,72.0935],[-96.8693,72.0451],[-96.4932,72.028],[-96.7669,71.9223],[-96.5013,71.9315],[-96.5888,71.8207],[-97.6853,71.6184],[-98.2528,71.67],[-98.3593,71.7344],[-98.2131,71.8813],[-98.295,71.9017],[-98.5005,71.723],[-98.0418,71.5312],[-98.73,71.2717],[-99.2351,71.3496],[-99.3852,71.5858],[-100.6365,72.1865],[-101.782,72.3088],[-102.756,72.8123],[-102.4848,73.0412],[-101.9478,73.0935],[-101.3336,72.7248],[-100.4483,72.7381],[-100.3166,72.8061],[-100.4674,73.019],[-100.3104,73.0327],[-100.4166,72.9783],[-100.3048,72.875],[-100.0355,72.9438],[-100.3235,73.1009],[-100.2279,73.1344],[-100.5295,73.0935],[-100.5563,73.2313],[-100.3514,73.2927],[-100.0387,73.1937],[-99.7686,73.2108],[-100.3629,73.3996],[-100.8579,73.2628],[-101.6256,73.4914],[-100.9186,73.603],[-100.4203,73.4193],[-100.6043,73.4988],[-100.5494,73.6005],[-101.1186,73.7241],[-100.8858,73.8321],[-100.0233,73.7378],[-99.8461,73.8883],[-100.303,73.8612],[-99.8027,73.937],[-99.1912,73.6903],[-97.7739,73.9189],[-96.9382,73.6868],[-97.6439,73.5397],[-97.1505,73.3951],[-98.494,73.0179],[-98.4462,72.8725],[-97.9852,73.0441],[-97.256,72.9621],[-97.4186,72.8607],[-97.0256,72.7295],[-97.1939,72.6151],[-96.5376,72.752],[-96.3213,72.4669]]],[[[-98.1434,73.8784],[-99.4403,73.909],[-97.6432,74.0722],[-98.1434,73.8784]]],[[[-91.5724,74.0331],[-90.1957,73.9022],[-90.9834,73.5596],[-91.2577,73.2722],[-91.6339,73.2313],[-91.3763,73.2032],[-92.0958,72.7462],[-94.3208,72.7651],[-93.7874,72.7407],[-93.4642,72.4634],[-94.2339,72.0324],[-94.0601,71.9836],[-94.345,72.0256],[-95.2115,71.9942],[-95.0886,72.1003],[-95.2012,72.1109],[-94.7904,72.1599],[-95.1767,72.155],[-95.1357,72.4634],[-95.5927,72.6994],[-95.7174,72.9971],[-95.5133,73.1337],[-95.7049,73.5596],[-95.5404,73.5807],[-95.7192,73.6906],[-94.6224,73.6557],[-95.3309,73.9175],[-94.7206,74.1014],[-93.2726,74.178],[-92.334,73.9432],[-91.5724,74.0331]]],[[[-97.7368,74.4714],[-97.503,74.623],[-97.2604,74.598],[-97.3771,74.5124],[-97.7368,74.4714]]],[[[-95.5632,74.6429],[-95.2556,74.5188],[-95.87,74.5812],[-95.5632,74.6429]]],[[[-103.6384,75.1995],[-104.2295,75.0189],[-104.9296,75.1411],[-104.4032,75.4326],[-103.8205,75.3667],[-103.6384,75.1995]]],[[[-93.4369,74.9443],[-93.5331,74.6706],[-94.7242,74.6318],[-95.8976,74.8259],[-96.1369,74.9369],[-96.0646,75.0236],[-96.2667,74.9096],[-96.6161,74.9915],[-96.4694,75.1944],[-95.78,75.3825],[-96.1555,75.408],[-94.8995,75.6447],[-93.6765,75.362],[-93.8,75.3074],[-93.4994,75.268],[-93.4916,75.074],[-93.6424,75.0399],[-93.4369,74.9443]]],[[[-96.4243,75.5812],[-96.8727,75.3574],[-97.0549,75.4992],[-96.3751,75.66],[-95.9104,75.5607],[-96.2057,75.458],[-96.4243,75.5812]]],[[[-121.2934,75.76],[-120.8683,75.9169],[-120.9911,75.763],[-121.2934,75.76]]],[[[-102.6048,75.7726],[-103.3866,75.7661],[-101.9813,75.9517],[-102.6048,75.7726]]],[[[-94.4853,75.9784],[-94.2946,75.7757],[-94.7438,75.7615],[-94.9105,75.9374],[-94.4853,75.9784]]],[[[-102.3185,76.0441],[-103.6916,75.889],[-103.9762,75.9443],[-102.3185,76.0441]]],[[[-117.4625,76.0883],[-118.6139,75.5037],[-119.409,75.6016],[-118.6212,75.9221],[-117.4625,76.0883]]],[[[-79.752,75.8828],[-78.7999,76.0849],[-79.176,75.958],[-78.8965,75.8426],[-79.752,75.8828]]],[[[-81.2044,76.1845],[-81.4361,76.1547],[-81.4651,76.164],[-81.2044,76.1845]]],[[[-103.8114,76.0336],[-104.4781,76.147],[-102.7266,76.3156],[-102.5306,76.1572],[-103.8114,76.0336]]],[[[-89.525,76.4804],[-89.4074,76.4379],[-89.6265,76.4514],[-89.525,76.4804]]],[[[-83.9112,76.4719],[-84.1234,76.4514],[-84.1378,76.5141],[-83.9112,76.4719]]],[[[-104.3777,76.3249],[-104.6813,76.6022],[-104.0246,76.6705],[-103.9247,76.6401],[-104.0582,76.5681],[-103.0104,76.4235],[-104.3777,76.3249]]],[[[-97.4249,75.5197],[-97.2809,75.403],[-97.7242,75.5722],[-98.0418,75.4849],[-97.7743,75.4241],[-98.1167,75.298],[-97.5688,75.1498],[-98.1033,75.2255],[-97.9758,75.0145],[-99.4055,74.999],[-99.3058,75.1313],[-99.6454,74.976],[-100.3688,75.0231],[-100.5494,75.205],[-99.987,75.2386],[-100.7821,75.3552],[-99.6655,75.6159],[-99.8232,75.6562],[-98.8942,75.6997],[-101.4494,75.6077],[-102.6334,75.4981],[-102.8817,75.6178],[-102.0093,75.7047],[-102.3741,75.8105],[-102.2623,75.8698],[-101.2758,75.7457],[-100.9132,75.8145],[-101.5506,75.8698],[-101.3035,76.0207],[-101.9029,76.1059],[-101.3855,76.2534],[-102.1676,76.2391],[-102.0351,76.4128],[-101.3216,76.4145],[-99.9471,75.8752],[-99.4403,75.9722],[-99.8641,75.9374],[-100.2211,76.1361],[-99.6837,76.1238],[-99.4185,76.164],[-100.4787,76.2338],[-99.8437,76.2869],[-100.9882,76.5066],[-99.6409,76.6374],[-99.0703,76.4042],[-98.8506,76.4377],[-99.0287,76.6022],[-98.4553,76.6821],[-97.6651,76.4862],[-97.7886,76.3223],[-97.5067,76.1907],[-97.6545,75.9821],[-97.5702,75.8652],[-97.9394,75.7457],[-97.3775,75.6798],[-97.4249,75.5197]]],[[[-100.3335,76.7145],[-101.6871,76.5886],[-100.2477,76.7394],[-100.3335,76.7145]]],[[[-89.675,76.7326],[-89.8593,76.6164],[-89.675,76.5066],[-89.9774,76.4777],[-90.5945,76.7509],[-89.9822,76.8424],[-89.675,76.7326]]],[[[-105.3951,75.6743],[-105.7508,75.4924],[-105.5931,75.4651],[-106.0089,75.0566],[-107.231,74.9201],[-107.7717,75.1014],[-107.9442,74.9369],[-108.4166,74.9171],[-108.8242,75.0715],[-112.4374,74.4135],[-113.693,74.4445],[-114.4398,74.6837],[-112.7978,74.9851],[-111.5858,75.0064],[-110.918,75.2324],[-112.3461,75.1215],[-112.4735,75.1498],[-112.3369,75.2255],[-112.6789,75.2795],[-112.8571,75.1098],[-113.8866,75.0582],[-113.6453,75.1907],[-113.9395,75.1833],[-113.813,75.3239],[-113.7843,75.3397],[-113.6014,75.3654],[-113.3231,75.4167],[-113.3231,75.4241],[-114.0707,75.4749],[-114.1958,75.2252],[-114.5112,75.317],[-114.6151,75.2833],[-114.3033,75.1818],[-114.4408,75.0679],[-115.0577,74.9667],[-115.2628,75.1833],[-115.6666,75.1485],[-115.5372,75.0399],[-115.7154,74.9704],[-116.2559,75.0604],[-116.0437,75.1287],[-116.3385,75.1156],[-116.2565,75.2112],[-116.7672,75.1222],[-117.6885,75.2597],[-117.2022,75.4808],[-116.0419,75.4848],[-115.0021,75.6985],[-117.249,75.6091],[-116.8854,75.789],[-114.8274,75.8794],[-116.7363,75.9374],[-116.4613,75.9784],[-116.7016,76.0405],[-116.6303,76.1204],[-116.1627,76.2038],[-114.667,76.164],[-115.927,76.2869],[-114.8724,76.5202],[-114.1593,76.4588],[-113.963,76.1906],[-112.4256,76.1708],[-112.5257,76.121],[-111.7268,75.9169],[-112.227,75.8145],[-111.4591,75.8419],[-111.5964,75.8145],[-111.2508,75.5219],[-108.91,75.4787],[-109.0336,75.5539],[-108.8281,75.6911],[-110.0546,75.8965],[-109.3231,76.1154],[-110.3972,76.3967],[-108.7756,76.8642],[-108.4508,76.7326],[-108.7319,76.6432],[-108.4849,76.4588],[-108.6159,76.4235],[-108.0809,76.2869],[-108.4992,76.0405],[-107.6401,75.9892],[-108.0262,75.7873],[-107.076,75.8994],[-106.8809,75.6492],[-106.8823,75.7661],[-106.6148,75.8009],[-106.8859,75.8382],[-106.8749,75.9654],[-106.3398,76.0616],[-105.6068,75.9374],[-105.3951,75.6743]]],[[[-114.837,76.7598],[-113.8461,76.8989],[-113.4535,76.7735],[-113.6732,76.7043],[-114.837,76.7598]]],[[[-80.4434,75.0399],[-79.3343,74.9034],[-79.909,74.814],[-80.3131,74.9416],[-80.4106,74.9018],[-80.1008,74.8276],[-80.2454,74.7587],[-80.1288,74.7178],[-80.2175,74.5875],[-81.7887,74.4584],[-82.92,74.5515],[-83.1173,74.6694],[-83.0785,74.8158],[-83.4917,74.9095],[-83.3222,74.7622],[-83.4935,74.5778],[-84.2583,74.5065],[-84.9149,74.5124],[-85.008,74.7041],[-85.1849,74.4931],[-85.5337,74.6901],[-85.4823,74.5454],[-85.6039,74.498],[-86.1246,74.4844],[-86.1793,74.6222],[-86.38,74.4875],[-86.803,74.6222],[-86.6037,74.4714],[-88.5178,74.5012],[-88.4342,74.7656],[-88.297,74.7799],[-88.5395,74.9038],[-88.8476,74.665],[-88.9208,74.7861],[-89.0989,74.8407],[-89.0603,74.7222],[-89.2703,74.7587],[-89.1474,74.6079],[-89.4344,74.5533],[-91.025,74.7041],[-90.7868,74.8896],[-91.2304,74.7383],[-91.0994,74.6291],[-91.5135,74.6447],[-92.0627,74.8034],[-92.0118,74.9096],[-92.2303,75.074],[-92.0559,75.1532],[-92.504,75.218],[-92.3808,75.4561],[-92.0044,75.6016],[-92.1268,75.8738],[-92.6197,76.0146],[-93.0602,76.349],[-95.3902,76.2391],[-94.8006,76.3284],[-96.109,76.4997],[-95.7577,76.5273],[-95.5882,76.6096],[-96.9656,76.7394],[-96.3082,76.7598],[-96.8196,76.872],[-96.6577,76.9523],[-96.8184,76.9834],[-95.7707,77.0767],[-93.7009,76.921],[-93.1968,76.7531],[-93.2991,76.555],[-93.6561,76.4451],[-93.5607,76.3952],[-93.0793,76.6276],[-90.9211,76.6433],[-90.4694,76.4862],[-91.5655,76.4997],[-89.1944,76.2482],[-90.4564,76.1777],[-90.0937,76.125],[-91.6134,76.267],[-90.1882,76.0678],[-91.1615,76.0207],[-90.943,76.0063],[-91.0721,75.9927],[-90.9472,75.9429],[-91.1478,75.9033],[-91.1288,75.8361],[-90.7978,75.9988],[-90.4285,75.9722],[-90.5185,75.8988],[-89.9638,76.016],[-89.688,75.9033],[-89.7773,75.7941],[-89.1625,75.7652],[-89.7631,75.5812],[-89.2085,75.586],[-88.9174,75.4304],[-88.7638,75.4377],[-88.9003,75.6091],[-88.7224,75.6861],[-88.2281,75.4713],[-87.7508,75.5809],[-87.4669,75.456],[-87.5075,75.5613],[-87.2657,75.623],[-86.3648,75.4304],[-86.618,75.3689],[-85.5219,75.403],[-86.1517,75.5088],[-84.5761,75.6243],[-84.6647,75.6911],[-84.0006,75.8288],[-81.1131,75.7791],[-81.2863,75.6637],[-79.5738,75.4515],[-79.6831,75.4377],[-79.4913,75.3825],[-79.6149,75.3037],[-79.5169,75.2292],[-80.4434,75.0399]]],[[[-118.9635,76.1357],[-119.4863,76.3611],[-119.7169,76.3353],[-119.5524,76.123],[-119.8057,76.1156],[-119.486,75.9749],[-120.3874,75.8067],[-120.489,75.8471],[-120.3885,75.9722],[-120.865,76.201],[-121.0112,76.1389],[-120.9535,75.9582],[-121.2997,75.9108],[-121.8471,76.0452],[-122.4259,75.9328],[-122.7316,75.9784],[-122.483,76.1024],[-122.7049,76.1156],[-122.4926,76.1435],[-122.6058,76.1743],[-123.0407,76.0883],[-122.4032,76.4042],[-121.5119,76.4482],[-121.1873,76.6882],[-120.368,76.8145],[-119.1627,77.3249],[-117.0392,77.2928],[-117.1814,77.3489],[-116.647,77.3904],[-117.154,77.4587],[-116.4067,77.5624],[-115.3926,77.3079],[-116.4005,77.1373],[-115.732,76.9486],[-116.3658,76.9318],[-115.8928,76.6984],[-117.0079,76.5522],[-116.9343,76.3558],[-117.1363,76.2902],[-118.0584,76.4104],[-117.7362,76.7803],[-117.8658,76.8233],[-118.4967,76.7189],[-118.3054,76.555],[-118.9463,76.5229],[-118.569,76.3452],[-118.9635,76.1357]]],[[[-84.8162,77.4997],[-85.2444,77.5325],[-85.5424,77.5407],[-85.0184,77.5835],[-84.8162,77.4997]]],[[[-89.6613,77.3564],[-90.405,77.2032],[-91.1795,77.3942],[-91.2093,77.5754],[-90.3041,77.6294],[-89.6613,77.3564]]],[[[-104.3945,77.1925],[-105.2246,77.1645],[-106.0937,77.7296],[-105.503,77.7211],[-104.3945,77.1925]]],[[[-93.1011,77.6642],[-93.7845,77.4377],[-95.9876,77.4791],[-96.3287,77.6096],[-95.5065,77.8107],[-93.1011,77.6642]]],[[[-77.6505,77.8709],[-77.8526,77.7792],[-77.9563,77.8361],[-77.6505,77.8709]]],[[[-102.4487,77.7399],[-102.4485,77.8813],[-101.7252,77.9065],[-100.932,77.7445],[-102.4487,77.7399]]],[[[-114.3273,78.0808],[-113.577,77.815],[-114.3007,77.7133],[-115.1182,77.9597],[-114.3273,78.0808]]],[[[-109.6037,78.0739],[-110.9037,77.8532],[-110.1079,77.7762],[-110.041,77.6444],[-110.2354,77.5042],[-111.9908,77.3293],[-113.1659,77.5151],[-113.2413,77.5823],[-113.0898,77.6232],[-113.3231,77.8082],[-111.8241,78.0526],[-109.6037,78.0739]]],[[[-103.0651,78.2613],[-102.7785,78.2148],[-103.2842,78.1614],[-103.0651,78.2613]]],[[[-88.0574,78.4525],[-88.2083,78.2818],[-88.4056,78.259],[-88.2219,78.4326],[-88.0574,78.4525]]],[[[-109.2595,78.4593],[-109.4087,78.3099],[-109.8232,78.2954],[-113.3362,78.3364],[-110.741,78.758],[-109.2595,78.4593]]],[[[-74.7036,78.7269],[-74.3156,78.7563],[-74.1671,78.7268],[-74.7036,78.7269]]],[[[-95.0607,77.9726],[-97.1033,77.8082],[-96.9935,77.9249],[-97.7743,78.0416],[-96.8693,78.1372],[-97.9195,78.2203],[-97.7668,78.247],[-98.4073,78.4882],[-98.025,78.5526],[-98.3619,78.7662],[-97.451,78.7971],[-94.8279,78.3637],[-95.4032,78.2333],[-94.8893,78.1093],[-95.0607,77.9726]]],[[[-105.6068,79.1036],[-105.4569,79.3293],[-103.7216,79.3633],[-102.8795,79.2333],[-102.6188,79.0967],[-102.7764,78.9459],[-102.5989,78.8776],[-101.6484,79.081],[-100.9882,78.9316],[-101.1852,78.8074],[-100.3498,78.8237],[-99.8921,78.6989],[-100.0634,78.6381],[-99.5579,78.5987],[-99.8717,78.4389],[-99.8027,78.3085],[-98.9462,78.0689],[-99.1038,77.9659],[-99.029,77.8827],[-99.9386,77.7829],[-100.61,77.864],[-101.0597,78.2055],[-102.5925,78.2445],[-102.8022,78.2878],[-102.7441,78.3806],[-104.4657,78.2746],[-105.0464,78.5048],[-103.5395,78.5004],[-103.3798,78.5896],[-104.0445,78.6306],[-103.3183,78.737],[-104.1881,78.7767],[-103.8322,78.905],[-104.2472,78.9971],[-104.9554,78.7982],[-104.6785,79.0111],[-105.6068,79.1036]]],[[[-100.1522,79.998],[-99.7794,80.1508],[-99.1197,80.1337],[-98.706,79.967],[-98.6514,79.7922],[-98.8402,79.6699],[-100.1522,79.998]]],[[[-94.9713,80.6391],[-96.1505,80.6658],[-95.4777,80.7084],[-94.9713,80.6391]]],[[[-96.1369,79.9117],[-96.8017,80.0973],[-94.3822,79.988],[-94.8074,80.0973],[-94.0875,80.1799],[-95.4015,80.1267],[-95.6981,80.1799],[-95.232,80.2413],[-96.685,80.3437],[-95.4374,80.3437],[-96.1022,80.4946],[-95.9036,80.5429],[-96.027,80.5839],[-93.7858,80.5293],[-94.6771,80.6658],[-94.1288,80.7282],[-95.5336,80.8241],[-94.903,81.0637],[-94.4471,80.9675],[-93.9093,81.0426],[-94.3024,81.1227],[-93.1558,81.0978],[-93.2172,81.2145],[-94.3959,81.2617],[-93.2577,81.3734],[-91.7983,81.1592],[-91.915,81.0774],[-90.5929,80.6528],[-90.7311,80.5667],[-89.058,80.4678],[-89.2558,80.2897],[-88.5384,80.0991],[-88.1461,80.1035],[-88.7086,80.2897],[-88.6442,80.3967],[-87.7006,80.4126],[-87.5677,80.1833],[-88.0636,80.1252],[-87.0085,79.9533],[-87.4883,79.8372],[-86.962,79.9088],[-87.1358,79.6495],[-87.4609,79.5356],[-86.3091,79.6481],[-86.0421,79.5691],[-86.1662,79.4599],[-86.0675,79.4362],[-85.6987,79.618],[-84.9126,79.2707],[-86.7467,78.9591],[-86.9683,79.0642],[-86.9402,78.9186],[-87.6492,78.643],[-87.9975,78.8112],[-87.9847,78.9643],[-87.7284,79.0831],[-88.1737,78.9956],[-88.1362,78.6869],[-88.3585,78.6579],[-87.9097,78.5524],[-88.2285,78.4636],[-88.8048,78.6102],[-88.54,78.4169],[-88.8113,78.1654],[-90.0062,78.6138],[-90.0995,78.5617],[-89.9888,78.4487],[-89.4552,78.1645],[-90.332,78.3364],[-90.7506,78.3227],[-90.3254,78.2744],[-90.3527,78.1446],[-92.0245,78.2107],[-92.9913,78.4661],[-91.6492,78.565],[-93.2817,78.5947],[-93.8131,78.7678],[-93.0384,78.7678],[-94.2935,78.9869],[-93.3305,79.171],[-90.3664,79.2475],[-92.6273,79.2454],[-91.1205,79.3916],[-93.0867,79.4871],[-93.005,79.3916],[-93.3885,79.3432],[-93.321,79.4521],[-93.9298,79.2592],[-94.2109,79.2749],[-93.841,79.399],[-95.211,79.281],[-95.78,79.4809],[-94.3406,79.6862],[-94.3003,79.7752],[-95.8537,79.6524],[-96.5888,79.8571],[-96.1369,79.9117]]],[[[-61.0855,82.3312],[-64.3726,81.725],[-68.2132,81.5632],[-69.3083,81.7217],[-68.3562,81.543],[-68.8559,81.5504],[-68.5806,81.5161],[-66.6083,81.5162],[-70.2133,81.1799],[-64.4359,81.4815],[-67.563,80.946],[-69.666,80.3552],[-70.3095,80.358],[-70.2195,80.4195],[-70.8245,80.567],[-70.3704,80.4127],[-70.4529,80.3437],[-69.9595,80.2618],[-70.1591,80.1925],[-72.4198,80.2134],[-71.8985,80.1179],[-72.342,80.0626],[-70.487,80.0626],[-71.4596,79.8987],[-70.9116,79.8926],[-71.1424,79.7895],[-72.2317,79.6626],[-74.2278,79.8957],[-74.8449,79.8503],[-73.3833,79.7756],[-73.1253,79.5664],[-74.9964,79.5134],[-74.8886,79.4156],[-75.028,79.3733],[-77.1338,79.5487],[-75.8802,79.3569],[-77.1245,79.4689],[-77.4015,79.4531],[-77.1619,79.3302],[-78.0594,79.3569],[-74.4687,79.2272],[-74.825,79.1793],[-74.4408,79.0627],[-76.0888,79.2047],[-78.1824,79.1954],[-78.2574,79.1719],[-76.1687,79.0773],[-78.8955,79.0694],[-77.7032,79.008],[-78.299,78.7958],[-78.2268,78.7722],[-77.718,78.9697],[-75.7808,78.982],[-76.4592,78.8494],[-74.7738,78.8348],[-74.9063,78.7883],[-74.722,78.7126],[-74.8728,78.6443],[-74.6326,78.5897],[-76.6616,78.5283],[-75.0298,78.3364],[-76.9154,78.2068],[-75.5819,78.113],[-75.934,77.9586],[-78.2166,78.0025],[-78.43,77.9113],[-77.7162,77.6096],[-78.6897,77.3191],[-80.5514,77.3098],[-81.9375,77.6854],[-81.673,77.5237],[-81.7372,77.4348],[-81.1709,77.3325],[-82.1981,77.3017],[-81.8577,77.1705],[-81.103,77.2875],[-80.1151,77.2056],[-80.3725,77.0747],[-79.4324,77.2386],[-79.0065,77.1047],[-79.3756,76.9256],[-78.7204,76.8276],[-78.0909,77.0228],[-77.7162,76.822],[-77.7708,76.6643],[-78.3673,76.4657],[-78.7742,76.5773],[-79.2932,76.3024],[-81.0725,76.1291],[-80.7725,76.42],[-81.2069,76.5636],[-82.0557,76.5165],[-81.7832,76.6885],[-82.2763,76.6349],[-82.7298,76.821],[-82.5119,76.6623],[-82.0821,76.5681],[-82.2255,76.5203],[-82.1382,76.4387],[-83.001,76.4363],[-83.381,76.7613],[-83.5277,76.7087],[-83.1851,76.4309],[-83.7128,76.435],[-84.293,76.6638],[-84.2159,76.4508],[-85.0558,76.5203],[-84.3881,76.3151],[-85.2034,76.2843],[-86.3474,76.3885],[-86.4176,76.4717],[-86.2072,76.5272],[-86.578,76.6417],[-86.3029,76.5277],[-86.722,76.3484],[-87.4331,76.4657],[-87.563,76.6202],[-87.4063,76.3558],[-88.4036,76.3937],[-88.507,76.8237],[-88.7086,76.7121],[-88.4963,76.5476],[-88.6184,76.4044],[-88.7105,76.6008],[-88.9106,76.4105],[-89.6812,76.5749],[-89.3864,76.7327],[-89.5372,76.8568],[-88.3932,77.1025],[-88.4946,77.1141],[-86.6038,77.1782],[-87.2487,77.308],[-86.8504,77.3639],[-87.721,77.3701],[-87.7006,77.5408],[-88.2115,77.6503],[-88.1053,77.815],[-88.222,77.8629],[-86.4522,77.8364],[-85.9744,77.7133],[-85.7957,77.4253],[-84.4661,77.3017],[-84.617,77.3837],[-83.4662,77.3489],[-83.8362,77.4588],[-82.9861,77.6785],[-82.3211,78.0826],[-82.7649,78.0277],[-82.736,77.9283],[-83.6785,77.5345],[-84.761,77.5203],[-84.8682,77.5735],[-84.6313,77.6301],[-84.4351,77.7286],[-84.943,77.6027],[-85.3506,77.74],[-84.9714,77.8437],[-85.4017,77.8317],[-84.3153,77.8976],[-85.6796,77.9352],[-84.2886,78.0826],[-85.0974,78.1031],[-85.0353,78.1788],[-84.028,78.1788],[-84.9683,78.2141],[-84.576,78.3535],[-84.8709,78.37],[-84.617,78.5897],[-85.4915,78.1061],[-86.2894,78.0834],[-85.9392,78.2374],[-85.8603,78.3856],[-86.7698,78.1204],[-87.5367,78.1446],[-87.0911,78.2068],[-87.523,78.2334],[-87.5293,78.411],[-86.8583,78.5488],[-87.1223,78.5829],[-86.9405,78.7142],[-85.0311,78.9219],[-82.3428,78.5692],[-82.239,78.5943],[-82.596,78.7064],[-82.2193,78.7269],[-83.2602,78.8367],[-81.7537,78.843],[-81.4788,79.049],[-82.5346,78.8851],[-84.7521,79.0389],[-84.4529,79.1483],[-83.9825,79.0511],[-83.4474,79.029],[-83.3632,79.0552],[-84.3296,79.1924],[-84.4866,79.4127],[-85.021,79.6175],[-86.4747,79.761],[-86.3963,79.963],[-85.2538,79.926],[-86.5347,80.0309],[-86.6538,80.1369],[-86.5039,80.3091],[-83.7879,80.2509],[-81.616,79.6244],[-81.7873,79.6114],[-80.5875,79.5692],[-79.752,79.707],[-81.5234,79.718],[-81.6617,79.9076],[-81.4037,79.9397],[-83.2056,80.3232],[-78.0523,80.5691],[-79.9643,80.6175],[-76.5153,80.8561],[-78.9364,80.8788],[-78.4442,81.1705],[-76.7442,81.4405],[-78.1917,81.3052],[-78.7368,81.1136],[-79.505,81.2003],[-79.0662,81.0911],[-79.6145,80.8276],[-80.8756,80.6629],[-82.9131,80.5394],[-83.1683,80.5877],[-81.76,80.8167],[-83.5686,80.7416],[-83.1236,80.831],[-83.2737,80.8465],[-83.8628,80.7621],[-83.7195,80.6318],[-83.846,80.5441],[-85.1214,80.5041],[-86.7491,80.6045],[-85.6225,80.9803],[-82.3633,81.1799],[-85.781,81.034],[-87.276,80.6318],[-87.7065,80.6455],[-89.4621,80.9148],[-86.6992,81.0054],[-84.7337,81.2835],[-89.8262,81.013],[-90.3528,81.1737],[-88.9339,81.2487],[-89.9556,81.3306],[-88.8889,81.5005],[-87.2487,81.4951],[-88.3427,81.5905],[-90.4923,81.3708],[-90.8599,81.4473],[-89.5856,81.6323],[-90.2987,81.7041],[-91.47,81.5299],[-91.9566,81.6602],[-90.2429,81.8998],[-89.3354,81.809],[-89.1475,81.8856],[-89.4132,81.9296],[-88.0705,82.1073],[-86.7279,81.893],[-87.1314,81.9756],[-86.1621,82.0458],[-85.3993,81.8569],[-85.7342,81.9886],[-84.6033,81.893],[-86.8787,82.2083],[-85.401,82.277],[-85.9192,82.4336],[-84.7084,82.483],[-84.946,82.4274],[-83.6749,82.349],[-82.9517,82.1258],[-83.1304,82.0712],[-81.8766,82.0438],[-82.627,82.1037],[-82.9699,82.2984],[-79.2306,81.8179],[-79.8637,82.0269],[-82.7315,82.4049],[-81.4788,82.5025],[-82.328,82.6592],[-80.5806,82.5434],[-81.5845,82.8005],[-81.4739,82.8303],[-79.847,82.6438],[-79.9848,82.6943],[-78.5044,82.6881],[-80.4298,82.9004],[-80.1581,82.9393],[-77.8522,82.926],[-75.8938,82.5987],[-76.2183,82.4521],[-75.4004,82.6192],[-77.3872,82.9897],[-77.134,83.037],[-74.2,83.0021],[-73.8284,82.8657],[-72.5911,82.7012],[-73.6531,82.9271],[-71.6276,83.1033],[-71.7961,83.0201],[-70.8371,82.8861],[-71.5012,83.0096],[-69.6875,83.1165],[-69.7744,83.0512],[-69.4517,83.037],[-69.617,82.9899],[-66.2998,82.9345],[-68.6177,82.6304],[-65.8516,82.8424],[-65.1553,82.77],[-65.3545,82.8036],[-65.1007,82.852],[-65.2761,82.8787],[-64.6967,82.9098],[-64.9368,82.8724],[-63.4471,82.8267],[-63.8531,82.7216],[-62.9283,82.5708],[-63.3733,82.441],[-62.8699,82.5168],[-62.1747,82.5299],[-62.3012,82.5212],[-62.3523,82.482],[-61.5789,82.4889],[-61.0855,82.3312]]],[[[-79.9166,53.1703],[-79.7951,53.1054],[-79.9298,53.0944],[-79.9166,53.1703]]],[[[-80.0428,53.3662],[-79.9471,53.2659],[-80.086,53.3304],[-80.0428,53.3662]]],[[[-79.8619,53.9204],[-79.9069,53.9177],[-79.9301,53.9409],[-79.8619,53.9204]]],[[[-79.5459,56.5303],[-80.105,56.2005],[-80.0599,56.3044],[-79.5459,56.5303]]],[[[-79.5476,56.7275],[-79.4833,56.7394],[-79.5649,56.6206],[-79.5476,56.7275]]],[[[-79.8125,56.8967],[-79.795,56.9516],[-79.7309,56.8019],[-79.8125,56.8967]]],[[[-79.6964,57.5295],[-79.851,57.4865],[-79.7372,57.622],[-79.6964,57.5295]]],[[[-80.5533,59.4501],[-80.4672,59.4647],[-80.5422,59.3713],[-80.5533,59.4501]]],[[[-80.2454,59.6767],[-80.1561,59.6828],[-80.3422,59.6196],[-80.2454,59.6767]]],[[[-80.0189,59.7722],[-80.043,59.8778],[-79.8817,59.861],[-80.0189,59.7722]]],[[[-65.6561,43.463],[-65.5599,43.5108],[-65.6288,43.4221],[-65.6561,43.463]]],[[[-59.9978,43.9379],[-59.7072,44.0144],[-60.1302,43.9605],[-59.9978,43.9379]]],[[[-66.2858,44.3248],[-66.2034,44.3922],[-66.3277,44.2581],[-66.2858,44.3248]]],[[[-66.906,44.6062],[-66.7432,44.782],[-66.6904,44.62],[-66.906,44.6062]]],[[[-74.1284,45.3076],[-73.9206,45.3338],[-74.165,45.2697],[-74.1284,45.3076]]],[[[-73.9173,45.41],[-73.8581,45.3818],[-73.9845,45.4064],[-73.9173,45.41]]],[[[-73.8993,45.5009],[-73.9432,45.5076],[-73.8865,45.5234],[-73.8993,45.5009]]],[[[-61.0097,45.5808],[-61.0035,45.4608],[-61.1117,45.5488],[-61.0097,45.5808]]],[[[-73.8573,45.5494],[-73.7409,45.6643],[-73.5648,45.6987],[-73.7183,45.5624],[-73.8573,45.5494]]],[[[-73.4993,45.7099],[-73.5887,45.4479],[-73.9736,45.4446],[-73.694,45.5553],[-73.4993,45.7099]]],[[[-70.8854,47.0266],[-70.8743,46.937],[-71.1247,46.877],[-70.8854,47.0266]]],[[[-60.0809,45.7924],[-61.2846,45.5477],[-61.5515,46.0218],[-60.6421,47.0037],[-60.3961,47.0264],[-60.4958,46.8955],[-60.3108,46.8544],[-60.3518,46.6013],[-60.6058,46.2113],[-60.4269,46.284],[-61.1186,45.9494],[-60.736,46.0566],[-61.1476,45.7079],[-60.7325,45.6844],[-60.3995,45.998],[-60.7816,45.9543],[-60.2835,46.3275],[-60.2903,46.1562],[-59.8105,46.1699],[-59.9579,46.0275],[-59.8053,45.9355],[-60.0809,45.7924]]],[[[-62.004,46.4641],[-62.5764,46.239],[-62.4532,46.1076],[-62.5719,46.0327],[-62.4559,46.0252],[-62.7507,45.9508],[-63.1168,46.2158],[-62.963,46.32],[-63.2334,46.1455],[-63.6021,46.2169],[-63.7369,46.3964],[-64.1343,46.4156],[-64.0727,46.6422],[-64.4168,46.6828],[-63.9971,47.0673],[-64.0933,46.78],[-63.8336,46.6124],[-63.9356,46.4783],[-62.004,46.4641]]],[[[-61.3822,47.6367],[-61.9656,47.283],[-61.793,47.2403],[-62.0106,47.2248],[-61.9255,47.4132],[-61.5621,47.6271],[-61.3822,47.6367]]],[[[-64.6966,47.7594],[-64.4774,47.9444],[-64.5389,47.8072],[-64.6966,47.7594]]],[[[-64.5941,47.9144],[-64.4843,48.0201],[-64.5904,47.9035],[-64.5941,47.9144]]],[[[-63.0933,49.2329],[-64.5106,49.8681],[-64.1328,49.9501],[-63.1241,49.7839],[-61.8826,49.3545],[-61.6608,49.151],[-62.2482,49.0679],[-63.0933,49.2329]]],[[[-63.8575,50.2174],[-63.927,50.2214],[-63.9015,50.254],[-63.8575,50.2174]]],[[[-79.6353,52.0217],[-79.2517,52.0769],[-79.6204,51.9205],[-79.6353,52.0217]]],[[[-80.7593,52.9192],[-80.7177,52.695],[-82.0627,53.0228],[-81.8578,53.1852],[-81.1742,53.2123],[-80.7593,52.9192]]],[[[-79.7247,53.5089],[-79.7656,53.5467],[-79.7036,53.5163],[-79.7247,53.5089]]],[[[-79.6539,54.8544],[-79.0189,54.9408],[-79.7799,54.7838],[-79.6539,54.8544]]],[[[-77.6479,55.4274],[-77.2113,55.6538],[-77.5261,55.4654],[-77.6479,55.4274]]],[[[-79.1424,55.7973],[-78.9364,56.0245],[-79.0783,55.8343],[-79.1424,55.7973]]],[[[-78.6553,56.2362],[-78.9364,56.1195],[-78.6708,56.4431],[-78.6553,56.2362]]],[[[-79.7861,55.7905],[-79.4708,56.121],[-79.909,55.8253],[-80.0257,55.9003],[-79.5254,56.2936],[-79.4537,56.5595],[-79.4352,56.4142],[-79.6073,56.1345],[-79.4093,56.2225],[-79.2849,56.661],[-79.204,56.685],[-79.247,56.5621],[-78.9361,56.4302],[-78.8818,56.3256],[-79.2033,55.8594],[-78.9901,56.2626],[-78.9802,56.392],[-79.0494,56.3607],[-79.0593,56.2021],[-79.2859,55.8663],[-79.1556,56.2362],[-79.4694,55.8794],[-79.7861,55.7905]]],[[[-79.9517,56.7852],[-79.8174,56.8316],[-79.8881,56.7491],[-79.9517,56.7852]]],[[[-77.9495,58.3266],[-77.8179,58.3088],[-77.6683,58.2447],[-77.9495,58.3266]]],[[[-78.6962,58.6966],[-78.4567,58.5464],[-78.4567,58.5389],[-78.6832,58.6208],[-78.6962,58.6966]]],[[[-123.307,48.7646],[-123.2504,48.7661],[-123.1867,48.7364],[-123.307,48.7646]]],[[[-123.0438,48.7888],[-123.1853,48.7746],[-123.2235,48.8327],[-123.0438,48.7888]]],[[[-62.5744,45.824],[-62.5069,45.8281],[-62.6031,45.8042],[-62.5744,45.824]]],[[[-59.6952,46.034],[-59.7259,46.0004],[-59.781,46.0044],[-59.6952,46.034]]],[[[-54.8301,47.2671],[-54.7781,47.2736],[-54.8124,47.2318],[-54.8301,47.2671]]],[[[-54.2096,47.3599],[-54.178,47.4182],[-54.1446,47.4004],[-54.2096,47.3599]]],[[[-70.4254,47.405],[-70.3239,47.4274],[-70.4357,47.377],[-70.4254,47.405]]],[[[-53.0192,47.619],[-52.9164,47.6345],[-53.0303,47.5992],[-53.0192,47.619]]],[[[-68.8798,48.4035],[-68.8381,48.4138],[-68.8911,48.388],[-68.8798,48.4035]]],[[[-125.915,49.1763],[-125.797,49.227],[-125.8014,49.1439],[-125.915,49.1763]]],[[[-55.8833,50.2042],[-55.8239,50.2041],[-55.886,50.1975],[-55.8833,50.2042]]],[[[-55.8027,50.2202],[-55.7299,50.2302],[-55.6958,50.1937],[-55.8027,50.2202]]],[[[-128.6159,50.7828],[-128.6037,50.8198],[-128.5726,50.7952],[-128.6159,50.7828]]],[[[-58.8856,50.7943],[-58.8463,50.7894],[-58.8611,50.7796],[-58.8856,50.7943]]],[[[-128.7044,50.8072],[-128.6622,50.825],[-128.655,50.8088],[-128.7044,50.8072]]],[[[-57.2525,50.7967],[-57.2094,50.8411],[-57.1866,50.823],[-57.2525,50.7967]]],[[[-127.8344,50.8787],[-127.6882,50.9009],[-127.656,50.8378],[-127.8344,50.8787]]],[[[-58.547,51.1504],[-58.4274,51.1671],[-58.6212,51.0918],[-58.547,51.1504]]],[[[-58.3882,51.2389],[-58.3629,51.2022],[-58.411,51.2016],[-58.3882,51.2389]]],[[[-128.487,51.9537],[-128.4324,51.9024],[-128.4788,51.9068],[-128.487,51.9537]]],[[[-79.0801,52.1065],[-79.0019,52.1076],[-79.0867,52.0975],[-79.0801,52.1065]]],[[[-79.4849,52.2533],[-79.3813,52.2448],[-79.5013,52.2331],[-79.4849,52.2533]]],[[[-78.7685,52.4477],[-78.7498,52.4062],[-78.8273,52.4276],[-78.7685,52.4477]]],[[[-79.6124,52.5773],[-79.5653,52.5454],[-79.6394,52.5326],[-79.6124,52.5773]]],[[[-129.4496,52.644],[-129.4001,52.6795],[-129.4024,52.6466],[-129.4496,52.644]]],[[[-55.8954,52.7633],[-55.8119,52.7701],[-55.8095,52.7311],[-55.8954,52.7633]]],[[[-129.3662,52.8145],[-129.312,52.8393],[-129.3289,52.7996],[-129.3662,52.8145]]],[[[-55.8504,53.0035],[-55.7679,52.9882],[-55.8023,52.9446],[-55.8504,53.0035]]],[[[-55.8707,53.0265],[-55.7713,53.0892],[-55.7588,53.0341],[-55.8707,53.0265]]],[[[-55.9835,53.4417],[-55.7672,53.4757],[-55.7429,53.4454],[-55.9835,53.4417]]],[[[-130.6165,53.5064],[-130.587,53.4662],[-130.6361,53.4984],[-130.6165,53.5064]]],[[[-57.1138,53.643],[-57.1298,53.7046],[-57.0308,53.713],[-57.1138,53.643]]],[[[-57.0089,53.7885],[-56.8361,53.8065],[-56.8177,53.79],[-57.0089,53.7885]]],[[[-130.4379,53.7569],[-130.5694,53.8367],[-130.42,53.7833],[-130.4379,53.7569]]],[[[-57.3676,54.259],[-57.2925,54.2837],[-57.3144,54.2397],[-57.3676,54.259]]],[[[-81.086,54.3482],[-81.108,54.366],[-81.1018,54.3741],[-81.086,54.3482]]],[[[-57.2933,54.4686],[-57.2289,54.4919],[-57.1976,54.4493],[-57.2933,54.4686]]],[[[-130.87,54.4348],[-130.79,54.4937],[-130.7296,54.4208],[-130.87,54.4348]]],[[[-57.3473,54.5551],[-57.268,54.5035],[-57.3622,54.5073],[-57.3473,54.5551]]],[[[-131.0909,54.5822],[-131.0568,54.6257],[-131.05,54.606],[-131.0909,54.5822]]],[[[-76.7655,56.176],[-76.7208,56.1254],[-76.7803,56.1081],[-76.7655,56.176]]],[[[-77.949,56.3134],[-77.8846,56.3035],[-77.9801,56.2866],[-77.949,56.3134]]],[[[-77.537,56.397],[-77.5026,56.3865],[-77.5354,56.3795],[-77.537,56.397]]],[[[-78.753,56.6573],[-78.8509,56.6727],[-78.7399,56.667],[-78.753,56.6573]]],[[[-76.6342,56.7153],[-76.619,56.5869],[-76.6547,56.5489],[-76.6342,56.7153]]],[[[-76.656,57.1398],[-76.7009,57.0827],[-76.7251,57.1908],[-76.656,57.1398]]],[[[-78.3256,57.2077],[-78.3243,57.1719],[-78.3819,57.1745],[-78.3256,57.2077]]],[[[-78.381,57.3288],[-78.4154,57.2793],[-78.4808,57.2914],[-78.381,57.3288]]],[[[-76.7394,57.2839],[-76.8393,57.4188],[-76.8354,57.4258],[-76.7394,57.2839]]],[[[-67.6366,58.4022],[-67.5308,58.2969],[-67.6359,58.291],[-67.6366,58.4022]]],[[[-78.6509,58.8021],[-78.6483,58.7722],[-78.7076,58.786],[-78.6509,58.8021]]],[[[-78.9271,58.8655],[-78.8861,58.8081],[-78.9376,58.8648],[-78.9271,58.8655]]],[[[-69.0612,59.0112],[-68.9746,58.9896],[-69.1203,58.9573],[-69.0612,59.0112]]],[[[-80.5699,59.1056],[-80.5386,59.0947],[-80.5829,59.0983],[-80.5699,59.1056]]],[[[-80.5806,59.6693],[-80.5515,59.6494],[-80.5882,59.6616],[-80.5806,59.6693]]],[[[-80.4387,59.6774],[-80.3703,59.7087],[-80.4437,59.6482],[-80.4387,59.6774]]],[[[-70.0119,60.9968],[-69.9776,60.9299],[-70.0039,60.9351],[-70.0119,60.9968]]],[[[-71.5864,61.302],[-71.4878,61.3371],[-71.4865,61.3019],[-71.5864,61.302]]],[[[-72.1308,61.889],[-71.9939,61.8707],[-71.9734,61.8589],[-72.1308,61.889]]],[[[-92.8507,61.9477],[-92.7719,61.9351],[-92.875,61.9387],[-92.8507,61.9477]]],[[[-72.4624,62.0367],[-72.3842,62.0324],[-72.3281,62.016],[-72.4624,62.0367]]],[[[-92.6417,62.0607],[-92.6528,62.0265],[-92.7009,62.0746],[-92.6417,62.0607]]],[[[-66.562,62.9311],[-66.3425,62.8496],[-66.569,62.9148],[-66.562,62.9311]]],[[[-67.0745,63.0975],[-66.8074,62.9859],[-66.7708,62.9449],[-67.0745,63.0975]]],[[[-68.2161,63.2764],[-68.0585,63.2227],[-68.0498,63.1924],[-68.2161,63.2764]]],[[[-68.092,63.3204],[-67.9317,63.2329],[-67.895,63.1894],[-68.092,63.3204]]],[[[-67.9125,63.3931],[-67.8183,63.2913],[-67.964,63.41],[-67.9125,63.3931]]],[[[-64.1373,63.618],[-64.0912,63.4865],[-64.1687,63.6046],[-64.1373,63.618]]],[[[-64.2172,63.8426],[-64.2611,63.7239],[-64.3429,63.7693],[-64.334,63.8448],[-64.2172,63.8426]]],[[[-76.4974,64.2426],[-76.5685,64.2061],[-76.5727,64.2343],[-76.4974,64.2426]]],[[[-76.6074,64.221],[-76.6901,64.2641],[-76.5653,64.2541],[-76.6074,64.221]]],[[[-65.0755,64.307],[-64.8783,64.2296],[-64.9913,64.1932],[-65.0755,64.307]]],[[[-66.9246,65.3649],[-66.9678,65.283],[-67.0167,65.3198],[-66.9246,65.3649]]],[[[-89.1045,65.4089],[-89.023,65.4147],[-88.9693,65.3879],[-89.1045,65.4089]]],[[[-88.4891,65.4731],[-88.3831,65.4725],[-88.3713,65.462],[-88.4891,65.4731]]],[[[-67.6249,65.7337],[-67.3892,65.7362],[-67.7045,65.7165],[-67.6249,65.7337]]],[[[-65.7706,65.7633],[-65.8372,65.6783],[-65.8656,65.7812],[-65.7706,65.7633]]],[[[-66.9639,65.997],[-67.1057,65.9577],[-67.1486,65.9959],[-66.9639,65.997]]],[[[-85.0806,66.0814],[-84.9975,66.0573],[-85.104,66.059],[-85.0806,66.0814]]],[[[-83.5587,66.046],[-83.6223,66.049],[-83.5704,66.0837],[-83.5587,66.046]]],[[[-83.5741,66.1103],[-83.6484,66.0711],[-83.6488,66.123],[-83.5741,66.1103]]],[[[-85.9823,66.4639],[-85.9112,66.462],[-85.8962,66.4539],[-85.9823,66.4639]]],[[[-113.1551,67.9218],[-112.8165,67.9692],[-112.7613,67.9641],[-113.1551,67.9218]]],[[[-112.9123,68.1449],[-112.7461,68.1676],[-112.7178,68.1559],[-112.9123,68.1449]]],[[[-136.2219,69.1057],[-136.0668,69.1285],[-136.0063,69.0903],[-136.2219,69.1057]]],[[[-81.8389,69.4338],[-81.4856,69.3472],[-81.9027,69.3941],[-81.8389,69.4338]]],[[[-135.8411,69.4957],[-135.5952,69.4484],[-135.8409,69.4814],[-135.8411,69.4957]]],[[[-82.6477,69.8261],[-82.5589,69.7433],[-82.8547,69.7944],[-82.6477,69.8261]]]]}}