{"type":"Feature","bbox":[73.6023,15.7754,134.7726,53.5678],"properties":{"iso":"CN","name":"China","name_de":"Volksrepublik China","key":"CN"},"geometry":{"type":"MultiPolygon","coordinates":[[[[78.965,33.3443],[78.8243,33.4611],[78.7814,33.5528],[78.7873,33.8084],[78.7211,33.9944],[78.7301,34.0793],[78.9032,34.1581],[78.9762,34.2172],[78.9885,34.2631],[78.9762,34.3092],[78.9221,34.3723],[78.8017,34.415],[78.7507,34.4713],[78.6646,34.5264],[78.6073,34.5465],[78.3794,34.5787],[78.296,34.6247],[78.2732,34.6589],[78.2114,34.8483],[78.1481,34.9431],[78.13,35.0554],[78.0012,35.2689],[78.0098,35.3475],[78.0556,35.4529],[78.0443,35.4916],[77.9859,35.4942],[77.8831,35.4311],[77.8342,35.4522],[77.8003,35.4954],[77.7603,35.4981],[77.6606,35.4581],[77.5122,35.4785],[77.3837,35.472],[77.2811,35.528],[77.1413,35.5254],[77.039,35.585],[76.915,35.5832],[76.843,35.6413],[76.7634,35.6471],[76.6767,35.7138],[76.5708,35.7513],[76.5511,35.784],[76.5653,35.8655],[76.5555,35.8979],[76.5372,35.9025],[76.5002,35.8715],[76.4321,35.8605],[76.4031,35.831],[76.3489,35.831],[76.312,35.8096],[76.2604,35.8178],[76.166,35.8062],[76.1381,35.8267],[76.1147,35.9418],[76.09,35.9781],[75.953,36.0073],[75.9,36.0635],[75.9014,36.1136],[75.9715,36.155],[75.9701,36.2023],[76.0144,36.2304],[75.9688,36.302],[75.9874,36.4212],[75.9766,36.4626],[75.8498,36.6447],[75.7287,36.7232],[75.6498,36.754],[75.5705,36.7667],[75.508,36.7476],[75.4926,36.7207],[75.4319,36.7229],[75.4105,36.7473],[75.3945,36.8643],[75.378,36.8943],[75.3135,36.9288],[75.1951,36.9489],[75.1001,36.9941],[74.925,36.9709],[74.8724,36.9071],[74.8532,36.959],[74.7926,37.0152],[74.7192,37.0164],[74.6625,37.0545],[74.5424,37.0217],[74.5192,37.0302],[74.4766,37.0831],[74.3826,37.1266],[74.3683,37.1671],[74.4567,37.1773],[74.5001,37.2316],[74.59,37.2434],[74.6233,37.2308],[74.7215,37.2978],[74.7374,37.2961],[74.794,37.2139],[74.8923,37.2311],[74.9515,37.2813],[75.0684,37.3121],[75.0918,37.3784],[75.1641,37.4006],[75.0534,37.4938],[74.9452,37.5486],[74.8919,37.5992],[74.8861,37.6535],[74.9652,37.7675],[74.9493,37.7953],[74.8861,37.8306],[74.8832,37.8439],[74.9137,37.8808],[74.8908,37.8977],[74.8928,37.994],[74.8804,38.0217],[74.8099,38.0532],[74.7907,38.0814],[74.7713,38.1963],[74.7711,38.2915],[74.7843,38.3257],[74.8383,38.3794],[74.8358,38.4552],[74.7603,38.52],[74.6965,38.524],[74.6461,38.5611],[74.3342,38.667],[74.2214,38.6497],[74.1234,38.6695],[74.095,38.6458],[74.0844,38.614],[74.0373,38.5985],[74.0588,38.547],[74.0289,38.5272],[73.9329,38.5297],[73.8164,38.5866],[73.7364,38.7217],[73.7359,38.8004],[73.6837,38.8549],[73.6808,38.873],[73.7172,38.9186],[73.8096,38.9327],[73.8239,38.9449],[73.8261,38.9769],[73.7093,39.0655],[73.6738,39.1426],[73.6078,39.2073],[73.6023,39.2358],[73.6438,39.3513],[73.6326,39.4483],[73.8383,39.4757],[73.8705,39.5468],[73.9216,39.5821],[73.8935,39.7104],[73.8295,39.747],[73.8186,39.786],[73.832,39.8237],[73.8807,39.865],[73.8932,39.9181],[73.944,39.9701],[73.9767,40.0436],[74.1676,40.1064],[74.3338,40.0937],[74.4766,40.1724],[74.5654,40.2469],[74.7058,40.3313],[74.8621,40.3262],[74.8539,40.3588],[74.7874,40.4207],[74.8354,40.5116],[74.8792,40.5051],[75.0024,40.4473],[75.0644,40.4438],[75.1381,40.4639],[75.1939,40.4413],[75.4818,40.6141],[75.5238,40.6332],[75.5599,40.6329],[75.5877,40.6119],[75.6056,40.5694],[75.6179,40.494],[75.6669,40.4502],[75.6693,40.4324],[75.6383,40.3861],[75.6563,40.3231],[75.6818,40.2917],[75.772,40.3102],[75.9019,40.2989],[75.9624,40.3573],[76.0516,40.3902],[76.1514,40.3681],[76.2442,40.4412],[76.2734,40.4341],[76.3135,40.3433],[76.4765,40.4361],[76.5564,40.5657],[76.6094,40.5971],[76.6242,40.6275],[76.6308,40.7289],[76.6479,40.7649],[76.6742,40.7954],[76.7625,40.847],[76.7708,40.8671],[76.7574,40.9258],[76.7668,40.9447],[76.861,41.0132],[77.0077,41.0442],[77.1188,41.0117],[77.2432,41.0057],[77.333,41.0207],[77.5035,40.9811],[77.6503,40.9971],[77.831,41.063],[78.075,41.0395],[78.1905,41.1178],[78.2754,41.2289],[78.3495,41.2704],[78.3597,41.2875],[78.3393,41.344],[78.3599,41.3775],[78.5104,41.4544],[78.6192,41.4781],[78.6583,41.5325],[78.8073,41.5784],[78.9158,41.6332],[78.9762,41.6418],[79.0887,41.7025],[79.1959,41.7295],[79.2823,41.7835],[79.3908,41.7727],[79.611,41.8676],[79.7475,41.8797],[79.7833,41.9051],[79.8128,41.9776],[79.8429,42.0018],[79.9309,42.0233],[80.1819,42.021],[80.2312,42.0337],[80.2576,42.0653],[80.2565,42.0844],[80.2246,42.1256],[80.2103,42.1895],[80.2491,42.2049],[80.2684,42.238],[80.1962,42.4346],[80.2105,42.4908],[80.1624,42.5524],[80.1438,42.6448],[80.1889,42.7016],[80.2483,42.8162],[80.3339,42.8171],[80.5486,42.8785],[80.5545,42.8989],[80.5429,42.9167],[80.4762,42.9303],[80.3738,42.9752],[80.3551,43.0006],[80.3681,43.0285],[80.6185,43.1343],[80.66,43.1328],[80.7315,43.1011],[80.7734,43.1129],[80.7934,43.1495],[80.7652,43.1999],[80.7485,43.2752],[80.6429,43.3262],[80.6942,43.3947],[80.7127,43.4589],[80.4762,43.9102],[80.4231,43.9721],[80.4038,44.0489],[80.3389,44.1215],[80.3732,44.231],[80.3304,44.453],[80.3838,44.6028],[80.3558,44.6529],[80.3763,44.6713],[80.492,44.7017],[80.4923,44.728],[80.3145,44.7803],[80.2447,44.816],[79.9917,44.7936],[79.8686,44.8494],[79.843,44.8735],[79.8582,44.9037],[80.1034,45.0322],[80.219,45.026],[80.2905,45.0462],[80.3901,45.0458],[80.4454,45.1042],[80.5368,45.1011],[80.6971,45.1437],[80.8539,45.1265],[81.542,45.2933],[81.6652,45.348],[81.7393,45.3381],[81.7652,45.3077],[81.7936,45.1956],[81.8753,45.1811],[81.9501,45.1445],[82.2453,45.2318],[82.2946,45.2282],[82.3418,45.2049],[82.4275,45.1372],[82.4758,45.1157],[82.5397,45.1237],[82.5852,45.1768],[82.6146,45.2486],[82.6338,45.3394],[82.632,45.4158],[82.6157,45.4354],[82.513,45.4658],[82.3627,45.4812],[82.3275,45.4933],[82.2915,45.5332],[82.3722,45.7342],[82.4475,45.8254],[82.4889,45.9017],[82.5419,46.1315],[82.5683,46.1965],[82.6744,46.3311],[82.839,46.7324],[82.9855,46.9425],[82.9855,47.0125],[83.0063,47.0806],[82.9982,47.1103],[83.0215,47.2059],[83.0716,47.2185],[83.1504,47.2115],[83.222,47.1719],[83.3534,47.145],[83.5245,47.0671],[83.9053,46.974],[84.0696,46.9644],[84.1581,46.9931],[84.2658,47.0001],[84.4218,46.9931],[84.521,46.9698],[84.6635,46.9839],[84.7317,46.9478],[84.7516,46.918],[84.7496,46.8825],[84.7155,46.8352],[84.7396,46.8148],[84.916,46.8506],[84.9758,46.902],[85.0482,46.9207],[85.2258,47.0416],[85.4986,47.0518],[85.5568,47.1787],[85.6597,47.2065],[85.679,47.2749],[85.6704,47.3843],[85.5846,47.4929],[85.5954,47.6241],[85.5154,47.9203],[85.5618,48.0307],[85.5864,48.1412],[85.7187,48.3588],[85.7837,48.4076],[86.006,48.4296],[86.192,48.4182],[86.2467,48.4374],[86.3074,48.4831],[86.4306,48.4859],[86.5651,48.5273],[86.6055,48.5901],[86.752,48.7154],[86.7392,48.7835],[86.7895,48.8391],[86.718,48.9125],[86.7094,48.9542],[86.7435,49.0077],[86.7989,49.0422],[86.8595,49.1053],[86.9754,49.0924],[87.1163,49.1298],[87.4004,49.071],[87.4756,49.0876],[87.5061,49.1209],[87.8163,49.1658],[87.8355,49.1007],[87.816,49.0506],[87.8219,49.0287],[87.8722,49.0041],[87.8726,48.968],[87.7569,48.9204],[87.7379,48.8694],[87.7961,48.8398],[87.8211,48.7883],[87.9076,48.7588],[87.9755,48.756],[88.0594,48.7081],[88.055,48.6734],[87.9428,48.5995],[87.9518,48.5752],[87.983,48.5523],[88.0625,48.5429],[88.166,48.4937],[88.2356,48.4932],[88.3049,48.469],[88.4167,48.3941],[88.5027,48.3926],[88.5651,48.343],[88.573,48.3253],[88.5612,48.2683],[88.5962,48.1977],[88.6358,48.1758],[88.7092,48.1664],[88.8054,48.106],[88.9168,48.106],[89.0456,47.993],[89.2187,47.977],[89.3543,48.0388],[89.4254,48.0216],[89.5418,48.031],[89.5719,48.0205],[89.5832,47.962],[89.6274,47.9439],[89.6553,47.8998],[89.7234,47.8782],[89.7513,47.8243],[89.8891,47.8243],[89.9344,47.8443],[89.9467,47.8832],[90.0446,47.8798],[90.0644,47.8506],[90.0522,47.8107],[90.0829,47.7561],[90.1634,47.71],[90.3448,47.6586],[90.3496,47.6478],[90.3274,47.623],[90.3816,47.5384],[90.4412,47.493],[90.4482,47.404],[90.4872,47.3782],[90.4687,47.3089],[90.7121,47.0147],[90.7424,46.9919],[90.8282,46.9823],[90.8851,46.9447],[90.9365,46.8644],[90.92,46.8336],[90.9253,46.8131],[91.0048,46.7404],[91.0156,46.7032],[90.9959,46.5946],[91.0475,46.5664],[90.9358,46.3439],[90.8962,46.302],[90.9488,46.1683],[90.9959,46.1137],[91.0024,46.0218],[90.9862,45.9931],[90.9192,45.9501],[90.7108,45.7522],[90.6966,45.73],[90.6511,45.4931],[90.7533,45.4209],[90.7905,45.3377],[90.7966,45.2928],[90.8544,45.2706],[90.8666,45.2536],[90.8576,45.2151],[90.8732,45.1862],[90.9055,45.186],[90.9751,45.2149],[91.0568,45.2176],[91.135,45.1979],[91.1843,45.1538],[91.2491,45.1297],[91.3665,45.1142],[91.4385,45.1461],[91.534,45.0711],[91.564,45.0771],[91.663,45.0595],[91.747,45.0724],[92.043,45.0748],[92.2189,45.0101],[92.2854,45.0195],[92.4751,44.9975],[92.7527,45.038],[92.8476,45.0391],[92.9451,45.0058],[93.1657,45.0076],[93.2442,44.9815],[93.341,44.9849],[93.4206,44.9551],[93.5253,44.9513],[93.714,44.8746],[93.9274,44.6729],[94.0586,44.6513],[94.149,44.6672],[94.1819,44.6608],[94.2775,44.5896],[94.3385,44.5121],[94.4301,44.5045],[94.5881,44.4361],[94.6982,44.3435],[95.0368,44.255],[95.3977,44.2805],[95.3227,44.1582],[95.319,44.0171],[95.3275,44.0067],[95.5103,43.9791],[95.5353,43.9577],[95.5892,43.8695],[95.6925,43.6305],[95.8328,43.4089],[95.855,43.2845],[95.8744,43.2471],[96.3187,42.9101],[96.3372,42.8665],[96.3578,42.7245],[97.1933,42.7873],[99.4745,42.5642],[99.9716,42.6763],[100.017,42.6765],[101.2187,42.5298],[101.4107,42.5449],[101.5249,42.5375],[101.6376,42.5154],[101.7354,42.4612],[101.8865,42.278],[101.9742,42.2079],[102.0342,42.1846],[103.0735,42.0045],[103.6914,41.7592],[104.5008,41.8706],[104.5049,41.6566],[104.8923,41.6448],[104.9738,41.5861],[105.0148,41.5961],[105.2009,41.7435],[105.3582,41.7858],[105.8686,41.9935],[106.7678,42.2866],[108.1774,42.4543],[108.3198,42.4326],[108.5365,42.4351],[108.7969,42.3984],[108.8627,42.4089],[108.9613,42.4475],[109.2534,42.4259],[109.4851,42.4493],[109.6673,42.549],[109.9127,42.6288],[110.0602,42.6384],[110.1399,42.6826],[110.4067,42.7686],[110.4494,42.8373],[110.6082,42.9447],[110.6801,43.0577],[110.797,43.1489],[110.9734,43.3156],[111.0961,43.3667],[111.3386,43.4382],[111.4014,43.4755],[111.5677,43.5025],[111.7538,43.6632],[111.8458,43.6669],[111.9334,43.6966],[111.9443,43.7864],[111.8388,43.9388],[111.7807,43.9862],[111.6345,44.0659],[111.5438,44.1567],[111.5037,44.2257],[111.4906,44.2826],[111.4106,44.3261],[111.3964,44.3466],[111.3971,44.3874],[111.4241,44.448],[111.5382,44.5834],[111.5514,44.6932],[111.7385,44.9663],[111.8433,45.0395],[111.9267,45.0609],[111.9583,45.0845],[112.0115,45.0875],[112.1076,45.0674],[112.4128,45.066],[112.5239,44.9933],[112.586,44.9238],[112.7485,44.8653],[113.0169,44.8211],[113.1049,44.7944],[113.4732,44.7707],[113.5324,44.7453],[113.6048,44.7397],[113.6725,44.7682],[113.8893,44.9083],[114.017,44.9273],[114.0893,44.9618],[114.1493,45.0301],[114.4189,45.2015],[114.5023,45.3032],[114.5337,45.3855],[114.7033,45.4272],[114.9389,45.3738],[115.1263,45.3944],[115.3373,45.3947],[115.6674,45.4543],[116.0021,45.6756],[116.0949,45.6765],[116.1699,45.7091],[116.2516,45.8033],[116.2071,45.8809],[116.2132,45.9082],[116.3572,46.1056],[116.5251,46.2268],[116.5683,46.2909],[116.6036,46.3093],[116.722,46.3287],[116.8146,46.3867],[116.9579,46.3664],[117.3375,46.3573],[117.3531,46.3795],[117.3692,46.4757],[117.4125,46.5246],[117.3938,46.5714],[117.5101,46.5785],[117.5682,46.6035],[117.6252,46.5357],[117.6734,46.516],[117.7976,46.5203],[117.9006,46.6076],[118.0055,46.627],[118.0839,46.6683],[118.169,46.6785],[118.269,46.7229],[118.3355,46.7222],[118.4728,46.6857],[118.552,46.6858],[118.6094,46.7058],[118.7201,46.6767],[118.7538,46.6912],[118.8162,46.7582],[118.8465,46.7655],[118.8675,46.7583],[118.8906,46.7135],[118.9071,46.7094],[118.9672,46.7405],[119.037,46.6687],[119.3169,46.6117],[119.5013,46.628],[119.6235,46.6163],[119.6801,46.5916],[119.7403,46.6133],[119.7822,46.6556],[119.8544,46.6597],[119.907,46.7183],[119.8831,46.753],[119.9029,46.8424],[119.8831,46.8554],[119.8814,46.8729],[119.8964,46.8986],[119.8523,46.9107],[119.7701,46.993],[119.754,47.0944],[119.7,47.1595],[119.5874,47.2384],[119.5251,47.2508],[119.476,47.3092],[119.3207,47.407],[119.2819,47.4149],[119.3178,47.4621],[119.3101,47.4761],[119.1339,47.5275],[119.0835,47.6616],[118.7674,47.7562],[118.7133,47.7936],[118.5423,47.9662],[118.4728,47.9894],[118.28,47.9981],[118.1825,48.0282],[117.9728,47.9979],[117.8152,48.0048],[117.7669,47.9931],[117.5272,47.7865],[117.4365,47.7305],[117.3608,47.6509],[117.3171,47.6541],[117.0697,47.8102],[116.822,47.8763],[116.4997,47.8364],[116.2439,47.8629],[116.0843,47.8069],[115.9729,47.7091],[115.9145,47.6839],[115.8527,47.7056],[115.5757,47.9097],[115.5142,48.1316],[115.8,48.2423],[115.8093,48.274],[115.7866,48.493],[115.8004,48.5304],[116.0282,48.7675],[116.048,48.7998],[116.0378,48.8701],[116.6843,49.8233],[117.0576,49.6729],[117.2529,49.6225],[117.4729,49.6143],[117.7588,49.5127],[117.8369,49.509],[117.8738,49.5132],[117.8938,49.5466],[117.9307,49.5673],[118.0171,49.5958],[118.1064,49.6518],[118.1885,49.6813],[118.2294,49.7292],[118.373,49.7863],[118.3937,49.82],[118.477,49.836],[118.4908,49.8695],[118.5213,49.8941],[118.6444,49.9546],[118.7415,49.9531],[118.9238,49.9916],[118.9904,49.9793],[119.0917,49.9866],[119.2085,50.0151],[119.3162,50.0927],[119.344,50.1424],[119.3338,50.2763],[119.3655,50.3108],[119.3566,50.3408],[119.1753,50.3561],[119.1805,50.3698],[119.1412,50.3766],[119.1376,50.3925],[119.1549,50.4114],[119.2068,50.4151],[119.2437,50.4455],[119.2646,50.4828],[119.2509,50.5045],[119.2936,50.5992],[119.3737,50.6427],[119.3917,50.672],[119.4428,50.6851],[119.4967,50.7371],[119.5149,50.7919],[119.4975,50.8359],[119.528,50.8668],[119.518,50.9048],[119.6043,50.9782],[119.6832,51.0161],[119.7102,51.0385],[119.7104,51.0625],[119.7408,51.0715],[119.7652,51.1424],[119.7581,51.158],[119.7854,51.1717],[119.7581,51.199],[119.7622,51.215],[119.815,51.2159],[119.8059,51.244],[119.8196,51.2747],[119.9157,51.3307],[119.8953,51.384],[119.9529,51.3977],[119.9827,51.4422],[119.9772,51.487],[120.0529,51.5522],[120.0567,51.5964],[120.1005,51.6599],[120.1656,51.6686],[120.3193,51.776],[120.4083,51.8261],[120.4648,51.8402],[120.4931,51.8757],[120.5411,51.883],[120.5663,51.9053],[120.6476,51.911],[120.7109,51.9883],[120.6973,52.0487],[120.7451,52.0767],[120.7792,52.1176],[120.7713,52.141],[120.7832,52.162],[120.7513,52.203],[120.7581,52.2374],[120.6549,52.2991],[120.6262,52.3468],[120.6904,52.4391],[120.6904,52.4702],[120.724,52.5422],[120.6087,52.574],[120.454,52.639],[120.3676,52.6173],[120.2611,52.6111],[120.176,52.5837],[120.0794,52.59],[120.0338,52.6254],[120.0326,52.6589],[120.0529,52.693],[120.033,52.7607],[120.2802,52.8659],[120.4503,53.0083],[120.6148,53.0971],[120.7141,53.185],[120.8239,53.2352],[120.826,53.2619],[120.8743,53.2802],[121.0549,53.29],[121.2035,53.2767],[121.341,53.3236],[121.4058,53.3168],[121.5121,53.3298],[121.641,53.3849],[121.889,53.4306],[122.0816,53.4295],[122.1687,53.4691],[122.3168,53.496],[122.4016,53.4509],[122.4712,53.4647],[122.8597,53.4739],[123.0025,53.5073],[123.1536,53.5131],[123.2526,53.5678],[123.3403,53.5614],[123.4815,53.5181],[123.4948,53.5601],[123.5144,53.5624],[123.5475,53.5405],[123.5196,53.52],[123.5419,53.5141],[123.6143,53.5633],[123.7018,53.5101],[123.8502,53.495],[123.9706,53.4552],[124.0174,53.407],[124.1218,53.3527],[124.1822,53.3786],[124.2531,53.3755],[124.2934,53.3513],[124.3425,53.2725],[124.3837,53.2461],[124.5005,53.2137],[124.6516,53.2088],[124.6883,53.1936],[124.6983,53.1626],[124.7202,53.1488],[124.8014,53.1552],[124.8701,53.108],[124.8962,53.1177],[124.8792,53.1539],[124.8977,53.1855],[125.0737,53.2122],[125.1274,53.2065],[125.4765,53.0835],[125.4995,53.0506],[125.5213,53.0424],[125.6214,53.0621],[125.6502,53.0234],[125.7335,52.9817],[125.7198,52.9463],[125.6609,52.9194],[125.6465,52.8849],[125.6687,52.878],[125.8374,52.9067],[125.8637,52.8886],[125.8569,52.8643],[125.8674,52.8494],[125.9769,52.765],[126.0178,52.7824],[126.088,52.7754],[126.1041,52.7545],[126.0351,52.7271],[126.0686,52.6799],[125.9828,52.653],[125.9732,52.6316],[125.9908,52.5864],[126.028,52.5664],[126.0828,52.5934],[126.2123,52.533],[126.2003,52.4671],[126.276,52.4633],[126.3507,52.3769],[126.3157,52.3162],[126.4393,52.2753],[126.3122,52.2279],[126.3167,52.1998],[126.5312,52.1527],[126.556,52.1306],[126.5144,52.0425],[126.4671,52.0317],[126.4393,51.9979],[126.6479,51.7413],[126.7136,51.7232],[126.7256,51.7087],[126.7073,51.6856],[126.7237,51.6359],[126.6751,51.5884],[126.6769,51.5766],[126.8074,51.5342],[126.8304,51.5081],[126.7927,51.4591],[126.8003,51.419],[126.8901,51.407],[126.9094,51.3911],[126.8975,51.362],[126.827,51.339],[126.809,51.2891],[126.8459,51.2515],[126.8699,51.2517],[126.8907,51.2715],[126.8853,51.3029],[126.8994,51.3165],[126.9345,51.3288],[126.9722,51.324],[126.9778,51.2966],[126.9052,51.2081],[126.9318,51.0638],[127.0323,50.9724],[127.1443,50.9035],[127.2207,50.7882],[127.2874,50.751],[127.2964,50.7301],[127.2823,50.6948],[127.289,50.6752],[127.344,50.6278],[127.3671,50.5778],[127.3648,50.5547],[127.289,50.466],[127.3585,50.4151],[127.3587,50.3813],[127.3307,50.3282],[127.3546,50.2986],[127.5906,50.2087],[127.5702,50.1302],[127.4867,50.0256],[127.4944,49.9732],[127.534,49.9225],[127.5067,49.8443],[127.5081,49.8223],[127.5387,49.7899],[127.6443,49.7671],[127.68,49.7392],[127.7036,49.6606],[127.8547,49.5849],[127.9207,49.5811],[127.9679,49.6032],[128.0671,49.5467],[128.1983,49.539],[128.2679,49.5588],[128.3448,49.548],[128.3835,49.5794],[128.5513,49.5884],[128.6287,49.5753],[128.6719,49.6114],[128.8017,49.5651],[128.7995,49.5319],[128.7541,49.5025],[128.7601,49.4709],[128.8792,49.4797],[128.9982,49.4413],[129.0669,49.3616],[129.1154,49.3488],[129.2179,49.3908],[129.341,49.3412],[129.3732,49.3699],[129.3787,49.425],[129.4806,49.4213],[129.5277,49.3848],[129.5321,49.3215],[129.5518,49.2905],[129.6192,49.2743],[129.7112,49.2742],[129.7351,49.2389],[129.7418,49.1957],[129.8415,49.1672],[129.8415,49.1092],[129.9207,49.0819],[129.9134,49.0395],[129.9265,49.0257],[129.9742,49.0151],[130.2018,48.8826],[130.2493,48.8645],[130.3868,48.8963],[130.4397,48.8965],[130.4653,48.8913],[130.4866,48.8637],[130.5409,48.8535],[130.6249,48.8743],[130.6743,48.8708],[130.5297,48.6163],[130.5408,48.5984],[130.6077,48.5767],[130.6202,48.5605],[130.6135,48.5195],[130.6264,48.4823],[130.7159,48.4991],[130.759,48.4857],[130.7383,48.4298],[130.7433,48.4116],[130.7796,48.3564],[130.8221,48.3338],[130.8251,48.3178],[130.8194,48.2819],[130.7739,48.2442],[130.7528,48.1896],[130.6747,48.1359],[130.6634,48.1164],[130.6747,48.0639],[130.907,47.8843],[130.9417,47.8206],[130.9418,47.718],[131.0234,47.6823],[131.1039,47.6765],[131.2101,47.7092],[131.4184,47.7426],[131.5078,47.7215],[131.6033,47.6615],[131.703,47.6962],[131.914,47.6676],[132.0254,47.6979],[132.1617,47.69],[132.2508,47.7254],[132.3324,47.7365],[132.5247,47.7075],[132.5742,47.7396],[132.5764,47.7942],[132.668,47.8813],[132.6604,47.9313],[132.6746,47.9506],[132.7225,47.9589],[132.7749,47.9338],[132.8059,47.9362],[132.9408,48.0267],[133.0328,48.0568],[133.061,48.0918],[133.092,48.1068],[133.2237,48.126],[133.3015,48.1013],[133.5244,48.0954],[133.5599,48.1133],[133.5938,48.1642],[133.6702,48.19],[133.7379,48.2511],[133.9664,48.2787],[134.0572,48.3272],[134.3863,48.3813],[134.4713,48.3399],[134.5426,48.3573],[134.5695,48.3155],[134.6113,48.2854],[134.7187,48.2634],[134.6874,48.2198],[134.683,48.1355],[134.6627,48.108],[134.5864,48.0611],[134.5594,48.0095],[134.6013,47.9441],[134.5877,47.9259],[134.6578,47.8867],[134.6765,47.8243],[134.7698,47.741],[134.7726,47.7107],[134.7254,47.6632],[134.6929,47.6489],[134.6827,47.5878],[134.6243,47.5496],[134.5569,47.4712],[134.4846,47.4302],[134.415,47.4392],[134.3129,47.4201],[134.2451,47.3551],[134.1836,47.3275],[134.1541,47.2579],[134.1972,47.2053],[134.1898,47.1729],[134.2273,47.1177],[134.1971,47.0852],[134.1242,47.0705],[134.0692,46.9812],[134.0628,46.9069],[134.0167,46.8195],[134.0447,46.772],[134.0148,46.665],[133.988,46.6252],[133.9025,46.5736],[133.8919,46.529],[133.8458,46.4707],[133.8544,46.4447],[133.9003,46.4266],[133.9339,46.3908],[133.926,46.3713],[133.8634,46.3393],[133.8744,46.3198],[133.8964,46.3272],[133.916,46.313],[133.8938,46.3019],[133.9025,46.259],[133.8553,46.2366],[133.8609,46.2236],[133.8301,46.1969],[133.7935,46.2143],[133.741,46.159],[133.6874,46.1418],[133.72,46.0638],[133.6581,45.9345],[133.6176,45.9363],[133.5859,45.8763],[133.5523,45.8884],[133.5144,45.8793],[133.4983,45.8372],[133.4773,45.8201],[133.4838,45.7966],[133.5114,45.7786],[133.4849,45.7685],[133.4709,45.7289],[133.443,45.7097],[133.4878,45.6867],[133.4915,45.6734],[133.4567,45.6488],[133.4773,45.6277],[133.4276,45.6153],[133.4151,45.6004],[133.4252,45.5804],[133.4135,45.5733],[133.3748,45.5731],[133.1798,45.4938],[133.1332,45.4196],[133.1019,45.2872],[133.0975,45.2435],[133.1272,45.1554],[133.0988,45.1078],[132.9662,45.0289],[132.9212,45.0279],[132.8398,45.0592],[131.9688,45.234],[131.9146,45.2601],[131.8531,45.3376],[131.818,45.3328],[131.7853,45.3047],[131.7232,45.2153],[131.6278,45.1985],[131.6052,45.1646],[131.6224,45.1237],[131.6091,45.0897],[131.4338,44.9613],[131.3295,44.9676],[131.259,44.9282],[131.1765,44.9034],[131.1101,44.9195],[131.0516,44.909],[131.0248,44.8624],[130.9334,44.8417],[130.9301,44.825],[130.9716,44.7756],[131.0214,44.7469],[131.0658,44.682],[131.2645,44.0542],[131.2178,44.0161],[131.2067,43.9748],[131.2173,43.9085],[131.1703,43.7811],[131.192,43.5886],[131.1607,43.5328],[131.2743,43.4512],[131.2809,43.3802],[131.2479,43.3442],[131.2377,43.2658],[131.1691,43.2017],[131.1899,43.1392],[131.184,43.1208],[131.0783,43.0318],[131.0743,42.9934],[131.103,42.9104],[131.0239,42.8963],[130.9924,42.8487],[130.8562,42.8498],[130.7695,42.8658],[130.7349,42.8245],[130.6491,42.8289],[130.5865,42.8173],[130.4072,42.7354],[130.3797,42.6967],[130.4038,42.6776],[130.5039,42.6778],[130.5719,42.6218],[130.5845,42.5689],[130.5308,42.5305],[130.5165,42.5994],[130.5014,42.6108],[130.4551,42.5852],[130.471,42.5698],[130.4525,42.5493],[130.4312,42.5615],[130.4277,42.5994],[130.393,42.6062],[130.3248,42.6503],[130.2627,42.7086],[130.243,42.7434],[130.2565,42.8669],[130.239,42.9022],[130.1404,42.9071],[130.0988,42.9215],[130.1305,42.9595],[130.1215,42.9818],[130.0082,42.9606],[129.9813,42.9667],[129.9341,43.0084],[129.8798,42.996],[129.907,42.9761],[129.8517,42.9619],[129.7573,42.7347],[129.7576,42.7036],[129.7876,42.6769],[129.7723,42.6617],[129.7767,42.6472],[129.7416,42.629],[129.7631,42.6062],[129.7365,42.5852],[129.7289,42.4759],[129.7033,42.4424],[129.5917,42.448],[129.5877,42.4114],[129.5632,42.4041],[129.5542,42.3769],[129.5352,42.3696],[129.4341,42.4411],[129.3862,42.4281],[129.3401,42.4455],[129.3521,42.4206],[129.3379,42.4144],[129.3265,42.4268],[129.3038,42.3896],[129.2361,42.3744],[129.2363,42.3239],[129.1939,42.3182],[129.228,42.2977],[129.1808,42.2431],[129.2093,42.2347],[129.2112,42.22],[129.1198,42.1494],[129.0885,42.1432],[129.0647,42.1538],[129.0635,42.1361],[129.0266,42.1019],[128.9638,42.0885],[128.9401,42.0354],[128.9035,42.0263],[128.721,42.0476],[128.7093,42.0302],[128.6079,42.0302],[128.5644,42.0008],[128.5437,42.0081],[128.5024,41.9961],[128.3638,42.0265],[128.262,42.0329],[128.0346,41.9937],[128.0204,41.9651],[128.0478,41.864],[128.091,41.8417],[128.1591,41.7118],[128.2509,41.6601],[128.303,41.5834],[128.1857,41.4045],[128.1461,41.3763],[128.1039,41.3791],[128.1182,41.3934],[128.1039,41.3996],[128.0642,41.3884],[128.0469,41.3988],[128.0506,41.4207],[128.0152,41.4133],[128.0014,41.4709],[127.9742,41.4503],[127.9442,41.4709],[127.8815,41.4609],[127.8489,41.4313],[127.8104,41.4436],[127.6627,41.447],[127.6383,41.4299],[127.5588,41.4582],[127.5429,41.4913],[127.5258,41.4843],[127.4741,41.4988],[127.4273,41.4831],[127.379,41.4988],[127.3051,41.4947],[127.2691,41.505],[127.2898,41.5186],[127.2815,41.5311],[127.2445,41.528],[127.2071,41.5459],[127.1797,41.517],[127.1559,41.5305],[127.1346,41.522],[127.1047,41.5374],[127.1365,41.5692],[127.1797,41.5852],[127.0972,41.6124],[127.1047,41.6262],[127.059,41.6433],[127.049,41.6777],[127.0766,41.6808],[127.0427,41.7326],[126.9812,41.7633],[126.9461,41.7662],[126.9298,41.801],[126.8871,41.7849],[126.8648,41.7473],[126.8089,41.7298],[126.7886,41.6959],[126.7273,41.7369],[126.6795,41.736],[126.728,41.7013],[126.6693,41.6671],[126.6179,41.6659],[126.567,41.6142],[126.5773,41.5618],[126.5013,41.4344],[126.5221,41.3519],[126.4877,41.3444],[126.5013,41.3661],[126.4725,41.3665],[126.4409,41.3484],[126.3095,41.2078],[126.2748,41.1526],[126.1238,41.0755],[126.1382,41.057],[126.1013,41.0221],[126.1041,41.0092],[126.0756,40.9971],[126.0455,40.9447],[125.9806,40.9136],[126.01,40.9139],[126.0078,40.8993],[125.9362,40.8774],[125.8852,40.8975],[125.822,40.8698],[125.7609,40.8857],[125.7459,40.8682],[125.6832,40.8479],[125.6448,40.8106],[125.6826,40.7689],[125.6099,40.7613],[125.5717,40.7849],[125.5465,40.7259],[125.4691,40.7129],[125.453,40.6734],[125.4189,40.6666],[125.4133,40.6318],[125.2933,40.6486],[125.2561,40.615],[125.0251,40.5344],[125.0153,40.5083],[125.0463,40.4711],[125.0413,40.4611],[124.9353,40.4556],[124.8955,40.4836],[124.8008,40.3941],[124.7412,40.3704],[124.7125,40.3103],[124.6426,40.2943],[124.5709,40.2524],[124.5487,40.2209],[124.3582,40.0891],[124.3613,40.0112],[124.2942,39.9338],[124.1372,39.8424],[124.1182,39.8332],[124.0881,39.8519],[123.9857,39.8102],[123.9421,39.8406],[123.8875,39.8229],[123.8076,39.8376],[123.773,39.8183],[123.7201,39.8306],[123.6431,39.8786],[123.6567,39.9195],[123.631,39.904],[123.5914,39.7843],[123.5632,39.7688],[123.5418,39.7917],[123.5132,39.7978],[123.4277,39.7266],[123.4085,39.746],[123.4171,39.8245],[123.3982,39.8183],[123.3867,39.7896],[123.3141,39.7761],[123.2732,39.8102],[123.2572,39.8011],[123.252,39.8171],[123.2358,39.8024],[123.2654,39.7541],[123.21,39.755],[123.2042,39.7451],[123.2691,39.7076],[123.2232,39.6798],[123.1284,39.6649],[123.108,39.6901],[123.0581,39.6748],[123.0091,39.6805],[122.9776,39.6662],[122.9963,39.6496],[122.9641,39.6116],[122.9449,39.6197],[122.8716,39.6058],[122.8486,39.6179],[122.7798,39.5605],[122.6882,39.5186],[122.6484,39.5324],[122.5879,39.467],[122.5621,39.4868],[122.5554,39.456],[122.4698,39.4167],[122.3963,39.411],[122.29,39.351],[122.2674,39.318],[122.2515,39.3237],[122.2402,39.2856],[122.115,39.2008],[122.1045,39.1591],[122.1627,39.1461],[122.1275,39.142],[122.0479,39.0992],[122.0423,39.0597],[121.988,39.0629],[121.943,39.0363],[121.9043,39.0494],[121.8884,39.0425],[121.9232,39.009],[121.8269,39.0363],[121.838,39.0151],[121.8953,38.981],[121.8713,38.9506],[121.8479,38.9475],[121.8115,38.9728],[121.7725,39.022],[121.7247,39.0302],[121.7201,39.0195],[121.7388,39.0015],[121.6802,39.009],[121.6358,38.9953],[121.656,38.9906],[121.6526,38.9634],[121.5874,38.9401],[121.6936,38.9096],[121.7048,38.8731],[121.6963,38.8629],[121.6761,38.8712],[121.6548,38.8579],[121.5527,38.8581],[121.485,38.8099],[121.3447,38.8146],[121.2876,38.7881],[121.2367,38.7985],[121.2175,38.7756],[121.2447,38.7756],[121.1795,38.7209],[121.1531,38.7276],[121.1145,38.7681],[121.1393,38.7895],[121.1113,38.8403],[121.1145,38.8581],[121.1524,38.8863],[121.1485,38.8991],[121.0862,38.9057],[121.1179,38.9434],[121.1795,38.9543],[121.2195,38.9405],[121.2918,38.9674],[121.3343,38.9686],[121.3342,39.0266],[121.3748,39.0442],[121.4033,39.0383],[121.4281,39.0147],[121.4673,39.0151],[121.6741,39.088],[121.6898,39.1181],[121.681,39.1364],[121.6419,39.1762],[121.5926,39.1922],[121.6079,39.2008],[121.6017,39.2213],[121.6331,39.2362],[121.5899,39.2641],[121.6802,39.2752],[121.7361,39.3118],[121.7313,39.3305],[121.7798,39.3715],[121.8375,39.3647],[121.943,39.3994],[121.9312,39.4172],[121.8489,39.3874],[121.7078,39.3957],[121.7178,39.3715],[121.5259,39.3647],[121.492,39.389],[121.436,39.5086],[121.354,39.5222],[121.3062,39.5018],[121.2368,39.5147],[121.2234,39.5286],[121.3062,39.598],[121.4498,39.6151],[121.4707,39.6321],[121.4639,39.6458],[121.4982,39.6529],[121.5333,39.6223],[121.5396,39.639],[121.5259,39.6527],[121.5501,39.6787],[121.5374,39.6925],[121.5068,39.6943],[121.4573,39.7485],[121.4846,39.764],[121.4707,39.8102],[121.5099,39.824],[121.5359,39.8618],[121.6161,39.8717],[121.6849,39.9225],[121.7744,39.9208],[121.8097,39.965],[121.8738,39.9914],[121.8748,40.0163],[121.8269,40.0225],[121.9295,40.0773],[121.9331,40.1014],[121.9957,40.1239],[122.0064,40.1563],[121.9915,40.187],[122.0386,40.1964],[122.0916,40.2272],[122.1075,40.2622],[122.1061,40.3101],[122.211,40.3806],[122.2036,40.4272],[122.2501,40.4306],[122.2515,40.4539],[122.2881,40.4728],[122.3019,40.5023],[122.2756,40.5436],[122.2249,40.5785],[122.1504,40.6039],[122.1376,40.624],[122.168,40.6535],[122.1594,40.7016],[122.1218,40.6801],[122.0491,40.7461],[121.8511,40.8323],[121.8259,40.9482],[121.8589,40.9675],[121.8679,40.9958],[121.7777,40.935],[121.7801,40.9079],[121.7396,40.8491],[121.575,40.8415],[121.5104,40.8794],[121.4502,40.8859],[121.4298,40.9138],[121.3613,40.9396],[121.2993,40.8996],[121.2739,40.903],[121.2584,40.9206],[121.2447,40.9064],[121.2249,40.9271],[121.1758,40.9223],[121.0799,40.863],[121.0803,40.8284],[121.0657,40.8184],[121.0684,40.8034],[121.0499,40.7974],[121.0296,40.8265],[120.9819,40.8268],[120.9632,40.8066],[120.9685,40.7836],[120.9363,40.7556],[120.9395,40.7405],[120.9944,40.7363],[121.0207,40.7193],[120.9626,40.7093],[120.9402,40.6912],[120.8253,40.674],[120.7984,40.5997],[120.6788,40.5219],[120.6591,40.4838],[120.6041,40.4652],[120.5974,40.4224],[120.5457,40.4024],[120.5475,40.3762],[120.5884,40.3843],[120.5912,40.3673],[120.5018,40.3269],[120.5049,40.2491],[120.472,40.2143],[120.436,40.1945],[120.309,40.1797],[120.2613,40.1467],[119.9503,40.0565],[119.9153,40.0362],[119.912,39.9981],[119.811,39.973],[119.7744,39.9505],[119.6609,39.9327],[119.5356,39.8908],[119.5199,39.8583],[119.5307,39.8147],[119.4668,39.8148],[119.4294,39.7953],[119.3499,39.7318],[119.2849,39.5954],[119.2454,39.5945],[119.2086,39.5696],[119.209,39.5502],[119.243,39.5707],[119.2293,39.536],[119.2624,39.5775],[119.2814,39.575],[119.2564,39.4931],[119.2708,39.4891],[119.3051,39.433],[119.2794,39.384],[119.2557,39.3655],[119.1848,39.3548],[119.0156,39.1898],[118.926,39.1306],[118.8943,39.1244],[118.97,39.1933],[118.8806,39.1728],[118.8738,39.2138],[118.8405,39.1756],[118.796,39.1518],[118.6194,39.161],[118.5902,39.1483],[118.5271,39.1492],[118.5291,39.1247],[118.3261,39.0309],[118.2353,39.0531],[118.1405,39.1728],[118.0964,39.2024],[118.028,39.2198],[117.8856,39.2011],[117.7573,39.1144],[117.7154,39.1114],[117.7183,39.093],[117.7515,39.0679],[117.7753,38.9811],[117.7019,38.9953],[117.7088,38.981],[117.584,38.8116],[117.5732,38.7137],[117.5435,38.6213],[117.566,38.6125],[117.7161,38.3785],[117.8372,38.2709],[117.9417,38.2339],[117.9775,38.1948],[118.0072,38.197],[118.0537,38.1733],[118.0652,38.1431],[118.2158,38.145],[118.4489,38.1078],[118.543,38.0683],[118.6549,38.1457],[118.7604,38.1551],[118.8401,38.1526],[118.95,38.0973],[118.9248,38.0578],[118.9561,38.0336],[118.9966,37.9631],[119.0484,37.948],[119.0925,37.9128],[119.1169,37.8533],[119.2431,37.7695],[119.2596,37.7158],[119.2557,37.6719],[119.2177,37.6752],[119.1201,37.7375],[119.0695,37.7406],[119.0371,37.7221],[118.97,37.5935],[118.9446,37.3781],[118.9612,37.2956],[119.1455,37.1789],[119.2871,37.1373],[119.4412,37.1206],[119.5245,37.1391],[119.7706,37.1518],[119.7918,37.1806],[119.8973,37.2494],[119.8463,37.3437],[119.8589,37.3602],[120.0598,37.4404],[120.1876,37.5118],[120.2976,37.5979],[120.3225,37.6324],[120.3064,37.6652],[120.2157,37.6841],[120.3685,37.6947],[120.4634,37.7477],[120.5562,37.7614],[120.738,37.834],[120.8367,37.816],[120.8777,37.8297],[120.9258,37.8193],[120.9408,37.8065],[120.9288,37.7887],[120.9409,37.774],[121.0054,37.7443],[121.0326,37.7104],[121.138,37.7012],[121.1485,37.6894],[121.1301,37.6518],[121.1485,37.6379],[121.1344,37.6105],[121.1716,37.5771],[121.3081,37.5812],[121.3745,37.6105],[121.354,37.6379],[121.3936,37.6225],[121.4298,37.5969],[121.3984,37.5949],[121.3814,37.583],[121.3817,37.5661],[121.4468,37.5196],[121.4769,37.468],[121.5371,37.4562],[121.5703,37.4287],[121.6761,37.4392],[121.6343,37.4624],[121.5874,37.4536],[121.635,37.4813],[121.7324,37.4617],[121.9378,37.4643],[121.9573,37.4597],[121.9498,37.4256],[121.988,37.4256],[121.9974,37.4341],[121.9778,37.4717],[122.0256,37.528],[122.0718,37.5445],[122.0671,37.5627],[122.0951,37.5491],[122.1218,37.5627],[122.1519,37.5329],[122.1299,37.4835],[122.1832,37.4182],[122.2242,37.458],[122.2454,37.4597],[122.2965,37.4182],[122.478,37.4256],[122.488,37.4119],[122.5706,37.4016],[122.6124,37.4186],[122.6882,37.4098],[122.679,37.3747],[122.6561,37.3846],[122.5708,37.3448],[122.5947,37.2952],[122.5497,37.3198],[122.5601,37.2747],[122.6029,37.2099],[122.6289,37.1928],[122.5743,37.1854],[122.5632,37.1732],[122.5743,37.1444],[122.51,37.1552],[122.4827,37.14],[122.4707,37.1103],[122.4644,37.1518],[122.4539,37.1543],[122.4364,37.0898],[122.457,37.0659],[122.4024,37.0215],[122.4243,37.0036],[122.4364,37.0277],[122.54,37.0277],[122.5254,36.9445],[122.5327,36.9259],[122.5074,36.898],[122.5001,36.9156],[122.5127,36.9346],[122.4985,36.9389],[122.4566,36.9206],[122.4058,36.9222],[122.4034,36.9066],[122.4364,36.8707],[122.3797,36.8614],[122.3552,36.8291],[122.3198,36.8229],[122.1853,36.8499],[122.1848,36.885],[122.1969,36.898],[122.2659,36.898],[122.1627,36.9458],[122.1797,37.0058],[122.1661,37.0141],[122.15,37.0053],[122.1429,36.9458],[122.0943,36.9509],[122.0809,36.9166],[122.0331,36.898],[122.0492,36.9799],[121.9263,36.9936],[121.9149,36.9858],[121.9498,36.9389],[121.786,36.8912],[121.728,36.8359],[121.6494,36.8161],[121.6842,36.8428],[121.6375,36.8314],[121.6245,36.8148],[121.6343,36.7466],[121.6253,36.7404],[121.5942,36.7676],[121.5259,36.754],[121.4964,36.7745],[121.5032,36.7886],[121.5952,36.8263],[121.6072,36.845],[121.5465,36.8359],[121.5116,36.8086],[121.4844,36.8291],[121.4595,36.8287],[121.453,36.8164],[121.4707,36.7896],[121.4534,36.7574],[121.4089,36.754],[121.3778,36.7315],[121.3794,36.717],[121.4017,36.7124],[121.3142,36.7118],[121.1577,36.6686],[121.0802,36.61],[121.0325,36.6243],[121.0235,36.5839],[120.9288,36.5963],[120.9334,36.6203],[120.8506,36.6509],[120.7506,36.6168],[120.7503,36.5408],[120.7787,36.5411],[120.8264,36.5963],[120.8504,36.6046],[120.9203,36.5533],[120.9275,36.5329],[120.9636,36.5479],[120.9363,36.497],[120.95,36.4592],[120.9063,36.4524],[120.8948,36.4387],[120.8983,36.4116],[120.8674,36.3772],[120.8497,36.3861],[120.844,36.4227],[120.8264,36.4325],[120.832,36.4553],[120.8069,36.4639],[120.7506,36.4592],[120.7141,36.4287],[120.6865,36.3872],[120.7222,36.3306],[120.7073,36.3227],[120.662,36.3363],[120.6436,36.3225],[120.662,36.3015],[120.6546,36.2883],[120.7048,36.1562],[120.6278,36.1165],[120.5516,36.1137],[120.5362,36.0915],[120.4736,36.0893],[120.3535,36.0408],[120.292,36.062],[120.3616,36.1916],[120.3228,36.2264],[120.3064,36.2742],[120.2865,36.2638],[120.2735,36.2343],[120.2752,36.2041],[120.2988,36.1916],[120.2845,36.176],[120.2163,36.1991],[120.2191,36.2219],[120.1173,36.2097],[120.0972,36.2264],[120.0859,36.2091],[120.1092,36.1888],[120.0894,36.1477],[120.0897,36.1117],[120.1685,36.062],[120.1753,35.9936],[120.1978,35.9853],[120.23,35.9999],[120.2295,35.9728],[120.2428,35.9736],[120.2849,36.0109],[120.3031,35.994],[120.2988,35.9731],[120.2268,35.9418],[120.1753,35.89],[120.1705,35.9075],[120.189,35.9453],[120.1358,35.9041],[120.0972,35.9008],[120.0388,35.8428],[120.0029,35.7278],[119.97,35.7324],[119.9378,35.7611],[119.9082,35.7449],[119.9002,35.7363],[119.9356,35.705],[119.9016,35.6715],[119.9046,35.6246],[119.8602,35.6061],[119.8341,35.6353],[119.8401,35.6579],[119.8116,35.6479],[119.7439,35.5759],[119.7484,35.6093],[119.7325,35.6208],[119.648,35.5839],[119.5515,35.38],[119.5077,35.3323],[119.4239,35.3135],[119.4219,35.2774],[119.358,35.0971],[119.2212,35.064],[119.1929,35.0004],[119.2034,34.9316],[119.1887,34.8563],[119.2019,34.785],[119.1891,34.7665],[119.1922,34.7182],[119.2098,34.7186],[119.2293,34.7597],[119.3118,34.7551],[119.3467,34.7808],[119.3877,34.7535],[119.4422,34.746],[119.4742,34.7153],[119.4566,34.6846],[119.5317,34.6157],[119.641,34.5505],[119.6477,34.5338],[119.7289,34.5241],[119.8262,34.4704],[119.94,34.4579],[120.0787,34.3775],[120.2571,34.3118],[120.3252,34.1113],[120.3713,34.036],[120.4133,33.8974],[120.3997,33.8693],[120.4314,33.846],[120.4497,33.7864],[120.4983,33.7533],[120.5049,33.7356],[120.5117,33.6567],[120.4951,33.6622],[120.4837,33.65],[120.6344,33.4669],[120.6558,33.4132],[120.6672,33.3251],[120.6951,33.2932],[120.7503,33.2696],[120.7302,33.2421],[120.7435,33.2086],[120.7302,33.2049],[120.807,33.1378],[120.7922,33.1087],[120.8189,33.0922],[120.8259,33.0302],[120.8674,33.0324],[120.8958,33.0136],[120.8887,32.9627],[120.9048,32.8126],[120.8803,32.772],[120.8524,32.756],[120.8604,32.6898],[120.8401,32.7245],[120.8303,32.6977],[120.8639,32.6711],[120.9066,32.6597],[120.9112,32.6301],[120.9439,32.6052],[121.0862,32.536],[121.1008,32.498],[121.1202,32.5074],[121.1573,32.4956],[121.3541,32.4148],[121.3894,32.3849],[121.4193,32.2503],[121.3608,32.2316],[121.3987,32.1689],[121.4251,32.164],[121.4434,32.1143],[121.4673,32.1218],[121.488,32.1081],[121.5308,32.1085],[121.6554,32.0629],[121.7986,31.9705],[121.875,31.8637],[121.8747,31.8259],[121.9221,31.7544],[121.9304,31.7267],[121.9148,31.7064],[121.872,31.6907],[121.8173,31.6909],[121.6072,31.7486],[121.2864,31.8906],[121.1151,31.7963],[121.0399,31.8193],[120.9778,31.8144],[120.9506,31.8252],[120.9406,31.8446],[120.9414,31.8925],[120.9193,31.8994],[120.8108,32.0226],[120.6344,32.077],[120.4908,32.0825],[120.3616,32.0256],[120.2671,31.9487],[120.2237,31.9368],[120.1314,31.9432],[120.0523,31.9709],[119.992,32.0159],[119.9122,32.1237],[119.9221,32.2174],[119.9005,32.1982],[119.8743,32.2651],[119.8421,32.2991],[119.7581,32.327],[119.6924,32.3198],[119.6409,32.3588],[119.6129,32.3546],[119.6607,32.3272],[119.6854,32.2924],[119.649,32.2195],[119.606,32.1969],[119.6453,32.1952],[119.6904,32.2353],[119.7302,32.2106],[119.7886,32.1986],[119.7638,32.1625],[119.7725,32.1268],[119.8556,32.087],[120.0064,31.9503],[120.131,31.9123],[120.23,31.9089],[120.3412,31.9563],[120.4558,31.9825],[120.4554,32.0214],[120.4695,32.0251],[120.6043,31.9914],[120.69,31.9982],[120.7504,31.9783],[120.8248,31.8287],[120.8078,31.8097],[120.7515,31.8247],[120.7171,31.8611],[120.7315,31.8139],[120.8319,31.7778],[121.0138,31.743],[121.1444,31.6847],[121.2447,31.6004],[121.3203,31.5048],[121.5462,31.3661],[121.6316,31.3358],[121.7252,31.2816],[121.877,31.0991],[121.9508,30.9821],[121.9774,30.9149],[121.9601,30.8743],[121.9074,30.8571],[121.6311,30.8366],[121.5429,30.8165],[121.4106,30.7674],[121.3335,30.7031],[121.2029,30.6651],[121.1213,30.593],[121.0474,30.5828],[120.9981,30.5579],[120.9317,30.473],[120.9395,30.4219],[120.8948,30.4013],[120.9151,30.3746],[120.8882,30.3686],[120.8318,30.3053],[120.7874,30.2936],[120.754,30.3271],[120.745,30.3596],[120.6981,30.394],[120.6192,30.4061],[120.4791,30.4035],[120.4303,30.3898],[120.379,30.2735],[120.2579,30.2981],[120.1471,30.1989],[120.179,30.2007],[120.2302,30.236],[120.25,30.2701],[120.2744,30.2776],[120.2955,30.2787],[120.3503,30.2407],[120.3847,30.2496],[120.4505,30.3689],[120.6216,30.3726],[120.6517,30.3593],[120.6987,30.2518],[120.7344,30.2322],[120.6301,30.135],[120.6318,30.1224],[120.6825,30.0849],[120.765,30.0866],[120.7922,30.0661],[120.7837,30.0893],[120.688,30.0978],[120.6463,30.1269],[120.7514,30.2256],[120.8135,30.2133],[120.8286,30.185],[120.8928,30.1698],[120.9944,30.2111],[121.1091,30.2828],[121.1497,30.3258],[121.2541,30.3484],[121.3774,30.3251],[121.4296,30.293],[121.5068,30.22],[121.6583,30.0184],[121.7323,29.9786],[121.7219,29.9605],[121.7675,29.9732],[121.9149,29.9187],[121.9356,29.8874],[122.0562,29.8874],[122.1291,29.9038],[122.1364,29.8845],[122.1148,29.8716],[121.983,29.8232],[121.9022,29.7525],[121.8731,29.7538],[121.8624,29.708],[121.7765,29.6526],[121.6873,29.5626],[121.5925,29.5436],[121.5743,29.5522],[121.5308,29.51],[121.511,29.549],[121.4434,29.5242],[121.4553,29.4894],[121.4278,29.4679],[121.4426,29.4154],[121.4651,29.4209],[121.4797,29.4748],[121.5049,29.4838],[121.4918,29.456],[121.5137,29.452],[121.5117,29.4376],[121.4776,29.4127],[121.4849,29.3905],[121.5313,29.417],[121.5696,29.4746],[121.6427,29.4952],[121.7109,29.5386],[121.7246,29.5385],[121.7313,29.518],[121.764,29.5308],[121.7572,29.499],[121.7784,29.4694],[121.812,29.4901],[121.8306,29.5281],[121.8474,29.5242],[121.8448,29.5362],[121.814,29.5522],[121.745,29.5447],[121.7484,29.5626],[121.7961,29.6006],[121.9158,29.6409],[121.9712,29.5933],[121.971,29.5689],[121.9412,29.5512],[121.9498,29.5385],[121.9104,29.5246],[121.9441,29.4977],[121.9427,29.4797],[121.971,29.4491],[121.9573,29.4081],[121.9363,29.4277],[121.9226,29.4181],[121.9162,29.3489],[121.9314,29.3239],[121.9089,29.3188],[121.9158,29.3051],[121.9005,29.2987],[121.94,29.2641],[121.9744,29.2846],[121.9915,29.2573],[121.9532,29.2497],[121.9573,29.2164],[121.943,29.2232],[121.943,29.1959],[121.8406,29.1611],[121.7853,29.1681],[121.7997,29.3051],[121.8406,29.3188],[121.8307,29.3339],[121.7997,29.3188],[121.7882,29.3286],[121.7997,29.374],[121.7866,29.3745],[121.7586,29.3598],[121.7779,29.2964],[121.7743,29.2539],[121.7243,29.182],[121.6525,29.183],[121.6392,29.2173],[121.6546,29.3],[121.6404,29.3066],[121.6248,29.3015],[121.6289,29.1884],[121.5743,29.3051],[121.562,29.2958],[121.5743,29.2778],[121.5259,29.2778],[121.5364,29.2583],[121.5049,29.2089],[121.5035,29.1789],[121.491,29.176],[121.4802,29.1972],[121.4564,29.1611],[121.4314,29.1722],[121.4085,29.1611],[121.4564,29.1338],[121.4017,29.1065],[121.6214,29.1133],[121.6148,29.0581],[121.5369,29.0612],[121.5321,29.0205],[121.5486,29.0214],[121.5396,29.0376],[121.5574,29.049],[121.6174,29.04],[121.6419,29.0513],[121.6898,29.0171],[121.6538,28.9886],[121.6842,28.9556],[121.7178,28.9488],[121.6842,28.9147],[121.6053,28.9426],[121.5874,28.9631],[121.5853,28.9383],[121.5708,28.9301],[121.5465,28.9522],[121.5169,28.9564],[121.4978,28.9497],[121.4918,28.9284],[121.5049,28.9352],[121.5177,28.9128],[121.5806,28.8868],[121.6108,28.8912],[121.6289,28.8771],[121.6235,28.8423],[121.6419,28.8459],[121.6699,28.8253],[121.6358,28.8048],[121.6626,28.7906],[121.6183,28.7619],[121.6214,28.7359],[121.5028,28.7004],[121.3512,28.7119],[121.2903,28.7516],[121.2379,28.7639],[121.2144,28.8073],[121.1736,28.8179],[121.1423,28.8459],[121.1597,28.8135],[121.2061,28.7991],[121.2312,28.7602],[121.2993,28.7229],[121.2987,28.7012],[121.2584,28.6751],[121.365,28.696],[121.3814,28.682],[121.4138,28.6966],[121.4548,28.6895],[121.5101,28.6571],[121.5384,28.5714],[121.5816,28.5047],[121.521,28.501],[121.5116,28.4895],[121.5846,28.4891],[121.6077,28.4772],[121.5838,28.4429],[121.6323,28.3794],[121.634,28.3472],[121.6563,28.3393],[121.6213,28.2851],[121.5855,28.2568],[121.5806,28.3008],[121.5415,28.3218],[121.4731,28.3306],[121.436,28.2971],[121.4089,28.3049],[121.3955,28.2841],[121.4188,28.2697],[121.416,28.2562],[121.3648,28.2258],[121.354,28.1879],[121.3745,28.1953],[121.374,28.1726],[121.3458,28.1452],[121.2879,28.1809],[121.2617,28.2258],[121.2252,28.2389],[121.2489,28.2702],[121.2368,28.3061],[121.2031,28.3319],[121.2175,28.3524],[121.2442,28.3491],[121.2647,28.366],[121.2141,28.3606],[121.169,28.3848],[121.169,28.3598],[121.1443,28.3436],[121.1303,28.3056],[121.0721,28.2917],[121.0667,28.3114],[121.025,28.3046],[121.0581,28.2799],[121.1218,28.2844],[121.1248,28.2355],[121.0858,28.1665],[121.0094,28.1031],[120.9935,28.0258],[120.9652,27.9871],[120.9214,27.9817],[120.88,27.9987],[120.8196,27.9892],[120.731,28.0358],[120.606,28.0422],[120.5902,28.0544],[120.577,28.1156],[120.5596,28.1128],[120.5802,28.0898],[120.589,28.0267],[120.6736,28.0217],[120.7506,27.9756],[120.8353,27.956],[120.8638,27.9181],[120.8684,27.8826],[120.8523,27.8582],[120.8075,27.8348],[120.7226,27.7159],[120.7043,27.7128],[120.6353,27.7633],[120.6367,27.7458],[120.6725,27.7115],[120.6756,27.6597],[120.6665,27.6254],[120.5966,27.5703],[120.6185,27.5164],[120.662,27.5032],[120.682,27.4816],[120.6656,27.4517],[120.6465,27.4445],[120.6362,27.416],[120.6489,27.4002],[120.6353,27.3797],[120.5459,27.4033],[120.5396,27.3652],[120.5049,27.345],[120.5493,27.321],[120.544,27.286],[120.5178,27.263],[120.526,27.2388],[120.5081,27.216],[120.5178,27.2016],[120.4684,27.1822],[120.4597,27.2204],[120.4217,27.2221],[120.4292,27.1737],[120.4067,27.1842],[120.3762,27.2363],[120.3473,27.2494],[120.3031,27.2423],[120.2881,27.2645],[120.3193,27.2904],[120.2988,27.2978],[120.3119,27.3177],[120.2852,27.304],[120.264,27.3244],[120.2715,27.304],[120.2586,27.3],[120.2237,27.3115],[120.2437,27.2904],[120.2257,27.2686],[120.1958,27.2978],[120.1958,27.263],[120.1753,27.2388],[120.1824,27.2169],[120.2566,27.2569],[120.3064,27.2153],[120.3473,27.2426],[120.3655,27.2096],[120.3473,27.1805],[120.3699,27.1875],[120.4217,27.147],[120.3739,27.147],[120.408,27.1396],[120.367,27.1252],[120.3814,27.119],[120.3739,27.106],[120.395,27.106],[120.3775,27.0986],[120.2827,27.1123],[120.2437,27.1327],[120.2783,27.0638],[120.2578,27.0727],[120.2163,27.0371],[120.2415,27.034],[120.2552,26.9971],[120.2374,26.9819],[120.1487,26.9819],[120.187,26.9635],[120.2357,26.9664],[120.2374,26.9272],[120.2191,26.9154],[120.1257,26.9273],[120.1136,26.9188],[120.1207,26.8999],[120.0956,26.8873],[120.032,26.8999],[120.0553,26.8894],[120.0252,26.8602],[120.0245,26.8379],[120.1282,26.7969],[120.0977,26.7585],[120.1002,26.7429],[120.1487,26.7212],[120.1021,26.6892],[120.1207,26.6461],[120.1344,26.6461],[120.0804,26.6174],[120.0797,26.6461],[120.0149,26.6113],[119.96,26.6113],[119.9412,26.5933],[119.9356,26.5605],[119.8843,26.5232],[119.8472,26.5236],[119.8326,26.5505],[119.8538,26.5641],[119.8538,26.5983],[119.9841,26.6535],[119.9768,26.674],[120.0115,26.7212],[120.0323,26.7166],[120.0797,26.7969],[119.9251,26.7922],[119.9356,26.759],[119.888,26.6872],[119.9016,26.6597],[119.8796,26.6553],[119.8569,26.6535],[119.8538,26.6877],[119.8292,26.715],[119.7918,26.6877],[119.8023,26.7668],[119.8401,26.79],[119.7918,26.79],[119.7974,26.8164],[119.8348,26.8325],[119.8463,26.8522],[119.782,26.8285],[119.7562,26.7377],[119.7302,26.7429],[119.712,26.8079],[119.6858,26.812],[119.678,26.7631],[119.7274,26.7179],[119.7249,26.6978],[119.646,26.7533],[119.6266,26.7491],[119.6218,26.7868],[119.606,26.7969],[119.5755,26.788],[119.5794,26.7764],[119.5521,26.7491],[119.5589,26.7082],[119.606,26.6945],[119.5999,26.6461],[119.5589,26.6666],[119.5411,26.6563],[119.5542,26.6152],[119.5924,26.5909],[119.5999,26.5704],[119.6751,26.6188],[119.7352,26.612],[119.7364,26.5915],[119.7849,26.5778],[119.7849,26.5505],[119.7706,26.5641],[119.7659,26.5344],[119.7986,26.5158],[119.7849,26.502],[119.8189,26.4532],[119.8123,26.4338],[119.7918,26.4338],[119.7918,26.4133],[119.762,26.4075],[119.7376,26.4437],[119.6898,26.4595],[119.6537,26.498],[119.6204,26.468],[119.5796,26.4709],[119.5664,26.4549],[119.5731,26.4378],[119.6309,26.4487],[119.6484,26.4374],[119.6555,26.3556],[119.6653,26.3402],[119.6887,26.3376],[119.6819,26.3171],[119.7471,26.3276],[119.7544,26.3721],[119.7706,26.3649],[119.7918,26.4065],[119.8258,26.4269],[119.8513,26.3928],[119.8401,26.3786],[119.8948,26.3587],[119.95,26.3649],[119.8775,26.3134],[119.8547,26.3275],[119.8011,26.3176],[119.7849,26.2966],[119.8054,26.2904],[119.7927,26.2841],[119.7644,26.2966],[119.6543,26.2724],[119.6341,26.2551],[119.6682,26.242],[119.6682,26.2215],[119.637,26.2117],[119.6001,26.1763],[119.5999,26.1458],[119.5611,26.125],[119.4585,25.9825],[119.4356,25.9813],[119.415,26.0093],[119.3269,26.048],[119.2771,26.0529],[119.2158,26.1001],[119.0935,26.1458],[119.1573,26.0908],[119.1815,26.0986],[119.1952,26.0876],[119.2468,25.9672],[119.3298,25.9443],[119.3775,25.9414],[119.4409,25.9638],[119.49,25.9942],[119.5042,26.036],[119.5191,26.0445],[119.5664,26.0502],[119.6484,26.0154],[119.6751,26.0223],[119.6954,26.0026],[119.7024,25.9851],[119.6751,25.9261],[119.6165,25.8926],[119.5999,25.8442],[119.5841,25.8769],[119.5742,25.8849],[119.5664,25.8721],[119.583,25.8202],[119.6079,25.8052],[119.606,25.769],[119.6209,25.7603],[119.5964,25.7315],[119.5899,25.6872],[119.5726,25.6797],[119.5354,25.7059],[119.4771,25.6797],[119.4491,25.6872],[119.4671,25.6139],[119.4832,25.6257],[119.481,25.5805],[119.4924,25.5648],[119.5173,25.5568],[119.5344,25.5759],[119.5584,25.5638],[119.5794,25.5847],[119.5684,25.5474],[119.5723,25.5334],[119.5931,25.5295],[119.5664,25.5158],[119.5999,25.5084],[119.5726,25.4879],[119.6036,25.4912],[119.5999,25.4748],[119.628,25.4614],[119.614,25.4388],[119.6341,25.4333],[119.646,25.3926],[119.6204,25.365],[119.6546,25.3581],[119.5794,25.3445],[119.5999,25.3712],[119.578,25.4187],[119.5931,25.4394],[119.576,25.4674],[119.5521,25.4538],[119.5386,25.4612],[119.536,25.4191],[119.5582,25.4046],[119.5444,25.3772],[119.4832,25.3712],[119.5042,25.4299],[119.4907,25.4469],[119.5073,25.4744],[119.4662,25.4748],[119.447,25.4388],[119.4331,25.4595],[119.4491,25.5053],[119.3565,25.5269],[119.356,25.5507],[119.3809,25.5909],[119.3604,25.5773],[119.343,25.6092],[119.3052,25.6046],[119.3214,25.5873],[119.2778,25.5705],[119.2688,25.5269],[119.2378,25.4818],[119.1025,25.4203],[119.157,25.3626],[119.1732,25.3251],[119.2034,25.3581],[119.2232,25.3166],[119.1815,25.2893],[119.2013,25.2597],[119.2258,25.2797],[119.243,25.3302],[119.2651,25.3176],[119.2778,25.3302],[119.3189,25.2794],[119.3475,25.2678],[119.3442,25.2424],[119.2813,25.2414],[119.2725,25.2318],[119.2888,25.1891],[119.2556,25.1759],[119.2294,25.1932],[119.1756,25.1765],[119.142,25.221],[119.1161,25.2138],[119.1042,25.1829],[119.1338,25.1384],[119.1531,25.1397],[119.1338,25.1247],[119.0933,25.1356],[119.0855,25.1247],[119.0991,25.1112],[119.0648,25.1247],[119.0792,25.1521],[119.0647,25.1625],[119.0444,25.1247],[119.0291,25.1405],[119.0689,25.2167],[118.9693,25.2264],[118.98,25.2449],[119.0249,25.2593],[119.0273,25.2782],[118.9837,25.283],[118.8756,25.2438],[118.8648,25.228],[118.9111,25.2172],[118.9153,25.1794],[118.9483,25.1972],[118.9746,25.1826],[118.943,25.1088],[118.8577,25.098],[118.8491,25.0738],[118.8779,25.0407],[118.9352,25.0224],[118.9283,25.0149],[118.9537,25.003],[118.98,25.0118],[119.0042,25.0502],[118.9832,24.9951],[118.9973,24.9534],[119.0177,24.9603],[118.9771,24.934],[118.9637,24.9544],[118.9116,24.9534],[118.9011,24.9378],[118.9099,24.9072],[118.9342,24.8861],[118.9732,24.8938],[118.9762,24.8778],[118.952,24.8708],[118.8667,24.891],[118.8259,24.8778],[118.7921,24.8911],[118.7776,24.8852],[118.7801,24.8678],[118.7161,24.8436],[118.6981,24.8595],[118.7297,24.8852],[118.7295,24.9005],[118.6956,24.9404],[118.6888,24.8957],[118.6881,24.9262],[118.6677,24.9534],[118.6404,24.9156],[118.6734,24.8866],[118.6712,24.8747],[118.6241,24.8678],[118.572,24.8852],[118.6128,24.8558],[118.6179,24.8053],[118.638,24.7721],[118.7018,24.81],[118.72,24.7694],[118.7434,24.7753],[118.763,24.7627],[118.7468,24.7207],[118.6854,24.6665],[118.6541,24.6934],[118.6421,24.6787],[118.6336,24.6279],[118.6642,24.6122],[118.6615,24.5903],[118.6205,24.5455],[118.554,24.5181],[118.5545,24.5532],[118.5781,24.5602],[118.5012,24.6081],[118.4281,24.6313],[118.4312,24.6997],[118.4009,24.6723],[118.4219,24.6245],[118.4048,24.6066],[118.3517,24.5823],[118.284,24.5978],[118.273,24.5744],[118.2498,24.5761],[118.2418,24.5438],[118.219,24.5414],[118.1812,24.5761],[118.1817,24.5978],[118.2158,24.604],[118.2152,24.6148],[118.1743,24.6245],[118.1876,24.6574],[118.1605,24.6934],[118.1575,24.6627],[118.1414,24.657],[118.1104,24.5841],[118.0444,24.6177],[118.0374,24.5606],[118.0029,24.5624],[118.0093,24.5807],[117.9749,24.5527],[118.0581,24.5159],[117.9995,24.4709],[118.0217,24.4457],[117.8677,24.4896],[117.8259,24.4805],[117.8849,24.4687],[117.9011,24.4532],[117.7913,24.4675],[117.8746,24.3963],[117.9073,24.3849],[118.043,24.4067],[118.0408,24.3656],[118.0159,24.3269],[118.053,24.3469],[118.0906,24.3415],[118.1196,24.2993],[118.1265,24.262],[118.0718,24.2546],[118.0239,24.2067],[117.9893,24.1931],[117.9788,24.1621],[117.9679,24.1598],[117.9585,24.2031],[117.9436,24.2126],[117.9073,24.1863],[117.9324,24.1783],[117.9378,24.1617],[117.8958,24.0866],[117.8936,24.028],[117.8623,24.0352],[117.8391,24.0236],[117.772,23.9589],[117.7481,23.9075],[117.7293,23.9194],[117.7379,23.9505],[117.7981,24.0218],[117.7617,24.0148],[117.7571,24.0249],[117.7761,24.0373],[117.7633,24.0703],[117.75,24.0373],[117.7241,24.0338],[117.6671,24.0627],[117.6797,24.039],[117.7088,24.0355],[117.6885,23.9975],[117.6951,23.9536],[117.6486,23.9092],[117.6255,23.8402],[117.6393,23.7941],[117.5917,23.7371],[117.5982,23.8524],[117.5711,23.9033],[117.5374,23.9194],[117.4548,23.9256],[117.4166,23.9468],[117.4097,23.9134],[117.4685,23.9119],[117.4996,23.8741],[117.4901,23.8326],[117.4635,23.7883],[117.4343,23.7759],[117.3824,23.7952],[117.3191,23.7616],[117.2926,23.7895],[117.2774,23.7822],[117.2923,23.7622],[117.2719,23.7213],[117.2636,23.6554],[117.2791,23.6363],[117.2571,23.6156],[117.239,23.6055],[117.2441,23.6575],[117.2295,23.6928],[117.2085,23.6649],[117.2192,23.6296],[117.1508,23.6069],[117.1285,23.5724],[117.0842,23.5506],[117.0684,23.6513],[117.0234,23.6587],[116.9507,23.6109],[116.9176,23.6379],[116.9409,23.6587],[116.9165,23.6627],[116.8721,23.6069],[116.8833,23.5596],[116.8497,23.5113],[116.8726,23.4738],[116.8666,23.4502],[116.7732,23.3494],[116.6578,23.3545],[116.5689,23.391],[116.5432,23.4212],[116.5232,23.4185],[116.5232,23.3775],[116.573,23.3237],[116.6419,23.3188],[116.661,23.3372],[116.6912,23.339],[116.7094,23.3198],[116.7486,23.3263],[116.7771,23.2404],[116.8048,23.2361],[116.7839,23.2124],[116.7056,23.2766],[116.6672,23.2813],[116.7151,23.2438],[116.6712,23.2146],[116.6468,23.163],[116.6152,23.1783],[116.6115,23.2387],[116.57,23.247],[116.5089,23.2341],[116.527,23.2006],[116.564,23.223],[116.6045,23.2096],[116.5451,23.1448],[116.5336,23.1091],[116.5517,23.0867],[116.5632,23.0188],[116.5219,22.9984],[116.5185,22.9675],[116.4947,22.9394],[116.4585,22.9474],[116.3796,22.929],[116.2985,22.9632],[116.2891,22.9789],[116.2136,22.9828],[116.201,22.9735],[116.2815,22.9579],[116.1449,22.8478],[116.0957,22.8259],[116.0913,22.8684],[116.1237,22.8947],[116.0421,22.9329],[116.0873,22.8897],[116.0762,22.8679],[115.9967,22.8367],[115.958,22.8047],[115.8835,22.7946],[115.81,22.7461],[115.788,22.7978],[115.8136,22.7763],[115.8048,22.8151],[115.7369,22.8517],[115.697,22.8507],[115.7036,22.8693],[115.6843,22.8778],[115.6926,22.9001],[115.7213,22.9045],[115.7303,22.9342],[115.692,22.929],[115.6533,22.8937],[115.5779,22.8773],[115.5606,22.8493],[115.533,22.862],[115.5476,22.8954],[115.5056,22.8978],[115.4509,22.9319],[115.4302,22.9182],[115.406,22.925],[115.4273,22.9006],[115.4642,22.912],[115.483,22.9018],[115.4942,22.8608],[115.468,22.8493],[115.5594,22.8361],[115.6121,22.8636],[115.527,22.767],[115.5239,22.7418],[115.5556,22.7144],[115.5673,22.7473],[115.5901,22.7372],[115.5625,22.7056],[115.5752,22.6683],[115.5362,22.6681],[115.4648,22.701],[115.3735,22.6942],[115.3385,22.7331],[115.3507,22.7469],[115.4241,22.762],[115.4112,22.7883],[115.364,22.7636],[115.3306,22.7885],[115.2334,22.7882],[115.2328,22.8053],[115.3202,22.8505],[115.3094,22.8694],[115.3171,22.9045],[115.3038,22.903],[115.2456,22.8354],[115.1729,22.8212],[115.1803,22.7848],[115.1329,22.8115],[115.0655,22.796],[115.0178,22.737],[115.0289,22.7084],[114.9853,22.6893],[114.9547,22.7035],[114.9417,22.7539],[114.9268,22.7612],[114.9168,22.744],[114.8891,22.7637],[114.8625,22.7632],[114.8819,22.7475],[114.8807,22.7215],[114.9267,22.7169],[114.9666,22.6765],[114.9387,22.6573],[114.9019,22.5981],[114.9191,22.5612],[114.896,22.5475],[114.8802,22.5591],[114.8868,22.5909],[114.8658,22.6017],[114.7541,22.5897],[114.7438,22.6094],[114.7374,22.669],[114.7538,22.6934],[114.7389,22.7106],[114.742,22.7327],[114.8213,22.7906],[114.7752,22.8158],[114.7549,22.7817],[114.7341,22.7758],[114.6955,22.7926],[114.6378,22.7551],[114.5633,22.7327],[114.5711,22.7024],[114.5523,22.6945],[114.5221,22.706],[114.5066,22.6465],[114.5825,22.6553],[114.5903,22.6439],[114.4954,22.562],[114.5093,22.5495],[114.5432,22.5694],[114.6177,22.5141],[114.5158,22.4526],[114.4851,22.4683],[114.4796,22.5462],[114.4557,22.5705],[114.4404,22.5687],[114.4243,22.6017],[114.3958,22.6135],[114.3171,22.6024],[114.3071,22.5854],[114.2762,22.588],[114.2298,22.5558],[114.162,22.5605],[114.1487,22.5381],[114.0915,22.5344],[114.0553,22.5069],[113.9638,22.5381],[113.9478,22.4904],[113.9103,22.4858],[113.8903,22.4527],[113.8662,22.5115],[113.8939,22.5211],[113.8224,22.5872],[113.7936,22.6616],[113.7729,22.6724],[113.7581,22.7534],[113.7122,22.7633],[113.6724,22.7469],[113.6536,22.7587],[113.6626,22.7981],[113.6172,22.8903],[113.6172,22.8362],[113.6056,22.8472],[113.6104,22.9045],[113.596,22.8806],[113.5923,22.8891],[113.6382,23.0349],[113.6167,23.0079],[113.5967,22.9182],[113.6172,23.0349],[113.5762,22.9387],[113.583,23.0212],[113.554,22.9876],[113.542,22.9865],[113.5288,23.0108],[113.5364,23.0631],[113.5821,23.0985],[113.7202,23.1379],[113.7581,23.1216],[113.7844,23.1317],[113.8301,23.1175],[113.7031,23.1578],[113.542,23.0864],[113.5091,23.0622],[113.4175,23.097],[113.3987,23.0833],[113.4193,23.0655],[113.4812,23.0515],[113.5023,23.0204],[113.484,22.9243],[113.4299,22.9313],[113.3076,22.8941],[113.213,22.9045],[113.2922,22.8773],[113.3504,22.8897],[113.44,22.8041],[113.4942,22.7748],[113.4395,22.7394],[113.3775,22.7674],[113.4663,22.7165],[113.553,22.6385],[113.5992,22.5752],[113.5947,22.5234],[113.5464,22.4376],[113.5581,22.3808],[113.6104,22.3702],[113.5923,22.3161],[113.5736,22.3007],[113.5877,22.2379],[113.523,22.213],[113.5299,22.2023],[113.4837,22.1551],[113.4592,22.158],[113.4256,22.1862],[113.4119,22.2255],[113.3645,22.2678],[113.357,22.3019],[113.2764,22.3721],[113.2319,22.4791],[113.1653,22.5756],[113.1602,22.4876],[113.2273,22.4253],[113.402,22.1796],[113.3508,22.1715],[113.3027,22.1833],[113.251,22.1157],[113.2472,22.0543],[113.1947,22.0464],[113.1575,22.0247],[113.1189,22.0658],[113.1106,22.0992],[113.1275,22.161],[113.1106,22.2193],[113.0851,22.2076],[113.0773,22.1473],[113.0579,22.1211],[113.0266,22.1432],[113.0206,22.126],[113.0256,21.9494],[112.9894,21.9373],[112.9571,21.8757],[112.9116,21.8563],[112.8794,21.8752],[112.8516,21.9483],[112.826,21.9661],[112.7437,21.932],[112.7305,21.8903],[112.7005,21.8903],[112.6451,21.8494],[112.6476,21.8227],[112.608,21.7751],[112.5509,21.7729],[112.426,21.8452],[112.4111,21.9012],[112.4815,21.9446],[112.4937,21.9661],[112.4363,21.9456],[112.4048,21.9429],[112.3906,21.9555],[112.3763,21.9866],[112.3975,22.0685],[112.3648,22.0345],[112.3565,21.9797],[112.3906,21.9012],[112.4021,21.8014],[112.388,21.7561],[112.3633,21.7333],[112.2862,21.7088],[112.2449,21.7065],[112.1824,21.753],[112.2031,21.8067],[112.1926,21.8432],[112.1727,21.8144],[112.0282,21.7973],[112.0071,21.8187],[112.0413,21.8842],[111.9692,21.824],[111.9341,21.8904],[111.8904,21.9251],[111.9041,21.8153],[111.9464,21.7859],[112.0003,21.7743],[111.9058,21.7159],[111.9041,21.7017],[111.8679,21.6767],[111.8389,21.6781],[111.8538,21.7074],[111.8767,21.6986],[111.8606,21.7215],[111.8362,21.717],[111.8351,21.7668],[111.8069,21.7433],[111.7879,21.76],[111.7579,21.7533],[111.6781,21.7812],[111.7606,21.7258],[111.7796,21.6754],[111.7737,21.6501],[111.7469,21.6439],[111.7879,21.616],[111.7129,21.6234],[111.6305,21.5299],[111.5819,21.5819],[111.5956,21.5341],[111.5379,21.5205],[111.521,21.5341],[111.4761,21.5136],[111.4727,21.5546],[111.4441,21.5636],[111.4322,21.603],[111.4111,21.5683],[111.438,21.5341],[111.3628,21.5412],[111.3497,21.5267],[111.4043,21.5267],[111.2673,21.4394],[111.2529,21.4447],[111.3013,21.4993],[111.1924,21.5312],[111.158,21.5136],[111.1716,21.5136],[111.1716,21.4993],[111.2263,21.4993],[111.1436,21.4658],[111.0884,21.4726],[111.13,21.4993],[111.0884,21.4931],[111.0276,21.5409],[111.0233,21.5278],[110.9859,21.5136],[111.0139,21.4857],[110.9797,21.4447],[111.0081,21.4499],[111.0422,21.4846],[111.0686,21.4726],[111.0437,21.4694],[110.9929,21.4249],[110.9659,21.4328],[110.8699,21.3832],[110.8062,21.4016],[110.7682,21.3975],[110.7048,21.3485],[110.6509,21.2604],[110.6548,21.3146],[110.6776,21.3485],[110.6555,21.3428],[110.6433,21.3218],[110.6365,21.3703],[110.7554,21.4134],[110.76,21.4447],[110.6356,21.381],[110.6167,21.3454],[110.6157,21.3012],[110.6433,21.2529],[110.6365,21.2302],[110.5752,21.2467],[110.5887,21.2256],[110.4815,21.2172],[110.4312,21.1915],[110.4373,21.2392],[110.4258,21.2692],[110.4373,21.2734],[110.4243,21.2877],[110.4373,21.2939],[110.4789,21.2734],[110.4863,21.3013],[110.4448,21.3076],[110.4863,21.3355],[110.4653,21.3287],[110.4653,21.3485],[110.4339,21.3088],[110.4239,21.3416],[110.4373,21.3975],[110.4195,21.3774],[110.401,21.387],[110.369,21.4249],[110.3895,21.4521],[110.3585,21.4357],[110.3944,21.364],[110.3895,21.3287],[110.3281,21.3355],[110.3567,21.3192],[110.3628,21.2877],[110.4082,21.238],[110.3994,21.1766],[110.3338,21.1164],[110.2693,21.0892],[110.2188,21.0276],[110.2046,21.0822],[110.1956,21.0713],[110.1567,20.986],[110.1431,20.9923],[110.1548,20.9773],[110.1493,20.924],[110.1773,20.8625],[110.1567,20.8768],[110.1567,20.8489],[110.1915,20.8489],[110.1915,20.8358],[110.2871,20.842],[110.3197,20.8599],[110.3611,20.8359],[110.369,20.8489],[110.4027,20.7901],[110.4094,20.751],[110.3836,20.7134],[110.3565,20.7323],[110.3418,20.8215],[110.3213,20.7943],[110.3321,20.7679],[110.3076,20.7532],[110.3076,20.739],[110.3375,20.7258],[110.3008,20.6571],[110.3281,20.6776],[110.3145,20.6365],[110.3628,20.6434],[110.3628,20.6223],[110.3806,20.6338],[110.4085,20.5859],[110.4789,20.5677],[110.5342,20.4783],[110.5023,20.4127],[110.4754,20.3976],[110.4068,20.3052],[110.3621,20.3049],[110.3443,20.2792],[110.2803,20.253],[110.2372,20.275],[110.1966,20.2703],[110.1878,20.253],[110.1275,20.248],[110.0379,20.3017],[110.006,20.2803],[109.9658,20.281],[109.9172,20.2393],[109.9287,20.3264],[109.9172,20.3523],[109.8741,20.3763],[109.8899,20.3827],[109.8628,20.4063],[109.9036,20.4311],[109.9824,20.3515],[110.0155,20.4184],[110.0098,20.4342],[109.9649,20.4783],[109.9581,20.4516],[109.9436,20.4607],[109.9309,20.5063],[109.9172,20.4448],[109.8961,20.4926],[109.8221,20.5165],[109.8257,20.5428],[109.8414,20.5472],[109.8482,20.5956],[109.8211,20.5546],[109.802,20.6163],[109.7459,20.6298],[109.7516,20.6737],[109.7752,20.6862],[109.8059,20.6795],[109.8277,20.698],[109.8414,20.6844],[109.8604,20.7155],[109.801,20.7063],[109.7869,20.6911],[109.7564,20.7497],[109.7732,20.7669],[109.7581,20.7928],[109.7732,20.8141],[109.752,20.842],[109.7595,20.855],[109.7454,20.8677],[109.7315,20.855],[109.739,20.8078],[109.7044,20.842],[109.7179,20.8078],[109.6656,20.8809],[109.6612,20.9276],[109.6913,20.9587],[109.679,20.9739],[109.6975,21.0406],[109.7117,21.0338],[109.7,21.083],[109.6702,21.1232],[109.7044,21.1785],[109.7202,21.1834],[109.752,21.1641],[109.7467,21.1797],[109.7732,21.2154],[109.7657,21.3559],[109.7837,21.3483],[109.7869,21.3287],[109.8074,21.3559],[109.9241,21.3628],[109.9048,21.3907],[109.9513,21.4584],[109.9334,21.4538],[109.9246,21.465],[109.9444,21.4931],[109.859,21.4828],[109.8414,21.5068],[109.8142,21.4584],[109.7991,21.4986],[109.8005,21.5546],[109.7701,21.5516],[109.7732,21.5819],[109.7481,21.5749],[109.7478,21.5452],[109.7732,21.4857],[109.7595,21.4931],[109.7415,21.474],[109.6497,21.5205],[109.677,21.5751],[109.677,21.6234],[109.6372,21.6016],[109.6253,21.5854],[109.636,21.5683],[109.608,21.5751],[109.603,21.6206],[109.6155,21.6501],[109.5853,21.6308],[109.5609,21.6713],[109.5608,21.7073],[109.5945,21.7464],[109.575,21.7457],[109.5677,21.76],[109.4927,21.6986],[109.5062,21.685],[109.4927,21.6781],[109.5199,21.685],[109.521,21.6658],[109.4647,21.6645],[109.5299,21.6357],[109.5728,21.5817],[109.5609,21.5683],[109.5609,21.5267],[109.5308,21.4916],[109.4722,21.4658],[109.4722,21.4993],[109.4244,21.4524],[109.3438,21.4535],[109.3208,21.4801],[109.2989,21.4433],[109.2586,21.4447],[109.245,21.4316],[109.2388,21.4857],[109.2146,21.4174],[109.172,21.4175],[109.1494,21.4385],[109.1446,21.418],[109.1563,21.4038],[109.1387,21.4016],[109.0398,21.4503],[109.0601,21.4801],[109.1328,21.4959],[109.1426,21.5102],[109.1358,21.603],[109.1244,21.591],[109.1011,21.6092],[109.0776,21.597],[109.0667,21.616],[109.0464,21.603],[109.0667,21.6439],[108.9924,21.6092],[108.928,21.6151],[108.8975,21.6713],[108.8695,21.6713],[108.8552,21.685],[108.8695,21.7054],[108.8655,21.7397],[108.9166,21.7538],[108.9241,21.7668],[108.8975,21.76],[108.9031,21.7743],[108.8695,21.7538],[108.8614,21.7668],[108.8757,21.801],[108.8552,21.7812],[108.8499,21.7917],[108.8614,21.8153],[108.8014,21.8183],[108.7796,21.8153],[108.8211,21.801],[108.8142,21.7812],[108.8326,21.7838],[108.8435,21.745],[108.8167,21.7164],[108.8059,21.7584],[108.7931,21.7538],[108.7999,21.7333],[108.7869,21.7402],[108.7931,21.7333],[108.7796,21.7258],[108.7999,21.7258],[108.7931,21.7128],[108.8343,21.6857],[108.8386,21.668],[108.8211,21.6439],[108.8614,21.6439],[108.8499,21.626],[108.7874,21.6414],[108.7727,21.6234],[108.7385,21.616],[108.7454,21.603],[108.7335,21.6127],[108.7275,21.6448],[108.7112,21.6501],[108.7332,21.6624],[108.7516,21.6501],[108.7516,21.6917],[108.7385,21.6713],[108.7127,21.6884],[108.7249,21.7464],[108.7112,21.7464],[108.6832,21.7054],[108.6492,21.7333],[108.6832,21.7402],[108.6463,21.7514],[108.677,21.8153],[108.656,21.7948],[108.6423,21.8221],[108.6355,21.7743],[108.615,21.7879],[108.6287,21.7464],[108.5945,21.7402],[108.6075,21.7879],[108.5806,21.7813],[108.5714,21.8128],[108.6006,21.8306],[108.6355,21.8903],[108.5945,21.9177],[108.5877,21.8979],[108.5603,21.8955],[108.553,21.9177],[108.5738,21.9355],[108.5733,21.9518],[108.5671,21.9388],[108.553,21.9518],[108.5256,21.9046],[108.5051,21.9108],[108.5188,21.8903],[108.4849,21.8771],[108.4784,21.8664],[108.4915,21.8563],[108.4631,21.863],[108.4778,21.945],[108.458,21.9177],[108.4487,21.8658],[108.4846,21.8221],[108.471,21.8221],[108.4778,21.8078],[108.4971,21.809],[108.5051,21.7879],[108.4915,21.7402],[108.4635,21.7402],[108.5051,21.7191],[108.4778,21.6986],[108.5051,21.6917],[108.5051,21.6713],[108.5201,21.7126],[108.5331,21.7191],[108.5188,21.6713],[108.553,21.6986],[108.5654,21.6785],[108.5452,21.6661],[108.5469,21.6431],[108.512,21.6439],[108.5331,21.6303],[108.512,21.6092],[108.5188,21.5955],[108.4812,21.5819],[108.4891,21.6076],[108.5051,21.603],[108.4915,21.6234],[108.4635,21.5955],[108.4712,21.5812],[108.458,21.5683],[108.471,21.562],[108.42,21.5569],[108.3897,21.5751],[108.3906,21.5954],[108.4067,21.6002],[108.4209,21.5942],[108.4164,21.5819],[108.4319,21.5832],[108.4437,21.6234],[108.4276,21.6167],[108.4164,21.6303],[108.471,21.6713],[108.4097,21.6645],[108.4238,21.6986],[108.4097,21.6781],[108.386,21.6729],[108.3377,21.6975],[108.3413,21.7258],[108.3114,21.6817],[108.3276,21.6303],[108.3065,21.6303],[108.314,21.616],[108.2935,21.5893],[108.314,21.5819],[108.2838,21.5447],[108.211,21.5006],[108.2528,21.5885],[108.2268,21.6256],[108.2383,21.6439],[108.2103,21.6303],[108.2061,21.6426],[108.1973,21.6365],[108.2103,21.603],[108.1764,21.5758],[108.1353,21.5819],[108.1283,21.5627],[108.1148,21.5751],[108.1058,21.5591],[108.0663,21.562],[108.0711,21.5366],[108.0171,21.5552],[107.9912,21.5484],[108.0396,21.5205],[108.0112,21.5065],[108.0222,21.4857],[108.061,21.4962],[108.0806,21.4857],[108.0166,21.4704],[107.9707,21.4316],[107.9653,21.4473],[107.9912,21.4857],[107.8116,21.6478],[107.7448,21.6575],[107.6719,21.6176],[107.5331,21.6087],[107.5013,21.5815],[107.461,21.5964],[107.457,21.6315],[107.426,21.6521],[107.3482,21.5994],[107.3297,21.616],[107.3032,21.6887],[107.2727,21.7183],[107.2121,21.7052],[107.1724,21.7151],[107.0658,21.7958],[107.0029,21.8106],[106.9871,21.8448],[107.0211,21.8923],[107.0094,21.9274],[106.9712,21.9358],[106.9204,21.917],[106.8648,21.9681],[106.7815,21.975],[106.7288,22.0083],[106.6746,21.9622],[106.6531,21.9689],[106.6482,21.9955],[106.6722,22.0925],[106.6397,22.1909],[106.6629,22.2233],[106.6338,22.3094],[106.5418,22.3451],[106.5269,22.4383],[106.5771,22.5953],[106.6076,22.61],[106.6463,22.5688],[106.6802,22.5795],[106.7466,22.7443],[106.7915,22.7721],[106.7898,22.7972],[106.7304,22.7976],[106.6675,22.8675],[106.6327,22.8496],[106.6104,22.8529],[106.5817,22.8953],[106.4878,22.9254],[106.458,22.889],[106.3157,22.8538],[106.2554,22.8547],[106.2271,22.8756],[106.2024,22.947],[106.1321,22.975],[105.9992,22.9754],[105.9612,22.9324],[105.876,22.9283],[105.8539,22.9047],[105.7547,23.0057],[105.6903,23.044],[105.5516,23.0597],[105.5283,23.1555],[105.4739,23.1945],[105.4259,23.2732],[105.3895,23.2754],[105.344,23.3042],[105.3122,23.3658],[105.2937,23.3663],[105.2455,23.3302],[105.2175,23.2654],[105.2009,23.254],[105.1556,23.2669],[105.0611,23.2325],[104.9351,23.1543],[104.8948,23.1703],[104.8701,23.1635],[104.8613,23.1196],[104.7979,23.0856],[104.8236,22.9241],[104.7742,22.8962],[104.7008,22.8182],[104.6627,22.8109],[104.6098,22.823],[104.5884,22.8069],[104.5535,22.836],[104.449,22.7452],[104.3402,22.6864],[104.2368,22.7421],[104.2288,22.7834],[104.2412,22.8244],[104.0869,22.7916],[104.0238,22.7192],[103.9854,22.5272],[103.9595,22.5071],[103.917,22.5333],[103.8946,22.5692],[103.8363,22.6028],[103.7942,22.6594],[103.6469,22.799],[103.59,22.768],[103.5471,22.7007],[103.5509,22.6408],[103.5036,22.5814],[103.4475,22.6183],[103.4043,22.6888],[103.4017,22.7378],[103.3571,22.776],[103.3096,22.7879],[103.2449,22.6687],[103.1417,22.607],[103.13,22.578],[103.142,22.5378],[103.0442,22.4865],[103.0451,22.4405],[103.029,22.4302],[102.9026,22.4772],[102.8318,22.5997],[102.7519,22.6253],[102.6927,22.6705],[102.6125,22.6916],[102.5867,22.7161],[102.5584,22.6949],[102.5358,22.6958],[102.5158,22.7452],[102.4678,22.7686],[102.4427,22.7652],[102.4256,22.7453],[102.395,22.6805],[102.3559,22.6699],[102.3843,22.6289],[102.2525,22.4955],[102.218,22.4107],[102.1645,22.4255],[102.1073,22.3975],[102.0855,22.4291],[101.995,22.4474],[101.8916,22.4297],[101.8679,22.3788],[101.8178,22.4063],[101.7849,22.4722],[101.7551,22.4955],[101.6891,22.4789],[101.6545,22.4461],[101.6437,22.3647],[101.6237,22.3466],[101.6012,22.277],[101.551,22.2767],[101.5157,22.2454],[101.5615,22.1761],[101.5554,22.0903],[101.5922,22.0281],[101.6068,21.9676],[101.6381,21.9409],[101.6737,21.9314],[101.7213,21.8444],[101.7511,21.8161],[101.7285,21.7175],[101.7548,21.6898],[101.7559,21.6487],[101.8038,21.6259],[101.7936,21.5882],[101.7362,21.5709],[101.7482,21.5145],[101.7297,21.4742],[101.7151,21.3211],[101.7365,21.2923],[101.8012,21.2671],[101.8237,21.2345],[101.8052,21.2045],[101.7736,21.2074],[101.7601,21.196],[101.7702,21.1704],[101.756,21.1433],[101.7043,21.1351],[101.6551,21.1892],[101.5818,21.1757],[101.584,21.2244],[101.5176,21.2426],[101.3815,21.2225],[101.2927,21.1761],[101.2443,21.1929],[101.209,21.2455],[101.2204,21.2963],[101.2074,21.3148],[101.2331,21.3717],[101.1714,21.4034],[101.1878,21.5059],[101.1866,21.5353],[101.1542,21.568],[101.1739,21.6119],[101.1688,21.6379],[101.1277,21.6952],[101.1189,21.7598],[101.0828,21.7667],[100.9928,21.7114],[100.8349,21.6575],[100.704,21.5164],[100.6217,21.4691],[100.5718,21.4551],[100.4567,21.455],[100.3991,21.5189],[100.342,21.5304],[100.2895,21.4831],[100.1979,21.4332],[100.1625,21.4364],[100.0973,21.5083],[100.0861,21.5509],[100.1039,21.6156],[100.1437,21.64],[100.1428,21.6549],[100.0823,21.6845],[99.9967,21.6861],[99.9503,21.7212],[99.918,21.8292],[99.9657,21.963],[99.9343,22.0189],[99.9424,22.0455],[99.8478,22.055],[99.8417,22.0271],[99.821,22.0178],[99.7237,22.0706],[99.6839,22.039],[99.6335,22.0848],[99.539,22.1067],[99.4904,22.1043],[99.4386,22.1242],[99.3649,22.0989],[99.2529,22.1028],[99.1664,22.1321],[99.1445,22.1535],[99.1751,22.1687],[99.1594,22.1847],[99.2437,22.3412],[99.2431,22.3932],[99.2828,22.4119],[99.3578,22.4955],[99.3441,22.5333],[99.355,22.6085],[99.308,22.7452],[99.359,22.7749],[99.4144,22.8569],[99.4134,22.9307],[99.4299,22.9367],[99.5153,22.9088],[99.538,22.9264],[99.4904,23.012],[99.4931,23.0574],[99.4033,23.0683],[99.3338,23.1296],[99.3141,23.1265],[99.2848,23.0882],[99.2166,23.0574],[99.1942,23.0958],[99.0551,23.1096],[99.0264,23.1604],[98.859,23.1794],[98.8601,23.2123],[98.9107,23.2976],[98.8965,23.3233],[98.8534,23.3249],[98.8901,23.3679],[98.8896,23.4068],[98.864,23.4666],[98.8489,23.4804],[98.8,23.4807],[98.7809,23.5329],[98.7963,23.5579],[98.8502,23.5906],[98.856,23.61],[98.8003,23.6927],[98.7932,23.7585],[98.6637,23.7969],[98.6745,23.9369],[98.6588,23.9611],[98.8562,24.0838],[98.8735,24.1145],[98.8657,24.1457],[98.8181,24.129],[98.7162,24.1213],[98.5852,24.0757],[98.5033,24.1213],[98.435,24.1303],[98.3956,24.1281],[98.3307,24.0995],[98.1815,24.1187],[98.1051,24.1015],[97.89,24.0226],[97.8178,23.9582],[97.7678,23.9465],[97.6247,23.8467],[97.6099,23.8831],[97.5165,23.9428],[97.7201,24.1474],[97.7231,24.1713],[97.7016,24.2109],[97.7241,24.2415],[97.7184,24.2777],[97.6445,24.3024],[97.6382,24.3281],[97.6896,24.3465],[97.6473,24.4323],[97.6244,24.4423],[97.5133,24.4386],[97.5386,24.5973],[97.5328,24.7233],[97.5361,24.745],[97.6639,24.8298],[97.7652,24.8347],[97.773,24.8547],[97.7083,24.9273],[97.6996,25.065],[97.7541,25.1136],[97.801,25.2376],[97.8236,25.2616],[97.8603,25.2441],[97.8889,25.2056],[97.9099,25.2076],[97.9763,25.2723],[98.0449,25.3119],[98.0757,25.3761],[98.1121,25.3962],[98.0998,25.5],[98.1342,25.5346],[98.1401,25.6115],[98.2324,25.5866],[98.2766,25.5524],[98.3121,25.5575],[98.3471,25.5778],[98.3752,25.6493],[98.4132,25.6921],[98.4187,25.7242],[98.4981,25.8307],[98.5268,25.8388],[98.61,25.8006],[98.6778,25.8433],[98.6902,25.8656],[98.6898,25.8916],[98.6253,25.97],[98.5824,25.9823],[98.5455,26.1056],[98.563,26.1312],[98.6193,26.1457],[98.6243,26.1085],[98.6444,26.0979],[98.6808,26.125],[98.7055,26.1749],[98.677,26.2393],[98.6422,26.2545],[98.6578,26.3116],[98.7135,26.3895],[98.7211,26.5389],[98.7556,26.625],[98.732,26.7135],[98.7504,26.792],[98.7145,26.862],[98.7363,26.8983],[98.7127,26.9951],[98.7378,27.0487],[98.7314,27.0688],[98.6914,27.0924],[98.6726,27.1756],[98.7077,27.3372],[98.6974,27.3689],[98.6744,27.3866],[98.6793,27.5773],[98.6472,27.6117],[98.5784,27.5917],[98.5222,27.6563],[98.4923,27.6434],[98.4103,27.6843],[98.3833,27.5558],[98.3639,27.5322],[98.3286,27.5229],[98.2947,27.5366],[98.2544,27.6481],[98.2044,27.7273],[98.2115,27.7603],[98.1979,27.7806],[98.1966,27.8232],[98.1624,27.8428],[98.1401,27.8786],[98.1767,27.8981],[98.1773,27.9129],[98.1071,27.9731],[98.1225,28.0154],[98.1187,28.1408],[98.0486,28.1996],[97.9911,28.214],[97.9929,28.2689],[97.9447,28.2988],[97.8975,28.3553],[97.8591,28.3701],[97.7973,28.3439],[97.7653,28.3524],[97.74,28.3826],[97.6996,28.488],[97.6705,28.5113],[97.6136,28.482],[97.5462,28.5385],[97.5277,28.5295],[97.4453,28.383],[97.4478,28.2976],[97.4367,28.2864],[97.3844,28.2848],[97.3696,28.2535],[97.3235,28.2175],[97.2297,28.2746],[97.2105,28.3081],[97.1827,28.315],[97.1155,28.3666],[97.0784,28.3751],[96.9658,28.3305],[96.7169,28.4365],[96.5615,28.4473],[96.3696,28.3781],[96.3019,28.4207],[96.3365,28.4797],[96.5024,28.6445],[96.501,28.6876],[96.598,28.7099],[96.5926,28.7579],[96.5767,28.8085],[96.5108,28.8855],[96.4922,28.948],[96.4521,28.9704],[96.4576,28.9946],[96.3666,29.0365],[96.2947,28.9923],[96.2486,28.9453],[96.1953,28.9411],[96.176,29.0174],[96.1746,29.1088],[96.2101,29.1458],[96.3164,29.1719],[96.3662,29.2572],[96.3371,29.2797],[96.2678,29.2417],[96.2353,29.2412],[96.1763,29.2865],[96.142,29.3685],[95.9537,29.3592],[95.8631,29.324],[95.7959,29.3529],[95.7448,29.3404],[95.7474,29.2737],[95.7172,29.2183],[95.5923,29.2497],[95.5644,29.2456],[95.5502,29.2125],[95.5153,29.2094],[95.5214,29.1379],[95.4876,29.069],[95.3674,29.0365],[95.2249,29.0594],[95.1997,29.0942],[95.1169,29.1081],[94.9891,29.154],[94.7766,29.1667],[94.7615,29.1747],[94.7677,29.2139],[94.7042,29.2847],[94.6304,29.3195],[94.5999,29.3166],[94.5148,29.2211],[94.3964,29.2071],[94.3358,29.1496],[94.2875,29.1479],[94.2708,29.0979],[94.3473,29.0243],[94.2502,28.9331],[94.1737,28.9302],[94.1354,28.8978],[93.992,28.8446],[93.9816,28.7681],[93.9278,28.6828],[93.8631,28.7049],[93.7817,28.6805],[93.7225,28.6966],[93.6255,28.6724],[93.4462,28.6719],[93.3172,28.6035],[93.287,28.5205],[93.1863,28.432],[93.2181,28.3946],[93.2078,28.3405],[92.9749,28.2823],[92.9038,28.2497],[92.8348,28.1835],[92.7902,28.1789],[92.7792,28.1959],[92.6786,28.1331],[92.6389,28.0575],[92.6893,28.0483],[92.7364,27.9859],[92.6837,27.9105],[92.6365,27.8954],[92.575,27.8478],[92.4751,27.8466],[92.4276,27.8212],[92.3928,27.856],[92.3679,27.8038],[92.3501,27.8025],[92.3292,27.8329],[92.3039,27.7862],[92.2396,27.8653],[92.1263,27.8127],[92.0649,27.7617],[91.9889,27.7694],[91.9522,27.7248],[91.8649,27.73],[91.8266,27.8076],[91.7299,27.8041],[91.6801,27.8498],[91.6283,27.8527],[91.6528,27.9167],[91.638,27.9397],[91.6006,27.9593],[91.4188,27.9947],[91.3414,28.0306],[91.2902,28.0914],[91.2697,28.0729],[91.1947,28.0706],[91.0926,27.9717],[91.0519,27.9628],[90.9751,27.9821],[90.9095,28.0327],[90.7269,28.0617],[90.6675,28.0903],[90.5753,28.0658],[90.4752,28.0723],[90.4857,28.1247],[90.5976,28.2004],[90.5877,28.2333],[90.5054,28.2498],[90.456,28.2827],[90.4165,28.2827],[90.3869,28.2991],[90.354,28.2991],[90.3295,28.2558],[90.2915,28.2614],[90.2618,28.2991],[90.2618,28.3354],[90.2256,28.3584],[90.1532,28.3222],[90.0709,28.3452],[89.9525,28.3082],[89.9161,28.3156],[89.8629,28.2958],[89.7809,28.2288],[89.7558,28.1844],[89.5615,28.1346],[89.515,28.0819],[89.4445,28.0312],[89.336,27.8691],[89.2249,27.8078],[89.1982,27.7306],[89.1247,27.6149],[89.0915,27.6259],[89.064,27.6159],[88.9784,27.5303],[88.983,27.4926],[88.9511,27.4331],[88.997,27.3309],[88.9719,27.3124],[88.9152,27.3309],[88.8923,27.3155],[88.7954,27.3859],[88.7598,27.4351],[88.7576,27.5114],[88.741,27.5457],[88.8057,27.6551],[88.8539,27.8437],[88.8516,27.8772],[88.8107,27.9279],[88.8177,27.9949],[88.7356,28.0553],[88.652,28.0694],[88.6105,28.1058],[88.5528,28.0781],[88.5021,28.0289],[88.4558,28.0315],[88.3788,27.9826],[88.1157,27.9473],[88.0975,27.904],[88.1182,27.8609],[88.03,27.8933],[87.9784,27.8805],[87.8367,27.9083],[87.7798,27.8394],[87.7268,27.8078],[87.6361,27.8237],[87.5733,27.805],[87.5316,27.8368],[87.3691,27.8039],[87.3853,27.8494],[87.3638,27.8553],[87.2905,27.8161],[87.2329,27.8297],[87.1558,27.8258],[87.1165,27.8446],[87.0057,27.9515],[86.9147,27.9451],[86.8405,28.0148],[86.7398,28.0215],[86.7317,28.0769],[86.6801,28.1057],[86.6123,28.0803],[86.5536,28.1042],[86.5162,28.0122],[86.5105,27.9524],[86.4253,27.9099],[86.363,27.9461],[86.3277,27.9397],[86.2781,27.9837],[86.203,28.0026],[86.1722,28.0718],[86.186,28.1335],[86.176,28.153],[86.156,28.1565],[86.0687,28.0768],[86.0847,28.0439],[86.0792,28.0011],[86.0981,27.9856],[86.0956,27.9579],[86.1129,27.9268],[86.0617,27.889],[85.9803,27.8852],[85.9627,27.8914],[85.9512,27.9162],[85.9566,27.9762],[85.8983,28.036],[85.8634,28.1433],[85.7345,28.2215],[85.6998,28.2691],[85.6929,28.3352],[85.6118,28.2511],[85.5653,28.2754],[85.4757,28.2791],[85.4316,28.2971],[85.3626,28.2597],[85.3126,28.2828],[85.2434,28.2679],[85.1736,28.3043],[85.1342,28.292],[85.0874,28.3041],[85.0776,28.4357],[85.1095,28.4593],[85.1232,28.5046],[85.1537,28.5249],[85.161,28.595],[85.0549,28.6387],[85.0253,28.6284],[85.0025,28.5944],[84.9549,28.5743],[84.9285,28.5385],[84.812,28.542],[84.7556,28.5854],[84.6778,28.6044],[84.683,28.6508],[84.6326,28.6688],[84.6162,28.6937],[84.4508,28.7339],[84.4227,28.7992],[84.3766,28.8488],[84.2351,28.9],[84.2067,28.9407],[84.2314,29.026],[84.1755,29.0574],[84.1662,29.0985],[84.1323,29.1438],[84.1617,29.1925],[84.1555,29.2066],[84.1124,29.2091],[84.0897,29.2566],[84.0352,29.2476],[84.0125,29.2702],[83.9758,29.2637],[83.958,29.289],[83.9144,29.2894],[83.7932,29.2348],[83.6955,29.2262],[83.656,29.1608],[83.6393,29.1548],[83.5237,29.1836],[83.503,29.261],[83.4372,29.3052],[83.4282,29.3335],[83.3931,29.3562],[83.3872,29.3935],[83.357,29.4154],[83.3552,29.4607],[83.328,29.485],[83.2639,29.473],[83.2472,29.4947],[83.2608,29.542],[83.1736,29.6213],[83.0934,29.6151],[83.0796,29.5796],[83.0649,29.5788],[82.9759,29.664],[82.9319,29.6642],[82.8997,29.6884],[82.8366,29.6598],[82.8155,29.6901],[82.691,29.7807],[82.689,29.8277],[82.6185,29.8398],[82.5418,29.9232],[82.4571,29.9541],[82.3944,30.0031],[82.3473,30.0034],[82.3189,30.0318],[82.2557,30.0397],[82.2107,30.0644],[82.1538,30.0582],[82.1276,30.1244],[82.1557,30.1814],[82.085,30.2308],[82.0888,30.3301],[82.0499,30.3392],[81.969,30.3283],[81.9412,30.354],[81.8444,30.3712],[81.779,30.358],[81.614,30.4169],[81.5368,30.3786],[81.5094,30.3284],[81.4628,30.3414],[81.4261,30.3725],[81.3875,30.3739],[81.368,30.301],[81.3779,30.2326],[81.3501,30.1572],[81.3224,30.1338],[81.267,30.1251],[81.272,30.0799],[81.2257,30.0505],[81.2168,30.0082],[81.1481,30.0232],[81.0978,30.0169],[81.0309,30.1527],[80.996,30.197],[81.0033,30.2127],[80.976,30.2552],[80.7817,30.321],[80.7231,30.392],[80.5964,30.4598],[80.5083,30.4623],[80.3259,30.5465],[80.2528,30.565],[80.1798,30.5595],[80.2033,30.6063],[80.1666,30.6744],[80.207,30.6861],[80.2314,30.7249],[80.1571,30.7932],[80.0922,30.7745],[80.0625,30.7848],[80.0286,30.8308],[79.9032,30.8902],[79.8335,30.9615],[79.739,30.9792],[79.6303,30.9625],[79.5778,30.9384],[79.5127,30.9662],[79.4764,31.014],[79.4016,31.0236],[79.367,31.1116],[79.3194,31.1423],[79.3022,31.1635],[79.2883,31.2255],[79.2529,31.2454],[79.262,31.2785],[79.2383,31.3297],[79.1314,31.4384],[79.0702,31.4614],[78.921,31.2697],[78.862,31.2915],[78.7845,31.2883],[78.7451,31.3081],[78.7385,31.335],[78.7626,31.4451],[78.6954,31.4881],[78.6995,31.51],[78.8189,31.6074],[78.7581,31.6666],[78.724,31.6733],[78.6932,31.7185],[78.6956,31.7467],[78.6709,31.7705],[78.7003,31.8217],[78.7446,31.9642],[78.7222,31.9946],[78.6493,32.0364],[78.5131,32.2076],[78.458,32.2297],[78.4627,32.2818],[78.4345,32.3838],[78.4522,32.4168],[78.381,32.528],[78.3848,32.5475],[78.4475,32.5663],[78.6302,32.578],[78.6945,32.6297],[78.7368,32.6298],[78.751,32.6128],[78.7369,32.5458],[78.7715,32.4617],[78.9113,32.3547],[78.9434,32.3464],[79.0282,32.3771],[79.0753,32.3708],[79.0917,32.3906],[79.1129,32.4724],[79.1912,32.5043],[79.2356,32.5043],[79.2874,32.5326],[79.3205,32.5923],[79.3795,32.5765],[79.4068,32.5297],[79.4435,32.5348],[79.5157,32.6081],[79.5312,32.6483],[79.5762,32.6706],[79.6207,32.7287],[79.6139,32.765],[79.5641,32.7939],[79.4141,32.9721],[79.3336,32.9943],[79.3398,33.0133],[79.3993,33.0269],[79.3732,33.1121],[79.4235,33.1578],[79.4561,33.2504],[79.4201,33.2752],[79.2601,33.2918],[79.098,33.2877],[78.965,33.3443]]],[[[110.9944,19.6943],[111.0347,19.6422],[110.9658,19.636],[110.8765,19.5398],[110.8428,19.5399],[110.8218,19.5678],[110.8257,19.6033],[110.8626,19.6087],[110.8477,19.6225],[110.7944,19.6013],[110.8218,19.5541],[110.7962,19.4846],[110.7603,19.4579],[110.7576,19.4309],[110.6983,19.4169],[110.6697,19.3817],[110.6779,19.3344],[110.6414,19.3124],[110.6216,19.2307],[110.5803,19.1552],[110.5686,19.1631],[110.5101,19.1501],[110.4792,19.1693],[110.5073,19.1322],[110.5462,19.1399],[110.5549,19.0873],[110.5823,19.1501],[110.5632,19.0556],[110.5181,18.9935],[110.5134,18.9064],[110.4656,18.8819],[110.4588,18.8483],[110.4315,18.8215],[110.4451,18.8037],[110.4928,18.7931],[110.5025,18.8112],[110.4937,18.876],[110.5034,18.8819],[110.5344,18.7856],[110.469,18.7772],[110.4246,18.7038],[110.4268,18.6809],[110.4035,18.6628],[110.3887,18.675],[110.3445,18.6646],[110.3352,18.6733],[110.4109,18.6901],[110.4035,18.7038],[110.3079,18.6628],[110.2708,18.6682],[110.1211,18.5558],[110.0881,18.5043],[110.0342,18.5119],[110.0825,18.4778],[110.0682,18.4089],[110.0446,18.4401],[110.0526,18.3902],[110.0403,18.3823],[109.9686,18.3898],[109.9686,18.4055],[110.0137,18.4089],[110.0205,18.4505],[110.0062,18.4294],[109.9925,18.4431],[109.9925,18.4294],[109.9819,18.4355],[109.9652,18.4163],[109.8983,18.4143],[109.8355,18.3823],[109.7957,18.4052],[109.7461,18.3959],[109.7266,18.3038],[109.7318,18.273],[109.7046,18.2922],[109.6704,18.273],[109.7393,18.2587],[109.7088,18.2072],[109.6907,18.2092],[109.6773,18.2451],[109.6061,18.2089],[109.6157,18.1762],[109.5877,18.1816],[109.5612,18.1693],[109.568,18.1932],[109.5476,18.2209],[109.5663,18.243],[109.5612,18.2587],[109.5296,18.2277],[109.5339,18.2104],[109.5108,18.2136],[109.4787,18.1927],[109.465,18.2041],[109.5096,18.2308],[109.5065,18.2528],[109.5002,18.2595],[109.4929,18.2451],[109.44,18.289],[109.2181,18.3056],[109.1626,18.2878],[109.1292,18.3475],[109.136,18.3612],[108.9909,18.3687],[108.9528,18.4023],[108.8859,18.4267],[108.7956,18.4866],[108.7107,18.4997],[108.6849,18.5152],[108.6741,18.5548],[108.6909,18.6047],[108.6936,18.7199],[108.6681,18.7886],[108.6239,18.8492],[108.6563,18.944],[108.6152,19.1016],[108.6631,19.1562],[108.6834,19.1562],[108.6639,19.2096],[108.6221,19.2177],[108.638,19.249],[108.627,19.275],[108.6494,19.2996],[108.6448,19.3104],[108.6626,19.3097],[108.6773,19.3276],[108.6693,19.3437],[108.6865,19.3779],[108.763,19.389],[108.7903,19.4232],[108.8698,19.4579],[108.9245,19.5063],[108.9448,19.492],[108.9408,19.5141],[109.0085,19.5971],[109.0789,19.6127],[109.1565,19.6496],[109.1921,19.6785],[109.2112,19.7248],[109.259,19.7316],[109.3074,19.7111],[109.2747,19.7572],[109.2942,19.7595],[109.2868,19.7732],[109.3074,19.7869],[109.2732,19.7936],[109.1633,19.7248],[109.1668,19.8055],[109.2487,19.8688],[109.2551,19.8983],[109.3114,19.9195],[109.3213,19.892],[109.3688,19.8893],[109.4126,19.8614],[109.4436,19.873],[109.465,19.8341],[109.527,19.862],[109.533,19.8526],[109.5817,19.8557],[109.5202,19.8825],[109.5156,19.9052],[109.5575,19.9173],[109.5446,19.9333],[109.5309,19.9301],[109.527,19.9514],[109.5957,19.9931],[109.719,20.0106],[109.7284,19.9979],[109.7181,19.9575],[109.7376,19.9781],[109.8076,19.9514],[109.8159,19.9912],[109.8351,19.9733],[109.8355,19.9309],[109.8704,19.9534],[109.8833,19.9848],[109.9426,19.9909],[109.9756,19.9323],[109.9515,19.9309],[109.9901,19.906],[110.0062,19.9103],[109.9922,19.9254],[110.0147,19.9409],[110.0137,19.9575],[110.0682,19.9787],[110.1099,19.965],[110.1227,19.9743],[110.1496,20.0066],[110.1155,19.9848],[110.0682,19.9848],[110.1297,20.0128],[110.157,20.0674],[110.261,20.0331],[110.325,20.0612],[110.3447,20.0581],[110.3767,20.0264],[110.3682,20.0078],[110.3972,19.9787],[110.4109,19.9234],[110.4177,19.9234],[110.4094,19.98],[110.383,20.0128],[110.383,20.081],[110.4246,20.0475],[110.5276,20.0202],[110.5208,20.0066],[110.5505,19.9885],[110.5641,19.9845],[110.5755,19.9992],[110.6058,19.9232],[110.6232,19.9407],[110.6232,19.9718],[110.6009,20.0211],[110.5708,20.0307],[110.5662,20.0695],[110.5931,20.1073],[110.652,20.117],[110.6779,20.1636],[110.7109,20.0752],[110.7883,20.0104],[110.8699,19.997],[110.9207,20.012],[110.9346,19.9951],[110.9771,19.8659],[110.9944,19.6943]]],[[[111.9452,21.6501],[111.9998,21.654],[111.9998,21.6212],[111.9097,21.6005],[111.8633,21.5683],[111.8093,21.5655],[111.8421,21.6068],[111.8353,21.6439],[111.9282,21.6645],[111.9452,21.6501]]],[[[112.6454,21.7128],[112.6546,21.6985],[112.638,21.6645],[112.6504,21.6404],[112.6072,21.616],[112.5559,21.6234],[112.5392,21.5989],[112.5254,21.5989],[112.5243,21.6269],[112.5679,21.6606],[112.5559,21.6781],[112.6454,21.7128]]],[[[112.7775,21.7726],[112.8626,21.7694],[112.8626,21.7456],[112.7975,21.7059],[112.8106,21.6576],[112.7935,21.6082],[112.8106,21.5893],[112.7649,21.5819],[112.7344,21.6287],[112.7676,21.6635],[112.7744,21.6917],[112.7156,21.6802],[112.7117,21.7025],[112.7478,21.7333],[112.7649,21.7318],[112.7775,21.7726]]],[[[113.3914,22.0275],[113.4058,22.007],[113.3235,22.0119],[113.3094,22.0241],[113.3436,22.0685],[113.3827,22.0896],[113.3989,22.0685],[113.4126,22.076],[113.3914,22.0275]]],[[[113.3648,22.1579],[113.3136,22.0764],[113.2791,22.0747],[113.2642,22.1049],[113.2717,22.12],[113.2987,22.1286],[113.3231,22.1579],[113.328,22.1458],[113.3648,22.1579]]],[[[113.573,22.8301],[113.6029,22.7724],[113.5946,22.7561],[113.5583,22.7579],[113.5286,22.8022],[113.5212,22.7879],[113.5061,22.798],[113.4808,22.8493],[113.4732,22.8254],[113.4559,22.8308],[113.3962,22.8981],[113.433,22.912],[113.4756,22.9007],[113.527,22.8466],[113.573,22.8301]]],[[[117.0491,23.4741],[117.0903,23.4611],[117.1259,23.4827],[117.1226,23.4655],[117.1418,23.4497],[117.1288,23.3994],[116.943,23.4301],[116.9822,23.4595],[117.01,23.439],[117.0376,23.4469],[117.0491,23.4741]]],[[[117.4689,23.7531],[117.5267,23.7401],[117.5162,23.7163],[117.4842,23.7108],[117.4798,23.6627],[117.4448,23.6649],[117.4211,23.6465],[117.4154,23.6082],[117.4316,23.5826],[117.3205,23.574],[117.3691,23.6224],[117.3937,23.6792],[117.3405,23.689],[117.3767,23.7289],[117.3727,23.7667],[117.4136,23.7717],[117.4198,23.7543],[117.4478,23.7423],[117.4689,23.7531]]],[[[119.2576,26.0476],[119.4012,25.996],[119.405,25.9779],[119.3811,25.967],[119.2576,26.0015],[119.2178,26.059],[119.2092,26.0986],[119.2576,26.0476]]],[[[121.2555,28.14],[121.2854,28.1019],[121.2791,28.0854],[121.2381,28.0929],[121.2315,28.065],[121.1516,28.0412],[121.1552,28.0714],[121.1204,28.1357],[121.1653,28.1505],[121.2306,28.2197],[121.2564,28.2148],[121.2689,28.1939],[121.2555,28.14]]],[[[122.2388,30.3131],[122.2039,30.2914],[122.2319,30.2777],[122.2023,30.2419],[122.1377,30.2546],[122.0736,30.2914],[122.1042,30.3142],[122.2114,30.3466],[122.2205,30.3207],[122.2388,30.3131]]],[[[122.3989,30.4565],[122.4231,30.4149],[122.348,30.436],[122.2854,30.4221],[122.2728,30.436],[122.2871,30.4422],[122.2738,30.4514],[122.28,30.4826],[122.3374,30.4585],[122.3692,30.477],[122.3747,30.4573],[122.3989,30.4565]]],[[[121.7942,31.3688],[121.8678,31.3662],[121.8818,31.3366],[121.8662,31.3042],[121.8347,31.2925],[121.7942,31.3688]]],[[[119.8143,32.2756],[119.9019,32.0734],[119.792,32.1218],[119.791,32.1655],[119.8193,32.2038],[119.7498,32.228],[119.7195,32.2496],[119.7162,32.2726],[119.7508,32.2931],[119.8143,32.2756]]],[[[122.3213,39.166],[122.3548,39.1956],[122.4026,39.2138],[122.3889,39.1871],[122.4026,39.1591],[122.334,39.1463],[122.3213,39.166]]],[[[122.636,39.2343],[122.7186,39.2419],[122.742,39.2361],[122.7256,39.21],[122.6907,39.1933],[122.6975,39.2213],[122.636,39.2343]]],[[[122.6844,39.2622],[122.5862,39.258],[122.5335,39.2717],[122.5051,39.2969],[122.6844,39.2622]]],[[[121.4225,39.4745],[121.4505,39.4503],[121.4163,39.4403],[121.4356,39.4162],[121.4217,39.3737],[121.3369,39.3774],[121.3796,39.4249],[121.3643,39.4455],[121.3406,39.4403],[121.2962,39.3914],[121.2595,39.3915],[121.2659,39.4336],[121.311,39.4479],[121.3406,39.4813],[121.4225,39.4745]]],[[[122.9644,39.5154],[122.968,39.5411],[122.9898,39.5495],[123.04,39.5297],[123.03,39.5079],[123.0057,39.4973],[122.9797,39.4993],[122.9644,39.5154]]],[[[110.5959,20.9587],[110.6325,20.9367],[110.5892,20.8835],[110.5475,20.9177],[110.6027,20.9649],[110.5959,20.9587]]],[[[110.5475,21.0373],[110.5169,20.9376],[110.493,20.978],[110.4414,21.0058],[110.363,21.0058],[110.2666,20.9726],[110.2459,20.986],[110.2654,21.0043],[110.2459,21.0276],[110.2874,21.0338],[110.2707,21.0449],[110.2731,21.0611],[110.3099,21.0529],[110.3352,21.0686],[110.308,21.0609],[110.2874,21.0744],[110.3426,21.0747],[110.3898,21.0959],[110.4177,21.0406],[110.4321,21.0573],[110.5264,21.0821],[110.5475,21.0373]]],[[[110.617,21.1915],[110.5652,21.1126],[110.5432,21.105],[110.5207,21.1118],[110.5071,21.1437],[110.4792,21.1641],[110.4792,21.1505],[110.4614,21.1511],[110.4453,21.1657],[110.4519,21.1785],[110.4177,21.1785],[110.4622,21.2051],[110.4998,21.2063],[110.4963,21.1952],[110.4634,21.1907],[110.4929,21.1839],[110.5432,21.2042],[110.5686,21.1915],[110.5501,21.1684],[110.5549,21.1567],[110.594,21.2028],[110.617,21.1915]]],[[[118.0925,24.5562],[118.1379,24.5365],[118.1814,24.5351],[118.1887,24.4941],[118.1639,24.4719],[118.1538,24.4371],[118.1365,24.4293],[118.0921,24.4385],[118.07,24.4603],[118.103,24.4799],[118.1062,24.4941],[118.0823,24.4823],[118.072,24.4979],[118.0925,24.5562]]],[[[119.8465,25.5363],[119.8186,25.5458],[119.7988,25.5158],[119.8465,25.4612],[119.8211,25.4675],[119.772,25.4506],[119.7573,25.4049],[119.693,25.4376],[119.71,25.4879],[119.6685,25.4879],[119.6862,25.5077],[119.7485,25.5026],[119.7783,25.522],[119.7263,25.5251],[119.7162,25.5363],[119.7271,25.5909],[119.7026,25.5773],[119.6927,25.5942],[119.7305,25.6461],[119.7635,25.6595],[119.7817,25.6592],[119.7759,25.6357],[119.792,25.6046],[119.8135,25.6088],[119.8329,25.5909],[119.8169,25.5798],[119.8745,25.5568],[119.8465,25.5363]]],[[[121.9575,29.1195],[121.9353,29.0629],[121.8887,29.0723],[121.9002,29.0937],[121.8682,29.1474],[121.9266,29.1667],[121.9519,29.1523],[121.9575,29.1195]]],[[[122.1074,29.7896],[122.1869,29.6734],[122.1629,29.6545],[122.1698,29.675],[122.1494,29.6688],[122.1494,29.6818],[122.1275,29.669],[122.0928,29.7258],[122.04,29.7164],[122.0329,29.7309],[122.0682,29.7795],[122.1074,29.7896]]],[[[122.4081,29.8998],[122.3828,29.8647],[122.3952,29.8333],[122.3571,29.8617],[122.3674,29.8959],[122.3252,29.9279],[122.3255,29.9539],[122.3418,29.963],[122.3591,29.9463],[122.4067,29.9527],[122.3952,29.9221],[122.4081,29.8998]]],[[[121.8818,30.0764],[121.9092,30.045],[121.9105,30.0241],[121.8897,29.984],[121.8601,29.9781],[121.8289,29.9975],[121.8347,30.045],[121.853,30.0871],[121.8818,30.0764]]],[[[122.3275,30.0245],[122.307,29.9972],[122.2936,29.9338],[122.2292,29.9787],[122.099,30.0145],[122.0191,29.9972],[122.0122,30.0319],[121.9734,30.06],[121.9808,30.0901],[121.9631,30.1424],[122.1033,30.1437],[122.1648,30.1205],[122.1736,30.1022],[122.2293,30.0916],[122.2561,30.0682],[122.2896,30.0673],[122.3275,30.0245]]],[[[121.8441,31.6079],[121.9801,31.5403],[121.9779,31.4778],[121.8514,31.4392],[121.6846,31.5068],[121.5715,31.5294],[121.5175,31.5684],[121.3145,31.6556],[121.2859,31.704],[121.2245,31.7377],[121.1763,31.7843],[121.2193,31.8295],[121.2641,31.8411],[121.3226,31.8293],[121.4753,31.7708],[121.6632,31.6524],[121.8441,31.6079]]],[[[111.1965,15.7754],[111.1963,15.7857],[111.2075,15.7893],[111.2075,15.7822],[111.1965,15.7754]]],[[[109.1009,21.0212],[109.0905,21.0419],[109.0999,21.0607],[109.1227,21.0654],[109.1362,21.051],[109.1277,21.0322],[109.1009,21.0212]]],[[[120.7271,37.9477],[120.7573,37.9227],[120.7546,37.8967],[120.7224,37.9191],[120.7271,37.9477]]],[[[120.6068,37.9799],[120.6258,37.9726],[120.6229,37.9488],[120.6019,37.9693],[120.6068,37.9799]]],[[[120.7201,37.9809],[120.7205,37.964],[120.6882,37.9853],[120.7041,37.9897],[120.7201,37.9809]]],[[[120.7427,38.1876],[120.7733,38.1597],[120.7466,38.1619],[120.7427,38.1876]]],[[[120.8065,38.2882],[120.8074,38.3049],[120.8338,38.3126],[120.8362,38.3043],[120.8065,38.2882]]],[[[120.9246,38.3869],[120.9069,38.3926],[120.9178,38.3955],[120.9246,38.3869]]],[[[123.1807,39.0919],[123.1956,39.0521],[123.1607,39.0292],[123.1452,39.0433],[123.1647,39.0664],[123.1436,39.0809],[123.1807,39.0919]]],[[[111.6063,16.5242],[111.6029,16.5334],[111.6096,16.5283],[111.6063,16.5242]]],[[[112.3355,16.8326],[112.3272,16.8297],[112.3279,16.8371],[112.3355,16.8326]]],[[[112.3337,16.9333],[112.3411,16.927],[112.3405,16.9236],[112.3355,16.9238],[112.3337,16.9333]]],[[[110.4714,20.6474],[110.4758,20.5959],[110.4573,20.5869],[110.4177,20.6548],[110.437,20.6679],[110.4714,20.6474]]],[[[113.2678,21.9433],[113.2837,21.9135],[113.2585,21.8804],[113.2258,21.9008],[113.2317,21.9345],[113.2477,21.9432],[113.2678,21.9433]]],[[[113.7717,22.0003],[113.7645,21.9668],[113.7482,21.9728],[113.7363,21.9972],[113.7717,22.0003]]],[[[114.3042,22.0693],[114.3025,22.0449],[114.2067,22.0258],[114.3042,22.0693]]],[[[113.4702,22.0776],[113.4715,22.1141],[113.5189,22.1273],[113.5327,22.1203],[113.5326,22.0954],[113.5476,22.0926],[113.4847,22.0714],[113.4702,22.0776]]],[[[113.6234,22.4399],[113.6496,22.4386],[113.6578,22.4238],[113.6212,22.3914],[113.6104,22.4133],[113.6234,22.4399]]],[[[113.5468,22.7419],[113.5732,22.7007],[113.6357,22.6565],[113.6418,22.6016],[113.628,22.5958],[113.6026,22.6115],[113.4765,22.7195],[113.4765,22.7313],[113.5468,22.7419]]],[[[113.5154,22.9692],[113.5536,22.9113],[113.545,22.88],[113.51,22.9212],[113.5058,22.9516],[113.5154,22.9692]]],[[[116.9956,23.5635],[117.0093,23.555],[116.9878,23.5241],[116.971,23.5146],[116.9373,23.5263],[116.9956,23.5635]]],[[[119.512,25.2134],[119.5676,25.2049],[119.5422,25.1654],[119.529,25.1654],[119.5109,25.1823],[119.5127,25.1988],[119.4612,25.2033],[119.4447,25.2291],[119.4704,25.2522],[119.512,25.2134]]],[[[119.3465,25.5667],[119.335,25.438],[119.2969,25.4229],[119.2815,25.4829],[119.3075,25.5468],[119.3317,25.5713],[119.3465,25.5667]]],[[[119.5994,26.1281],[119.6441,26.0784],[119.6204,26.0642],[119.5653,26.0805],[119.554,26.0956],[119.5994,26.1281]]],[[[120.3268,26.9397],[120.3222,26.9621],[120.3449,26.972],[120.3857,26.9352],[120.3525,26.9238],[120.3268,26.9397]]],[[[121.074,27.4795],[121.1034,27.4519],[121.0665,27.455],[121.0765,27.4385],[121.0673,27.4368],[121.0461,27.4652],[121.074,27.4795]]],[[[121.1817,27.8647],[121.1893,27.8483],[121.173,27.841],[121.1712,27.8188],[121.098,27.8178],[121.114,27.8441],[121.1492,27.8458],[121.1817,27.8647]]],[[[121.0493,27.9509],[121.0452,27.9675],[121.0702,27.9829],[121.1113,27.9838],[121.1397,27.9658],[121.1033,27.9462],[121.0493,27.9509]]],[[[121.8622,29.1296],[121.8674,29.1158],[121.8421,29.095],[121.7827,29.1247],[121.7898,29.1498],[121.8622,29.1296]]],[[[122.312,29.829],[122.3084,29.7763],[122.2513,29.8061],[122.2317,29.8362],[122.2712,29.8468],[122.312,29.829]]],[[[121.96,29.9532],[121.9924,29.9083],[121.9461,29.904],[121.9336,29.9213],[121.9409,29.9377],[121.96,29.9532]]],[[[122.3457,30.2419],[122.3053,30.2401],[122.2776,30.2355],[122.324,30.2722],[122.3826,30.2772],[122.4077,30.2659],[122.4085,30.244],[122.3958,30.2394],[122.3806,30.2637],[122.3457,30.2419]]],[[[122.5293,30.7208],[122.5247,30.7018],[122.4553,30.694],[122.4273,30.7039],[122.4299,30.7431],[122.4729,30.7172],[122.5293,30.7208]]],[[[121.7624,31.3738],[121.7822,31.3418],[121.7664,31.3206],[121.5845,31.4414],[121.6182,31.4438],[121.6913,31.4192],[121.7624,31.3738]]],[[[118.6327,39.0746],[118.6487,39.0447],[118.5943,38.9722],[118.5143,38.9194],[118.4803,38.9348],[118.4909,38.9432],[118.4707,38.9706],[118.4785,39.0429],[118.5264,39.0467],[118.5597,39.0031],[118.6287,39.0486],[118.6146,39.0676],[118.6327,39.0746]]]]}}