{"type":"Feature","bbox":[32.2717,34.625,34.0991,35.1871],"properties":{"iso":"CY","name":"Cyprus","name_de":"Republik Zypern","key":"CY"},"geometry":{"type":"MultiPolygon","coordinates":[[[[33.7944,34.9778],[33.7809,34.9763],[33.7802,34.9793],[33.7709,34.9801],[33.7693,34.984],[33.7592,34.9887],[33.7615,34.9903],[33.7661,34.9903],[33.774,34.9887],[33.7779,34.9847],[33.7865,34.9847],[33.7911,34.9824],[33.7944,34.9778]]],[[[33.7428,35.0012],[33.7397,35.0026],[33.7388,35.0053],[33.7413,35.0137],[33.7462,35.0152],[33.7521,35.0144],[33.7521,35.0043],[33.7428,35.0012]]],[[[33.7029,34.9879],[33.7015,34.9729],[33.6803,34.9663],[33.6541,34.9447],[33.6467,34.932],[33.6398,34.9157],[33.6348,34.8976],[33.633,34.8798],[33.635,34.8607],[33.6326,34.8525],[33.6231,34.8491],[33.617,34.8453],[33.61,34.8275],[33.6056,34.8218],[33.5902,34.8181],[33.557,34.8178],[33.5442,34.815],[33.5355,34.8075],[33.5252,34.796],[33.5132,34.7855],[33.4995,34.7808],[33.4676,34.7743],[33.4387,34.7628],[33.4152,34.7585],[33.4002,34.7734],[33.3992,34.7453],[33.3709,34.7309],[33.2966,34.7182],[33.2816,34.7123],[33.2601,34.7005],[33.2456,34.6982],[33.1736,34.7051],[33.1019,34.6982],[33.0864,34.6948],[33.0723,34.6868],[33.0259,34.6513],[33.0156,34.6344],[32.9907,34.6344],[32.9695,34.632],[32.9625,34.625],[32.9556,34.6289],[32.954,34.643],[32.9656,34.6516],[32.9703,34.6461],[32.9898,34.6461],[32.9875,34.6734],[32.9547,34.6773],[32.9423,34.6671],[32.9361,34.6577],[32.9298,34.6625],[32.9172,34.6671],[32.9137,34.6603],[32.8845,34.6666],[32.8656,34.6787],[32.8604,34.6876],[32.8597,34.7006],[32.8538,34.6995],[32.8408,34.6995],[32.8356,34.6998],[32.8323,34.7009],[32.8193,34.6876],[32.806,34.6858],[32.7986,34.671],[32.7786,34.6732],[32.7668,34.6761],[32.7601,34.6691],[32.7607,34.6532],[32.7492,34.6498],[32.7074,34.6454],[32.6658,34.6522],[32.6262,34.6665],[32.575,34.6928],[32.5567,34.6994],[32.5358,34.7036],[32.4933,34.7073],[32.4758,34.7132],[32.459,34.7219],[32.4191,34.748],[32.4133,34.7535],[32.4071,34.7824],[32.403,34.7871],[32.4024,34.7965],[32.3792,34.8491],[32.3679,34.857],[32.3467,34.8686],[32.3377,34.8764],[32.3294,34.8864],[32.3234,34.8984],[32.3228,34.9114],[32.3314,34.9242],[32.3122,34.9503],[32.3103,34.9608],[32.3103,34.9826],[32.3059,35.0014],[32.2842,35.0324],[32.2761,35.0478],[32.2717,35.0728],[32.2752,35.0911],[32.2866,35.0972],[32.3069,35.0856],[32.3367,35.0587],[32.3534,35.0479],[32.3723,35.0415],[32.4138,35.043],[32.45,35.0588],[32.4797,35.083],[32.502,35.1092],[32.5169,35.1402],[32.5276,35.157],[32.5435,35.1665],[32.5482,35.176],[32.554,35.178],[32.5589,35.1769],[32.5682,35.1718],[32.5747,35.1706],[32.5848,35.1725],[32.5926,35.1611],[32.6075,35.1541],[32.6222,35.1518],[32.634,35.1541],[32.6465,35.1611],[32.6598,35.1871],[32.6915,35.1837],[32.698,35.1572],[32.7041,35.1439],[32.7127,35.1338],[32.7283,35.1268],[32.7549,35.1198],[32.7752,35.1105],[32.7956,35.1026],[32.8065,35.0948],[32.8103,35.0799],[32.8103,35.0707],[32.8159,35.0628],[32.826,35.0589],[32.8346,35.0589],[32.861,35.0651],[32.8735,35.0723],[32.8829,35.0878],[32.8908,35.0917],[32.9002,35.0878],[32.9064,35.0807],[32.9219,35.0723],[32.9352,35.0723],[32.9484,35.0792],[32.9851,35.1088],[33.0031,35.1159],[33.0264,35.1276],[33.0373,35.1361],[33.0467,35.1378],[33.0717,35.1353],[33.0982,35.1307],[33.1231,35.1307],[33.1371,35.1361],[33.1435,35.1401],[33.1497,35.1487],[33.1739,35.1627],[33.1895,35.1627],[33.2161,35.1541],[33.2285,35.1534],[33.2387,35.1494],[33.2521,35.1369],[33.2621,35.1261],[33.2786,35.1182],[33.3012,35.1136],[33.3091,35.1159],[33.3137,35.1213],[33.3153,35.1291],[33.3277,35.1369],[33.348,35.1549],[33.3566,35.1572],[33.373,35.1557],[33.4159,35.1603],[33.4214,35.1572],[33.4214,35.1447],[33.4245,35.1299],[33.4573,35.1011],[33.4588,35.0948],[33.4604,35.0776],[33.4588,35.0613],[33.4588,35.0417],[33.4525,35.0191],[33.4463,35.0012],[33.4494,34.9879],[33.4588,34.9778],[33.4698,34.9778],[33.4862,34.9816],[33.4931,34.9973],[33.497,35.0261],[33.5196,35.0441],[33.5274,35.037],[33.5274,35.0129],[33.5336,34.9996],[33.546,34.995],[33.5641,35.0012],[33.5719,35.0144],[33.5806,35.0199],[33.5915,35.0184],[33.603,35.0121],[33.6117,35.0136],[33.6195,35.0168],[33.6303,35.0136],[33.6616,35.0003],[33.685,34.9973],[33.7029,34.9879]]],[[[33.8981,35.0613],[33.9215,35.0534],[33.9308,35.0511],[33.9449,35.0511],[33.9621,35.0574],[33.9801,35.0574],[33.9895,35.0519],[34.002,35.0472],[34.0119,35.0488],[34.0175,35.0519],[34.022,35.057],[34.0359,35.0472],[34.051,35.033],[34.0622,35.0057],[34.0734,34.9881],[34.0871,34.9719],[34.0991,34.9652],[34.0852,34.9643],[34.0594,34.9666],[34.0345,34.9725],[34.0234,34.9826],[34.0116,34.9876],[33.9573,34.9819],[33.9102,34.9702],[33.8999,34.9652],[33.8918,34.9581],[33.8644,34.963],[33.8458,34.9597],[33.8381,34.9637],[33.8505,34.973],[33.859,34.9747],[33.859,34.9918],[33.8403,34.9934],[33.8294,35.0012],[33.8302,35.023],[33.8224,35.0301],[33.799,35.0385],[33.8044,35.0495],[33.8138,35.0558],[33.8271,35.0613],[33.8349,35.0566],[33.8412,35.0511],[33.8551,35.0534],[33.8676,35.0605],[33.8801,35.0731],[33.8981,35.0613]]]]}}