{"type":"Feature","bbox":[-8.6824,18.9756,11.9689,37.0939],"properties":{"iso":"DZ","name":"Algeria","name_de":"Algerien","key":"DZ"},"geometry":{"type":"Polygon","coordinates":[[[-4.8216,24.9951],[-5.516,25.4233],[-8.6824,27.2854],[-8.6824,28.6659],[-8.6788,28.6928],[-8.6676,28.7117],[-8.6488,28.7259],[-8.5208,28.7871],[-8.4758,28.8188],[-8.4304,28.841],[-8.4178,28.8523],[-8.3835,28.9058],[-8.3685,28.9165],[-8.3333,28.9304],[-8.3168,28.9391],[-8.2505,28.9948],[-8.1823,29.0355],[-8.0697,29.0793],[-8.0363,29.0999],[-7.945,29.1762],[-7.8391,29.239],[-7.778,29.2893],[-7.73,29.3112],[-7.7147,29.3218],[-7.6536,29.3762],[-7.6195,29.3894],[-7.5727,29.3876],[-7.5285,29.3809],[-7.5061,29.3802],[-7.4841,29.3824],[-7.4633,29.3891],[-7.3496,29.3834],[-7.2588,29.4673],[-7.1469,29.5092],[-7.0701,29.5162],[-6.9582,29.5092],[-6.7835,29.4463],[-6.6996,29.5162],[-6.5599,29.5302],[-6.4131,29.5651],[-6.2733,29.5791],[-6.0008,29.5791],[-5.882,29.6001],[-5.7562,29.6141],[-5.7212,29.5232],[-5.6373,29.4953],[-5.5395,29.5232],[-5.4347,29.642],[-5.3438,29.7678],[-5.2739,29.8866],[-5.1761,29.9775],[-5.0713,30.0404],[-4.9594,30.1243],[-4.8756,30.1802],[-4.7707,30.2291],[-4.624,30.285],[-4.4842,30.3828],[-4.3724,30.5086],[-4.2745,30.5576],[-4.1557,30.5855],[-4.002,30.5925],[-3.8342,30.6275],[-3.6455,30.7113],[-3.6595,30.8371],[-3.6106,30.879],[-3.5547,30.9559],[-3.6087,31.0309],[-3.6101,31.0503],[-3.6145,31.068],[-3.6241,31.0865],[-3.6359,31.0957],[-3.6719,31.1109],[-3.6897,31.1256],[-3.7171,31.1633],[-3.7314,31.1763],[-3.7489,31.1802],[-3.7637,31.1734],[-3.793,31.1497],[-3.8108,31.1429],[-3.8275,31.1438],[-3.8393,31.1528],[-3.8428,31.1702],[-3.8362,31.1898],[-3.815,31.2205],[-3.8129,31.2434],[-3.8192,31.3189],[-3.8152,31.3372],[-3.8025,31.3506],[-3.7475,31.3852],[-3.6735,31.3892],[-3.6595,31.6478],[-3.5914,31.6783],[-3.5487,31.67],[-3.5116,31.6727],[-3.2192,31.7177],[-3.0026,31.7736],[-2.8278,31.7946],[-2.8698,31.8924],[-2.9387,32.0486],[-2.8812,32.0763],[-2.6956,32.0897],[-2.5161,32.1322],[-1.2496,32.0817],[-1.2103,32.0897],[-1.1906,32.1252],[-1.1956,32.146],[-1.2118,32.1583],[-1.2327,32.1637],[-1.2518,32.1635],[-1.289,32.1509],[-1.3052,32.1512],[-1.3096,32.1674],[-1.3057,32.1737],[-1.2892,32.1849],[-1.283,32.1902],[-1.2766,32.2009],[-1.2752,32.2091],[-1.2755,32.2175],[-1.2575,32.3208],[-1.2441,32.3569],[-1.2342,32.3746],[-1.218,32.3926],[-1.2017,32.3999],[-1.1603,32.4049],[-1.1232,32.4179],[-1.09,32.4394],[-1.032,32.4944],[-1.0475,32.517],[-1.327,32.6989],[-1.3905,32.7188],[-1.4233,32.7424],[-1.5588,32.9337],[-1.5164,32.9595],[-1.5089,32.9663],[-1.503,32.9746],[-1.4988,32.984],[-1.4965,32.9943],[-1.4934,33.0162],[-1.4931,33.0395],[-1.4995,33.0602],[-1.5164,33.074],[-1.5455,33.0918],[-1.5714,33.112],[-1.5921,33.1366],[-1.6056,33.168],[-1.6236,33.1966],[-1.6742,33.238],[-1.6834,33.2708],[-1.6832,33.3692],[-1.6728,33.3946],[-1.6591,33.4198],[-1.6404,33.4755],[-1.6254,33.4942],[-1.6127,33.5215],[-1.6173,33.5544],[-1.6624,33.6447],[-1.6733,33.6565],[-1.6907,33.6673],[-1.7254,33.6777],[-1.7407,33.6866],[-1.7468,33.7024],[-1.7422,33.7178],[-1.7326,33.7279],[-1.7209,33.7364],[-1.7108,33.7471],[-1.7032,33.7618],[-1.7025,33.7728],[-1.713,33.802],[-1.7221,33.8512],[-1.7187,33.8981],[-1.6721,34.0592],[-1.6696,34.0792],[-1.6748,34.106],[-1.7461,34.2903],[-1.7713,34.3347],[-1.8096,34.3725],[-1.703,34.4797],[-1.7142,34.4851],[-1.7507,34.4942],[-1.8711,34.5966],[-1.863,34.6136],[-1.8105,34.6807],[-1.7861,34.7258],[-1.7731,34.7341],[-1.7695,34.7413],[-1.7877,34.7567],[-1.8928,34.8117],[-1.9267,34.8381],[-1.9797,34.8653],[-1.9935,34.8789],[-1.9984,34.8927],[-1.9997,34.9063],[-2.0036,34.9182],[-2.0163,34.9262],[-2.0612,34.9297],[-2.0949,34.9477],[-2.126,34.9719],[-2.1633,34.994],[-2.1938,35.0036],[-2.2117,35.0234],[-2.2211,35.05],[-2.2226,35.0893],[-2.2001,35.0961],[-2.1926,35.0945],[-2.1894,35.093],[-2.1864,35.0887],[-2.1569,35.101],[-2.1222,35.0947],[-2.0861,35.082],[-2.0524,35.075],[-1.9877,35.0825],[-1.9648,35.0762],[-1.9565,35.075],[-1.9498,35.0771],[-1.9325,35.0887],[-1.8387,35.1109],[-1.8127,35.1265],[-1.8044,35.1281],[-1.7742,35.1273],[-1.7611,35.1296],[-1.7456,35.1388],[-1.7128,35.1706],[-1.6488,35.1884],[-1.6377,35.1945],[-1.6295,35.2122],[-1.5104,35.2955],[-1.4909,35.301],[-1.3959,35.3094],[-1.3695,35.3159],[-1.364,35.3183],[-1.359,35.3222],[-1.3327,35.3494],[-1.3138,35.3537],[-1.2948,35.3646],[-1.2786,35.378],[-1.2677,35.3903],[-1.2592,35.4103],[-1.2473,35.4577],[-1.237,35.4757],[-1.2254,35.4913],[-1.1903,35.5661],[-1.1833,35.5765],[-1.1715,35.581],[-1.148,35.5821],[-1.1428,35.5869],[-1.117,35.6169],[-1.0828,35.6374],[-1.0521,35.661],[-1.0404,35.6764],[-1.0329,35.6826],[-0.9967,35.6896],[-0.9777,35.6998],[-0.9615,35.7112],[-0.9463,35.7193],[-0.9227,35.7252],[-0.9102,35.7243],[-0.9047,35.7159],[-0.8994,35.7118],[-0.8876,35.716],[-0.8495,35.7343],[-0.825,35.7685],[-0.8017,35.7739],[-0.7935,35.7701],[-0.7861,35.7631],[-0.7772,35.7564],[-0.764,35.7534],[-0.754,35.7523],[-0.7345,35.7472],[-0.7231,35.746],[-0.7113,35.743],[-0.7059,35.7357],[-0.7013,35.7269],[-0.6925,35.7193],[-0.6826,35.7174],[-0.6445,35.7193],[-0.6265,35.723],[-0.6061,35.7309],[-0.5893,35.7425],[-0.5773,35.7708],[-0.5651,35.7724],[-0.5513,35.769],[-0.5409,35.7678],[-0.5304,35.7729],[-0.5234,35.7797],[-0.477,35.8594],[-0.4761,35.8701],[-0.4784,35.8729],[-0.4803,35.8791],[-0.4808,35.8857],[-0.4795,35.89],[-0.4738,35.8913],[-0.4591,35.8838],[-0.449,35.8843],[-0.4281,35.8828],[-0.418,35.8838],[-0.3761,35.9003],[-0.3485,35.907],[-0.3362,35.9008],[-0.3315,35.8896],[-0.3207,35.8841],[-0.3092,35.8812],[-0.3019,35.8776],[-0.2985,35.8672],[-0.3046,35.8535],[-0.3019,35.8428],[-0.2856,35.8283],[-0.2594,35.8175],[-0.1881,35.8052],[-0.1451,35.7904],[-0.1239,35.7869],[-0.0831,35.7944],[-0.0385,35.8133],[0.0029,35.838],[0.0345,35.8633],[0.07,35.9218],[0.0802,35.947],[0.114,36.0102],[0.1224,36.0334],[0.1238,36.0446],[0.1273,36.0508],[0.154,36.065],[0.2022,36.1065],[0.2195,36.1165],[0.2835,36.1344],[0.2944,36.1408],[0.2991,36.1474],[0.3211,36.1589],[0.3293,36.165],[0.3328,36.1738],[0.3376,36.1975],[0.3423,36.206],[0.36,36.2139],[0.3845,36.218],[0.4284,36.2196],[0.4513,36.2232],[0.4683,36.2322],[0.4832,36.2436],[0.5567,36.2841],[0.5946,36.2932],[0.6118,36.3055],[0.6272,36.3192],[0.6441,36.3288],[0.6633,36.3326],[0.7533,36.3386],[0.7687,36.3447],[0.8023,36.3636],[0.8648,36.3774],[0.8805,36.3872],[0.8909,36.3964],[0.9138,36.4091],[0.9251,36.4182],[0.9295,36.4259],[0.9321,36.4346],[0.9363,36.4436],[0.9456,36.4523],[0.9626,36.4582],[1.0071,36.4669],[1.0448,36.4869],[1.117,36.4871],[1.1388,36.4934],[1.1787,36.5109],[1.2026,36.5144],[1.2455,36.5136],[1.2655,36.5153],[1.2883,36.5212],[1.3467,36.545],[1.3677,36.5479],[1.386,36.5452],[1.4295,36.5322],[1.4528,36.528],[1.4763,36.529],[1.5174,36.5387],[1.7166,36.5479],[1.7267,36.55],[1.7502,36.5591],[1.7612,36.5616],[1.77,36.5605],[1.7915,36.5555],[1.8029,36.5554],[1.8576,36.5675],[1.9138,36.5702],[1.9605,36.5622],[1.9728,36.5616],[2.0599,36.5701],[2.3098,36.6305],[2.3296,36.6373],[2.3516,36.6383],[2.3733,36.6339],[2.3919,36.6243],[2.3982,36.6153],[2.4002,36.6062],[2.4041,36.5992],[2.416,36.5963],[2.4268,36.5953],[2.4473,36.5906],[2.457,36.5895],[2.6008,36.5963],[2.633,36.6051],[2.7275,36.6652],[2.793,36.6929],[2.8187,36.7109],[2.8436,36.7404],[2.8499,36.7541],[2.8757,36.7748],[2.9331,36.8086],[2.9771,36.8159],[3.0142,36.8117],[3.0479,36.795],[3.074,36.7714],[3.1018,36.7519],[3.1401,36.7416],[3.1794,36.7428],[3.2105,36.7574],[3.2212,36.7714],[3.2261,36.7862],[3.2273,36.8123],[3.2378,36.8131],[3.303,36.7888],[3.3405,36.7807],[3.4607,36.7751],[3.4805,36.7772],[3.5191,36.7866],[3.5398,36.7888],[3.5505,36.7914],[3.5581,36.7977],[3.5643,36.8043],[3.5706,36.8086],[3.5804,36.81],[3.6018,36.8081],[3.6121,36.8086],[3.6497,36.824],[3.7095,36.8732],[3.7419,36.8912],[3.8275,36.9129],[3.8739,36.9172],[3.9126,36.9116],[3.9483,36.8933],[3.964,36.8912],[3.9749,36.8923],[3.9964,36.8969],[4.0314,36.8978],[4.0855,36.8921],[4.1048,36.8837],[4.1465,36.9018],[4.1595,36.9042],[4.1716,36.9022],[4.197,36.8933],[4.2105,36.8912],[4.2228,36.8942],[4.2493,36.9079],[4.262,36.9116],[4.2786,36.9105],[4.306,36.9005],[4.3203,36.898],[4.4407,36.9116],[4.453,36.9101],[4.4681,36.906],[4.4824,36.9005],[4.492,36.8946],[4.5041,36.8893],[4.5364,36.8886],[4.5505,36.8837],[4.5816,36.8949],[4.6229,36.8964],[4.698,36.8912],[4.7691,36.898],[4.7871,36.8954],[4.9499,36.8398],[4.9683,36.8257],[4.9736,36.8189],[4.9857,36.8171],[4.9995,36.8171],[5.0093,36.8161],[5.0164,36.811],[5.0252,36.7987],[5.0291,36.795],[5.0459,36.7885],[5.0656,36.7835],[5.0862,36.7808],[5.1048,36.7813],[5.0848,36.7326],[5.0902,36.7168],[5.1184,36.6994],[5.2359,36.6509],[5.2691,36.6441],[5.3044,36.643],[5.3724,36.6509],[5.4338,36.6652],[5.4649,36.6652],[5.4696,36.6677],[5.4822,36.6802],[5.4891,36.6851],[5.5291,36.6977],[5.549,36.7097],[5.5628,36.746],[5.5762,36.7614],[5.5939,36.7739],[5.612,36.7813],[5.6559,36.7918],[5.6746,36.7996],[5.7105,36.8255],[5.7337,36.8323],[5.7588,36.8334],[5.8278,36.8218],[5.8688,36.8229],[6.0371,36.8536],[6.197,36.9023],[6.2357,36.9212],[6.2568,36.9458],[6.2586,36.9668],[6.2547,36.9833],[6.2544,36.999],[6.2669,37.0178],[6.2744,37.0242],[6.3146,37.0487],[6.3289,37.0619],[6.3387,37.0693],[6.3716,37.0835],[6.4158,37.093],[6.4624,37.0939],[6.5027,37.083],[6.5386,37.0604],[6.5442,37.0588],[6.5447,37.0486],[6.547,37.0412],[6.5523,37.0367],[6.5613,37.0351],[6.5728,37.0278],[6.5833,36.9898],[6.5995,36.9731],[6.6141,36.9779],[6.6316,36.9724],[6.6511,36.9639],[6.6712,36.9594],[6.822,36.9526],[6.8348,36.9491],[6.8528,36.9403],[6.8696,36.9292],[6.8801,36.9184],[6.8796,36.9021],[6.9094,36.8931],[6.9486,36.89],[6.9756,36.8912],[7.0645,36.9133],[7.0923,36.9259],[7.1081,36.9203],[7.1333,36.9153],[7.157,36.9147],[7.1675,36.9222],[7.1764,36.9319],[7.2188,36.9608],[7.2329,36.9669],[7.239,36.9715],[7.2471,36.9823],[7.2542,36.9947],[7.2573,37.0041],[7.2555,37.0154],[7.2505,37.0231],[7.2111,37.057],[7.1817,37.0767],[7.1817,37.083],[7.1927,37.0843],[7.2122,37.0893],[7.2227,37.0898],[7.2328,37.0872],[7.2513,37.0786],[7.2664,37.0747],[7.2707,37.071],[7.2748,37.0693],[7.281,37.0731],[7.2883,37.0803],[7.2927,37.0825],[7.2977,37.083],[7.3073,37.0801],[7.3259,37.0712],[7.3359,37.0693],[7.3444,37.0714],[7.37,37.083],[7.3835,37.083],[7.3862,37.0821],[7.3869,37.0781],[7.3941,37.0693],[7.3982,37.058],[7.4046,37.0516],[7.4182,37.0488],[7.4383,37.0486],[7.4471,37.0466],[7.4561,37.042],[7.4724,37.05],[7.4902,37.055],[7.5261,37.0331],[7.5559,37.0079],[7.5889,36.9876],[7.6336,36.9805],[7.6434,36.9827],[7.6522,36.9862],[7.6619,36.9885],[7.6745,36.9868],[7.6858,36.9824],[7.696,36.977],[7.7048,36.9705],[7.7127,36.9632],[7.7608,36.9669],[7.7708,36.9701],[7.7891,36.9866],[7.7986,36.9936],[7.791,36.9732],[7.7786,36.9511],[7.7743,36.9315],[7.7912,36.9184],[7.7734,36.89],[7.8099,36.8681],[7.8665,36.8544],[7.9085,36.8496],[8.05,36.8776],[8.073,36.8874],[8.093,36.9018],[8.2332,36.9581],[8.2512,36.9487],[8.2687,36.9337],[8.2881,36.9259],[8.3333,36.9278],[8.356,36.9259],[8.374,36.9184],[8.3888,36.9232],[8.4016,36.9186],[8.4144,36.9102],[8.4287,36.9042],[8.4632,36.9016],[8.4976,36.9042],[8.6025,36.9395],[8.6057,36.913],[8.6048,36.901],[8.6082,36.8907],[8.6426,36.8485],[8.6417,36.8364],[8.6238,36.8261],[8.5545,36.8036],[8.5201,36.7979],[8.4827,36.8],[8.444,36.7962],[8.4131,36.7839],[8.4067,36.768],[8.4416,36.7532],[8.4618,36.7328],[8.4532,36.6977],[8.4304,36.6626],[8.4079,36.6426],[8.2869,36.5834],[8.2223,36.5638],[8.1935,36.549],[8.1699,36.5258],[8.1679,36.4914],[8.2088,36.4778],[8.2956,36.4687],[8.3149,36.4606],[8.3338,36.4564],[8.3492,36.4488],[8.3577,36.4304],[8.3597,36.4112],[8.3581,36.3699],[8.3544,36.3509],[8.3071,36.2436],[8.3023,36.2023],[8.3071,36.1825],[8.3145,36.1639],[8.3171,36.1459],[8.308,36.127],[8.2967,36.1104],[8.2756,36.0368],[8.2724,35.9817],[8.2472,35.9073],[8.2414,35.8277],[8.2458,35.7853],[8.2577,35.7503],[8.3066,35.6849],[8.3236,35.6522],[8.337,35.5379],[8.3367,35.5084],[8.3009,35.4375],[8.29,35.4026],[8.2879,35.3661],[8.2944,35.3251],[8.3174,35.2895],[8.3552,35.2743],[8.3969,35.2637],[8.4313,35.2417],[8.4214,35.2221],[8.3609,35.1459],[8.3137,35.1031],[8.3005,35.0677],[8.2829,34.994],[8.259,34.9407],[8.2489,34.902],[8.2507,34.8647],[8.2693,34.7639],[8.2666,34.7503],[8.2574,34.7397],[8.2252,34.7117],[8.2134,34.6967],[8.2106,34.6812],[8.2365,34.6477],[8.2288,34.6364],[8.1929,34.6177],[8.1866,34.6096],[8.1795,34.5922],[8.1752,34.5853],[8.1672,34.5786],[8.1437,34.5667],[8.0941,34.5301],[7.9991,34.4942],[7.9573,34.4694],[7.8706,34.4379],[7.8315,34.4144],[7.8119,34.3793],[7.7743,34.261],[7.7653,34.2447],[7.7528,34.2321],[7.7339,34.2238],[7.6703,34.2153],[7.6315,34.1991],[7.6041,34.1755],[7.5796,34.1485],[7.5175,34.095],[7.5037,34.068],[7.5006,33.9943],[7.4798,33.8939],[7.4849,33.855],[7.4985,33.8],[7.5055,33.7828],[7.5342,33.7362],[7.5444,33.6842],[7.553,33.6587],[7.6932,33.4541],[7.7082,33.4149],[7.7097,33.2782],[7.725,33.2314],[7.7507,33.2077],[7.7875,33.1983],[7.8355,33.1945],[7.872,33.1841],[7.9827,33.1168],[8.0022,33.1084],[8.0226,33.103],[8.0436,33.1018],[8.0645,33.1058],[8.0868,33.0943],[8.2829,32.8364],[8.2964,32.8044],[8.3196,32.5606],[8.3313,32.5276],[8.36,32.501],[8.4827,32.4348],[9.0199,32.1049],[9.0337,32.0908],[9.045,32.0718],[9.5197,30.2289],[9.2865,30.1171],[9.31,30.0844],[9.4217,29.9687],[9.5497,29.8023],[9.6677,29.6083],[9.8261,29.1285],[9.8483,28.9757],[9.8513,28.786],[9.777,28.2676],[9.7899,28.2094],[9.9359,27.8667],[9.9343,27.8274],[9.8634,27.6192],[9.8466,27.5993],[9.8185,27.5857],[9.7939,27.5697],[9.7971,27.5489],[9.8117,27.5265],[9.8216,27.5057],[9.8136,27.4865],[9.7705,27.4442],[9.7563,27.423],[9.7431,27.3641],[9.7265,27.3247],[9.7219,27.3085],[9.7213,27.2919],[9.8061,27.0251],[9.8255,26.9206],[9.8351,26.901],[9.8461,26.892],[9.8908,26.8696],[9.9067,26.8575],[9.9106,26.8431],[9.8855,26.7366],[9.8826,26.7018],[9.8941,26.674],[9.8963,26.6528],[9.8546,26.5244],[9.8358,26.5042],[9.4826,26.3526],[9.4814,26.3326],[9.4776,26.3156],[9.4689,26.301],[9.4348,26.272],[9.4165,26.2323],[9.4025,26.2162],[9.3778,26.1689],[9.4012,26.1134],[9.9695,25.3954],[10.0079,25.3314],[10.0214,25.268],[10.03,24.9951],[10.032,24.8563],[10.0445,24.8296],[10.1934,24.7499],[10.2122,24.7229],[10.2297,24.6299],[10.2422,24.5951],[10.2603,24.5766],[10.3918,24.48],[10.4105,24.4733],[10.4502,24.4769],[10.6774,24.5539],[10.6991,24.5561],[10.7207,24.5523],[11.5086,24.3138],[11.5414,24.2975],[11.5671,24.2668],[11.9689,23.5174],[7.4827,20.8726],[7.0205,20.4954],[5.8376,19.4786],[5.7943,19.4498],[5.7493,19.4337],[4.2286,19.1422],[3.4397,18.9956],[3.3587,18.9769],[3.3331,18.9756],[3.3184,18.9777],[3.3084,18.9817],[3.2849,18.9957],[3.226,19.0511],[3.1798,19.07],[3.1586,19.0816],[3.1388,19.096],[3.1209,19.1128],[3.1041,19.1355],[3.1027,19.1536],[3.1118,19.1713],[3.1266,19.1934],[3.1342,19.2129],[3.1393,19.2219],[3.1527,19.2302],[3.1744,19.2516],[3.1789,19.2687],[3.1838,19.3075],[3.1929,19.3258],[3.2115,19.3409],[3.2327,19.3518],[3.251,19.3655],[3.2608,19.3883],[3.2582,19.4104],[3.2475,19.4265],[3.2348,19.4413],[3.226,19.4597],[3.2262,19.4692],[3.2317,19.489],[3.2323,19.4955],[3.2281,19.5042],[3.2175,19.5112],[3.2122,19.5172],[3.1994,19.5538],[3.1983,19.5924],[3.2168,19.7941],[3.2128,19.8078],[3.1988,19.8205],[3.1832,19.8277],[3.147,19.8379],[3.1305,19.8452],[3.0726,19.8889],[2.946,19.9417],[2.6718,19.9962],[2.6169,19.9984],[2.5257,20.0152],[2.5148,20.0159],[2.4954,20.0201],[2.4593,20.0388],[2.4399,20.0461],[2.4157,20.0513],[2.4004,20.0566],[2.3887,20.0674],[2.3482,20.1376],[2.3165,20.1802],[2.2796,20.2179],[2.2182,20.2641],[2.2008,20.2739],[2.1824,20.2785],[2.1613,20.2749],[2.1382,20.2607],[2.0975,20.2242],[2.0712,20.2133],[2.0563,20.215],[1.9934,20.2359],[1.9834,20.2419],[1.9756,20.2484],[1.9671,20.2534],[1.9553,20.2549],[1.9412,20.2511],[1.9243,20.2361],[1.9134,20.2311],[1.8914,20.2318],[1.8838,20.2441],[1.8803,20.2631],[1.8706,20.2835],[1.855,20.2948],[1.8389,20.2959],[1.8209,20.2936],[1.7992,20.2949],[1.7781,20.3043],[1.6592,20.3975],[1.6492,20.4121],[1.6501,20.487],[1.644,20.5227],[1.6237,20.5513],[1.5597,20.5975],[1.5204,20.617],[1.4835,20.6226],[1.4658,20.6335],[1.4475,20.6387],[1.4072,20.645],[1.364,20.6577],[1.3469,20.6691],[1.3315,20.6879],[1.3105,20.7227],[1.2967,20.7335],[1.2733,20.7394],[1.2523,20.739],[1.2125,20.7309],[1.1913,20.7306],[1.1685,20.7335],[1.1546,20.7388],[1.1472,20.7514],[1.1446,20.7763],[1.1453,20.7959],[1.1675,20.886],[1.1801,20.9953],[1.1779,21.0173],[1.1593,21.0815],[1.1465,21.1017],[-4.516,24.804],[-4.8216,24.9951]]]}}