{"type":"Feature","bbox":[-89.3638,12.9798,-83.1304,17.4186],"properties":{"iso":"HN","name":"Honduras","name_de":"Honduras","key":"HN"},"geometry":{"type":"MultiPolygon","coordinates":[[[[-89.3616,14.4155],[-89.3638,14.4466],[-89.362,14.4624],[-89.3555,14.4754],[-89.3453,14.482],[-89.323,14.4875],[-89.3148,14.496],[-89.3049,14.5134],[-89.2909,14.528],[-89.2596,14.5543],[-89.2505,14.5652],[-89.2457,14.573],[-89.2381,14.5779],[-89.2211,14.5801],[-89.2088,14.5779],[-89.1837,14.5695],[-89.1721,14.5704],[-89.1604,14.5813],[-89.1557,14.5978],[-89.1552,14.6156],[-89.1594,14.666],[-89.1558,14.6723],[-89.1452,14.6834],[-89.1427,14.6913],[-89.1445,14.7083],[-89.1505,14.7173],[-89.1597,14.7251],[-89.1705,14.7388],[-89.1894,14.783],[-89.1988,14.7981],[-89.219,14.8217],[-89.2277,14.8346],[-89.2324,14.8485],[-89.2314,14.8673],[-89.2236,14.879],[-89.1988,14.8998],[-89.1815,14.9237],[-89.1692,14.9521],[-89.1691,14.9784],[-89.1886,14.9961],[-89.1728,15.0422],[-89.1608,15.0602],[-89.1405,15.0764],[-89.1098,15.0915],[-89.0083,15.1244],[-88.9734,15.1404],[-88.5,15.4959],[-88.399,15.5728],[-88.3526,15.6169],[-88.3223,15.6673],[-88.3167,15.6746],[-88.2956,15.675],[-88.2797,15.6807],[-88.265,15.6886],[-88.2478,15.6957],[-88.2416,15.6882],[-88.2349,15.7016],[-88.2357,15.7124],[-88.2326,15.7214],[-88.2209,15.7257],[-88.2151,15.7232],[-88.1697,15.692],[-88.1453,15.6845],[-88.1189,15.6959],[-88.0609,15.7558],[-88.0363,15.7709],[-88.0416,15.7867],[-88.0316,15.7899],[-87.9923,15.7846],[-87.9339,15.8188],[-87.9267,15.8323],[-87.9245,15.8422],[-87.9302,15.8467],[-87.9413,15.8498],[-87.9504,15.8569],[-87.9546,15.864],[-87.951,15.8672],[-87.9088,15.8681],[-87.892,15.873],[-87.8756,15.8843],[-87.8461,15.8939],[-87.7601,15.8996],[-87.7421,15.9045],[-87.7363,15.9186],[-87.7222,15.9229],[-87.7043,15.9207],[-87.6875,15.915],[-87.6431,15.8892],[-87.626,15.8877],[-87.626,15.8939],[-87.6363,15.9035],[-87.626,15.9149],[-87.5913,15.9355],[-87.6104,15.9101],[-87.6173,15.8946],[-87.6086,15.8877],[-87.6031,15.8808],[-87.5096,15.7987],[-87.4794,15.786],[-87.4473,15.7921],[-87.4418,15.7978],[-87.4315,15.814],[-87.4268,15.8188],[-87.4171,15.8195],[-87.3912,15.8184],[-87.3859,15.8225],[-87.38,15.8395],[-87.365,15.8483],[-87.3451,15.8503],[-87.2418,15.8274],[-87.1517,15.7969],[-87.059,15.787],[-86.9525,15.7633],[-86.9169,15.7604],[-86.8787,15.7641],[-86.8174,15.7819],[-86.7996,15.7846],[-86.7969,15.7876],[-86.7707,15.8065],[-86.7585,15.8023],[-86.7416,15.7921],[-86.6991,15.7886],[-86.5038,15.8051],[-86.4706,15.8042],[-86.4399,15.7921],[-86.4147,15.7764],[-86.399,15.7724],[-86.3747,15.7709],[-86.355,15.774],[-86.3383,15.7814],[-86.2432,15.8386],[-86.2185,15.8651],[-86.2071,15.874],[-86.1726,15.8875],[-86.1378,15.8957],[-85.9949,15.9007],[-85.9823,15.9042],[-85.9722,15.9092],[-85.9333,15.9367],[-85.9122,15.9593],[-85.9032,15.9835],[-85.9192,16.0037],[-85.9825,16.0125],[-86.0128,16.02],[-86.0079,16.0311],[-85.9818,16.0331],[-85.851,16.0087],[-85.8135,16.0045],[-85.7663,15.9916],[-85.7194,15.9797],[-85.7032,15.9765],[-85.692,15.9715],[-85.6894,15.96],[-85.6896,15.9464],[-85.687,15.9355],[-85.6796,15.9355],[-85.6801,15.9422],[-85.678,15.9454],[-85.6727,15.9492],[-85.6562,15.9488],[-85.6473,15.9359],[-85.6296,15.922],[-85.6085,15.9071],[-85.5641,15.8889],[-85.4886,15.8696],[-85.4364,15.8738],[-85.362,15.8811],[-85.2542,15.8841],[-85.1964,15.9074],[-85.1238,15.9586],[-85.0758,15.9862],[-84.9999,15.9879],[-84.9508,15.972],[-84.8545,15.9298],[-84.7336,15.895],[-84.6766,15.8762],[-84.6623,15.8656],[-84.6685,15.8532],[-84.6809,15.8349],[-84.6811,15.7943],[-84.6601,15.7745],[-84.6403,15.7718],[-84.6157,15.7795],[-84.6122,15.7998],[-84.6094,15.809],[-84.5999,15.8083],[-84.5931,15.7958],[-84.5755,15.7839],[-84.5503,15.7877],[-84.4774,15.7788],[-84.4685,15.7892],[-84.4528,15.7956],[-84.4739,15.8043],[-84.499,15.8097],[-84.578,15.8226],[-84.6079,15.8352],[-84.6331,15.8471],[-84.6418,15.8629],[-84.6016,15.8548],[-84.4642,15.8298],[-84.3743,15.8207],[-84.315,15.8177],[-84.2946,15.811],[-84.1671,15.7097],[-83.8942,15.4852],[-83.7991,15.4293],[-83.7809,15.4215],[-83.7457,15.4158],[-83.7368,15.4113],[-83.73,15.4016],[-83.7294,15.3937],[-83.7359,15.3886],[-83.7508,15.3868],[-83.7683,15.3934],[-83.8062,15.4223],[-83.8345,15.4318],[-83.8534,15.4448],[-83.8628,15.4489],[-83.8931,15.4492],[-83.9064,15.452],[-83.9181,15.4631],[-83.9134,15.4648],[-83.9092,15.4678],[-83.9044,15.4694],[-83.9131,15.4818],[-83.946,15.5178],[-83.9528,15.5178],[-83.9637,15.5125],[-83.9772,15.5202],[-83.9912,15.5317],[-84.004,15.5376],[-84.0245,15.5351],[-84.0339,15.5289],[-84.0412,15.5202],[-84.0552,15.5109],[-84.0616,15.5151],[-84.0893,15.5246],[-84.0766,15.5355],[-84.0712,15.5417],[-84.0688,15.5482],[-84.0736,15.5505],[-84.0844,15.5522],[-84.0962,15.5526],[-84.1036,15.5512],[-84.1064,15.5404],[-84.1,15.5233],[-84.0884,15.5049],[-84.0758,15.4904],[-84.0793,15.4875],[-84.0825,15.483],[-84.0893,15.483],[-84.1193,15.5393],[-84.1304,15.5512],[-84.1418,15.5531],[-84.1549,15.5507],[-84.1719,15.5451],[-84.1838,15.5459],[-84.201,15.5499],[-84.2129,15.5512],[-84.2051,15.5285],[-84.1987,15.5207],[-84.1804,15.5145],[-84.1802,15.5062],[-84.1835,15.4949],[-84.1855,15.483],[-84.1787,15.483],[-84.1756,15.4983],[-84.1556,15.5074],[-84.1466,15.5351],[-84.1371,15.5381],[-84.1278,15.5326],[-84.1142,15.4999],[-84.0981,15.4735],[-84.0922,15.4509],[-84.1136,15.4414],[-84.1242,15.4302],[-84.1165,15.405],[-84.0995,15.3776],[-84.0825,15.3601],[-84.0567,15.3468],[-84.0354,15.3419],[-84.0259,15.3512],[-84.0354,15.3806],[-84.022,15.3703],[-84.0101,15.3568],[-84.0054,15.3413],[-84.0136,15.3253],[-83.9999,15.3088],[-83.9806,15.3057],[-83.9318,15.3117],[-83.9318,15.3049],[-83.9414,15.3052],[-83.9479,15.3034],[-83.959,15.298],[-83.959,15.2918],[-83.9507,15.2748],[-83.9384,15.2592],[-83.922,15.2479],[-83.901,15.2434],[-83.8828,15.2456],[-83.8595,15.2513],[-83.8371,15.26],[-83.8219,15.2707],[-83.8345,15.2826],[-83.8771,15.3049],[-83.8843,15.3117],[-83.8876,15.3183],[-83.8917,15.3234],[-83.901,15.3253],[-83.9117,15.3261],[-83.9881,15.3524],[-84.0006,15.3601],[-84.0238,15.3926],[-84.0354,15.4011],[-84.0265,15.4087],[-84.0167,15.4137],[-83.9944,15.4215],[-83.9051,15.3835],[-83.8907,15.3632],[-83.8851,15.3526],[-83.8713,15.3428],[-83.8544,15.3356],[-83.8259,15.3297],[-83.8141,15.3217],[-83.8039,15.3105],[-83.7952,15.298],[-83.8018,15.2937],[-83.8099,15.2867],[-83.8157,15.2844],[-83.8157,15.2781],[-83.7992,15.2746],[-83.7853,15.2844],[-83.7745,15.2857],[-83.7672,15.2564],[-83.7694,15.2192],[-83.7672,15.2093],[-83.7598,15.2021],[-83.7523,15.2025],[-83.7472,15.2097],[-83.7474,15.2229],[-83.7399,15.2229],[-83.731,15.2034],[-83.7226,15.2081],[-83.7058,15.2372],[-83.6903,15.2459],[-83.6695,15.2519],[-83.6338,15.2564],[-83.6294,15.2611],[-83.6315,15.2838],[-83.63,15.2918],[-83.6234,15.2961],[-83.617,15.2956],[-83.6095,15.2933],[-83.5447,15.281],[-83.5277,15.2844],[-83.5277,15.2781],[-83.5336,15.2722],[-83.5329,15.2681],[-83.5297,15.2637],[-83.5277,15.2564],[-83.5277,15.2263],[-83.5329,15.2112],[-83.5444,15.205],[-83.5559,15.2093],[-83.5611,15.2263],[-83.5648,15.2314],[-83.5735,15.2348],[-83.5839,15.2366],[-83.5925,15.2372],[-83.5985,15.2331],[-83.6039,15.224],[-83.6102,15.2093],[-83.6147,15.2041],[-83.6191,15.2009],[-83.6225,15.1959],[-83.6239,15.1854],[-83.6214,15.1762],[-83.6158,15.1745],[-83.609,15.1774],[-83.6034,15.182],[-83.6085,15.1904],[-83.6095,15.1969],[-83.6075,15.2028],[-83.6034,15.2093],[-83.5959,15.2093],[-83.5939,15.1848],[-83.587,15.1672],[-83.5745,15.1605],[-83.5549,15.1683],[-83.5495,15.174],[-83.5404,15.1887],[-83.5345,15.195],[-83.5266,15.1999],[-83.4818,15.2156],[-83.4822,15.2191],[-83.4867,15.2297],[-83.4909,15.2359],[-83.5023,15.2463],[-83.5065,15.2564],[-83.5099,15.2706],[-83.5172,15.2897],[-83.5296,15.301],[-83.5482,15.2918],[-83.5779,15.3091],[-83.5926,15.3122],[-83.6102,15.3049],[-83.6164,15.3117],[-83.6141,15.3154],[-83.6102,15.3253],[-83.6263,15.3275],[-83.6696,15.3429],[-83.6785,15.3493],[-83.689,15.3606],[-83.7098,15.3671],[-83.7253,15.3759],[-83.7194,15.3942],[-83.703,15.402],[-83.6874,15.3937],[-83.6733,15.3806],[-83.6614,15.3738],[-83.6506,15.3703],[-83.5426,15.3157],[-83.408,15.2664],[-83.3563,15.2297],[-83.3446,15.2109],[-83.3284,15.1466],[-83.3109,15.1064],[-83.2843,15.0683],[-83.2538,15.0446],[-83.1304,14.997],[-83.1437,14.9949],[-83.1774,14.9968],[-83.1913,14.9943],[-83.2177,14.9825],[-83.262,14.9832],[-83.2662,14.9825],[-83.2783,14.9871],[-83.2857,14.9921],[-83.2849,14.9974],[-83.273,15.003],[-83.3171,15.0076],[-83.3342,15.0064],[-83.3494,14.9968],[-83.3545,15.0101],[-83.365,15.0163],[-83.3778,15.0213],[-83.3903,15.031],[-83.3999,15.0136],[-83.4155,14.9969],[-83.4357,14.9852],[-83.4592,14.9825],[-83.4684,14.9874],[-83.4806,15.0055],[-83.4859,15.0105],[-83.499,15.0127],[-83.5091,15.0115],[-83.5125,15.0065],[-83.5057,14.9968],[-83.511,14.9902],[-83.5126,14.984],[-83.5132,14.9689],[-83.523,14.9777],[-83.5286,14.9734],[-83.5299,14.9618],[-83.5269,14.9484],[-83.5325,14.951],[-83.5473,14.9552],[-83.5451,14.9522],[-83.5405,14.9416],[-83.5549,14.9374],[-83.5798,14.9181],[-83.6043,14.9092],[-83.6092,14.8984],[-83.6113,14.8849],[-83.6156,14.8727],[-83.6231,14.8727],[-83.6316,14.8832],[-83.65,14.8885],[-83.6721,14.8896],[-83.692,14.887],[-83.7106,14.8783],[-83.7145,14.8672],[-83.705,14.8385],[-83.7124,14.8385],[-83.7162,14.8471],[-83.7236,14.8516],[-83.7339,14.853],[-83.7466,14.8522],[-83.7445,14.8367],[-83.7653,14.8288],[-83.8211,14.8255],[-83.8139,14.8138],[-83.809,14.8089],[-83.8012,14.8038],[-83.8197,14.8036],[-83.8395,14.7974],[-83.8573,14.7878],[-83.8695,14.7771],[-83.8753,14.7843],[-83.8788,14.7867],[-83.8899,14.7907],[-83.885,14.7813],[-83.8838,14.7771],[-83.8966,14.7804],[-83.9127,14.7972],[-83.9247,14.8038],[-83.9297,14.7809],[-83.9299,14.7717],[-83.9247,14.7634],[-84.0236,14.7583],[-84.0408,14.7603],[-84.0427,14.7681],[-84.0478,14.7708],[-84.0647,14.7703],[-84.0752,14.7716],[-84.079,14.7752],[-84.0816,14.7798],[-84.1044,14.7939],[-84.1118,14.7934],[-84.1227,14.7845],[-84.1111,14.761],[-84.1042,14.7519],[-84.0954,14.7436],[-84.0954,14.7361],[-84.1023,14.7319],[-84.1065,14.7323],[-84.1112,14.7347],[-84.1196,14.7361],[-84.1287,14.7342],[-84.1339,14.73],[-84.1379,14.7252],[-84.1438,14.7219],[-84.1682,14.715],[-84.1829,14.7139],[-84.195,14.7187],[-84.2187,14.7434],[-84.2264,14.7498],[-84.2354,14.7547],[-84.2492,14.7594],[-84.2618,14.7585],[-84.2673,14.7467],[-84.2622,14.6997],[-84.2673,14.6777],[-84.2878,14.6672],[-84.2989,14.668],[-84.3232,14.6733],[-84.3384,14.6747],[-84.346,14.68],[-84.3532,14.706],[-84.3629,14.7156],[-84.3761,14.6967],[-84.39,14.6715],[-84.4084,14.6494],[-84.4457,14.6367],[-84.4716,14.6226],[-84.4827,14.6195],[-84.498,14.6239],[-84.5085,14.6326],[-84.519,14.6383],[-84.5342,14.6337],[-84.5312,14.6533],[-84.5274,14.6604],[-84.6004,14.6625],[-84.623,14.6672],[-84.6617,14.6834],[-84.6808,14.6855],[-84.6993,14.6747],[-84.7144,14.7089],[-84.7249,14.7256],[-84.7453,14.7391],[-84.7443,14.7524],[-84.747,14.7645],[-84.7669,14.7669],[-84.7664,14.7689],[-84.7555,14.7815],[-84.7702,14.8051],[-84.7921,14.8211],[-84.8181,14.8287],[-84.8444,14.8275],[-84.9042,14.817],[-84.9206,14.8077],[-84.9665,14.7646],[-85.002,14.7407],[-85.0157,14.7282],[-85.0245,14.7125],[-85.0298,14.6755],[-85.033,14.6696],[-85.0382,14.6672],[-85.0539,14.6631],[-85.0485,14.6533],[-85.0202,14.6337],[-85.0422,14.6135],[-85.0482,14.6058],[-85.0222,14.6058],[-85.0296,14.589],[-85.0652,14.5543],[-85.0864,14.5445],[-85.1034,14.5569],[-85.1193,14.574],[-85.1375,14.5785],[-85.1455,14.5643],[-85.1498,14.5365],[-85.1518,14.486],[-85.1554,14.4795],[-85.1785,14.4556],[-85.1797,14.4492],[-85.1774,14.434],[-85.1785,14.4276],[-85.2058,14.4072],[-85.1897,14.3968],[-85.1719,14.381],[-85.159,14.3611],[-85.158,14.3383],[-85.1696,14.3218],[-85.1902,14.3096],[-85.2152,14.3016],[-85.24,14.2973],[-85.2778,14.2973],[-85.2882,14.2951],[-85.312,14.2837],[-85.3214,14.2813],[-85.3268,14.2757],[-85.3309,14.269],[-85.338,14.2607],[-85.3408,14.2534],[-85.3436,14.2501],[-85.3478,14.2492],[-85.3585,14.2509],[-85.3629,14.2501],[-85.3725,14.2411],[-85.384,14.2264],[-85.3936,14.2108],[-85.4009,14.1852],[-85.4091,14.1662],[-85.4202,14.1469],[-85.4317,14.1328],[-85.4576,14.113],[-85.4747,14.1034],[-85.5106,14.0938],[-85.5164,14.0805],[-85.5186,14.0646],[-85.528,14.0509],[-85.5466,14.0449],[-85.5717,14.0405],[-85.5936,14.0335],[-85.6031,14.0195],[-85.6128,14.0097],[-85.6479,13.9993],[-85.6446,13.9888],[-85.6504,13.9879],[-85.652,13.9867],[-85.6515,13.982],[-85.6577,13.982],[-85.6662,13.9845],[-85.6865,13.9673],[-85.6992,13.9615],[-85.717,13.9627],[-85.7273,13.965],[-85.7322,13.9595],[-85.7334,13.9376],[-85.7433,13.9076],[-85.7474,13.8883],[-85.7437,13.8796],[-85.7287,13.875],[-85.723,13.8634],[-85.7251,13.8479],[-85.7334,13.8318],[-85.7425,13.8237],[-85.745,13.8247],[-85.7583,13.8393],[-85.7787,13.8409],[-85.802,13.8402],[-85.8242,13.8477],[-85.8401,13.8666],[-85.8499,13.8871],[-85.8616,13.9044],[-85.8836,13.9139],[-85.8972,13.913],[-85.9063,13.9094],[-85.9155,13.9074],[-85.9294,13.9121],[-85.9361,13.9182],[-85.9578,13.9461],[-86.0284,13.9961],[-86.0313,14.0226],[-86.0205,14.0441],[-86.0202,14.0552],[-86.0967,14.0441],[-86.1105,14.0371],[-86.1217,14.0272],[-86.1269,14.0186],[-86.1308,14.0089],[-86.138,13.9962],[-86.1497,13.9843],[-86.1618,13.9781],[-86.1736,13.9737],[-86.1841,13.9669],[-86.2186,13.9144],[-86.2841,13.8457],[-86.2999,13.8213],[-86.3078,13.7917],[-86.3136,13.7766],[-86.3252,13.7638],[-86.3401,13.7567],[-86.3585,13.7523],[-86.4101,13.749],[-86.4171,13.75],[-86.4265,13.753],[-86.4325,13.7571],[-86.4482,13.773],[-86.4629,13.7709],[-86.4763,13.764],[-86.4908,13.7595],[-86.5085,13.7644],[-86.5417,13.7821],[-86.5811,13.7799],[-86.6627,13.7647],[-86.7063,13.77],[-86.7272,13.7683],[-86.7499,13.7571],[-86.7614,13.7493],[-86.7662,13.7453],[-86.7702,13.7252],[-86.7741,13.6546],[-86.7721,13.6455],[-86.7682,13.6404],[-86.7554,13.6309],[-86.7516,13.6244],[-86.7509,13.6084],[-86.7571,13.5764],[-86.7566,13.5594],[-86.7243,13.4394],[-86.7259,13.4238],[-86.7387,13.3962],[-86.7402,13.3819],[-86.7364,13.372],[-86.7304,13.3689],[-86.7236,13.3673],[-86.7172,13.3616],[-86.7099,13.3489],[-86.7078,13.3428],[-86.7019,13.3142],[-86.704,13.2988],[-86.7118,13.2857],[-86.7255,13.2733],[-86.7398,13.2637],[-86.7493,13.2613],[-86.7587,13.2642],[-86.8162,13.2919],[-86.8334,13.2934],[-86.8495,13.2888],[-86.8627,13.2799],[-86.9108,13.2396],[-86.9189,13.2298],[-86.926,13.2164],[-86.9332,13.1882],[-86.9349,13.1855],[-86.9331,13.1797],[-86.9237,13.1611],[-86.9323,13.1085],[-86.9298,13.1022],[-86.9242,13.0998],[-86.9202,13.0962],[-86.9229,13.0864],[-86.928,13.0812],[-86.9427,13.0741],[-86.9484,13.0697],[-86.9718,13.0339],[-86.9832,13.0219],[-87.0088,13.0061],[-87.0296,12.9961],[-87.035,12.9798],[-87.0469,12.9806],[-87.0698,12.9944],[-87.0847,12.9959],[-87.314,12.9816],[-87.3039,12.9885],[-87.3008,13.0012],[-87.2936,13.0111],[-87.2828,13.0182],[-87.2692,13.0232],[-87.2692,13.0294],[-87.2968,13.0303],[-87.3167,13.0342],[-87.3318,13.0427],[-87.3448,13.0573],[-87.3513,13.0672],[-87.3528,13.0725],[-87.3511,13.0884],[-87.3447,13.0908],[-87.3141,13.0954],[-87.3039,13.0983],[-87.3618,13.1133],[-87.3946,13.1168],[-87.4131,13.1114],[-87.4193,13.1114],[-87.4221,13.1499],[-87.4358,13.1894],[-87.4551,13.2243],[-87.4746,13.2492],[-87.4808,13.2652],[-87.482,13.2659],[-87.4845,13.2701],[-87.497,13.2683],[-87.5019,13.2696],[-87.5089,13.2786],[-87.5122,13.2867],[-87.5105,13.2949],[-87.5019,13.3044],[-87.4934,13.3098],[-87.4767,13.3173],[-87.4678,13.3249],[-87.4478,13.3526],[-87.4404,13.359],[-87.4269,13.356],[-87.4111,13.3598],[-87.379,13.372],[-87.3804,13.3804],[-87.3804,13.3863],[-87.379,13.3931],[-87.3938,13.4064],[-87.4006,13.4112],[-87.4098,13.413],[-87.4298,13.4094],[-87.4378,13.411],[-87.4473,13.4205],[-87.4644,13.4083],[-87.4696,13.403],[-87.4746,13.3931],[-87.4764,13.3797],[-87.4731,13.3725],[-87.4723,13.367],[-87.482,13.359],[-87.4883,13.3583],[-87.523,13.359],[-87.5386,13.3553],[-87.5476,13.355],[-87.5572,13.359],[-87.5572,13.3659],[-87.5428,13.3659],[-87.5428,13.372],[-87.5618,13.376],[-87.5813,13.3829],[-87.5989,13.3843],[-87.6118,13.372],[-87.6186,13.372],[-87.6167,13.3819],[-87.6056,13.4068],[-87.6193,13.412],[-87.6224,13.423],[-87.6186,13.4512],[-87.624,13.4663],[-87.6365,13.4637],[-87.6504,13.4523],[-87.6601,13.4409],[-87.651,13.4125],[-87.6657,13.386],[-87.6928,13.3665],[-87.721,13.359],[-87.7389,13.3624],[-87.7622,13.3764],[-87.7814,13.3826],[-87.7829,13.3894],[-87.7829,13.3963],[-87.7865,13.3994],[-87.7963,13.3998],[-87.803,13.4014],[-87.8172,13.4066],[-87.7384,13.4417],[-87.7212,13.4608],[-87.7188,13.4737],[-87.7206,13.487],[-87.7257,13.499],[-87.7334,13.5077],[-87.748,13.5132],[-87.7692,13.5064],[-87.7795,13.51],[-87.7899,13.5328],[-87.7841,13.5605],[-87.7601,13.6169],[-87.7578,13.6352],[-87.7586,13.6723],[-87.755,13.6899],[-87.7463,13.7022],[-87.7363,13.7115],[-87.7314,13.7222],[-87.7378,13.7388],[-87.7328,13.7551],[-87.7126,13.8005],[-87.7036,13.815],[-87.7212,13.8219],[-87.7653,13.8589],[-87.7714,13.8621],[-87.7854,13.8674],[-87.7906,13.8705],[-87.7987,13.8823],[-87.8085,13.9086],[-87.8179,13.9159],[-87.8329,13.9153],[-87.843,13.9071],[-87.8512,13.8969],[-87.8609,13.8902],[-87.8705,13.8896],[-87.8901,13.8935],[-87.9001,13.8941],[-87.9079,13.8915],[-87.9208,13.8819],[-87.9253,13.8796],[-87.9322,13.8816],[-87.9469,13.8909],[-87.9548,13.8925],[-87.9697,13.8885],[-88.0153,13.8664],[-88.0236,13.8912],[-88.04,13.9101],[-88.0584,13.9265],[-88.0729,13.9434],[-88.0875,13.9805],[-88.099,13.9898],[-88.1254,13.9913],[-88.1775,13.9852],[-88.1935,13.9856],[-88.2201,13.9913],[-88.2351,13.9929],[-88.2449,13.9893],[-88.2454,13.9859],[-88.2444,13.9661],[-88.2423,13.9625],[-88.2334,13.9545],[-88.2316,13.9518],[-88.2364,13.9381],[-88.2428,13.9367],[-88.2516,13.9381],[-88.2636,13.9331],[-88.2702,13.926],[-88.2775,13.9133],[-88.2854,13.906],[-88.2963,13.9024],[-88.3084,13.9015],[-88.3193,13.8976],[-88.3262,13.8851],[-88.3406,13.89],[-88.3486,13.8914],[-88.3551,13.891],[-88.3582,13.8874],[-88.3589,13.8753],[-88.3601,13.8724],[-88.3674,13.8731],[-88.3834,13.8793],[-88.3929,13.8798],[-88.4332,13.8711],[-88.4514,13.8636],[-88.4702,13.8525],[-88.4968,13.8512],[-88.488,13.8653],[-88.4887,13.8813],[-88.4995,13.9076],[-88.5023,13.9171],[-88.5002,13.9319],[-88.4968,13.944],[-88.4961,13.9557],[-88.5023,13.9689],[-88.4979,13.9684],[-88.4965,13.9696],[-88.4954,13.9751],[-88.5044,13.9837],[-88.514,13.9876],[-88.5581,13.9909],[-88.6339,14.0145],[-88.6593,14.0161],[-88.6848,14.0123],[-88.6909,14.01],[-88.6904,14.0169],[-88.6927,14.0253],[-88.6977,14.032],[-88.7049,14.038],[-88.7095,14.0397],[-88.731,14.0425],[-88.7466,14.0525],[-88.7461,14.0666],[-88.7401,14.083],[-88.7392,14.0999],[-88.7464,14.1113],[-88.7551,14.1105],[-88.7654,14.1043],[-88.7773,14.0997],[-88.8212,14.1029],[-88.8388,14.1004],[-88.8453,14.1286],[-88.8603,14.1585],[-88.8813,14.1842],[-88.906,14.1996],[-88.9216,14.1999],[-88.9356,14.194],[-88.9475,14.1873],[-88.9572,14.1852],[-88.966,14.1914],[-88.9692,14.202],[-88.9708,14.2148],[-88.9746,14.2274],[-88.9835,14.2421],[-88.9928,14.253],[-89.0181,14.2717],[-89.0226,14.2807],[-89.0266,14.3113],[-89.033,14.3237],[-89.049,14.3315],[-89.0831,14.3353],[-89.0945,14.3449],[-89.0906,14.3547],[-89.0897,14.3649],[-89.0918,14.3748],[-89.0968,14.384],[-89.1026,14.3915],[-89.1075,14.396],[-89.1133,14.3971],[-89.1222,14.3947],[-89.1301,14.3867],[-89.1445,14.3597],[-89.154,14.3513],[-89.2002,14.3647],[-89.2255,14.3821],[-89.2765,14.3927],[-89.3076,14.4071],[-89.3616,14.4155]]],[[[-87.6151,13.2901],[-87.612,13.2829],[-87.6139,13.2673],[-87.6243,13.2529],[-87.6466,13.2492],[-87.6586,13.251],[-87.6628,13.2528],[-87.6671,13.256],[-87.6671,13.2622],[-87.6601,13.2622],[-87.6738,13.2839],[-87.6576,13.2891],[-87.6448,13.2908],[-87.6151,13.2901]]],[[[-87.6344,13.3735],[-87.6124,13.366],[-87.5854,13.3717],[-87.5708,13.372],[-87.5708,13.3659],[-87.5881,13.358],[-87.5763,13.3185],[-87.5913,13.3044],[-87.6376,13.3192],[-87.659,13.3317],[-87.6565,13.3491],[-87.6435,13.3677],[-87.6344,13.3735]]],[[[-86.8787,16.1273],[-86.8725,16.121],[-86.8812,16.1046],[-86.8787,16.0932],[-86.8976,16.0938],[-86.9132,16.0902],[-86.9402,16.0795],[-86.9637,16.0664],[-86.9789,16.0778],[-86.9974,16.084],[-86.9887,16.0955],[-86.9443,16.1165],[-86.9184,16.1221],[-86.9039,16.1242],[-86.8905,16.1278],[-86.8787,16.1273]]],[[[-86.6065,16.285],[-86.5993,16.3093],[-86.5704,16.3324],[-86.5307,16.3562],[-86.5,16.3689],[-86.4404,16.3965],[-86.3754,16.4173],[-86.3321,16.4294],[-86.302,16.4329],[-86.2311,16.4288],[-86.1818,16.4282],[-86.2022,16.4225],[-86.2239,16.4121],[-86.2431,16.4179],[-86.2732,16.411],[-86.2943,16.4153],[-86.3121,16.4125],[-86.3189,16.4093],[-86.3327,16.4005],[-86.3389,16.3979],[-86.3478,16.3975],[-86.3622,16.3943],[-86.3803,16.3816],[-86.417,16.3642],[-86.4531,16.3515],[-86.491,16.3255],[-86.5253,16.3152],[-86.5482,16.3129],[-86.5807,16.2828],[-86.6005,16.2694],[-86.6065,16.285]]],[[[-85.9115,16.462],[-85.8956,16.4887],[-85.8841,16.5028],[-85.8511,16.5172],[-85.8321,16.5105],[-85.817,16.4983],[-85.8221,16.4862],[-85.8443,16.4838],[-85.8494,16.4692],[-85.8627,16.4522],[-85.8824,16.451],[-85.8957,16.4365],[-85.9471,16.4032],[-85.9508,16.4123],[-85.9267,16.4548],[-85.9115,16.462]]],[[[-83.9412,17.4186],[-83.9261,17.4163],[-83.9123,17.4111],[-83.9219,17.4091],[-83.9303,17.4094],[-83.9369,17.4125],[-83.9412,17.4186]]]]}}