{"type":"Feature","bbox":[18.4335,41.8524,20.3552,43.5479],"properties":{"iso":"ME","name":"Montenegro","name_de":"Montenegro","key":"ME"},"geometry":{"type":"Polygon","coordinates":[[[18.4964,42.4163],[18.4978,42.4312],[18.4929,42.4424],[18.4677,42.4534],[18.4549,42.4647],[18.4443,42.4779],[18.4371,42.4934],[18.4364,42.5108],[18.442,42.543],[18.4374,42.5592],[18.4477,42.5662],[18.459,42.5697],[18.4705,42.5691],[18.4818,42.5637],[18.4921,42.5648],[18.4959,42.5709],[18.4937,42.5798],[18.4867,42.5898],[18.5172,42.603],[18.5384,42.6183],[18.5496,42.6389],[18.55,42.6681],[18.5397,42.6955],[18.5225,42.7119],[18.5022,42.7274],[18.4674,42.7692],[18.4539,42.7932],[18.4446,42.8171],[18.4437,42.8345],[18.4535,42.8457],[18.466,42.8528],[18.4733,42.8626],[18.4676,42.8817],[18.444,42.9169],[18.434,42.9369],[18.4335,42.9542],[18.4528,42.9934],[18.483,43.0146],[18.539,43.0239],[18.5984,43.0245],[18.639,43.0202],[18.6211,43.0964],[18.6206,43.1226],[18.6291,43.1549],[18.6453,43.1802],[18.6884,43.2245],[18.6643,43.2332],[18.6795,43.2495],[18.8072,43.318],[18.8335,43.3242],[18.8212,43.3414],[18.8396,43.3478],[18.8991,43.3519],[18.9234,43.3468],[18.9503,43.3331],[18.9573,43.3259],[18.9579,43.319],[18.9571,43.3118],[18.9595,43.3035],[18.9686,43.2922],[18.9889,43.2729],[18.9925,43.2671],[19.0029,43.2739],[19.0109,43.2823],[19.0172,43.2912],[19.0247,43.2987],[19.0363,43.3033],[19.0625,43.3044],[19.0697,43.3088],[19.0396,43.3507],[19.0099,43.411],[18.9753,43.4443],[18.9683,43.4481],[18.9463,43.4439],[18.9464,43.4491],[18.9507,43.4573],[18.9512,43.4638],[18.9379,43.4789],[18.9307,43.4823],[18.9153,43.4854],[18.9056,43.4906],[18.9051,43.4991],[18.911,43.5073],[18.9205,43.5122],[18.9389,43.5189],[18.9627,43.5383],[18.9775,43.5462],[19.0002,43.5479],[19.0143,43.5378],[19.025,43.523],[19.0381,43.511],[19.055,43.5067],[19.0764,43.5072],[19.096,43.5129],[19.1228,43.5359],[19.1477,43.5381],[19.1953,43.5328],[19.1752,43.5096],[19.1759,43.4809],[19.1922,43.4545],[19.2184,43.4382],[19.3556,43.3931],[19.3723,43.3842],[19.414,43.3384],[19.4731,43.2933],[19.4851,43.2801],[19.5023,43.2519],[19.5124,43.2406],[19.5499,43.2175],[19.5809,43.1878],[19.5981,43.1762],[19.6187,43.1682],[19.663,43.1585],[19.6846,43.1567],[19.6973,43.1602],[19.7055,43.1662],[19.7136,43.1656],[19.7428,43.1265],[19.7612,43.1087],[19.7818,43.0965],[19.8051,43.09],[19.8383,43.0884],[19.8722,43.0904],[19.8838,43.0957],[19.9071,43.1133],[19.9166,43.1171],[19.9291,43.1139],[19.9366,43.1059],[19.9423,43.0956],[19.9498,43.0859],[19.9597,43.0786],[20.0199,43.0473],[20.1169,42.9767],[20.1409,42.9708],[20.1946,42.9668],[20.2232,42.9577],[20.2756,42.9299],[20.3371,42.907],[20.3536,42.891],[20.3552,42.8662],[20.3454,42.8274],[20.2644,42.8173],[20.2261,42.8068],[20.2176,42.8027],[20.2092,42.7917],[20.2084,42.7821],[20.21,42.773],[20.2084,42.7633],[20.1834,42.7425],[20.1495,42.7499],[20.1121,42.7665],[20.0763,42.7734],[20.0651,42.7695],[20.0347,42.7514],[20.0265,42.7432],[20.0248,42.7234],[20.0361,42.708],[20.0942,42.667],[20.1039,42.6531],[20.0906,42.6273],[20.0792,42.6112],[20.0757,42.6031],[20.0754,42.587],[20.0782,42.5729],[20.077,42.5599],[20.065,42.5468],[20.0392,42.5578],[20.0177,42.5462],[19.9818,42.5108],[19.9563,42.5053],[19.9075,42.5064],[19.8827,42.4936],[19.8733,42.4868],[19.8355,42.4703],[19.8196,42.4665],[19.8014,42.4681],[19.7845,42.4746],[19.7516,42.4934],[19.7343,42.5244],[19.7309,42.5337],[19.7303,42.5404],[19.7322,42.5555],[19.7339,42.5626],[19.7414,42.5744],[19.746,42.5799],[19.7478,42.5789],[19.746,42.5989],[19.7375,42.6244],[19.7221,42.6461],[19.6993,42.6548],[19.676,42.6467],[19.6479,42.6278],[19.6218,42.605],[19.605,42.5848],[19.5992,42.571],[19.5937,42.5448],[19.5881,42.5329],[19.5757,42.5223],[19.5613,42.5162],[19.5493,42.5086],[19.5437,42.4934],[19.5317,42.4748],[19.5178,42.458],[19.5015,42.4441],[19.4817,42.4345],[19.4684,42.4181],[19.4172,42.3741],[19.4121,42.3684],[19.4027,42.352],[19.4007,42.3448],[19.4013,42.3311],[19.4004,42.3259],[19.3046,42.2151],[19.2749,42.1913],[19.272,42.1807],[19.2821,42.1646],[19.2978,42.1517],[19.355,42.12],[19.3725,42.1043],[19.3749,42.0947],[19.3566,42.0648],[19.3517,42.0476],[19.3506,42.0278],[19.3542,42.0087],[19.3634,41.9936],[19.371,41.9866],[19.3658,41.9697],[19.3598,41.966],[19.3516,41.9652],[19.3464,41.9615],[19.3529,41.9385],[19.3505,41.9314],[19.3467,41.9262],[19.3454,41.9212],[19.3459,41.9145],[19.3453,41.9103],[19.3477,41.9064],[19.357,41.8996],[19.3649,41.889],[19.3642,41.8628],[19.3651,41.8524],[19.3469,41.864],[19.3102,41.8945],[19.2932,41.9008],[19.2202,41.9188],[19.203,41.9271],[19.1785,41.9339],[19.1703,41.938],[19.1623,41.9479],[19.162,41.9534],[19.1633,41.959],[19.1603,41.969],[19.1556,41.9706],[19.1453,41.9776],[19.138,41.9853],[19.1429,41.9888],[19.1436,41.9931],[19.1392,42.0424],[19.0825,42.0812],[19.0747,42.0956],[19.0838,42.1101],[19.0764,42.116],[19.064,42.1202],[19.0487,42.1402],[19.0106,42.1396],[19.0021,42.1502],[18.9998,42.1611],[18.9948,42.1636],[18.988,42.1637],[18.9816,42.1671],[18.968,42.1887],[18.9535,42.1999],[18.9133,42.2222],[18.9017,42.2375],[18.8947,42.2705],[18.886,42.2844],[18.8716,42.2905],[18.854,42.2905],[18.8389,42.2857],[18.8314,42.2775],[18.8205,42.2867],[18.8176,42.2912],[18.8015,42.2844],[18.794,42.2803],[18.7864,42.2741],[18.7786,42.2715],[18.772,42.2769],[18.7625,42.2912],[18.7295,42.3116],[18.7145,42.3253],[18.7141,42.3389],[18.7083,42.3425],[18.6997,42.3498],[18.6936,42.3532],[18.6936,42.3594],[18.6958,42.3738],[18.6785,42.386],[18.6585,42.3866],[18.6532,42.3663],[18.6465,42.3663],[18.6384,42.3703],[18.6167,42.3681],[18.6123,42.3699],[18.6071,42.3764],[18.5949,42.3837],[18.5809,42.3898],[18.5706,42.393],[18.5731,42.3975],[18.5781,42.4004],[18.553,42.4136],[18.5452,42.4236],[18.5501,42.4351],[18.5628,42.4385],[18.6565,42.4155],[18.6856,42.404],[18.7005,42.393],[18.7082,42.4085],[18.7066,42.421],[18.6838,42.4588],[18.6833,42.4681],[18.6873,42.4829],[18.6541,42.4518],[18.6087,42.4454],[18.5025,42.4556],[18.5025,42.4482],[18.5213,42.438],[18.513,42.409],[18.5298,42.4004],[18.5103,42.4053],[18.4964,42.4163]]]}}