{"type":"Feature","bbox":[20.4442,40.8494,23.0096,42.3703],"properties":{"iso":"MK","name":"North Macedonia","name_de":"Nordmazedonien","key":"MK"},"geometry":{"type":"Polygon","coordinates":[[[20.5671,41.8732],[20.5903,41.8547],[20.6024,41.8499],[20.6187,41.8505],[20.6262,41.8552],[20.637,41.8704],[20.6434,41.8736],[20.6528,41.8693],[20.6718,41.8493],[20.6815,41.844],[20.703,41.8496],[20.7233,41.8666],[20.74,41.888],[20.7505,41.9068],[20.7544,41.9309],[20.7418,41.9708],[20.7431,41.9935],[20.7554,42.0428],[20.7654,42.0643],[20.7849,42.082],[20.8105,42.0929],[21.0039,42.142],[21.0292,42.1514],[21.0744,42.1845],[21.0985,42.196],[21.1062,42.1958],[21.113,42.1944],[21.1264,42.1889],[21.1644,42.167],[21.1999,42.1412],[21.2162,42.1212],[21.2254,42.1068],[21.2378,42.0974],[21.2889,42.0897],[21.2993,42.0914],[21.3013,42.1006],[21.3003,42.1209],[21.2988,42.1294],[21.2937,42.1402],[21.295,42.149],[21.3538,42.216],[21.3668,42.2239],[21.3843,42.2249],[21.4191,42.215],[21.4298,42.2158],[21.4287,42.2226],[21.4215,42.2314],[21.4199,42.2401],[21.4363,42.2469],[21.4479,42.2441],[21.4572,42.237],[21.4676,42.2351],[21.4815,42.2478],[21.4993,42.2387],[21.5199,42.239],[21.5618,42.2472],[21.575,42.242],[21.6247,42.2428],[21.6597,42.2356],[21.6769,42.2349],[21.692,42.242],[21.7065,42.2551],[21.8172,42.3051],[21.8374,42.3086],[21.8774,42.3082],[21.8844,42.3095],[21.9183,42.3313],[21.929,42.3351],[21.9415,42.3331],[21.995,42.3126],[22.0276,42.304],[22.0609,42.3011],[22.0955,42.3058],[22.2334,42.3489],[22.2598,42.3691],[22.2689,42.3703],[22.2733,42.3655],[22.274,42.3485],[22.2769,42.3412],[22.2916,42.3284],[22.3076,42.3193],[22.3253,42.3143],[22.345,42.3134],[22.4436,42.2144],[22.4814,42.1933],[22.4947,42.1646],[22.5102,42.1448],[22.5311,42.1291],[22.6178,42.0827],[22.6759,42.0606],[22.7057,42.0559],[22.7103,42.053],[22.7184,42.0445],[22.7251,42.0425],[22.7706,42.044],[22.7809,42.0432],[22.7853,42.0391],[22.7911,42.0258],[22.7989,42.0212],[22.806,42.0214],[22.8213,42.0254],[22.827,42.0251],[22.8382,42.0195],[22.8437,42.0145],[22.8458,42.0069],[22.8466,41.9936],[22.8548,41.9826],[22.8571,41.9719],[22.8589,41.9479],[22.8663,41.9249],[22.8771,41.902],[22.8786,41.895],[22.8782,41.8803],[22.8808,41.8727],[22.885,41.8692],[22.8967,41.8644],[22.9014,41.8604],[22.9077,41.8486],[22.9183,41.8143],[22.9397,41.7767],[22.9459,41.7693],[22.9569,41.7657],[22.9805,41.7647],[22.9912,41.761],[23.0089,41.7399],[23.0096,41.7164],[22.9986,41.6931],[22.9766,41.6666],[22.9701,41.652],[22.967,41.647],[22.9615,41.6445],[22.9458,41.6411],[22.9409,41.6376],[22.9361,41.6262],[22.933,41.6123],[22.9321,41.598],[22.9337,41.5846],[22.9369,41.5789],[22.9464,41.5677],[22.9487,41.561],[22.9479,41.5551],[22.943,41.5386],[22.9462,41.4532],[22.9476,41.4484],[22.9534,41.4382],[22.9546,41.4324],[22.9521,41.4277],[22.9405,41.4169],[22.9373,41.4108],[22.9394,41.3894],[22.9445,41.3684],[22.9409,41.3498],[22.917,41.3358],[22.826,41.341],[22.781,41.3349],[22.7513,41.3152],[22.7409,41.2836],[22.7367,41.2044],[22.7272,41.1658],[22.7157,41.1456],[22.7049,41.1397],[22.6919,41.1446],[22.6741,41.1566],[22.6663,41.1645],[22.6619,41.1723],[22.6561,41.1781],[22.6445,41.1802],[22.6293,41.1771],[22.6259,41.1698],[22.6268,41.1608],[22.6245,41.1526],[22.6073,41.136],[22.5902,41.1251],[22.5713,41.1195],[22.5492,41.1185],[22.5166,41.1222],[22.5007,41.1221],[22.4675,41.115],[22.4515,41.1137],[22.4218,41.1146],[22.4104,41.1179],[22.3893,41.1283],[22.3802,41.1317],[22.3677,41.1324],[22.3423,41.129],[22.3234,41.1285],[22.3151,41.1244],[22.3087,41.125],[22.3067,41.1284],[22.3052,41.1416],[22.3026,41.1455],[22.2934,41.1475],[22.263,41.1505],[22.2251,41.1596],[22.2058,41.1614],[22.1832,41.1599],[22.1603,41.1519],[22.1244,41.1272],[22.1034,41.1215],[22.0959,41.1236],[22.0628,41.1372],[22.0603,41.14],[22.0586,41.1451],[22.0555,41.1499],[22.0482,41.1519],[22.0441,41.1499],[22.0338,41.1413],[22.0291,41.1386],[21.9651,41.1244],[21.9347,41.1119],[21.9091,41.0975],[21.9012,41.0908],[21.8972,41.0813],[21.8962,41.0614],[21.8943,41.0538],[21.8807,41.0384],[21.845,41.0124],[21.8313,40.9935],[21.7936,40.9736],[21.7837,40.9642],[21.7819,40.9559],[21.7817,40.9451],[21.7781,40.9337],[21.7655,40.9239],[21.737,40.9192],[21.6851,40.928],[21.6569,40.9182],[21.6548,40.9143],[21.6527,40.9014],[21.6488,40.8958],[21.6439,40.8945],[21.6295,40.8951],[21.6237,40.8944],[21.6137,40.8883],[21.5903,40.8707],[21.5816,40.8663],[21.5537,40.8704],[21.5095,40.9005],[21.4294,40.909],[21.4049,40.9086],[21.3813,40.9005],[21.3449,40.8731],[21.3293,40.8663],[21.2954,40.8609],[21.261,40.8608],[21.2091,40.8691],[21.183,40.8702],[21.1121,40.8539],[20.9653,40.8494],[20.9648,40.876],[20.9567,40.8948],[20.9399,40.9071],[20.8902,40.9183],[20.8374,40.9241],[20.817,40.9202],[20.7837,40.8991],[20.7661,40.8937],[20.7409,40.898],[20.7172,40.9132],[20.7027,40.9363],[20.6834,40.9938],[20.6641,41.0591],[20.6539,41.0753],[20.643,41.0816],[20.6315,41.0829],[20.6189,41.0824],[20.6053,41.0835],[20.577,41.0935],[20.5699,41.1071],[20.5706,41.1248],[20.5655,41.1474],[20.5497,41.1706],[20.5127,41.2101],[20.5001,41.2355],[20.4831,41.2895],[20.4777,41.3196],[20.4817,41.3412],[20.496,41.3378],[20.5104,41.3444],[20.5234,41.3568],[20.5329,41.3704],[20.54,41.3871],[20.5402,41.4007],[20.5341,41.413],[20.5222,41.4257],[20.5146,41.4295],[20.498,41.4315],[20.4909,41.436],[20.4889,41.4415],[20.4868,41.4578],[20.4835,41.4655],[20.4708,41.4838],[20.4632,41.4898],[20.452,41.4936],[20.445,41.5085],[20.4479,41.5354],[20.4442,41.5497],[20.4929,41.5577],[20.5074,41.5623],[20.5208,41.5684],[20.5293,41.5749],[20.5347,41.5853],[20.5346,41.594],[20.5134,41.6404],[20.5083,41.6617],[20.5004,41.7341],[20.5033,41.7446],[20.5113,41.7579],[20.5212,41.7677],[20.5444,41.7848],[20.5509,41.7935],[20.5484,41.8142],[20.5405,41.8394],[20.5417,41.8616],[20.5671,41.8732]]]}}