{"type":"Feature","bbox":[-62.2301,16.6754,-62.1405,16.8193],"properties":{"iso":"MS","name":"Montserrat","name_de":"Montserrat","key":"MS"},"geometry":{"type":"Polygon","coordinates":[[[-62.1474,16.7443],[-62.1477,16.737],[-62.1518,16.7245],[-62.1508,16.7204],[-62.1439,16.709],[-62.1412,16.7019],[-62.1405,16.6965],[-62.144,16.6882],[-62.1498,16.6818],[-62.1578,16.6773],[-62.1679,16.6754],[-62.2189,16.6887],[-62.2301,16.7276],[-62.2189,16.7763],[-62.202,16.8193],[-62.1894,16.8144],[-62.1829,16.8127],[-62.1747,16.8131],[-62.1793,16.7945],[-62.17,16.777],[-62.1563,16.7603],[-62.1474,16.7443]]]}}