{"type":"Feature","bbox":[14.1836,35.8012,14.5671,36.0756],"properties":{"iso":"MT","name":"Malta","name_de":"Malta","key":"MT"},"geometry":{"type":"MultiPolygon","coordinates":[[[[14.548,35.89],[14.5632,35.87],[14.5671,35.8456],[14.5618,35.8298],[14.548,35.836],[14.5325,35.822],[14.5275,35.8135],[14.5275,35.8012],[14.5115,35.8065],[14.5071,35.8087],[14.4727,35.8114],[14.4245,35.8237],[14.3815,35.843],[14.363,35.8667],[14.3599,35.8697],[14.3457,35.8759],[14.3426,35.8807],[14.3426,35.9117],[14.3382,35.947],[14.3325,35.9628],[14.322,35.9731],[14.3347,35.9824],[14.3475,35.9887],[14.3615,35.9924],[14.3773,35.9936],[14.3773,35.9862],[14.3682,35.9848],[14.3623,35.9824],[14.3494,35.9731],[14.4285,35.9657],[14.4451,35.9604],[14.4787,35.937],[14.5078,35.9285],[14.5129,35.9208],[14.514,35.9108],[14.5139,35.9008],[14.5193,35.9],[14.548,35.89]]],[[[14.2566,36.0756],[14.2826,36.0679],[14.3148,36.0511],[14.3342,36.0344],[14.322,36.0272],[14.3045,36.0266],[14.2776,36.0167],[14.26,36.0135],[14.2415,36.0146],[14.2209,36.0192],[14.2012,36.0261],[14.1849,36.0346],[14.188,36.0454],[14.1843,36.0563],[14.1836,36.0648],[14.1955,36.0681],[14.2566,36.0756]]]]}}