{"type":"Feature","bbox":[72.6897,-0.6886,73.638,7.0926],"properties":{"iso":"MV","name":"Maldives","name_de":"Malediven","key":"MV"},"geometry":{"type":"MultiPolygon","coordinates":[[[[73.1631,-0.6818],[73.1725,-0.6886],[73.1659,-0.6884],[73.1636,-0.6866],[73.1631,-0.6818]]],[[[73.2041,-0.6712],[73.1992,-0.6786],[73.1965,-0.6813],[73.1914,-0.6828],[73.1922,-0.6772],[73.1952,-0.6745],[73.2041,-0.6712]]],[[[73.24,-0.6256],[73.2273,-0.6428],[73.2268,-0.6326],[73.23,-0.6233],[73.2349,-0.6194],[73.24,-0.6256]]],[[[73.2468,-0.5855],[73.2446,-0.6072],[73.2383,-0.6004],[73.2363,-0.5924],[73.239,-0.5844],[73.2473,-0.5779],[73.2484,-0.5808],[73.2468,-0.5855]]],[[[73.4351,-0.2836],[73.443,-0.2927],[73.4451,-0.2975],[73.4445,-0.3043],[73.438,-0.2986],[73.4352,-0.2936],[73.4346,-0.2888],[73.4351,-0.2836]]],[[[73.0955,0.228],[73.1025,0.2228],[73.1043,0.2196],[73.1029,0.2134],[73.0989,0.2164],[73.0955,0.228]]],[[[73.209,0.24],[73.2175,0.2377],[73.2127,0.2321],[73.2109,0.2322],[73.209,0.24]]],[[[73.0354,0.2632],[73.0368,0.2697],[73.0404,0.2593],[73.0361,0.2609],[73.0354,0.2632]]],[[[73.3737,0.2869],[73.3791,0.2852],[73.3696,0.28],[73.3711,0.286],[73.3737,0.2869]]],[[[73.5066,0.3878],[73.5134,0.3877],[73.5086,0.3806],[73.5059,0.3862],[73.5066,0.3878]]],[[[72.9409,0.4963],[72.9406,0.4873],[72.937,0.4914],[72.937,0.4936],[72.9409,0.4963]]],[[[73.4898,0.5026],[73.492,0.5078],[73.4946,0.499],[73.4904,0.5007],[73.4898,0.5026]]],[[[72.8314,3.5106],[72.8351,3.5054],[72.8311,3.5036],[72.828,3.5054],[72.8314,3.5106]]],[[[72.7937,3.5169],[72.7952,3.5146],[72.7988,3.5119],[72.7964,3.5109],[72.7912,3.5109],[72.7908,3.5121],[72.7927,3.5142],[72.7937,3.5169]]],[[[72.9284,3.5519],[72.9118,3.5417],[72.9116,3.5417],[72.9157,3.549],[72.9199,3.5522],[72.9284,3.5519]]],[[[72.9419,3.6188],[72.9456,3.6137],[72.9416,3.6119],[72.9385,3.6137],[72.9419,3.6188]]],[[[72.6926,3.727],[72.694,3.7233],[72.6965,3.721],[72.6974,3.7188],[72.6946,3.715],[72.6897,3.718],[72.6897,3.7209],[72.6916,3.7236],[72.6926,3.727]]],[[[72.7031,4.0033],[72.7036,4.0009],[72.7067,3.998],[72.7046,3.9964],[72.6995,3.9981],[72.6991,3.9995],[72.7031,4.0033]]],[[[73.5081,4.1036],[73.5083,4.0934],[73.5083,4.0933],[73.5025,4.0985],[73.5023,4.1008],[73.5081,4.1036]]],[[[72.9727,4.8944],[72.9793,4.8954],[72.9695,4.8805],[72.9701,4.8904],[72.9727,4.8944]]],[[[73.4473,4.9713],[73.4365,4.9699],[73.439,4.9746],[73.4412,4.9749],[73.4473,4.9713]]],[[[73.0491,5.1333],[73.0514,5.1267],[73.0476,5.1264],[73.0453,5.1289],[73.0491,5.1333]]],[[[73.5936,5.2827],[73.5829,5.2756],[73.5776,5.2746],[73.57,5.2768],[73.5759,5.2799],[73.582,5.2818],[73.5936,5.2827]]],[[[73.3233,5.3682],[73.3249,5.3668],[73.3301,5.3668],[73.3289,5.3642],[73.3192,5.3629],[73.3177,5.3658],[73.322,5.3669],[73.3233,5.3682]]],[[[72.9431,5.4676],[72.9403,5.4621],[72.9382,5.4615],[72.937,5.4655],[72.9382,5.4667],[72.9431,5.4676]]],[[[73.0159,5.4929],[73.013,5.4875],[73.011,5.4868],[73.0098,5.4909],[73.0109,5.4921],[73.0159,5.4929]]],[[[73.0056,5.7133],[73.0038,5.7111],[73.0023,5.7071],[72.9998,5.707],[72.9988,5.712],[73.0002,5.7132],[73.0056,5.7133]]],[[[72.9494,6.3498],[72.9539,6.3456],[72.9531,6.3435],[72.9485,6.3444],[72.9478,6.3459],[72.9494,6.3498]]],[[[72.8926,6.4521],[72.8942,6.4499],[72.8972,6.4479],[72.8963,6.4458],[72.8918,6.4467],[72.8909,6.4482],[72.8926,6.4521]]],[[[73.0975,-0.5997],[73.105,-0.6065],[73.1116,-0.6171],[73.1164,-0.6296],[73.1187,-0.6413],[73.1112,-0.6413],[73.0949,-0.6047],[73.0912,-0.586],[73.105,-0.5792],[73.105,-0.5866],[73.0988,-0.5872],[73.0978,-0.59],[73.0986,-0.5944],[73.0975,-0.5997]]],[[[73.3682,1.7829],[73.3652,1.791],[73.3758,1.7886],[73.3705,1.7825],[73.3682,1.7829]]],[[[73.4002,1.8063],[73.4012,1.8017],[73.4031,1.798],[73.4021,1.7956],[73.3944,1.7947],[73.3948,1.7988],[73.3989,1.8035],[73.4002,1.8063]]],[[[73.4526,1.8268],[73.4636,1.8263],[73.4567,1.8204],[73.4541,1.8205],[73.4526,1.8268]]],[[[73.5181,1.8427],[73.4992,1.8277],[73.4981,1.8288],[73.5023,1.8349],[73.5073,1.8384],[73.5181,1.8427]]],[[[73.2517,1.8924],[73.2437,1.8887],[73.244,1.8941],[73.2456,1.8948],[73.2517,1.8924]]],[[[73.5531,1.9324],[73.5488,1.9114],[73.5457,1.9016],[73.5409,1.8924],[73.5498,1.925],[73.5531,1.9324]]],[[[73.3172,1.9914],[73.3226,1.988],[73.3233,1.9865],[73.3184,1.9831],[73.3154,1.9851],[73.3171,1.9888],[73.3172,1.9914]]],[[[73.5676,2.1099],[73.5854,2.1096],[73.5855,2.1096],[73.5804,2.1058],[73.5618,2.0947],[73.5618,2.0988],[73.563,2.1024],[73.5676,2.1099]]],[[[73.1155,2.1997],[73.1169,2.1977],[73.1209,2.1918],[73.115,2.1918],[73.1139,2.1935],[73.1155,2.1997]]],[[[72.9261,2.3275],[72.927,2.3161],[72.9225,2.3196],[72.9224,2.3221],[72.9261,2.3275]]],[[[73.3543,2.4372],[73.3613,2.4247],[73.3662,2.4115],[73.367,2.398],[73.3626,2.3849],[73.3539,2.429],[73.3543,2.4372]]],[[[73.3148,2.5058],[73.3152,2.4941],[73.3152,2.494],[73.3118,2.4968],[73.3115,2.4993],[73.3148,2.5058]]],[[[72.9001,2.6822],[72.9026,2.681],[72.9053,2.6808],[72.9064,2.6797],[72.9045,2.6757],[72.9011,2.6762],[72.9001,2.6822]]],[[[72.8726,2.6942],[72.8737,2.6837],[72.8737,2.6836],[72.8674,2.6867],[72.867,2.689],[72.8726,2.6942]]],[[[73.0223,2.7417],[73.0322,2.7451],[73.028,2.7382],[73.0254,2.7376],[73.0223,2.7417]]],[[[73.3535,2.7783],[73.3527,2.7757],[73.3535,2.7719],[73.3514,2.7707],[73.3485,2.7754],[73.3493,2.7772],[73.3535,2.7783]]],[[[73.3993,2.7857],[73.3906,2.7754],[73.3919,2.7815],[73.3944,2.7843],[73.3993,2.7857]]],[[[73.0085,2.9533],[73.0149,2.9474],[73.0104,2.9453],[73.009,2.9464],[73.0085,2.9533]]],[[[73.5813,2.9602],[73.5859,2.9615],[73.5775,2.9512],[73.5785,2.9573],[73.5813,2.9602]]],[[[72.9016,3.0838],[72.9028,3.0819],[72.906,3.0804],[72.9045,3.0774],[72.8999,3.0768],[72.8994,3.0782],[72.9016,3.0838]]],[[[72.9779,3.1102],[72.9792,3.1081],[72.9813,3.1066],[72.9818,3.105],[72.9782,3.1027],[72.9751,3.1042],[72.9779,3.1102]]],[[[73.0422,3.2055],[73.0435,3.2035],[73.0469,3.2021],[73.0451,3.1989],[73.0407,3.1985],[73.0402,3.1998],[73.0422,3.2055]]],[[[73.0317,3.253],[73.0352,3.2493],[73.0357,3.2478],[73.032,3.2456],[73.029,3.2469],[73.0317,3.253]]],[[[72.8333,3.3125],[72.8345,3.3105],[72.8377,3.3091],[72.8361,3.306],[72.8314,3.3056],[72.8333,3.3125]]],[[[72.9524,3.7338],[72.9558,3.7301],[72.9558,3.7287],[72.952,3.7269],[72.949,3.7286],[72.9524,3.7338]]],[[[72.9458,3.7721],[72.9471,3.7698],[72.9491,3.7684],[72.9494,3.767],[72.9453,3.7652],[72.9424,3.767],[72.9458,3.7721]]],[[[72.9446,3.8369],[72.9478,3.8331],[72.9481,3.8317],[72.9441,3.8299],[72.9412,3.8317],[72.9446,3.8369]]],[[[73.5462,4.243],[73.5529,4.2368],[73.552,4.2283],[73.5493,4.2123],[73.5382,4.1833],[73.5266,4.1713],[73.5109,4.1621],[73.4869,4.1641],[73.4767,4.1686],[73.4312,4.1846],[73.4321,4.19],[73.512,4.1863],[73.5205,4.1911],[73.5333,4.231],[73.5462,4.243]]],[[[73.638,4.3706],[73.6371,4.3681],[73.6371,4.364],[73.6336,4.3647],[73.6317,4.3685],[73.633,4.3695],[73.638,4.3706]]],[[[72.957,4.4383],[72.9561,4.4221],[72.9471,4.4231],[72.9434,4.4316],[72.957,4.4383]]],[[[73.6296,5.4185],[73.6345,5.411],[73.6367,5.4029],[73.6359,5.3945],[73.6325,5.3861],[73.6278,5.4133],[73.6296,5.4185]]],[[[73.0056,5.4632],[73.0026,5.4576],[73.001,5.4562],[72.999,5.4611],[73.0,5.4625],[73.0056,5.4632]]],[[[72.884,5.4941],[72.8811,5.4885],[72.8792,5.4879],[72.8777,5.4921],[72.8788,5.4931],[72.884,5.4941]]],[[[73.0147,5.677],[73.0119,5.6715],[73.0098,5.6708],[73.0086,5.675],[73.0098,5.6761],[73.0147,5.677]]],[[[73.3928,5.7377],[73.3807,5.7146],[73.3796,5.7152],[73.3826,5.7221],[73.3928,5.7377]]],[[[73.3823,5.795],[73.3827,5.7917],[73.3843,5.7893],[73.3845,5.7869],[73.3807,5.7841],[73.3768,5.7873],[73.3777,5.7895],[73.3802,5.7917],[73.3823,5.795]]],[[[72.9766,5.8136],[72.9751,5.8046],[72.9751,5.8044],[72.971,5.8084],[72.971,5.8105],[72.9766,5.8136]]],[[[73.4499,5.8408],[73.4338,5.8309],[73.4334,5.8307],[73.439,5.8383],[73.4431,5.8413],[73.4499,5.8408]]],[[[72.9619,5.8567],[72.9637,5.864],[72.9665,5.8503],[72.9627,5.8535],[72.9619,5.8567]]],[[[73.429,5.9114],[73.4285,5.9044],[73.4263,5.9033],[73.4232,5.9069],[73.4241,5.9084],[73.429,5.9114]]],[[[72.9317,5.9691],[72.9302,5.9569],[72.9258,5.9633],[72.9264,5.9663],[72.9317,5.9691]]],[[[73.3898,5.9703],[73.3953,5.9578],[73.3867,5.962],[73.3845,5.9647],[73.3898,5.9703]]],[[[72.9157,5.9813],[72.9138,5.9796],[72.9129,5.9763],[72.9098,5.9779],[72.9097,5.9821],[72.9109,5.9827],[72.9157,5.9813]]],[[[73.266,6.185],[73.2708,6.1894],[73.2681,6.1787],[73.2654,6.1828],[73.266,6.185]]],[[[73.2417,6.2397],[73.2439,6.2316],[73.2402,6.2289],[73.2363,6.2321],[73.2371,6.2343],[73.2398,6.2365],[73.2417,6.2397]]],[[[73.197,6.3275],[73.1983,6.3247],[73.2019,6.3222],[73.201,6.3183],[73.1951,6.3196],[73.1942,6.3216],[73.197,6.3275]]],[[[73.0205,6.369],[73.0218,6.3668],[73.0249,6.3648],[73.0242,6.3627],[73.0193,6.3636],[73.0187,6.3652],[73.0205,6.369]]],[[[72.9028,6.4402],[72.9045,6.438],[72.9075,6.4359],[72.9066,6.4338],[72.902,6.4348],[72.9011,6.4363],[72.9028,6.4402]]],[[[72.9621,6.559],[72.96,6.5575],[72.958,6.5543],[72.9558,6.5553],[72.9568,6.56],[72.9583,6.5607],[72.9621,6.559]]],[[[72.924,6.5653],[72.9255,6.5631],[72.9287,6.5611],[72.9277,6.5589],[72.9231,6.5599],[72.9225,6.5615],[72.924,6.5653]]],[[[73.03,6.5823],[73.0295,6.5797],[73.0304,6.5761],[73.0282,6.5752],[73.0256,6.5793],[73.0261,6.5808],[73.03,6.5823]]],[[[73.0448,6.6219],[73.0427,6.6203],[73.0407,6.6172],[73.0384,6.6181],[73.0394,6.6229],[73.041,6.6236],[73.0448,6.6219]]],[[[73.0695,6.668],[73.0618,6.661],[73.0623,6.6669],[73.0641,6.6684],[73.0695,6.668]]],[[[73.106,6.7099],[73.1004,6.6998],[73.0959,6.6984],[73.0967,6.7061],[73.0993,6.7089],[73.106,6.7099]]],[[[73.0366,6.7597],[73.0361,6.7571],[73.0369,6.7535],[73.0347,6.7526],[73.032,6.7566],[73.0329,6.7582],[73.0366,6.7597]]],[[[72.9185,6.764],[72.9143,6.7592],[72.9123,6.7602],[72.9133,6.7649],[72.9149,6.7656],[72.9185,6.764]]],[[[73.1595,6.7865],[73.1642,6.7871],[73.1655,6.7857],[73.1665,6.7803],[73.1528,6.7492],[73.1448,6.7355],[73.1317,6.725],[73.136,6.7412],[73.1525,6.7682],[73.1595,6.7865]]],[[[73.1817,6.8305],[73.1973,6.8281],[73.1895,6.8228],[73.1838,6.8211],[73.1808,6.8234],[73.1817,6.8305]]],[[[72.9958,6.8415],[72.9937,6.8399],[72.9915,6.8367],[72.9894,6.8376],[72.9902,6.8424],[72.992,6.843],[72.9958,6.8415]]],[[[73.1444,6.8434],[73.1423,6.8419],[73.1403,6.8387],[73.138,6.8397],[73.139,6.8444],[73.1406,6.845],[73.1444,6.8434]]],[[[72.9761,6.8529],[72.9756,6.8503],[72.9763,6.8467],[72.9741,6.8459],[72.9715,6.8498],[72.9723,6.8514],[72.9761,6.8529]]],[[[73.0982,6.8522],[73.094,6.8476],[73.0918,6.8483],[73.0929,6.8531],[73.0945,6.8538],[73.0982,6.8522]]],[[[72.9647,6.8607],[72.9627,6.8592],[72.9606,6.8561],[72.9583,6.857],[72.9592,6.8616],[72.9611,6.8625],[72.9647,6.8607]]],[[[73.1062,6.8967],[73.1057,6.894],[73.1066,6.8904],[73.1043,6.8896],[73.1017,6.8935],[73.1023,6.8952],[73.1062,6.8967]]],[[[73.214,6.9186],[73.2131,6.9046],[73.2088,6.8911],[73.2039,6.885],[73.201,6.8931],[73.2019,6.9022],[73.2049,6.9118],[73.2092,6.9183],[73.214,6.9186]]],[[[73.1985,6.9713],[73.1947,6.9512],[73.1932,6.951],[73.1919,6.9516],[73.1912,6.9613],[73.1919,6.9676],[73.1941,6.9709],[73.1985,6.9713]]],[[[72.9772,7.0227],[72.9797,7.0275],[72.9815,7.014],[72.9773,7.019],[72.9772,7.0227]]],[[[72.9066,7.091],[72.9129,7.0926],[72.9119,7.0832],[72.9064,7.089],[72.9066,7.091]]]]}}