{"type":"Feature","bbox":[32.6633,-17.1353,35.9043,-9.3812],"properties":{"iso":"MW","name":"Malawi","name_de":"Malawi","key":"MW"},"geometry":{"type":"MultiPolygon","coordinates":[[[[34.9646,-11.5736],[34.6512,-11.57],[34.6167,-11.5783],[34.6071,-11.5911],[34.6072,-11.6093],[34.6139,-11.6527],[34.612,-11.6931],[34.6044,-11.7326],[34.5638,-11.8309],[34.3801,-12.1039],[34.3588,-12.1544],[34.354,-12.1995],[34.4945,-12.6874],[34.5493,-13.1591],[34.5428,-13.2438],[34.5453,-13.3257],[34.5782,-13.3984],[34.5794,-13.4004],[34.5998,-13.4202],[34.6115,-13.4358],[34.6317,-13.4712],[34.6365,-13.4822],[34.6376,-13.4882],[34.6406,-13.4924],[34.6514,-13.4978],[34.6675,-13.5009],[34.7954,-13.4988],[34.8296,-13.5039],[34.8631,-13.5158],[34.8944,-13.5347],[35.0841,-13.7042],[35.4557,-14.137],[35.5228,-14.2627],[35.7869,-14.5879],[35.8356,-14.6358],[35.8472,-14.6504],[35.853,-14.6675],[35.8633,-14.8767],[35.8699,-14.8856],[35.8828,-14.8875],[35.9043,-14.8869],[35.7908,-15.1468],[35.7842,-15.1718],[35.7845,-15.1952],[35.8405,-15.4172],[35.8067,-15.8958],[35.7897,-15.9587],[35.7901,-15.9745],[35.7957,-16.005],[35.7946,-16.0207],[35.7851,-16.0423],[35.77,-16.0588],[35.6976,-16.1075],[35.6871,-16.1127],[35.6779,-16.1135],[35.6589,-16.1101],[35.6486,-16.1106],[35.5532,-16.1384],[35.529,-16.1408],[35.5241,-16.1467],[35.5211,-16.1622],[35.5146,-16.1714],[35.502,-16.1708],[35.4887,-16.1646],[35.4801,-16.1569],[35.4729,-16.1402],[35.4564,-16.1294],[35.4358,-16.1239],[35.4161,-16.1229],[35.3934,-16.1286],[35.3746,-16.141],[35.305,-16.2021],[35.2772,-16.234],[35.2588,-16.2715],[35.2519,-16.3178],[35.2542,-16.3284],[35.2662,-16.3565],[35.2623,-16.3666],[35.2387,-16.3941],[35.2333,-16.4126],[35.2336,-16.4524],[35.2282,-16.4703],[35.2144,-16.4842],[35.1319,-16.5376],[35.1484,-16.5821],[35.1644,-16.6068],[35.1685,-16.6171],[35.1743,-16.6255],[35.1855,-16.629],[35.1947,-16.6306],[35.2166,-16.6387],[35.223,-16.6421],[35.2275,-16.6469],[35.2327,-16.6572],[35.2366,-16.6626],[35.251,-16.67],[35.2751,-16.6955],[35.2782,-16.7007],[35.2811,-16.7669],[35.2851,-16.7867],[35.3052,-16.8257],[35.3102,-16.8506],[35.2852,-16.8711],[35.2828,-16.8921],[35.2851,-16.9301],[35.2819,-16.9347],[35.2758,-16.9392],[35.271,-16.9442],[35.2714,-16.9505],[35.276,-16.9552],[35.3084,-16.9737],[35.3144,-16.9823],[35.3093,-16.9953],[35.2987,-17.0136],[35.2974,-17.0297],[35.3062,-17.0673],[35.3075,-17.0876],[35.305,-17.1042],[35.2995,-17.118],[35.2919,-17.1293],[35.2348,-17.1353],[35.1339,-17.132],[35.0813,-17.1241],[35.066,-17.1098],[35.0691,-17.0841],[35.0365,-17.0359],[35.0444,-17.0047],[35.0661,-16.9873],[35.0914,-16.9753],[35.1134,-16.9603],[35.1251,-16.9329],[35.1281,-16.9007],[35.1275,-16.8644],[35.1183,-16.8334],[35.0958,-16.8173],[35.0628,-16.8164],[35.033,-16.8192],[35.0045,-16.8146],[34.9751,-16.7921],[34.9567,-16.7683],[34.9481,-16.7593],[34.9344,-16.7497],[34.9276,-16.7472],[34.9123,-16.7446],[34.9055,-16.7408],[34.9009,-16.7333],[34.8977,-16.714],[34.8935,-16.7057],[34.8775,-16.6944],[34.8599,-16.6872],[34.8446,-16.6784],[34.8348,-16.6631],[34.8276,-16.6415],[34.8195,-16.6278],[34.773,-16.5897],[34.7629,-16.5764],[34.745,-16.5429],[34.7321,-16.5292],[34.6687,-16.4966],[34.6612,-16.4939],[34.655,-16.4894],[34.6427,-16.4597],[34.6374,-16.4505],[34.6307,-16.4434],[34.5983,-16.4197],[34.5858,-16.4078],[34.5751,-16.3923],[34.5471,-16.3231],[34.5247,-16.3008],[34.4804,-16.2945],[34.446,-16.2932],[34.4265,-16.2739],[34.3852,-16.1865],[34.3892,-16.1525],[34.409,-16.0879],[34.4045,-16.0597],[34.3877,-16.037],[34.3043,-15.9522],[34.2897,-15.9435],[34.2564,-15.9282],[34.244,-15.9176],[34.2332,-15.8898],[34.2313,-15.8542],[34.2364,-15.8192],[34.2471,-15.7941],[34.2756,-15.7644],[34.2933,-15.7511],[34.3103,-15.7433],[34.331,-15.7371],[34.3418,-15.7309],[34.404,-15.6468],[34.4159,-15.6151],[34.4191,-15.5753],[34.41,-15.515],[34.4101,-15.4813],[34.4226,-15.4645],[34.4406,-15.4555],[34.4603,-15.4248],[34.4804,-15.4129],[34.487,-15.4005],[34.492,-15.3751],[34.4966,-15.3627],[34.508,-15.3481],[34.5203,-15.3398],[34.5333,-15.3331],[34.5468,-15.3232],[34.5652,-15.2973],[34.5691,-15.2712],[34.5483,-15.1237],[34.5507,-15.1066],[34.5599,-15.0957],[34.5573,-15.0843],[34.551,-15.0718],[34.5487,-15.0576],[34.5546,-15.0436],[34.575,-15.0161],[34.5823,-15.0013],[34.5842,-14.9845],[34.5769,-14.9693],[34.566,-14.9543],[34.557,-14.9383],[34.5511,-14.9183],[34.5487,-14.9016],[34.5484,-14.8278],[34.5428,-14.7963],[34.5321,-14.7668],[34.5153,-14.7346],[34.5058,-14.7003],[34.5194,-14.6408],[34.5181,-14.6074],[34.5018,-14.5757],[34.4497,-14.5255],[34.4265,-14.4976],[34.3938,-14.4323],[34.3721,-14.402],[34.3441,-14.3874],[34.3353,-14.3888],[34.3129,-14.4042],[34.3049,-14.4058],[34.2889,-14.404],[34.2813,-14.405],[34.1824,-14.4395],[34.1096,-14.4414],[34.0775,-14.4547],[34.0702,-14.4649],[34.0586,-14.4901],[34.0508,-14.4952],[33.9456,-14.4814],[33.9163,-14.4813],[33.8889,-14.4882],[33.8308,-14.5227],[33.8024,-14.5328],[33.7742,-14.53],[33.7204,-14.4897],[33.6992,-14.4962],[33.6841,-14.5188],[33.6755,-14.5478],[33.6754,-14.5823],[33.6722,-14.6002],[33.6624,-14.607],[33.6448,-14.6017],[33.633,-14.5914],[33.6245,-14.5781],[33.6042,-14.524],[33.5958,-14.5114],[33.5843,-14.5026],[33.5574,-14.4904],[33.5459,-14.4816],[33.5375,-14.4687],[33.5324,-14.4562],[33.5258,-14.4443],[33.5125,-14.433],[33.4703,-14.4145],[33.4574,-14.4043],[33.4392,-14.3807],[33.3886,-14.2806],[33.371,-14.2568],[33.3543,-14.2253],[33.3471,-14.2188],[33.3383,-14.2154],[33.3239,-14.2063],[33.3156,-14.1971],[33.2906,-14.1569],[33.2862,-14.1389],[33.2913,-14.0892],[33.2802,-14.0608],[33.2578,-14.0436],[33.2027,-14.0139],[33.1857,-13.9938],[33.1545,-13.9366],[33.1403,-13.925],[33.1303,-13.9306],[33.1206,-13.9559],[33.1116,-13.9646],[33.0769,-13.9745],[33.063,-13.9817],[33.0494,-13.9966],[33.0182,-14.0462],[32.9998,-14.0505],[32.9765,-14.0211],[32.9713,-14.0059],[32.9748,-13.9555],[32.9767,-13.9498],[32.9763,-13.9445],[32.9706,-13.936],[32.9625,-13.932],[32.9444,-13.9329],[32.9362,-13.9262],[32.9301,-13.9105],[32.9279,-13.8956],[32.9239,-13.8804],[32.8741,-13.8206],[32.8594,-13.8081],[32.8288,-13.797],[32.7919,-13.7898],[32.763,-13.7772],[32.7574,-13.7502],[32.7681,-13.7391],[32.8049,-13.722],[32.8134,-13.7112],[32.8078,-13.6992],[32.7699,-13.6469],[32.7434,-13.6354],[32.7067,-13.6351],[32.6751,-13.6281],[32.6633,-13.5963],[32.6676,-13.5756],[32.6773,-13.5678],[32.6916,-13.5691],[32.7102,-13.5753],[32.7228,-13.5734],[32.7498,-13.5509],[32.7632,-13.5425],[32.8,-13.5371],[32.8131,-13.5282],[32.8175,-13.5056],[32.8169,-13.4874],[32.8191,-13.4717],[32.8274,-13.4608],[32.8458,-13.458],[32.8743,-13.4432],[32.8921,-13.4048],[32.9196,-13.2948],[32.9379,-13.2559],[32.9627,-13.225],[32.9928,-13.2164],[32.9982,-13.2024],[32.9951,-13.1909],[32.9791,-13.1679],[32.9713,-13.1509],[32.9671,-13.1342],[32.9659,-13.1168],[32.9815,-13.0061],[33.0089,-12.945],[33.0136,-12.9172],[33.005,-12.893],[32.9805,-12.8707],[32.9535,-12.8541],[32.947,-12.8432],[32.9411,-12.7699],[32.9446,-12.7524],[32.9581,-12.7252],[32.9941,-12.6725],[33.0248,-12.6127],[33.0354,-12.5991],[33.0495,-12.5868],[33.0577,-12.5834],[33.0646,-12.585],[33.07,-12.5904],[33.0742,-12.5983],[33.0813,-12.6048],[33.0899,-12.6008],[33.099,-12.5932],[33.107,-12.5887],[33.1228,-12.5846],[33.1304,-12.5837],[33.1399,-12.5863],[33.1469,-12.5932],[33.1588,-12.6154],[33.163,-12.6204],[33.1733,-12.62],[33.178,-12.615],[33.1813,-12.6082],[33.1873,-12.6023],[33.2029,-12.5918],[33.213,-12.5886],[33.227,-12.5791],[33.2436,-12.5448],[33.2551,-12.5319],[33.2632,-12.5285],[33.2897,-12.5242],[33.3022,-12.5251],[33.312,-12.5299],[33.3203,-12.535],[33.3283,-12.5376],[33.3504,-12.5327],[33.3732,-12.5185],[33.3938,-12.4983],[33.4094,-12.4752],[33.4208,-12.465],[33.4511,-12.453],[33.46,-12.4411],[33.4608,-12.4165],[33.4653,-12.4091],[33.4805,-12.4064],[33.4878,-12.3898],[33.5181,-12.3718],[33.5271,-12.3556],[33.5256,-12.3353],[33.5141,-12.331],[33.4974,-12.3315],[33.4583,-12.3181],[33.3846,-12.34],[33.3495,-12.3279],[33.3301,-12.2983],[33.3125,-12.2286],[33.3,-12.1959],[33.2884,-12.1822],[33.2603,-12.1557],[33.2527,-12.1395],[33.2513,-12.1058],[33.2549,-12.0726],[33.2942,-11.9813],[33.3036,-11.9302],[33.3093,-11.9143],[33.3127,-11.8987],[33.3087,-11.8844],[33.2975,-11.8625],[33.2974,-11.8465],[33.3106,-11.8088],[33.314,-11.7722],[33.3026,-11.6097],[33.2968,-11.5936],[33.2832,-11.5784],[33.2669,-11.5756],[33.2493,-11.5778],[33.2327,-11.5777],[33.2159,-11.5716],[33.2126,-11.5638],[33.2273,-11.5327],[33.2338,-11.514],[33.235,-11.5017],[33.2303,-11.4166],[33.2397,-11.4024],[33.2652,-11.4231],[33.2736,-11.4094],[33.2738,-11.3966],[33.2719,-11.3837],[33.2735,-11.3696],[33.2781,-11.3643],[33.2933,-11.3578],[33.2989,-11.3531],[33.3003,-11.347],[33.2968,-11.3357],[33.2983,-11.3292],[33.3685,-11.2227],[33.3822,-11.1947],[33.3909,-11.1648],[33.3589,-11.1094],[33.3366,-11.0874],[33.3181,-11.0623],[33.3037,-11.0346],[33.294,-11.0045],[33.2879,-10.9449],[33.2803,-10.9133],[33.2659,-10.9011],[33.2521,-10.9031],[33.2396,-10.9031],[33.2317,-10.8976],[33.2326,-10.8833],[33.2414,-10.8657],[33.2508,-10.8625],[33.2612,-10.8653],[33.2734,-10.8656],[33.2881,-10.8567],[33.3069,-10.8286],[33.3191,-10.8181],[33.3326,-10.8136],[33.3578,-10.8087],[33.3717,-10.8033],[33.3855,-10.8009],[33.4187,-10.8073],[33.434,-10.8081],[33.4471,-10.8022],[33.4653,-10.7844],[33.4805,-10.7816],[33.501,-10.7692],[33.512,-10.7518],[33.5283,-10.7116],[33.5769,-10.6576],[33.5903,-10.649],[33.6031,-10.6433],[33.6423,-10.6153],[33.6578,-10.6013],[33.6742,-10.577],[33.6727,-10.5596],[33.6656,-10.5414],[33.6654,-10.5151],[33.6382,-10.5116],[33.6227,-10.494],[33.6032,-10.4492],[33.5956,-10.4406],[33.5676,-10.416],[33.5592,-10.4043],[33.5329,-10.3426],[33.5293,-10.3186],[33.5356,-10.2627],[33.5333,-10.2312],[33.519,-10.215],[33.4991,-10.2012],[33.4805,-10.1771],[33.4546,-10.1681],[33.4365,-10.1533],[33.4202,-10.1356],[33.3992,-10.1179],[33.3175,-10.0821],[33.3041,-10.0638],[33.3047,-10.0379],[33.31,-10.0127],[33.3288,-9.9655],[33.3585,-9.9199],[33.3656,-9.8988],[33.3592,-9.8709],[33.3435,-9.8314],[33.337,-9.8237],[33.3,-9.8103],[33.2878,-9.8038],[33.2758,-9.7933],[33.2672,-9.7812],[33.2527,-9.754],[33.2418,-9.7424],[33.2167,-9.7271],[33.2073,-9.7129],[33.2046,-9.6981],[33.2078,-9.6887],[33.213,-9.6806],[33.2158,-9.6699],[33.2143,-9.6547],[33.2098,-9.6414],[33.1954,-9.6163],[33.1754,-9.6023],[33.1215,-9.5995],[33.0983,-9.5885],[33.0925,-9.6144],[33.0892,-9.644],[33.0804,-9.6623],[33.0583,-9.6543],[33.0531,-9.6448],[33.0508,-9.6327],[33.0467,-9.622],[33.0357,-9.617],[33.0223,-9.6203],[33.0112,-9.6278],[33.0001,-9.6328],[32.9869,-9.6285],[32.9747,-9.6013],[32.9924,-9.5291],[32.992,-9.5018],[32.9831,-9.4977],[32.9686,-9.4844],[32.9619,-9.4803],[32.9503,-9.4809],[32.9436,-9.4857],[32.9375,-9.4878],[32.9278,-9.4798],[32.923,-9.4663],[32.9209,-9.4079],[32.9363,-9.3917],[32.9553,-9.3821],[32.9747,-9.3812],[32.9923,-9.3914],[33.0423,-9.4407],[33.1039,-9.4879],[33.113,-9.4915],[33.1399,-9.4974],[33.1692,-9.5089],[33.1729,-9.511],[33.182,-9.5079],[33.1958,-9.4967],[33.2024,-9.4935],[33.2163,-9.4934],[33.2371,-9.4996],[33.2491,-9.5007],[33.2577,-9.498],[33.2735,-9.4877],[33.2824,-9.486],[33.3003,-9.4922],[33.3565,-9.5318],[33.375,-9.5491],[33.3922,-9.5862],[33.4042,-9.6049],[33.4196,-9.6156],[33.439,-9.6215],[33.4805,-9.6244],[33.5116,-9.617],[33.5352,-9.6033],[33.5595,-9.5933],[33.5934,-9.5968],[33.6239,-9.6063],[33.6506,-9.611],[33.6761,-9.6077],[33.7025,-9.5929],[33.7346,-9.5841],[33.762,-9.601],[33.7875,-9.6265],[33.8135,-9.6433],[33.8369,-9.6528],[33.8653,-9.6696],[33.8893,-9.6897],[33.9002,-9.7096],[33.9119,-9.718],[33.9283,-9.7003],[33.9283,-9.6935],[33.9431,-9.6839],[33.9513,-9.6736],[33.9549,-9.6606],[33.9556,-9.6423],[33.9626,-9.6121],[33.9645,-9.5947],[33.9459,-9.55],[33.9607,-9.5249],[33.9843,-9.5056],[33.9965,-9.4918],[34.0127,-9.4775],[34.0475,-9.49],[34.0798,-9.511],[34.0893,-9.5222],[34.1032,-9.5299],[34.1371,-9.5706],[34.1446,-9.5749],[34.1619,-9.5936],[34.1908,-9.6068],[34.2881,-9.7084],[34.3179,-9.7192],[34.3242,-9.7324],[34.3267,-9.7503],[34.3317,-9.7692],[34.3375,-9.7772],[34.3597,-9.7999],[34.3642,-9.8024],[34.3823,-9.8197],[34.3835,-9.8238],[34.4833,-9.9462],[34.4947,-9.9667],[34.5247,-10.0088],[34.5364,-10.043],[34.5378,-10.0539],[34.5357,-10.0653],[34.5268,-10.0849],[34.5247,-10.0948],[34.5324,-10.1289],[34.5656,-10.2027],[34.5751,-10.2558],[34.5834,-10.2776],[34.5856,-10.29],[34.5853,-10.3007],[34.5651,-10.4098],[34.5695,-10.4314],[34.5887,-10.4631],[34.593,-10.4817],[34.5908,-10.4912],[34.5815,-10.5137],[34.5794,-10.5265],[34.5811,-10.5397],[34.5857,-10.5536],[34.5923,-10.5667],[34.6004,-10.5781],[34.6089,-10.582],[34.6176,-10.5815],[34.6244,-10.5834],[34.6272,-10.5951],[34.6263,-10.6143],[34.629,-10.6202],[34.6505,-10.6453],[34.66,-10.6655],[34.6609,-10.6873],[34.6476,-10.7084],[34.6539,-10.7176],[34.6557,-10.722],[34.6599,-10.7277],[34.6664,-10.7324],[34.6724,-10.7395],[34.675,-10.7524],[34.6628,-10.7614],[34.6567,-10.7699],[34.6606,-10.796],[34.6476,-10.8586],[34.6476,-10.9029],[34.6455,-10.9132],[34.6271,-10.9541],[34.5979,-10.991],[34.593,-11.0162],[34.5973,-11.0366],[34.6106,-11.0777],[34.6135,-11.1022],[34.6211,-11.1197],[34.6687,-11.1601],[34.674,-11.17],[34.6771,-11.1787],[34.6818,-11.1851],[34.6999,-11.1895],[34.7079,-11.195],[34.7141,-11.2027],[34.7166,-11.2117],[34.7198,-11.2346],[34.7287,-11.254],[34.7417,-11.2687],[34.7575,-11.2776],[34.7575,-11.2838],[34.7516,-11.2871],[34.743,-11.2937],[34.737,-11.2968],[34.7591,-11.3375],[34.7656,-11.3451],[34.7722,-11.3444],[34.7849,-11.3335],[34.7923,-11.3309],[34.8005,-11.3319],[34.8437,-11.3463],[34.8679,-11.3588],[34.8866,-11.3754],[34.8941,-11.396],[34.8984,-11.4035],[34.9171,-11.4188],[34.9257,-11.4459],[34.9351,-11.4565],[34.9445,-11.4644],[34.9487,-11.4718],[34.9607,-11.4985],[34.963,-11.5131],[34.963,-11.5649],[34.9646,-11.5736]]],[[[34.6941,-12.0004],[34.7156,-12.0016],[34.7383,-12.0095],[34.7542,-12.0201],[34.7624,-12.0403],[34.7593,-12.0656],[34.7482,-12.0904],[34.7325,-12.109],[34.7116,-12.1208],[34.689,-12.1245],[34.669,-12.1178],[34.6562,-12.0972],[34.6559,-12.0763],[34.6624,-12.0528],[34.6809,-12.0094],[34.6941,-12.0004]]],[[[34.5616,-11.9786],[34.5984,-11.9705],[34.6275,-11.9873],[34.6412,-12.0179],[34.6317,-12.0525],[34.6111,-12.0725],[34.5961,-12.0719],[34.5836,-12.0589],[34.5707,-12.041],[34.5441,-12.0114],[34.5418,-11.9946],[34.5616,-11.9786]]]]}}