{"type":"Feature","bbox":[0.1529,11.6958,15.9703,23.5174],"properties":{"iso":"NE","name":"Niger","name_de":"Niger","key":"NE"},"geometry":{"type":"Polygon","coordinates":[[[3.5964,11.6958],[3.5894,11.7015],[3.5801,11.7174],[3.5717,11.7219],[3.5682,11.7295],[3.5662,11.7384],[3.5625,11.746],[3.5574,11.7618],[3.5537,11.7697],[3.537,11.7829],[3.5035,11.83],[3.4954,11.8375],[3.4843,11.8452],[3.4477,11.858],[3.4028,11.8853],[3.3917,11.8888],[3.3809,11.895],[3.3691,11.8973],[3.3551,11.889],[3.3416,11.8829],[3.3278,11.8864],[3.3155,11.8946],[3.307,11.9024],[3.2927,11.9187],[3.2699,11.9565],[3.2626,11.9747],[3.2576,11.9974],[3.2551,12.0188],[3.252,12.0241],[3.2385,12.0342],[3.2354,12.0395],[3.0634,12.1938],[3.0229,12.2525],[3.0131,12.2711],[3.0094,12.2763],[3.001,12.2789],[2.9678,12.2826],[2.956,12.2868],[2.945,12.2925],[2.9368,12.3009],[2.9304,12.3233],[2.9226,12.3356],[2.9126,12.3463],[2.8923,12.3571],[2.8443,12.3992],[2.8324,12.3841],[2.8086,12.3832],[2.7984,12.3812],[2.7782,12.3819],[2.7685,12.3801],[2.7575,12.3729],[2.7415,12.3541],[2.7323,12.3468],[2.7218,12.3443],[2.7113,12.3512],[2.7004,12.3471],[2.6951,12.3412],[2.6869,12.3184],[2.6729,12.2967],[2.6638,12.2916],[2.6286,12.3008],[2.6217,12.2995],[2.6097,12.2908],[2.6036,12.2878],[2.5986,12.2883],[2.5901,12.2933],[2.5861,12.294],[2.5506,12.2845],[2.546,12.2816],[2.5369,12.273],[2.5312,12.2697],[2.5237,12.2692],[2.5206,12.2737],[2.5191,12.2791],[2.5163,12.2814],[2.5045,12.2818],[2.4951,12.2832],[2.488,12.2804],[2.4834,12.268],[2.4777,12.2576],[2.4726,12.2593],[2.467,12.265],[2.4595,12.2667],[2.4544,12.263],[2.4437,12.2492],[2.4309,12.248],[2.4079,12.2489],[2.3942,12.2472],[2.37,12.2363],[2.3612,12.2189],[2.3621,12.1962],[2.3719,12.1404],[2.4056,12.0467],[2.4112,12.0368],[2.4183,12.0287],[2.4286,12.0204],[2.4393,12.0156],[2.4488,12.0134],[2.4553,12.0087],[2.4573,11.9962],[2.4567,11.9791],[2.4494,11.9775],[2.439,11.9813],[2.4289,11.9804],[2.422,11.9732],[2.4141,11.9587],[2.4074,11.9512],[2.3987,11.9488],[2.3893,11.9501],[2.3809,11.9479],[2.3752,11.935],[2.3765,11.9241],[2.3882,11.9068],[2.3902,11.8965],[2.3381,11.9401],[2.0709,12.3069],[2.0518,12.3419],[2.0542,12.3709],[2.0693,12.3833],[2.1269,12.3951],[2.1315,12.3985],[2.1387,12.4083],[2.145,12.4117],[2.1588,12.4057],[2.1638,12.4048],[2.2233,12.4097],[2.2379,12.4135],[2.245,12.4242],[2.2431,12.4512],[2.2463,12.4617],[2.2463,12.4659],[2.2423,12.4735],[2.2296,12.4871],[2.2239,12.4948],[2.2157,12.5103],[2.2109,12.5231],[2.2032,12.5833],[2.2,12.5959],[2.1933,12.6095],[2.1843,12.6206],[2.166,12.6317],[2.1555,12.64],[2.1448,12.6508],[2.141,12.6561],[2.1352,12.6756],[2.109,12.7056],[2.0689,12.7163],[1.9717,12.7242],[1.9625,12.7191],[1.9455,12.7008],[1.9345,12.6935],[1.9266,12.695],[1.9196,12.6983],[1.9114,12.6966],[1.907,12.6918],[1.9002,12.6785],[1.8832,12.654],[1.8727,12.6342],[1.8607,12.6171],[1.8437,12.6061],[1.8261,12.6042],[1.597,12.6237],[1.5639,12.6321],[1.5359,12.6475],[1.114,12.9962],[1.0838,13.011],[1.0123,13.0169],[0.9835,13.0324],[0.9746,13.0483],[0.9718,13.0673],[0.9704,13.3283],[0.9835,13.3684],[1.0047,13.3648],[1.0847,13.3336],[1.1385,13.3204],[1.1607,13.3113],[1.1676,13.3134],[1.1776,13.3476],[1.1824,13.3587],[1.1877,13.3641],[1.2057,13.3589],[1.2221,13.3446],[1.2415,13.3355],[1.2687,13.3461],[1.2496,13.3671],[1.2343,13.3776],[1.2174,13.3818],[1.175,13.3869],[1.1572,13.3926],[1.0482,13.4419],[1.0153,13.4657],[0.9966,13.4961],[0.9914,13.5411],[0.951,13.5832],[0.8969,13.6149],[0.8507,13.6286],[0.8131,13.625],[0.7953,13.626],[0.7757,13.6353],[0.7637,13.6464],[0.7629,13.653],[0.7663,13.6572],[0.767,13.6609],[0.7662,13.667],[0.7664,13.6751],[0.7635,13.682],[0.7534,13.6841],[0.6207,13.68],[0.5943,13.6889],[0.5805,13.7138],[0.5848,13.729],[0.5945,13.7499],[0.6005,13.7687],[0.5937,13.7781],[0.5745,13.785],[0.5632,13.7968],[0.553,13.81],[0.5193,13.8316],[0.5041,13.8454],[0.492,13.8618],[0.4835,13.8803],[0.4757,13.8889],[0.4548,13.9024],[0.4486,13.9096],[0.4481,13.9201],[0.4563,13.9381],[0.4567,13.9468],[0.4459,13.9586],[0.4284,13.9675],[0.4119,13.9784],[0.4039,13.9961],[0.4019,14.0138],[0.3914,14.0226],[0.3784,14.0288],[0.3692,14.0391],[0.3691,14.0479],[0.3773,14.0639],[0.3785,14.0704],[0.3742,14.0789],[0.3625,14.0889],[0.3563,14.0957],[0.3436,14.1143],[0.3392,14.1258],[0.3435,14.1375],[0.3674,14.1738],[0.3722,14.1856],[0.3774,14.2166],[0.3811,14.2257],[0.3906,14.2376],[0.3916,14.2459],[0.3888,14.2516],[0.3464,14.3076],[0.1887,14.4477],[0.1588,14.4961],[0.1529,14.5467],[0.2197,14.7312],[0.2131,14.7616],[0.1841,14.8196],[0.1858,14.8482],[0.198,14.8638],[0.2119,14.8748],[0.2208,14.8882],[0.2128,14.9607],[0.2132,14.9854],[0.2213,14.9959],[0.3532,14.9634],[0.387,14.9632],[0.4188,14.9699],[0.4835,14.9921],[0.5148,14.9936],[0.6701,14.9397],[0.6838,14.9409],[0.7114,14.9475],[0.7692,14.9691],[0.9221,14.974],[0.9493,14.9796],[0.9737,14.9913],[1.2709,15.2599],[1.2978,15.2757],[1.3315,15.2836],[3.0002,15.3391],[3.0057,15.3523],[3.0058,15.3893],[3.0078,15.4077],[3.0103,15.4177],[3.0175,15.4228],[3.0335,15.4265],[3.073,15.4272],[3.4833,15.3593],[3.4888,15.3575],[3.5071,15.354],[3.5165,15.4692],[3.5265,15.496],[3.6141,15.5477],[3.6922,15.6314],[3.7289,15.6509],[3.8084,15.6656],[3.8461,15.6853],[3.8712,15.7148],[3.8865,15.7501],[3.8945,15.7887],[3.9035,15.8863],[3.9099,15.9048],[3.9251,15.9276],[3.9832,15.984],[3.9848,15.9898],[3.9845,15.9988],[3.9708,16.0309],[3.9669,16.0585],[3.9712,16.0861],[4.0606,16.2983],[4.0756,16.3211],[4.0948,16.3408],[4.1182,16.3583],[4.1617,16.38],[4.1759,16.3926],[4.184,16.4161],[4.182,16.8096],[4.1846,16.8185],[4.1976,16.8385],[4.202,16.8489],[4.1966,16.9471],[4.1978,16.9652],[4.2037,16.9828],[4.2117,16.986],[4.2223,16.9866],[4.2356,16.9959],[4.2286,19.1422],[5.7493,19.4337],[5.7943,19.4498],[5.8376,19.4786],[7.0205,20.4954],[7.4827,20.8726],[11.9689,23.5174],[13.4823,23.1797],[13.5996,23.119],[14.2016,22.6232],[14.2162,22.6163],[14.2317,22.6179],[14.9799,22.9957],[15.172,21.9934],[15.1804,21.5073],[15.1845,21.4912],[15.2002,21.4765],[15.2475,21.4533],[15.2666,21.4407],[15.301,21.4013],[15.6093,20.9507],[15.569,20.9289],[15.5443,20.8903],[15.536,20.8441],[15.5442,20.799],[15.5561,20.7737],[15.5702,20.7519],[15.5881,20.7328],[15.6695,20.6719],[15.954,20.3746],[15.9682,20.3528],[15.9703,20.3363],[15.963,20.3192],[15.7672,19.982],[15.736,19.9035],[15.472,16.9167],[15.4655,16.8947],[15.4524,16.8762],[14.369,15.7496],[13.8339,15.0196],[13.7605,14.8664],[13.7552,14.8472],[13.7539,14.8259],[13.7579,14.8055],[13.772,14.7629],[13.7732,14.7425],[13.7644,14.7191],[13.7492,14.7112],[13.73,14.7096],[13.71,14.7051],[13.7,14.6977],[13.6681,14.6629],[13.6483,14.6494],[13.6447,14.6442],[13.6463,14.6391],[13.657,14.6297],[13.6603,14.6237],[13.6667,14.5855],[13.6656,14.5669],[13.6579,14.5487],[13.6243,14.5213],[13.5844,14.5138],[13.5439,14.5106],[13.5078,14.496],[13.4823,14.4836],[13.4495,14.439],[13.4492,14.3801],[13.4823,14.2598],[13.6073,13.7041],[13.36,13.7144],[13.3299,13.7094],[13.3207,13.7023],[13.3212,13.6851],[13.306,13.6746],[13.2661,13.638],[13.2592,13.629],[13.2538,13.6189],[13.2535,13.6149],[13.2586,13.6078],[13.26,13.6021],[13.2573,13.5942],[13.2508,13.5928],[13.2438,13.5933],[13.2395,13.5916],[13.2302,13.5778],[13.2322,13.5729],[13.2464,13.5711],[13.2281,13.548],[13.2039,13.5394],[13.177,13.5345],[13.1502,13.5227],[13.1537,13.5307],[13.1559,13.5408],[13.1537,13.5488],[13.144,13.5506],[13.1384,13.5465],[13.131,13.5298],[13.1235,13.5227],[13.1235,13.537],[13.1071,13.5316],[13.0883,13.5306],[13.077,13.5347],[13.0825,13.5444],[13.0825,13.5506],[13.0549,13.5484],[13.0293,13.5392],[12.9393,13.4951],[12.9117,13.4899],[12.8838,13.496],[12.8797,13.4797],[12.8706,13.4789],[12.8578,13.4849],[12.8423,13.4891],[12.8423,13.4817],[12.8506,13.4794],[12.8576,13.4753],[12.8639,13.4693],[12.8702,13.4612],[12.8571,13.4507],[12.8293,13.4203],[12.8285,13.4175],[12.83,13.4094],[12.8293,13.4066],[12.8263,13.4061],[12.8176,13.4073],[12.815,13.4066],[12.8107,13.4043],[12.7973,13.3996],[12.7945,13.3961],[12.7985,13.3843],[12.8048,13.3769],[12.8052,13.373],[12.7911,13.3718],[12.7833,13.3823],[12.7774,13.3867],[12.7746,13.3827],[12.7733,13.3822],[12.7665,13.3657],[12.7408,13.3348],[12.7244,13.3223],[12.7017,13.3172],[12.6901,13.312],[12.6831,13.2889],[12.6743,13.2837],[12.6592,13.2866],[12.6492,13.2936],[12.6407,13.3024],[12.63,13.3104],[12.6288,13.2942],[12.6268,13.2883],[12.6202,13.2814],[12.6133,13.2765],[12.6061,13.2742],[12.6027,13.28],[12.5976,13.2765],[12.5611,13.2428],[12.5582,13.2265],[12.5452,13.2082],[12.5383,13.1934],[12.5543,13.1875],[12.5479,13.1655],[12.5426,13.1548],[12.5345,13.1459],[12.527,13.1436],[12.5043,13.1396],[12.4998,13.136],[12.4912,13.0826],[12.4867,13.0708],[12.4727,13.0642],[12.4564,13.0674],[12.4373,13.074],[12.4143,13.0776],[12.3516,13.0798],[12.3352,13.0845],[12.3257,13.0788],[12.3184,13.0839],[12.311,13.0926],[12.301,13.0981],[12.2915,13.0968],[12.2853,13.092],[12.2809,13.0869],[12.2772,13.0845],[12.2692,13.0859],[12.2674,13.0896],[12.267,13.0952],[12.2632,13.1019],[12.2518,13.108],[12.2014,13.1254],[12.1848,13.1221],[12.1638,13.108],[12.1496,13.1056],[12.1164,13.1028],[12.0576,13.1168],[12.038,13.1264],[11.9919,13.1621],[11.8528,13.2454],[11.7423,13.2894],[11.44,13.3644],[10.953,13.3619],[10.7713,13.3827],[10.675,13.3751],[10.1615,13.2672],[10.1198,13.2501],[9.9301,13.146],[9.9124,13.1292],[9.9082,13.1188],[9.9044,13.0943],[9.8997,13.0843],[9.8918,13.0762],[9.8877,13.0755],[9.8827,13.0762],[9.872,13.0726],[9.8528,13.0604],[9.8193,13.0292],[9.6407,12.8225],[9.6293,12.8128],[9.6184,12.8058],[9.6115,12.8029],[9.5903,12.8014],[9.3779,12.8258],[9.3598,12.8246],[9.3065,12.8098],[9.2694,12.8098],[8.9428,12.8472],[8.6793,12.9236],[8.6427,12.9444],[8.6255,12.9648],[8.5968,13.0114],[8.5772,13.0324],[8.5335,13.0646],[8.5096,13.0759],[8.4827,13.0816],[8.4708,13.0817],[8.446,13.0787],[8.4345,13.0751],[8.419,13.0667],[8.4152,13.0671],[8.4052,13.0709],[8.3978,13.0754],[8.298,13.1646],[8.2731,13.1939],[8.2598,13.2052],[8.2457,13.2118],[8.216,13.2196],[8.2014,13.2264],[8.1676,13.2524],[8.1401,13.2691],[8.1166,13.2911],[8.1051,13.2997],[8.0775,13.31],[7.824,13.3453],[7.7897,13.342],[7.7556,13.3271],[7.392,13.1125],[7.3607,13.1026],[7.3248,13.1028],[7.2205,13.1216],[7.1982,13.1174],[7.1374,13.0472],[7.0901,13.0064],[7.0687,12.9961],[7.0449,12.9922],[6.9705,12.9918],[6.9371,12.9954],[6.9066,13.0069],[6.8742,13.0305],[6.8379,13.0635],[6.7787,13.1303],[6.6725,13.3212],[6.5093,13.4961],[6.3689,13.6263],[6.3022,13.6638],[6.2298,13.6792],[6.2106,13.6753],[6.1528,13.6436],[6.1424,13.6408],[6.1358,13.6437],[6.1295,13.6491],[6.1204,13.6541],[5.5543,13.8734],[5.5218,13.8803],[5.3741,13.8553],[5.3463,13.8416],[5.3348,13.8267],[5.3181,13.7899],[5.3042,13.7739],[5.2735,13.7525],[5.262,13.7477],[5.2276,13.7413],[5.0844,13.7475],[4.9832,13.7297],[4.9251,13.7331],[4.9024,13.743],[4.8798,13.764],[4.8569,13.7741],[4.8249,13.7707],[4.5067,13.6947],[4.4526,13.6738],[4.4058,13.6412],[4.2485,13.4941],[4.2205,13.4806],[4.1905,13.475],[4.1258,13.473],[4.1237,13.2336],[4.0888,12.9962],[3.9291,12.7504],[3.8644,12.6897],[3.6457,12.5285],[3.6416,12.518],[3.6515,12.269],[3.6245,12.1377],[3.624,12.0943],[3.6489,12.021],[3.6536,11.9868],[3.6366,11.9536],[3.6196,11.9363],[3.6085,11.922],[3.6039,11.9056],[3.6097,11.8488],[3.6129,11.839],[3.6186,11.8284],[3.622,11.825],[3.6263,11.8225],[3.6497,11.7978],[3.662,11.7795],[3.667,11.7597],[3.6599,11.7381],[3.6478,11.726],[3.5964,11.6958]]]}}