{"type":"Feature","bbox":[80.0303,26.3438,88.1691,30.4169],"properties":{"iso":"NP","name":"Nepal","name_de":"Nepal","key":"NP"},"geometry":{"type":"Polygon","coordinates":[[[88.0957,27.8653],[88.143,27.8557],[88.1564,27.8513],[88.1646,27.8454],[88.1666,27.8336],[88.1546,27.8152],[88.1597,27.7741],[88.1493,27.7488],[88.1349,27.7232],[88.1109,27.6395],[88.0488,27.5453],[88.0233,27.4949],[88.0221,27.4842],[88.0233,27.4747],[88.0281,27.4551],[88.0308,27.4507],[88.0398,27.4424],[88.0416,27.4381],[88.0393,27.4295],[88.0296,27.4187],[88.0258,27.4121],[88.0172,27.3892],[88.0148,27.3781],[88.0158,27.3642],[88.0201,27.3534],[88.0325,27.3339],[88.0351,27.3226],[88.029,27.2981],[87.9893,27.2184],[87.9855,27.1484],[87.9708,27.1192],[87.9692,27.1108],[87.9707,27.1027],[87.9755,27.0951],[87.9913,27.0815],[88.0095,27.0456],[88.0274,27.0354],[88.0428,27.0289],[88.0559,27.018],[88.0769,26.9918],[88.0968,26.9593],[88.1118,26.9243],[88.1204,26.9089],[88.1428,26.8784],[88.1514,26.8628],[88.1553,26.8456],[88.159,26.8026],[88.1678,26.7629],[88.1691,26.744],[88.1675,26.725],[88.1634,26.7051],[88.1466,26.6612],[88.1017,26.5819],[88.0798,26.5176],[88.0791,26.5074],[88.0823,26.4949],[88.0742,26.4539],[88.0443,26.4057],[88.0066,26.3699],[87.9755,26.3666],[87.9612,26.379],[87.929,26.3964],[87.9148,26.4083],[87.9085,26.4178],[87.902,26.4353],[87.8973,26.4435],[87.8948,26.4429],[87.8707,26.4607],[87.8698,26.4646],[87.8521,26.4607],[87.8216,26.4375],[87.8044,26.4374],[87.7859,26.446],[87.769,26.4515],[87.7562,26.4469],[87.7495,26.4257],[87.7422,26.4105],[87.7275,26.4038],[87.7109,26.4057],[87.6976,26.4163],[87.6812,26.4242],[87.6596,26.4175],[87.624,26.3929],[87.587,26.378],[87.5521,26.3867],[87.4803,26.4234],[87.4496,26.4286],[87.4165,26.427],[87.3842,26.4186],[87.3564,26.4037],[87.3449,26.3893],[87.3262,26.3533],[87.314,26.3438],[87.3005,26.346],[87.2584,26.3629],[87.2453,26.3702],[87.2363,26.3833],[87.2294,26.3988],[87.2191,26.4081],[87.1885,26.3996],[87.135,26.3942],[87.1063,26.4047],[87.0833,26.4321],[87.0667,26.4656],[87.0565,26.4949],[87.045,26.5443],[87.0444,26.5612],[87.0413,26.5802],[87.0299,26.5798],[87.0154,26.569],[86.9852,26.5407],[86.9724,26.532],[86.9071,26.5115],[86.876,26.4949],[86.8657,26.4724],[86.8464,26.4526],[86.8219,26.4381],[86.7964,26.4315],[86.7872,26.4331],[86.7519,26.4455],[86.7382,26.4437],[86.7307,26.4338],[86.7241,26.422],[86.7136,26.4146],[86.6952,26.4182],[86.6253,26.4563],[86.5579,26.484],[86.5377,26.4949],[86.5243,26.5091],[86.5106,26.5201],[86.4949,26.5278],[86.4755,26.532],[86.4448,26.5431],[86.3836,26.5728],[86.3537,26.5826],[86.3448,26.5826],[86.3232,26.5801],[86.316,26.581],[86.309,26.588],[86.3086,26.6022],[86.3014,26.609],[86.2844,26.612],[86.2631,26.6091],[86.2252,26.5974],[86.2029,26.5846],[86.1959,26.5827],[86.1854,26.5844],[86.1793,26.5886],[86.1745,26.5933],[86.1678,26.5966],[86.1527,26.6007],[86.1448,26.6015],[86.1221,26.6003],[86.1159,26.6026],[86.1107,26.6067],[86.0417,26.6455],[86.0114,26.6544],[85.9757,26.6444],[85.9521,26.642],[85.9347,26.6329],[85.8664,26.5799],[85.8448,26.5685],[85.8285,26.5661],[85.8216,26.5717],[85.8198,26.5795],[85.8195,26.5883],[85.8176,26.5967],[85.8097,26.603],[85.8001,26.6007],[85.79,26.597],[85.781,26.5992],[85.727,26.6376],[85.7129,26.6532],[85.7022,26.6884],[85.7096,26.7625],[85.7018,26.7966],[85.6878,26.8119],[85.6094,26.851],[85.5986,26.8544],[85.5195,26.8264],[85.4396,26.7877],[85.4215,26.7827],[85.4032,26.7876],[85.3859,26.7884],[85.3692,26.775],[85.3532,26.7576],[85.337,26.7468],[85.3024,26.7373],[85.2873,26.737],[85.1949,26.7589],[85.1657,26.7863],[85.1655,26.8208],[85.162,26.851],[85.1228,26.8657],[85.1002,26.8635],[85.044,26.8437],[85.0186,26.8458],[85.0169,26.8592],[85.018,26.8744],[85.0008,26.8822],[84.9882,26.8838],[84.9758,26.8869],[84.9527,26.8976],[84.9443,26.9157],[84.9386,26.9366],[84.924,26.9557],[84.9016,26.9672],[84.8518,26.9821],[84.8281,26.9949],[84.8175,27.0106],[84.8019,27.0138],[84.7855,27.0085],[84.772,26.9992],[84.7607,26.999],[84.6402,27.0284],[84.6273,27.0365],[84.6215,27.058],[84.6304,27.0808],[84.6445,27.1037],[84.6544,27.1254],[84.6598,27.1651],[84.6577,27.2034],[84.6482,27.2407],[84.6319,27.277],[84.6065,27.3105],[84.577,27.329],[84.2894,27.3761],[84.2677,27.3886],[84.2489,27.4124],[84.239,27.4311],[84.2255,27.4404],[84.1953,27.4361],[84.1858,27.4386],[84.1751,27.463],[84.1657,27.4722],[84.1417,27.4808],[84.131,27.4864],[84.1216,27.495],[84.1172,27.5133],[84.0995,27.5169],[84.0796,27.5095],[84.0289,27.4537],[84.0077,27.4408],[83.9758,27.4397],[83.9359,27.4461],[83.923,27.45],[83.8999,27.4439],[83.8535,27.441],[83.8341,27.434],[83.8427,27.4181],[83.8712,27.3894],[83.8737,27.3801],[83.8777,27.3699],[83.8774,27.3617],[83.8675,27.3584],[83.8617,27.3545],[83.8546,27.3451],[83.848,27.351],[83.802,27.3659],[83.6634,27.4323],[83.5904,27.4566],[83.481,27.4697],[83.387,27.4705],[83.361,27.4622],[83.3559,27.4525],[83.3539,27.4403],[83.3558,27.4287],[83.371,27.4102],[83.3696,27.3982],[83.3627,27.3856],[83.3411,27.3569],[83.3243,27.3417],[83.3049,27.3319],[83.2824,27.3309],[83.2595,27.3381],[83.2494,27.3481],[83.2431,27.3622],[83.2316,27.3812],[83.2192,27.3938],[83.1696,27.4312],[83.1328,27.4442],[83.0105,27.4434],[82.9472,27.4573],[82.9013,27.4804],[82.8763,27.4875],[82.7521,27.495],[82.7297,27.5182],[82.7189,27.5561],[82.7092,27.6309],[82.6971,27.6694],[82.6797,27.6944],[82.6521,27.7041],[82.5262,27.6752],[82.4407,27.6664],[82.4019,27.6772],[82.3479,27.726],[82.2704,27.7605],[82.151,27.8483],[82.1074,27.8636],[82.0904,27.8723],[82.0717,27.89],[82.0516,27.9052],[82.0272,27.9124],[81.9759,27.917],[81.9464,27.9054],[81.9061,27.8631],[81.8832,27.8491],[81.8557,27.8509],[81.8279,27.8656],[81.8002,27.8841],[81.7501,27.9097],[81.7104,27.9475],[81.6889,27.9632],[81.6654,27.9708],[81.615,27.9812],[81.5951,27.9949],[81.5822,28.0133],[81.5619,28.026],[81.4735,28.0664],[81.4582,28.0773],[81.454,28.0866],[81.4529,28.097],[81.4482,28.1114],[81.4353,28.1298],[81.4173,28.147],[81.396,28.1606],[81.3732,28.1678],[81.3579,28.166],[81.3514,28.1568],[81.3473,28.1444],[81.3381,28.1327],[81.3237,28.1262],[81.3071,28.1238],[81.2962,28.1283],[81.2994,28.1425],[81.2831,28.1461],[81.2768,28.1538],[81.2808,28.162],[81.2959,28.1675],[81.2824,28.1916],[81.2243,28.2508],[81.2107,28.2786],[81.1904,28.3381],[81.1697,28.3613],[81.1463,28.3722],[81.0004,28.397],[80.9932,28.4078],[80.9913,28.4203],[80.9878,28.431],[80.976,28.4369],[80.9605,28.4323],[80.9412,28.4327],[80.9213,28.4362],[80.9053,28.4408],[80.8867,28.4528],[80.8819,28.4668],[80.8804,28.4819],[80.8723,28.4969],[80.858,28.5024],[80.817,28.5026],[80.7984,28.5057],[80.7817,28.5147],[80.7435,28.55],[80.7271,28.5597],[80.6958,28.5675],[80.6786,28.5747],[80.6682,28.5863],[80.6483,28.6198],[80.6356,28.6279],[80.5985,28.6338],[80.5814,28.639],[80.5636,28.647],[80.5569,28.655],[80.5574,28.6643],[80.559,28.673],[80.5558,28.6789],[80.5176,28.68],[80.4975,28.6701],[80.4876,28.6565],[80.4849,28.6393],[80.4934,28.5756],[80.4885,28.5624],[80.4688,28.5718],[80.4265,28.6168],[80.4084,28.6263],[80.3883,28.6272],[80.3691,28.6226],[80.3498,28.6202],[80.3297,28.6275],[80.3183,28.6401],[80.291,28.6897],[80.2834,28.6954],[80.2652,28.6993],[80.257,28.7027],[80.2494,28.7102],[80.239,28.7263],[80.2333,28.7327],[80.2164,28.7419],[80.1812,28.7473],[80.1621,28.7533],[80.1476,28.7633],[80.1142,28.8026],[80.0819,28.8194],[80.0548,28.8242],[80.0364,28.837],[80.0303,28.8777],[80.0311,28.8978],[80.0339,28.9159],[80.0405,28.9328],[80.0529,28.9491],[80.0684,28.9599],[80.0852,28.9675],[80.0994,28.9773],[80.1079,28.9946],[80.1047,29.0276],[80.1131,29.0722],[80.1326,29.1102],[80.1635,29.1234],[80.1806,29.1213],[80.2014,29.1212],[80.2207,29.1261],[80.2331,29.1393],[80.2305,29.1547],[80.2137,29.1966],[80.2188,29.2111],[80.2361,29.2131],[80.2487,29.2044],[80.2582,29.2025],[80.2787,29.2681],[80.2828,29.2913],[80.2801,29.3102],[80.2728,29.3157],[80.2636,29.3153],[80.255,29.3166],[80.2495,29.327],[80.2422,29.3674],[80.221,29.4001],[80.2137,29.4169],[80.2177,29.4346],[80.2283,29.4417],[80.2575,29.4501],[80.2635,29.4592],[80.2662,29.4721],[80.2731,29.4787],[80.2821,29.4843],[80.2912,29.4946],[80.3115,29.5081],[80.3201,29.5158],[80.3272,29.5248],[80.3276,29.5299],[80.3251,29.5355],[80.3236,29.5417],[80.3272,29.5486],[80.3327,29.5525],[80.3451,29.5584],[80.3508,29.5621],[80.3733,29.5842],[80.3852,29.6048],[80.3868,29.6268],[80.3776,29.6529],[80.3639,29.6797],[80.3544,29.7049],[80.3543,29.7303],[80.369,29.7579],[80.3952,29.7766],[80.4549,29.7906],[80.4762,29.8061],[80.5273,29.8624],[80.5495,29.8937],[80.5629,29.9297],[80.5713,29.9469],[80.5862,29.9541],[80.6223,29.9582],[80.6414,29.9634],[80.6541,29.9706],[80.6802,29.9921],[80.7158,30.0133],[80.7257,30.0228],[80.7557,30.0646],[80.7697,30.0773],[80.8298,30.1171],[80.8497,30.1434],[80.8364,30.17],[80.8504,30.1819],[80.8679,30.2002],[80.8839,30.2104],[80.8936,30.1981],[80.9033,30.1804],[80.9208,30.1767],[80.9882,30.1966],[80.996,30.197],[81.0065,30.1889],[81.0194,30.1723],[81.0309,30.1527],[81.0437,30.1202],[81.0666,30.0872],[81.0742,30.0719],[81.0848,30.0262],[81.0978,30.0169],[81.1246,30.0228],[81.1481,30.0232],[81.1945,30.0045],[81.2168,30.0082],[81.2273,30.0225],[81.2257,30.0505],[81.2395,30.0588],[81.2571,30.0635],[81.2668,30.0699],[81.272,30.0799],[81.2759,30.0954],[81.2745,30.1022],[81.2663,30.1177],[81.267,30.1251],[81.2777,30.1319],[81.2933,30.1328],[81.3095,30.1321],[81.3224,30.1338],[81.3383,30.1435],[81.3501,30.1572],[81.3573,30.1736],[81.3618,30.2048],[81.3744,30.2231],[81.3779,30.2326],[81.3769,30.2412],[81.3705,30.2573],[81.369,30.2661],[81.368,30.301],[81.3715,30.3169],[81.3821,30.3313],[81.3873,30.3451],[81.3849,30.3609],[81.3875,30.3739],[81.4074,30.3792],[81.4261,30.3725],[81.4628,30.3414],[81.4831,30.3319],[81.5094,30.3284],[81.5207,30.3319],[81.532,30.3703],[81.5368,30.3786],[81.5443,30.3826],[81.5633,30.3856],[81.5767,30.391],[81.582,30.3994],[81.5851,30.4081],[81.5916,30.4143],[81.614,30.4169],[81.6357,30.411],[81.7574,30.3629],[81.779,30.358],[81.8015,30.3613],[81.8228,30.3682],[81.8444,30.3712],[81.8872,30.355],[81.9215,30.3574],[81.9412,30.354],[81.9501,30.3484],[81.9621,30.3337],[81.969,30.3283],[81.9789,30.3268],[81.9885,30.3298],[81.9982,30.3341],[82.0076,30.3368],[82.0499,30.3392],[82.0732,30.3372],[82.0888,30.3301],[82.0932,30.3147],[82.0821,30.2573],[82.085,30.2308],[82.0959,30.2135],[82.1142,30.2022],[82.1404,30.194],[82.1557,30.1814],[82.151,30.1622],[82.1276,30.1244],[82.1287,30.1108],[82.1352,30.0897],[82.1445,30.0694],[82.1538,30.0582],[82.1742,30.0555],[82.1922,30.0615],[82.2107,30.0644],[82.2557,30.0397],[82.276,30.0369],[82.2965,30.0368],[82.3189,30.0318],[82.3272,30.0257],[82.3391,30.0092],[82.3473,30.0034],[82.3637,30.0012],[82.3791,30.0032],[82.3944,30.0031],[82.4098,29.9946],[82.4229,29.9797],[82.4389,29.9658],[82.4571,29.9541],[82.4758,29.9455],[82.5242,29.9324],[82.5418,29.9232],[82.6185,29.8398],[82.6359,29.829],[82.6464,29.8293],[82.667,29.835],[82.6773,29.8344],[82.689,29.8277],[82.6892,29.8196],[82.6846,29.8097],[82.6818,29.7977],[82.691,29.7807],[82.7515,29.7393],[82.7701,29.7142],[82.7811,29.7051],[82.7931,29.6995],[82.8052,29.696],[82.8155,29.6901],[82.8224,29.678],[82.8366,29.6598],[82.8575,29.6662],[82.8801,29.6811],[82.8997,29.6884],[82.9091,29.6846],[82.9237,29.6697],[82.9319,29.6642],[82.9421,29.6629],[82.9643,29.6659],[82.9759,29.664],[83.0329,29.6205],[83.0409,29.6103],[83.0545,29.5861],[83.0649,29.5788],[83.0796,29.5796],[83.0856,29.5904],[83.0884,29.6044],[83.0934,29.6151],[83.1003,29.6177],[83.1267,29.6234],[83.15,29.6256],[83.1621,29.6252],[83.1736,29.6213],[83.1873,29.6121],[83.1909,29.6069],[83.1945,29.5936],[83.1972,29.5891],[83.2049,29.5849],[83.2219,29.5798],[83.2293,29.5759],[83.2526,29.5552],[83.2608,29.542],[83.2633,29.5271],[83.2599,29.5188],[83.254,29.5133],[83.2487,29.5066],[83.2472,29.4947],[83.2639,29.473],[83.328,29.485],[83.3552,29.4607],[83.3578,29.4428],[83.3552,29.428],[83.357,29.4154],[83.3872,29.3935],[83.3894,29.3824],[83.3883,29.3702],[83.3931,29.3562],[83.405,29.3465],[83.4178,29.3409],[83.4282,29.3335],[83.4372,29.3052],[83.4482,29.2968],[83.4758,29.2869],[83.4934,29.2761],[83.503,29.261],[83.5125,29.2235],[83.5146,29.2018],[83.5171,29.1917],[83.5237,29.1836],[83.536,29.1792],[83.5614,29.1762],[83.572,29.1684],[83.5838,29.1621],[83.6244,29.1555],[83.6393,29.1548],[83.656,29.1608],[83.6634,29.1748],[83.6677,29.1923],[83.6751,29.2088],[83.6955,29.2262],[83.7197,29.2336],[83.7454,29.2345],[83.7706,29.2322],[83.7932,29.2348],[83.8379,29.254],[83.8616,29.2602],[83.8689,29.2634],[83.8774,29.2768],[83.8834,29.282],[83.9144,29.2894],[83.9331,29.2918],[83.9456,29.2918],[83.958,29.289],[83.9673,29.2847],[83.9733,29.277],[83.9758,29.2637],[83.9882,29.2695],[84.0009,29.2725],[84.0125,29.2702],[84.0215,29.2598],[84.0352,29.2476],[84.053,29.2504],[84.0721,29.257],[84.0897,29.2566],[84.0991,29.247],[84.1053,29.2199],[84.1124,29.2091],[84.126,29.2063],[84.142,29.2083],[84.1555,29.2066],[84.1617,29.1925],[84.1552,29.1759],[84.1417,29.1603],[84.1323,29.1438],[84.138,29.1247],[84.1601,29.1055],[84.1662,29.0985],[84.1697,29.0889],[84.1755,29.0574],[84.1982,29.0453],[84.2206,29.0389],[84.2314,29.026],[84.2067,28.9407],[84.2351,28.9],[84.286,28.8737],[84.354,28.8613],[84.3663,28.8567],[84.3766,28.8488],[84.3931,28.8243],[84.4143,28.8083],[84.4227,28.7992],[84.4378,28.7533],[84.4508,28.7339],[84.4758,28.7273],[84.4986,28.7279],[84.5156,28.7214],[84.532,28.7127],[84.5518,28.7064],[84.6072,28.6982],[84.6162,28.6937],[84.6258,28.6761],[84.6326,28.6688],[84.6523,28.6624],[84.6711,28.6589],[84.683,28.6508],[84.6778,28.6044],[84.6908,28.5961],[84.7366,28.5942],[84.7556,28.5854],[84.7818,28.5589],[84.7991,28.5466],[84.812,28.542],[84.8239,28.5405],[84.8793,28.5436],[84.8914,28.5418],[84.9079,28.537],[84.9187,28.5357],[84.9285,28.5385],[84.9364,28.5448],[84.949,28.5683],[84.9549,28.5743],[84.9848,28.5886],[84.9941,28.5908],[85.0025,28.5944],[85.0092,28.6025],[85.0188,28.6199],[85.0253,28.6284],[85.0321,28.6341],[85.0549,28.6387],[85.075,28.6317],[85.1119,28.6088],[85.161,28.595],[85.168,28.5832],[85.157,28.5331],[85.1537,28.5249],[85.1476,28.5158],[85.1404,28.5109],[85.1232,28.5046],[85.1172,28.4973],[85.1157,28.4915],[85.1156,28.4727],[85.1095,28.4593],[85.0837,28.4455],[85.0776,28.4357],[85.0857,28.381],[85.0857,28.3615],[85.0802,28.3188],[85.0874,28.3041],[85.1094,28.2923],[85.1342,28.292],[85.1546,28.3009],[85.1736,28.3043],[85.2057,28.2783],[85.2239,28.2717],[85.2434,28.2679],[85.2596,28.2669],[85.2731,28.2698],[85.301,28.2811],[85.3126,28.2828],[85.3257,28.2774],[85.3348,28.2687],[85.3454,28.2612],[85.3626,28.2597],[85.3778,28.266],[85.4014,28.2888],[85.4152,28.2964],[85.4316,28.2971],[85.4467,28.2921],[85.4757,28.2791],[85.4976,28.2826],[85.5207,28.2829],[85.5437,28.2804],[85.5653,28.2754],[85.5855,28.2632],[85.5989,28.2508],[85.6118,28.2511],[85.6391,28.2879],[85.6469,28.2937],[85.6681,28.3005],[85.6751,28.3064],[85.6762,28.3151],[85.676,28.3247],[85.6791,28.3329],[85.6929,28.3352],[85.698,28.3134],[85.6998,28.2691],[85.7156,28.2434],[85.7345,28.2215],[85.7566,28.2032],[85.7828,28.1881],[85.8269,28.1705],[85.8483,28.1589],[85.8634,28.1433],[85.867,28.1329],[85.8717,28.1109],[85.8891,28.0903],[85.8911,28.0809],[85.8898,28.0713],[85.8904,28.0592],[85.8983,28.036],[85.9089,28.0224],[85.944,27.9947],[85.9566,27.9762],[85.9563,27.9569],[85.9518,27.9368],[85.9512,27.9162],[85.9627,27.8914],[85.9803,27.8852],[86.0265,27.8899],[86.0514,27.8876],[86.0617,27.889],[86.0757,27.8948],[86.1072,27.9228],[86.1129,27.9268],[86.1122,27.9373],[86.1072,27.9442],[86.1006,27.9502],[86.0956,27.9579],[86.0951,27.9689],[86.098,27.9775],[86.0981,27.9856],[86.0894,27.9949],[86.0792,28.0011],[86.0776,28.0069],[86.0795,28.0133],[86.0795,28.0217],[86.0847,28.0439],[86.0815,28.0517],[86.0702,28.0667],[86.0687,28.0768],[86.156,28.1565],[86.176,28.153],[86.186,28.1335],[86.1872,28.1087],[86.1808,28.0888],[86.1722,28.0718],[86.1745,28.0624],[86.1818,28.0549],[86.1891,28.0436],[86.196,28.0146],[86.203,28.0026],[86.2184,27.9947],[86.2385,27.9896],[86.259,27.9876],[86.2781,27.9837],[86.2947,27.9724],[86.3182,27.9458],[86.3277,27.9397],[86.3376,27.938],[86.3537,27.9448],[86.363,27.9461],[86.372,27.942],[86.4057,27.917],[86.4253,27.9099],[86.4388,27.9109],[86.4969,27.9379],[86.5105,27.9524],[86.5168,27.9714],[86.5162,28.0122],[86.5223,28.0237],[86.5309,28.0337],[86.5384,28.0472],[86.5407,28.0622],[86.5413,28.0782],[86.5442,28.093],[86.5536,28.1042],[86.5695,28.1066],[86.5831,28.098],[86.5969,28.0865],[86.6123,28.0803],[86.6271,28.0835],[86.6495,28.1012],[86.662,28.1068],[86.6801,28.1057],[86.6996,28.0988],[86.7177,28.0883],[86.7317,28.0769],[86.736,28.0649],[86.7322,28.035],[86.7398,28.0215],[86.77,28.0121],[86.8405,28.0148],[86.8682,27.9949],[86.8769,27.9706],[86.8931,27.9542],[86.9147,27.9451],[86.9404,27.9431],[86.9702,27.9474],[86.9887,27.9525],[87.0057,27.9515],[87.0305,27.9381],[87.062,27.9084],[87.1165,27.8446],[87.1558,27.8258],[87.182,27.8245],[87.2329,27.8297],[87.2905,27.8161],[87.3139,27.8286],[87.3358,27.8464],[87.3638,27.8553],[87.3853,27.8494],[87.3807,27.8358],[87.3691,27.8191],[87.3691,27.8039],[87.3868,27.8044],[87.4756,27.8267],[87.5145,27.8352],[87.5316,27.8368],[87.5513,27.8319],[87.556,27.8271],[87.5598,27.8191],[87.5651,27.8109],[87.5733,27.805],[87.59,27.8046],[87.6211,27.8195],[87.6361,27.8237],[87.66,27.8199],[87.7005,27.8056],[87.7268,27.8078],[87.7564,27.8204],[87.7798,27.8394],[87.7987,27.8635],[87.8142,27.891],[87.8259,27.9066],[87.8367,27.9083],[87.8561,27.8986],[87.9346,27.8953],[87.9452,27.8923],[87.9664,27.8827],[87.9784,27.8805],[87.9918,27.8826],[88.0181,27.8921],[88.03,27.8933],[88.0528,27.8865],[88.0957,27.8653]]]}}