{"type":"Feature","bbox":[20.2428,43.6501,29.6996,48.2748],"properties":{"iso":"RO","name":"Romania","name_de":"Rumänien","key":"RO"},"geometry":{"type":"Polygon","coordinates":[[[22.8776,47.9467],[22.8979,47.951],[22.9158,47.9592],[22.9242,47.9727],[22.9157,47.993],[22.9241,48.0048],[22.9393,48.0057],[22.9571,48.0001],[22.9882,47.9864],[23.0044,47.9831],[23.0203,47.9847],[23.0631,48.0075],[23.0766,48.0245],[23.099,48.0712],[23.1186,48.0915],[23.1391,48.0981],[23.1617,48.0959],[23.2314,48.0797],[23.2486,48.0712],[23.2898,48.0382],[23.3375,48.0109],[23.3601,47.9931],[23.3673,47.9912],[23.3747,47.9906],[23.3822,47.9911],[23.3916,47.9935],[23.3945,47.9935],[23.4608,47.9713],[23.4816,47.9722],[23.4885,47.9759],[23.4943,47.9805],[23.4994,47.9862],[23.5037,47.9929],[23.5145,47.999],[23.5256,48.0012],[23.5632,48.0058],[23.5817,48.0016],[23.6461,47.9966],[23.6873,47.9873],[23.7105,47.9851],[23.7801,47.9875],[23.7965,47.982],[23.8484,47.9497],[23.8552,47.9342],[23.8766,47.9344],[23.9773,47.9623],[24.0088,47.9612],[24.0252,47.9532],[24.0749,47.9442],[24.0948,47.9379],[24.1312,47.9145],[24.1487,47.9121],[24.1502,47.9129],[24.2093,47.8976],[24.231,47.897],[24.2979,47.9198],[24.3472,47.9209],[24.3862,47.9437],[24.4092,47.9521],[24.4285,47.9525],[24.4856,47.9432],[24.5421,47.9438],[24.5616,47.9405],[24.6085,47.9219],[24.6337,47.9083],[24.6493,47.8952],[24.656,47.8793],[24.6569,47.8662],[24.6615,47.8539],[24.6791,47.8401],[24.7128,47.8259],[24.7937,47.8045],[24.8082,47.7957],[24.8207,47.7841],[24.8544,47.7431],[24.8778,47.7187],[24.8966,47.7101],[25.0174,47.7246],[25.0799,47.7429],[25.1219,47.7703],[25.219,47.8785],[25.2617,47.8986],[25.7525,47.9346],[25.8184,47.9526],[25.871,47.957],[25.9012,47.966],[25.9181,47.9682],[25.9657,47.9649],[26.0293,47.9778],[26.1257,47.9784],[26.1731,47.9931],[26.1827,48.0033],[26.2048,48.0374],[26.2171,48.048],[26.2432,48.0629],[26.2553,48.0723],[26.2707,48.0936],[26.287,48.1247],[26.2975,48.1563],[26.2962,48.179],[26.3035,48.212],[26.3118,48.2097],[26.3303,48.2085],[26.3473,48.2121],[26.3805,48.2232],[26.3974,48.2262],[26.4447,48.2277],[26.5874,48.2494],[26.6657,48.2742],[26.6885,48.2748],[26.7115,48.2613],[26.7224,48.2598],[26.7331,48.2707],[26.744,48.2556],[26.7637,48.2527],[26.8049,48.2583],[26.8219,48.2525],[26.8447,48.2333],[26.8555,48.2378],[26.8977,48.209],[26.904,48.2015],[26.908,48.1845],[26.9177,48.188],[26.9291,48.199],[26.9381,48.2048],[26.9506,48.1975],[26.9556,48.186],[26.9631,48.1754],[26.9976,48.1666],[26.9976,48.1579],[26.9862,48.1504],[26.9666,48.1496],[26.9666,48.1434],[26.994,48.1324],[27.0127,48.1281],[27.0251,48.135],[27.0337,48.1324],[27.0428,48.1273],[27.048,48.1222],[27.0474,48.1165],[27.0369,48.1073],[27.0343,48.1018],[27.0417,48.0773],[27.0592,48.0581],[27.0832,48.0437],[27.1093,48.0335],[27.1093,48.0261],[27.089,48.0198],[27.0915,48.0119],[27.0958,48.0056],[27.1215,48.0132],[27.1346,48.0005],[27.1437,47.9868],[27.1572,47.992],[27.1688,47.9831],[27.1698,47.9738],[27.1629,47.965],[27.151,47.9578],[27.172,47.9464],[27.1783,47.9441],[27.1783,47.9379],[27.1607,47.9217],[27.1715,47.9126],[27.1942,47.9041],[27.2124,47.8895],[27.2115,47.885],[27.2132,47.8541],[27.2124,47.8479],[27.2228,47.8427],[27.2349,47.8402],[27.2458,47.8366],[27.2534,47.8281],[27.2192,47.8138],[27.2311,47.8071],[27.2449,47.7926],[27.2562,47.7775],[27.2608,47.7691],[27.2647,47.7646],[27.2824,47.7557],[27.2875,47.7523],[27.2911,47.7424],[27.2896,47.7317],[27.2951,47.7244],[27.2951,47.7182],[27.272,47.715],[27.2811,47.693],[27.304,47.6665],[27.3692,47.6083],[27.3971,47.5891],[27.4284,47.581],[27.4358,47.5599],[27.4403,47.5501],[27.4401,47.541],[27.4421,47.5366],[27.4461,47.5349],[27.4595,47.5332],[27.4667,47.5064],[27.4731,47.4918],[27.4837,47.4854],[27.4926,47.4845],[27.5015,47.4799],[27.5072,47.478],[27.533,47.4774],[27.5345,47.478],[27.5482,47.4743],[27.5632,47.4683],[27.5759,47.4604],[27.583,47.4507],[27.5748,47.4463],[27.5694,47.4386],[27.5655,47.4283],[27.5625,47.4165],[27.5803,47.406],[27.5724,47.3752],[27.5864,47.3688],[27.5999,47.3607],[27.624,47.3214],[27.6369,47.3067],[27.6447,47.304],[27.6717,47.2999],[27.6978,47.2875],[27.7228,47.2833],[27.7333,47.2756],[27.7536,47.2514],[27.7524,47.2389],[27.763,47.2263],[27.7883,47.2043],[27.8003,47.177],[27.8021,47.1763],[27.8077,47.1625],[27.8059,47.1582],[27.7947,47.1558],[27.8066,47.1446],[27.8499,47.1285],[27.8499,47.1217],[27.8438,47.1144],[27.8482,47.1114],[27.8577,47.1093],[27.867,47.1046],[27.8976,47.0814],[27.9259,47.0688],[27.9384,47.0611],[27.9387,47.0466],[27.9631,47.0434],[27.9866,47.0332],[28.0083,47.0263],[28.028,47.033],[28.037,47.0165],[28.0691,46.9885],[28.0827,46.9715],[28.1023,46.9351],[28.1054,46.9177],[28.0969,46.9026],[28.1136,46.8948],[28.1143,46.8834],[28.1131,46.8714],[28.1243,46.8616],[28.1243,46.8542],[28.1215,46.8343],[28.1378,46.8062],[28.1782,46.7586],[28.1781,46.7398],[28.2341,46.6624],[28.2443,46.6354],[28.2474,46.6208],[28.2471,46.6072],[28.2405,46.5964],[28.2305,46.5839],[28.2254,46.5696],[28.2341,46.5531],[28.2248,46.5487],[28.2211,46.5412],[28.219,46.5037],[28.2211,46.4958],[28.2341,46.4781],[28.2381,46.4756],[28.2423,46.4765],[28.2458,46.4755],[28.2471,46.4672],[28.2472,46.4362],[28.2461,46.4279],[28.2402,46.4203],[28.2261,46.4154],[28.2333,46.4018],[28.2286,46.3961],[28.2195,46.3933],[28.2129,46.3887],[28.2071,46.3582],[28.2024,46.3539],[28.1904,46.3511],[28.1879,46.3438],[28.192,46.3235],[28.1929,46.3112],[28.1913,46.3078],[28.1778,46.287],[28.1658,46.2788],[28.1563,46.2754],[28.1449,46.2729],[28.1352,46.2693],[28.1311,46.2624],[28.1345,46.2453],[28.1321,46.2399],[28.1208,46.2379],[28.109,46.2341],[28.111,46.2256],[28.1415,46.192],[28.1447,46.1832],[28.1332,46.16],[28.1274,46.1353],[28.1008,46.082],[28.0928,46.0784],[28.0902,46.0734],[28.0905,46.068],[28.0966,46.065],[28.0969,46.0597],[28.0845,46.0246],[28.0827,46.0147],[28.0861,46.0006],[28.1105,45.9504],[28.1124,45.9392],[28.1149,45.9332],[28.1208,45.9263],[28.125,45.9184],[28.1228,45.9108],[28.1188,45.9031],[28.1174,45.8952],[28.1202,45.8878],[28.1311,45.8714],[28.1282,45.8664],[28.115,45.8597],[28.1105,45.8543],[28.1133,45.8254],[28.1289,45.795],[28.1465,45.7712],[28.155,45.7618],[28.1637,45.6615],[28.1618,45.6454],[28.168,45.6325],[28.1537,45.6275],[28.1208,45.6277],[28.1077,45.6244],[28.0912,45.616],[28.0748,45.6049],[28.0621,45.5936],[28.118,45.5727],[28.1409,45.5602],[28.1654,45.5283],[28.1659,45.4946],[28.1729,45.4844],[28.2129,45.4502],[28.2376,45.4521],[28.2669,45.4405],[28.2864,45.4217],[28.2812,45.4018],[28.3108,45.3478],[28.3302,45.3229],[28.3533,45.3124],[28.3702,45.3092],[28.4052,45.2951],[28.4942,45.2789],[28.577,45.2481],[28.7101,45.227],[28.7474,45.2305],[28.7787,45.2311],[28.7914,45.235],[28.8027,45.2442],[28.7743,45.2534],[28.7673,45.2578],[28.7626,45.2651],[28.7597,45.2742],[28.7615,45.2818],[28.7902,45.2921],[28.7886,45.3071],[28.7897,45.3214],[28.8163,45.3261],[28.8318,45.3223],[28.8581,45.3091],[28.8809,45.3062],[28.8936,45.2998],[28.91,45.2874],[28.9299,45.2791],[28.9528,45.2851],[28.9574,45.292],[28.9604,45.3113],[28.9665,45.3199],[28.9737,45.3237],[28.9824,45.3255],[29.0046,45.3261],[29.0182,45.3309],[29.0695,45.3608],[29.1103,45.3691],[29.1275,45.3745],[29.1419,45.3851],[29.1501,45.3879],[29.1743,45.389],[29.1794,45.3919],[29.1831,45.399],[29.1916,45.4062],[29.2067,45.4154],[29.2282,45.4237],[29.2446,45.4242],[29.2608,45.422],[29.2818,45.4223],[29.2905,45.4246],[29.2993,45.4289],[29.307,45.4341],[29.3128,45.4393],[29.3221,45.4438],[29.333,45.4421],[29.3439,45.4381],[29.3537,45.4359],[29.4306,45.4304],[29.5697,45.395],[29.6164,45.3653],[29.6281,45.3608],[29.6503,45.3461],[29.6671,45.3119],[29.6723,45.2729],[29.6593,45.2442],[29.665,45.2379],[29.6665,45.2306],[29.6642,45.2232],[29.659,45.2159],[29.6502,45.2172],[29.6239,45.2165],[29.6239,45.2103],[29.6388,45.1956],[29.6498,45.1778],[29.667,45.1642],[29.6996,45.1618],[29.6765,45.1446],[29.6644,45.1169],[29.6563,45.029],[29.6507,45.0121],[29.6375,44.9837],[29.6349,44.9695],[29.6336,44.9534],[29.6309,44.9387],[29.6239,44.9291],[29.6304,44.9077],[29.6052,44.88],[29.6178,44.8615],[29.6112,44.8493],[29.6032,44.8454],[29.5938,44.8443],[29.5835,44.8403],[29.5693,44.8249],[29.5618,44.8203],[29.542,44.8278],[29.5311,44.8262],[29.5205,44.8225],[29.511,44.8205],[29.3159,44.7988],[29.1921,44.7929],[29.1561,44.7844],[29.0558,44.7352],[29.0264,44.7147],[29.0007,44.6889],[28.9939,44.6964],[28.9949,44.7111],[28.9813,44.7294],[28.9749,44.7449],[28.9973,44.7516],[29.0215,44.7547],[29.0583,44.7683],[29.0982,44.7754],[29.1206,44.7866],[29.1387,44.804],[29.1447,44.8266],[29.1388,44.8392],[29.126,44.8525],[29.0964,44.8751],[29.1018,44.8591],[29.1034,44.8513],[29.1038,44.8403],[29.0879,44.8427],[29.0735,44.8354],[29.0603,44.8323],[29.0486,44.8472],[29.0441,44.8655],[29.0418,44.9257],[29.0521,44.9446],[29.0988,44.957],[29.1106,44.97],[29.1017,44.9803],[29.0583,45.001],[29.0452,45.0048],[29.0144,45.0048],[28.9832,45.0123],[28.9728,45.011],[28.9692,45.0058],[28.9661,44.9966],[28.9602,44.9877],[28.9492,44.9837],[28.927,44.9826],[28.9168,44.9797],[28.8801,44.9548],[28.8694,44.9433],[28.8635,44.9223],[28.8651,44.9166],[28.8744,44.9116],[28.8766,44.9049],[28.8747,44.8991],[28.8655,44.8947],[28.8635,44.8915],[28.8665,44.8826],[28.8735,44.875],[28.8815,44.8697],[28.9041,44.8627],[28.9524,44.8266],[28.9397,44.8169],[28.9341,44.8142],[28.925,44.8131],[28.9344,44.8075],[28.9387,44.8062],[28.9387,44.7988],[28.9263,44.793],[28.9255,44.7837],[28.933,44.7735],[28.9461,44.7652],[28.9364,44.76],[28.9238,44.7578],[28.8794,44.7566],[28.8688,44.7536],[28.8084,44.7269],[28.7983,44.7202],[28.7888,44.7062],[28.7871,44.6933],[28.7937,44.6879],[28.8084,44.6964],[28.8042,44.6842],[28.7854,44.6797],[28.781,44.6653],[28.784,44.6492],[28.7925,44.6447],[28.8456,44.6516],[28.8695,44.6618],[28.8914,44.6772],[28.912,44.6964],[28.8977,44.7168],[28.9675,44.701],[28.9834,44.6926],[28.9876,44.6753],[28.9793,44.6553],[28.9621,44.6394],[28.9387,44.6343],[28.9564,44.6511],[28.9727,44.6702],[28.9754,44.6868],[28.9524,44.6964],[28.9524,44.6889],[28.96,44.682],[28.9578,44.6788],[28.9387,44.6752],[28.9242,44.6821],[28.9182,44.6827],[28.9138,44.6799],[28.9046,44.6684],[28.8854,44.6581],[28.8542,44.6343],[28.7879,44.6096],[28.7742,44.6008],[28.7915,44.6238],[28.7947,44.6343],[28.7798,44.6358],[28.7669,44.6337],[28.7578,44.6268],[28.7537,44.6138],[28.7668,44.6138],[28.7606,44.6037],[28.7644,44.5959],[28.7744,44.5902],[28.7879,44.5865],[28.7481,44.5778],[28.7327,44.5679],[28.7327,44.5523],[28.7372,44.5571],[28.7439,44.562],[28.7469,44.566],[28.7611,44.5602],[28.7742,44.5523],[28.7656,44.5389],[28.7534,44.5135],[28.7456,44.4862],[28.7503,44.4667],[28.7585,44.4653],[28.7664,44.4726],[28.772,44.4837],[28.7783,44.5074],[28.7881,44.5154],[28.8084,44.5251],[28.8381,44.554],[28.8556,44.5677],[28.8735,44.5734],[28.8924,44.5771],[28.9063,44.5877],[28.9149,44.6014],[28.925,44.6206],[28.9185,44.601],[28.9097,44.5842],[28.844,44.4937],[28.7967,44.4679],[28.7066,44.381],[28.6963,44.3583],[28.6931,44.3461],[28.6802,44.3533],[28.6644,44.3484],[28.6512,44.34],[28.6409,44.3286],[28.6351,44.3164],[28.6323,44.3024],[28.631,44.2644],[28.6353,44.252],[28.6512,44.2308],[28.6652,44.1993],[28.6681,44.1843],[28.6649,44.1756],[28.6717,44.1687],[28.6584,44.1745],[28.6458,44.172],[28.6362,44.1643],[28.6309,44.1545],[28.6375,44.1359],[28.6541,44.0549],[28.6712,44.0033],[28.6717,43.9974],[28.6691,43.9892],[28.66,43.9798],[28.655,43.9614],[28.6409,43.9322],[28.6377,43.9186],[28.6138,43.8842],[28.6094,43.8745],[28.5935,43.8195],[28.5877,43.8102],[28.5845,43.8008],[28.5892,43.7913],[28.5848,43.7824],[28.5825,43.7724],[28.5819,43.7617],[28.583,43.751],[28.5784,43.7413],[28.4346,43.7352],[28.2213,43.762],[28.0148,43.83],[27.981,43.8493],[27.9358,43.9644],[27.9121,43.9933],[27.8565,43.9886],[27.7873,43.9604],[27.7217,43.9487],[27.6761,43.9935],[27.6563,44.0239],[27.6334,44.0298],[27.5745,44.0163],[27.3838,44.0151],[27.3729,44.0207],[27.3536,44.0453],[27.3417,44.0531],[27.2853,44.0725],[27.2643,44.0898],[27.269,44.1124],[27.2511,44.1224],[27.2267,44.1207],[27.2056,44.1292],[27.1002,44.1445],[27.0275,44.177],[27.0015,44.1651],[26.8841,44.1565],[26.7895,44.116],[26.7537,44.1081],[26.7087,44.1081],[26.6972,44.1061],[26.6773,44.0971],[26.6678,44.0951],[26.6478,44.0934],[26.6142,44.0849],[26.3105,44.0526],[26.2315,44.0275],[26.1507,44.0124],[26.1162,43.9989],[26.0793,43.969],[26.0616,43.9498],[26.0543,43.9343],[25.934,43.8703],[25.9245,43.8586],[25.9164,43.8444],[25.8693,43.8009],[25.8393,43.7884],[25.8063,43.7637],[25.8044,43.7599],[25.7811,43.732],[25.7396,43.7189],[25.6714,43.7174],[25.6535,43.7081],[25.6379,43.6973],[25.6165,43.6877],[25.5939,43.6807],[25.5751,43.6774],[25.5566,43.6704],[25.5338,43.6687],[25.4888,43.6705],[25.4674,43.6677],[25.4261,43.6544],[25.4031,43.6501],[25.3596,43.6543],[25.323,43.6697],[25.2887,43.689],[25.2523,43.7046],[25.2113,43.7119],[25.0816,43.7189],[24.9637,43.7496],[24.7526,43.7388],[24.7056,43.7438],[24.5001,43.7995],[24.4663,43.8024],[24.4312,43.7942],[24.3755,43.7639],[24.3582,43.76],[24.1594,43.7529],[23.7999,43.8185],[23.7429,43.8427],[23.7208,43.8458],[23.6361,43.8322],[23.5927,43.8374],[23.4847,43.8806],[23.3252,43.8866],[23.2345,43.8773],[23.197,43.8627],[23.1619,43.8573],[23.1318,43.8479],[22.9196,43.8342],[22.8888,43.8395],[22.8634,43.8554],[22.851,43.8744],[22.8505,43.897],[22.8747,43.972],[22.8859,43.9945],[22.9058,44.004],[22.9265,44.0062],[22.9663,44.0156],[22.9881,44.0177],[23.023,44.0316],[23.0401,44.0623],[23.031,44.0931],[22.9881,44.107],[22.9426,44.1115],[22.9064,44.1229],[22.6907,44.2289],[22.6854,44.2437],[22.6895,44.2917],[22.6815,44.3053],[22.6625,44.3117],[22.6212,44.3159],[22.5828,44.3284],[22.5494,44.349],[22.5227,44.3751],[22.5051,44.4041],[22.504,44.4117],[22.5064,44.4275],[22.5054,44.435],[22.501,44.4419],[22.48,44.4558],[22.477,44.464],[22.4772,44.477],[22.4798,44.4904],[22.4841,44.4998],[22.4911,44.5042],[22.5004,44.5064],[22.5355,44.5075],[22.5484,44.5117],[22.5567,44.5215],[22.5598,44.5388],[22.5656,44.5554],[22.5805,44.5655],[22.6003,44.5698],[22.6212,44.5692],[22.6422,44.5631],[22.6785,44.5456],[22.7001,44.5418],[22.7194,44.5444],[22.7417,44.5519],[22.7593,44.5647],[22.7652,44.5828],[22.7147,44.6231],[22.7001,44.6306],[22.6212,44.6374],[22.5875,44.6494],[22.5533,44.6692],[22.4837,44.724],[22.4689,44.7302],[22.4505,44.733],[22.4261,44.7337],[22.4155,44.7278],[22.3807,44.7005],[22.3611,44.6921],[22.3197,44.6853],[22.3049,44.6774],[22.299,44.6617],[22.1851,44.5151],[22.1721,44.5053],[22.1482,44.5009],[22.1266,44.5027],[22.1043,44.5096],[22.087,44.5218],[22.0763,44.5507],[22.0671,44.5572],[22.0557,44.5621],[22.0452,44.5692],[22.0398,44.5769],[22.0322,44.6033],[22.0043,44.6515],[21.9943,44.6586],[21.9624,44.6623],[21.872,44.696],[21.8554,44.6985],[21.8383,44.6952],[21.8017,44.6839],[21.7568,44.6773],[21.7052,44.6771],[21.6563,44.6877],[21.6197,44.7139],[21.6103,44.7319],[21.6043,44.75],[21.5956,44.766],[21.578,44.7777],[21.5584,44.7817],[21.4972,44.778],[21.4122,44.7848],[21.3959,44.7902],[21.3786,44.8166],[21.3606,44.8264],[21.3428,44.8319],[21.3464,44.8456],[21.3555,44.8566],[21.3685,44.8649],[21.3953,44.8716],[21.4534,44.8696],[21.4815,44.8726],[21.5221,44.8808],[21.5363,44.8893],[21.5391,44.9085],[21.531,44.9246],[21.5163,44.9339],[21.4815,44.9436],[21.4565,44.9523],[21.4084,44.9583],[21.3852,44.9695],[21.3846,44.9749],[21.387,44.9815],[21.3839,44.9867],[21.367,44.9873],[21.3535,44.9898],[21.3514,44.9982],[21.3561,45.0086],[21.3634,45.0165],[21.3733,45.0201],[21.3988,45.0214],[21.4093,45.024],[21.4219,45.0314],[21.4251,45.0362],[21.4256,45.0432],[21.4295,45.0573],[21.4325,45.0615],[21.441,45.0687],[21.4438,45.0729],[21.4444,45.0853],[21.4438,45.0915],[21.4424,45.0929],[21.45,45.101],[21.4586,45.1073],[21.469,45.111],[21.4815,45.1116],[21.4941,45.1193],[21.4978,45.1319],[21.4933,45.1451],[21.4594,45.174],[21.4338,45.1888],[21.4055,45.1997],[21.2993,45.2232],[21.2571,45.2241],[21.2393,45.2294],[21.2061,45.2459],[21.1897,45.2596],[21.1556,45.2952],[21.1394,45.3037],[21.1292,45.3019],[21.1131,45.2893],[21.1033,45.2861],[21.0916,45.2881],[21.0828,45.2937],[21.0743,45.3005],[21.064,45.3063],[20.9815,45.3328],[20.9662,45.3416],[20.9276,45.3775],[20.863,45.4187],[20.8304,45.4525],[20.816,45.4629],[20.7995,45.4685],[20.7816,45.4726],[20.7671,45.4793],[20.7607,45.4933],[20.7832,45.5061],[20.7976,45.5165],[20.8002,45.5305],[20.7874,45.5537],[20.758,45.5893],[20.7544,45.6056],[20.7622,45.6306],[20.7732,45.6489],[20.7773,45.6575],[20.78,45.6717],[20.7791,45.7237],[20.7816,45.734],[20.7855,45.7434],[20.7857,45.7526],[20.7775,45.7623],[20.7652,45.7668],[20.7541,45.7636],[20.7453,45.755],[20.7394,45.7434],[20.7268,45.7362],[20.7134,45.7333],[20.7001,45.7354],[20.6881,45.7431],[20.6786,45.7566],[20.6556,45.7773],[20.6459,45.7887],[20.6423,45.7983],[20.6401,45.8187],[20.6367,45.827],[20.6297,45.8333],[20.6123,45.8415],[20.6053,45.8461],[20.5721,45.8877],[20.5567,45.8984],[20.538,45.9037],[20.4999,45.9067],[20.4817,45.9127],[20.4291,45.9467],[20.4103,45.9556],[20.371,45.9678],[20.3539,45.9767],[20.3386,45.9928],[20.3177,46.0386],[20.3057,46.0536],[20.2428,46.1081],[20.2832,46.1438],[20.4442,46.1469],[20.4685,46.1741],[20.5094,46.1677],[20.549,46.1561],[20.5781,46.1375],[20.588,46.1328],[20.6001,46.1296],[20.6076,46.1295],[20.664,46.1378],[20.6835,46.1447],[20.6988,46.1565],[20.7042,46.1663],[20.7053,46.1806],[20.7103,46.1881],[20.7178,46.19],[20.7271,46.1877],[20.7366,46.1867],[20.7447,46.1923],[20.7448,46.2003],[20.7355,46.2225],[20.735,46.2319],[20.7393,46.2375],[20.7785,46.2601],[20.7987,46.2676],[20.8196,46.2717],[20.8397,46.2711],[20.849,46.2678],[20.867,46.2571],[20.8751,46.2544],[20.8851,46.255],[20.8997,46.2607],[20.9066,46.2622],[20.9244,46.2596],[20.9617,46.2483],[20.9815,46.2489],[20.9906,46.2516],[20.9992,46.2516],[21.007,46.2489],[21.0139,46.2431],[21.0335,46.2313],[21.0515,46.2361],[21.0992,46.2764],[21.1056,46.2787],[21.1349,46.2785],[21.1445,46.2837],[21.1559,46.2989],[21.1645,46.3183],[21.1687,46.3628],[21.1788,46.3845],[21.1956,46.3981],[21.2152,46.4029],[21.2575,46.4042],[21.2807,46.4164],[21.2744,46.4384],[21.2451,46.4769],[21.2476,46.4975],[21.2617,46.5133],[21.2789,46.5284],[21.2913,46.5467],[21.2953,46.585],[21.301,46.6039],[21.3162,46.6166],[21.3376,46.6204],[21.3744,46.6184],[21.396,46.6264],[21.4168,46.6452],[21.4255,46.662],[21.4362,46.6737],[21.4635,46.677],[21.4836,46.6849],[21.5018,46.7035],[21.5052,46.7232],[21.4782,46.7359],[21.4726,46.7402],[21.4705,46.743],[21.4714,46.749],[21.4737,46.7549],[21.4771,46.7602],[21.4815,46.765],[21.5029,46.8053],[21.5157,46.8216],[21.5366,46.835],[21.5731,46.8418],[21.5834,46.8479],[21.5918,46.8607],[21.5915,46.8715],[21.5881,46.8822],[21.5871,46.8944],[21.5887,46.9062],[21.5899,46.9089],[21.5944,46.91],[21.6401,46.9357],[21.6485,46.943],[21.6675,46.9924],[21.6714,46.9934],[21.6618,47.0061],[21.6548,47.0099],[21.6452,47.0112],[21.6366,47.0141],[21.6328,47.0227],[21.6719,47.0547],[21.6942,47.0692],[21.7435,47.0916],[21.7638,47.1052],[21.7705,47.114],[21.7754,47.1317],[21.7799,47.1407],[21.7894,47.1503],[21.8115,47.1647],[21.8199,47.1727],[21.826,47.1851],[21.8257,47.1943],[21.8233,47.2033],[21.8236,47.2149],[21.8277,47.226],[21.8393,47.2408],[21.8446,47.2499],[21.8561,47.2857],[21.8622,47.2974],[21.9008,47.3357],[21.919,47.3497],[21.937,47.3572],[21.9815,47.3661],[22.0016,47.3938],[22.0002,47.4272],[21.9915,47.4618],[21.9889,47.4929],[22.0079,47.5174],[22.0374,47.5393],[22.0996,47.5709],[22.1485,47.5793],[22.1621,47.5862],[22.1674,47.5938],[22.1698,47.6088],[22.1728,47.6154],[22.1976,47.6393],[22.2007,47.6479],[22.2042,47.6663],[22.2079,47.6737],[22.2152,47.6799],[22.2322,47.6883],[22.2398,47.6935],[22.2617,47.7158],[22.2731,47.7238],[22.2916,47.7307],[22.3094,47.735],[22.3221,47.7359],[22.3683,47.7312],[22.3826,47.732],[22.3959,47.7357],[22.4073,47.7431],[22.4237,47.7826],[22.4544,47.7874],[22.5285,47.761],[22.563,47.7572],[22.6012,47.7609],[22.6377,47.7716],[22.667,47.7888],[22.6917,47.8107],[22.7039,47.8172],[22.7242,47.8235],[22.7458,47.825],[22.7518,47.8277],[22.7603,47.8389],[22.7583,47.8462],[22.7533,47.8527],[22.7529,47.8612],[22.7636,47.8748],[22.7796,47.8823],[22.8197,47.8923],[22.8361,47.9025],[22.8612,47.9338],[22.8776,47.9467]]]}}