{"type":"Feature","bbox":[27.328,41.2057,180.0,81.8303],"properties":{"iso":"RU","name":"Russia","name_de":"Russland","key":"RU"},"geometry":{"type":"MultiPolygon","coordinates":[[[[88.144,49.2707],[87.4004,49.071],[87.3238,49.0853],[87.2718,49.2051],[87.0245,49.2489],[86.814,49.45],[86.8243,49.5092],[86.5918,49.5872],[86.7759,49.695],[86.7484,49.783],[86.6102,49.7955],[86.1773,49.4633],[86.0705,49.5263],[85.9463,49.4814],[85.9406,49.5596],[85.6733,49.5604],[85.6149,49.6171],[85.2236,49.5957],[85.0563,49.8733],[84.9546,49.9069],[84.9548,49.9905],[85.0254,50.0041],[84.9867,50.067],[84.25,50.2599],[84.1956,50.5114],[83.9758,50.6864],[83.9506,50.7804],[83.434,50.9927],[83.1076,50.9927],[82.9759,50.8819],[82.7265,50.9007],[82.6728,50.7898],[82.4758,50.714],[82.3284,50.7521],[82.1473,50.7016],[81.7441,50.7849],[81.4602,50.7303],[81.4008,50.9591],[81.0515,50.9557],[81.152,51.1865],[80.6828,51.302],[80.5992,51.2086],[80.422,51.1876],[80.439,50.9581],[80.1427,50.8171],[80.0154,50.8395],[80.086,50.7521],[80.0213,50.7669],[79.043,51.9925],[77.8668,53.2723],[76.4952,53.9923],[76.3767,54.1543],[76.6646,54.1341],[76.8377,54.2969],[76.753,54.3767],[76.8959,54.4639],[76.6728,54.4365],[76.6231,54.3559],[76.4765,54.3231],[76.2342,54.3474],[76.1838,54.2516],[75.4292,54.0901],[75.3607,54.0595],[75.434,53.9865],[75.0279,53.8079],[74.772,53.8309],[74.6165,53.6807],[74.4385,53.6734],[74.3884,53.4622],[74.2233,53.5946],[74.0769,53.5662],[74.058,53.6246],[73.9042,53.6392],[73.6529,53.6092],[73.4109,53.43],[73.3472,53.4594],[73.3912,53.5202],[73.2306,53.5723],[73.2297,53.6624],[73.4378,53.8085],[73.3912,53.8282],[73.4318,53.8654],[73.6829,53.8741],[73.7406,54.0579],[73.6015,54.0712],[73.518,53.956],[73.3603,53.9384],[73.0628,53.9791],[72.942,54.1218],[72.6242,54.135],[72.5031,54.0509],[72.6562,54.0425],[72.7002,53.9576],[72.3922,53.9082],[72.4187,54.016],[72.3584,54.093],[72.4829,54.1356],[72.2986,54.1784],[72.3244,54.2535],[72.0432,54.378],[72.103,54.3116],[72.0667,54.2224],[72.17,54.1968],[72.1776,54.136],[71.7625,54.2476],[71.6472,54.1086],[71.4771,54.1097],[71.4531,54.1813],[71.3206,54.201],[71.1613,54.102],[70.9708,54.305],[71.1906,54.3182],[71.1412,54.5638],[71.2647,54.6617],[71.006,54.7742],[70.9459,54.8879],[70.9771,55.078],[70.7932,55.2332],[70.8204,55.2941],[70.4412,55.2833],[70.2137,55.132],[69.6739,55.334],[69.3346,55.3851],[69.1861,55.3258],[68.9273,55.4337],[68.9706,55.2786],[68.7006,55.3605],[68.6053,55.1956],[68.1771,55.1705],[68.3082,55.0728],[68.1661,54.9561],[67.8822,54.9704],[67.6985,54.8679],[67.3113,54.8599],[67.2133,54.7972],[65.9775,54.6117],[65.9328,54.7026],[65.744,54.6009],[65.4498,54.6275],[65.449,54.5566],[65.1982,54.5162],[65.1842,54.3104],[64.9106,54.4027],[64.7202,54.3338],[64.5785,54.3856],[64.0045,54.3197],[64.0079,54.2287],[63.8975,54.1942],[63.7086,54.2504],[63.3683,54.1628],[63.1567,54.1801],[63.0847,54.0856],[62.581,54.0536],[62.5253,53.8719],[62.39,53.9416],[62.4127,54.0266],[62.0026,54.0174],[62.0036,53.932],[61.7913,54.0008],[61.5818,53.9477],[61.3377,54.0632],[61.1935,54.0183],[61.2108,53.9077],[60.9961,53.9414],[60.978,53.8826],[61.1991,53.7971],[61.0076,53.6357],[60.8802,53.6328],[61.2807,53.5424],[61.503,53.589],[61.5553,53.5057],[61.4123,53.4358],[61.2353,53.503],[61.1372,53.3731],[61.1627,53.2992],[62.0507,53.1248],[62.116,53.0646],[62.0942,52.9925],[61.9592,52.9349],[61.6056,52.9483],[61.4483,53.0214],[60.9746,52.9712],[61.0584,52.9222],[60.6726,52.6722],[60.8031,52.6277],[60.8149,52.5219],[60.9365,52.4886],[61.0399,52.335],[60.6722,52.1443],[60.4258,52.1296],[60.2028,51.9927],[59.9857,51.9523],[60.0608,51.8587],[60.4521,51.8055],[60.3759,51.6625],[60.9374,51.6112],[61.0294,51.4827],[61.4738,51.4258],[61.6637,51.2584],[61.5342,51.2061],[61.3721,50.7825],[60.7185,50.6527],[60.3004,50.6847],[60.1767,50.7422],[60.1362,50.8445],[60.0213,50.8541],[59.8157,50.5629],[59.5228,50.4746],[59.4517,50.5373],[59.5634,50.5799],[59.4376,50.6311],[58.9259,50.6781],[58.6644,50.7899],[58.5502,50.8933],[58.595,51.0234],[58.378,51.0707],[58.3084,51.15],[58.1676,51.0552],[57.7688,51.1197],[57.7224,50.9087],[57.4676,50.8585],[57.3343,50.8974],[57.1545,51.1],[56.7161,51.0725],[56.6884,50.9691],[56.4783,51.073],[56.3155,50.8838],[56.1584,50.9055],[56.0789,50.7248],[55.66,50.53],[55.4678,50.657],[55.3054,50.665],[55.0477,50.8842],[54.6382,51.0277],[54.503,50.9283],[54.6382,50.8857],[54.6763,50.6025],[54.4994,50.5233],[54.3798,50.6194],[54.4786,50.8535],[54.2758,50.9043],[53.9359,51.1856],[53.6739,51.2199],[53.5941,51.2894],[53.6103,51.3884],[53.4073,51.4842],[52.5458,51.4595],[52.3078,51.7745],[52.0918,51.6587],[51.8692,51.6731],[51.7647,51.5933],[51.7823,51.4929],[51.6933,51.4541],[51.5843,51.5349],[51.3042,51.4716],[51.2365,51.5359],[51.359,51.5615],[51.3719,51.6296],[50.9254,51.6797],[50.767,51.7594],[50.7907,51.5973],[50.6709,51.5675],[50.6942,51.6112],[50.5817,51.6353],[50.5272,51.4701],[50.3596,51.4133],[50.3254,51.3035],[49.9868,51.2298],[49.7791,51.1022],[49.4365,51.1123],[49.3474,50.9643],[49.4237,50.8821],[49.3694,50.8268],[49.1441,50.7817],[48.8304,50.596],[48.5683,50.6365],[48.6734,50.5795],[48.7828,50.1115],[48.8741,50.0698],[48.7846,49.9334],[48.4299,49.8097],[48.2393,49.8648],[48.0746,50.1053],[47.8082,50.3199],[47.5993,50.4527],[47.4698,50.4118],[47.2948,50.2754],[47.3087,50.0448],[46.8999,49.8203],[46.7751,49.3325],[47.04,49.1503],[46.7538,48.9141],[46.4783,48.4106],[47.0989,48.2654],[47.1036,48.1012],[47.192,48.0718],[47.0442,47.9862],[47.1587,47.8715],[47.1238,47.808],[47.3597,47.6833],[47.4122,47.8359],[48.1744,47.7129],[48.4111,47.4458],[48.5251,47.4102],[48.6973,47.101],[49.0063,46.7691],[48.764,46.6828],[48.5567,46.7617],[48.4551,46.6608],[48.5394,46.568],[48.918,46.4743],[49.306,46.2631],[49.1502,46.3358],[49.0589,46.2518],[49.1145,46.1513],[49.0422,46.1962],[48.9318,46.0853],[48.8392,46.1494],[48.8742,46.0782],[48.7914,46.1282],[48.8179,46.0562],[48.7141,46.1296],[48.627,46.0873],[48.729,46.02],[48.6548,45.9569],[48.7522,45.9656],[48.7914,45.8409],[48.7163,45.8135],[48.7101,45.8818],[48.5549,45.9675],[48.3569,45.8694],[48.3994,45.8354],[48.2887,45.8373],[48.2428,45.7099],[47.8591,45.7242],[47.8182,45.6081],[47.5601,45.7716],[47.6537,45.5591],[47.5407,45.6658],[47.4326,45.6945],[47.5034,45.7174],[47.3848,45.7502],[47.4277,45.6764],[47.5513,45.628],[47.5721,45.567],[47.4943,45.5851],[47.4968,45.43],[47.3814,45.411],[47.4601,45.3908],[47.3701,45.1856],[47.2971,45.1874],[47.2012,44.97],[47.0988,44.9564],[47.0783,44.7851],[46.9889,44.9154],[46.9616,44.7652],[46.722,44.6553],[46.6804,44.5285],[46.759,44.4006],[47.0256,44.3596],[47.1222,44.2227],[47.2459,44.212],[47.5028,43.781],[47.3657,43.6207],[47.4043,43.5114],[47.5444,43.8652],[47.7015,43.8745],[47.4909,43.4628],[47.4934,43.2963],[47.5857,43.2995],[47.4858,43.2128],[47.4619,43.0208],[47.6981,42.8671],[47.7273,42.6628],[48.096,42.3498],[48.3867,41.9372],[48.5789,41.8453],[48.3702,41.5802],[48.0535,41.4613],[47.8711,41.2082],[47.5473,41.2057],[47.2684,41.3028],[47.1414,41.5524],[47.027,41.5569],[46.7408,41.8512],[46.5676,41.7867],[46.5255,41.8823],[45.9341,42.0285],[45.6314,42.2012],[45.7364,42.4475],[45.6987,42.5076],[45.3227,42.5301],[45.123,42.7023],[44.8594,42.7595],[44.7735,42.6096],[44.6794,42.7237],[44.5081,42.7503],[43.9397,42.5522],[43.7226,42.6249],[43.8006,42.7465],[43.1556,42.9424],[42.8298,43.1688],[42.6152,43.137],[42.3546,43.236],[42.0434,43.1806],[41.5775,43.2153],[41.3807,43.3348],[41.0118,43.3754],[40.6519,43.539],[40.5196,43.5052],[40.2331,43.5758],[40.0728,43.5511],[39.9626,43.3926],[38.7583,44.2736],[38.2173,44.3872],[37.7785,44.7298],[37.8001,44.6352],[37.4987,44.6684],[37.1919,44.991],[36.7017,45.1038],[36.5773,45.1942],[36.9617,45.2829],[36.7888,45.2922],[36.7581,45.3542],[36.8025,45.3127],[36.8475,45.3673],[36.7816,45.3876],[36.6681,45.3264],[36.8333,45.443],[37.1394,45.3355],[37.0784,45.239],[37.3192,45.2717],[37.1589,45.3261],[37.3814,45.3065],[37.5193,45.3693],[37.5911,45.2894],[37.7293,45.3017],[37.7444,45.4504],[37.6351,45.6081],[37.6408,45.456],[37.5863,45.4324],[37.5951,45.6353],[37.7029,45.6218],[37.6668,45.669],[37.8294,45.7532],[37.9401,46.0203],[38.0975,46.0578],[38.0325,46.0252],[38.0803,45.9464],[38.0012,45.8326],[38.0396,45.8161],[38.1675,46.1205],[38.5599,46.0327],[38.5708,46.1047],[38.3001,46.2187],[38.1229,46.3775],[37.905,46.411],[37.7307,46.6701],[37.9823,46.6175],[38.2717,46.7324],[38.3137,46.6763],[38.5754,46.6538],[38.5134,46.7325],[38.3782,46.7082],[38.4147,46.8333],[38.8037,46.8935],[39.0752,47.0327],[39.28,47.0128],[39.3887,47.1152],[39.28,47.0878],[39.264,47.2608],[39.0881,47.2864],[38.8474,47.1636],[38.478,47.1425],[38.5599,47.2182],[38.7756,47.2455],[38.8104,47.2878],[38.5534,47.2298],[38.4279,47.1335],[38.2166,47.1033],[38.2035,47.1923],[38.3009,47.276],[38.1906,47.3169],[38.319,47.5913],[38.7345,47.6771],[38.8309,47.8482],[39.7591,47.8329],[39.7599,48.015],[39.843,48.0364],[39.8431,48.1198],[39.9932,48.2732],[39.8159,48.3082],[39.9241,48.3761],[39.8353,48.5735],[39.6317,48.5869],[39.7794,48.8077],[39.9753,48.7897],[40.0538,48.8692],[39.7587,48.8954],[39.6811,49.0203],[39.9187,49.0478],[40.1417,49.2458],[40.1595,49.3336],[40.0349,49.4871],[40.1307,49.5798],[39.9981,49.6082],[39.8015,49.5422],[39.6229,49.6135],[39.5575,49.724],[39.2609,49.7445],[39.1558,49.8736],[38.9374,49.8035],[38.6646,49.9652],[38.356,49.9806],[38.2999,50.0605],[38.1739,50.0602],[38.1662,49.9406],[38.0004,49.8998],[37.5971,50.1969],[37.5992,50.2909],[37.4152,50.4319],[36.8486,50.3237],[36.5944,50.2044],[36.41,50.3046],[36.269,50.2814],[36.1058,50.4211],[35.6114,50.3517],[35.4253,50.5005],[35.3777,50.6218],[35.4689,50.6685],[35.2848,50.9443],[35.3551,51.0256],[35.1436,51.0585],[35.0787,51.2076],[34.6749,51.1677],[34.6084,51.234],[34.186,51.2489],[34.3087,51.3346],[34.1859,51.3942],[34.2237,51.5148],[34.0891,51.6666],[34.3763,51.7086],[34.4127,51.7777],[34.0962,51.9518],[34.0653,52.1586],[33.8041,52.3546],[33.5101,52.2875],[33.4805,52.3578],[33.1829,52.3673],[32.909,52.2411],[32.3943,52.3268],[32.2333,52.0809],[31.9104,52.0291],[31.7643,52.1006],[31.6994,52.2515],[31.5674,52.3114],[31.6081,52.3725],[31.5506,52.5119],[31.6286,52.5481],[31.4806,52.6825],[31.5702,52.7253],[31.5608,52.7871],[31.2471,53.0144],[31.4164,53.2],[31.7386,53.1925],[31.9307,53.0883],[32.2011,53.0976],[32.4236,53.2044],[32.4548,53.3004],[32.7175,53.3349],[32.7195,53.4395],[32.4294,53.5616],[32.3991,53.6354],[32.4902,53.6771],[32.4421,53.7139],[32.0836,53.8096],[31.7447,53.7949],[31.8226,54.0534],[31.3247,54.2292],[31.209,54.448],[31.0646,54.4923],[31.1679,54.6216],[30.7706,54.786],[30.8148,54.928],[31.0056,55.023],[30.9598,55.1626],[30.7943,55.2855],[30.9183,55.3878],[30.9128,55.5716],[30.7422,55.5944],[30.4688,55.7935],[30.2178,55.8551],[29.9078,55.8432],[29.4809,55.6811],[29.3507,55.7661],[29.4444,55.9069],[29.3774,55.954],[29.0308,56.0242],[28.7319,55.9468],[28.5378,56.0977],[28.2898,56.0466],[28.1489,56.1424],[28.2173,56.2707],[28.0933,56.5016],[28.1322,56.536],[27.8655,56.7427],[27.9135,56.8201],[27.6284,56.8442],[27.7507,57.0424],[27.6822,57.1037],[27.8243,57.1591],[27.8403,57.2906],[27.5113,57.4304],[27.5282,57.5285],[27.3529,57.5276],[27.328,57.5832],[27.5078,57.7148],[27.5246,57.8073],[27.7993,57.8611],[27.665,57.9184],[27.6304,58.0883],[27.4954,58.2215],[27.5549,58.3952],[27.4106,58.7549],[27.4778,58.8754],[27.7133,58.9919],[27.8823,59.2757],[28.1818,59.3561],[28.0191,59.4818],[28.0726,59.578],[28.007,59.7582],[28.1239,59.7923],[28.2239,59.6911],[28.3753,59.6663],[28.4761,59.8518],[28.8325,59.7865],[29.1614,60.0026],[30.162,59.8685],[30.2461,59.9749],[29.9483,60.0297],[29.849,60.1669],[29.052,60.1843],[28.7995,60.3688],[28.617,60.382],[28.439,60.5599],[28.7028,60.4612],[28.6445,60.6697],[28.7345,60.6928],[28.6904,60.7385],[28.2158,60.5476],[27.7941,60.5332],[28.7976,61.0968],[29.2032,61.2459],[30.6477,62.1928],[30.9256,62.3021],[31.2438,62.5033],[31.5695,62.9059],[31.2628,63.1006],[31.204,63.2127],[30.4611,63.4729],[29.9808,63.7415],[30.2015,63.7926],[30.5523,64.0217],[30.5585,64.2197],[30.0325,64.3969],[30.0704,64.4719],[29.9548,64.569],[30.1808,64.6428],[30.1189,64.7679],[29.7803,64.7956],[29.6336,64.9072],[29.5984,65.0344],[29.8502,65.1215],[29.8332,65.205],[29.5801,65.2354],[29.7201,65.3291],[29.7263,65.4915],[29.8386,65.5649],[29.7029,65.6294],[30.0985,65.6564],[30.1117,65.712],[29.9002,66.1081],[29.0515,66.9078],[29.5198,67.2982],[29.9162,67.5081],[30.0094,67.6858],[29.6512,67.8236],[29.3309,68.0727],[28.6903,68.1832],[28.4479,68.5297],[28.8015,68.8355],[28.4102,68.8985],[29.1203,69.0468],[29.3768,69.3016],[29.9671,69.3735],[30.2247,69.5408],[30.1191,69.6346],[30.853,69.5274],[30.9277,69.6721],[30.841,69.8058],[31.409,69.7158],[31.2967,69.6126],[31.4778,69.6977],[31.8106,69.6877],[31.7009,69.7366],[31.7109,69.8274],[32.0989,69.7919],[31.9133,69.9362],[32.0545,69.9638],[32.5232,69.8032],[33.1333,69.7287],[33.1067,69.6489],[32.8718,69.5825],[32.1697,69.6549],[32.1117,69.7529],[32.1016,69.674],[31.9683,69.6542],[32.0559,69.6365],[32.0161,69.5642],[32.3991,69.5842],[32.3921,69.5369],[32.502,69.517],[32.1936,69.4345],[32.5369,69.5096],[32.8993,69.4822],[32.7695,69.414],[33.085,69.4761],[32.8235,69.3012],[32.9893,69.3935],[33.5237,69.4283],[33.2351,69.27],[33.4478,69.2884],[33.2966,69.2291],[33.5442,69.2086],[33.0606,69.0833],[33.0234,68.9547],[33.0643,69.0578],[33.4266,69.1047],[33.5762,69.1992],[33.5715,69.3041],[33.724,69.3368],[34.4206,69.311],[34.9727,69.1933],[35.2642,69.2154],[35.1826,69.2799],[35.8735,69.1949],[37.6805,68.7134],[38.3298,68.4422],[38.3887,68.3432],[38.7654,68.2906],[38.5101,68.3655],[38.6392,68.385],[39.5208,68.076],[39.8595,68.0466],[39.7098,68.1688],[39.7932,68.1647],[40.4107,67.8751],[40.3215,67.8449],[40.4668,67.7612],[40.6546,67.8146],[41.0399,67.6778],[40.9993,67.4675],[41.1501,67.4235],[41.1089,67.2538],[41.3397,67.2238],[41.3904,67.1249],[41.1781,66.8096],[40.5656,66.4558],[40.085,66.2888],[38.5544,66.055],[37.6555,66.1231],[36.8874,66.2852],[35.5578,66.387],[34.8036,66.6135],[34.4802,66.5376],[34.356,66.6298],[34.5032,66.6383],[34.5217,66.6572],[34.0923,66.6724],[34.1414,66.7738],[33.9473,66.6849],[33.5921,66.8307],[33.5195,66.8022],[33.6262,66.7481],[33.5237,66.7823],[33.5715,66.7419],[33.4889,66.7686],[33.5171,66.7242],[33.1006,66.8581],[32.8049,67.0103],[32.9299,67.1],[32.3826,67.1597],[31.8509,67.1528],[32.262,67.125],[32.5498,67.0001],[32.3921,66.9536],[32.4959,66.9331],[32.4202,66.8859],[32.9347,66.7419],[32.7695,66.7419],[33.3245,66.6457],[32.9014,66.5748],[33.2596,66.6184],[33.5368,66.5359],[33.1927,66.5788],[32.9409,66.5285],[33.6022,66.5017],[33.5852,66.4601],[33.7354,66.426],[33.5163,66.4055],[33.6746,66.3571],[33.6291,66.3443],[33.3108,66.3168],[34.1028,66.2469],[34.553,66.0937],[34.7229,65.9878],[34.6609,65.953],[34.6951,65.9095],[34.8524,65.9003],[34.8706,65.7745],[34.9686,65.7277],[34.6887,65.8097],[34.7766,65.5966],[34.6335,65.4875],[34.6819,65.4534],[34.297,65.3851],[34.4629,65.3644],[34.4797,65.2811],[34.6403,65.2412],[34.6631,65.1268],[34.7737,65.1002],[34.8161,65.0434],[34.7024,64.9804],[34.9421,64.8576],[34.757,64.7744],[35.009,64.7432],[34.8323,64.6979],[34.9776,64.6119],[34.7433,64.5559],[35.3073,64.3722],[35.3488,64.2961],[35.5891,64.3223],[35.5825,64.4113],[35.8108,64.342],[35.9767,64.199],[36.2272,64.1362],[36.2922,64.0097],[37.5344,63.8009],[37.6574,63.8986],[37.9846,63.9457],[38.0737,64.0174],[38.0457,64.1483],[37.902,64.2399],[38.0202,64.3085],[37.749,64.4417],[37.3394,64.3404],[37.1215,64.3947],[36.7441,64.681],[36.5598,64.7174],[36.5042,64.8358],[36.5725,64.8296],[36.44,64.9171],[36.8074,64.9591],[36.8674,65.076],[36.82,65.1471],[37.0077,65.173],[37.6727,65.0357],[37.7946,64.9206],[38.0464,64.8537],[38.385,64.8446],[38.403,64.7744],[38.0666,64.7812],[38.1257,64.6959],[38.0481,64.6459],[38.339,64.7584],[38.4725,64.7435],[38.448,64.8179],[39.5665,64.5453],[39.9236,64.603],[39.7864,64.5969],[39.8504,64.676],[40.1817,64.5587],[40.5171,64.5414],[40.4109,64.7368],[40.5173,64.7741],[40.2731,65.0214],[39.7409,65.3565],[39.7493,65.5521],[40.4717,65.8128],[40.7101,65.9723],[41.3425,66.0629],[41.6436,66.1728],[42.2009,66.5322],[42.6615,66.4433],[42.5486,66.3851],[43.3021,66.426],[43.6926,66.2372],[43.2883,66.0902],[43.3528,66.0415],[43.5149,65.9742],[43.501,66.0527],[43.3823,66.0719],[43.8364,66.1858],[44.0457,66.081],[44.0405,65.9936],[44.1797,65.8643],[44.0964,66.2619],[44.3602,66.5082],[44.3948,66.6218],[44.5632,66.6662],[44.364,66.7823],[44.5217,66.9194],[44.3025,67.056],[44.3777,67.1044],[43.8153,67.1775],[43.7667,67.2777],[44.0418,67.6804],[44.1445,67.6794],[44.0695,67.7144],[44.1306,67.7922],[44.0874,67.8851],[44.2684,67.9268],[44.1245,67.9343],[44.2139,67.989],[44.138,67.9951],[44.4118,68.0634],[44.1808,68.0361],[44.2276,68.2968],[43.3257,68.6137],[43.2737,68.6582],[43.3172,68.6666],[43.9845,68.5513],[45.5821,68.5142],[45.9439,68.4462],[46.0293,68.324],[46.5349,68.1326],[46.4614,68.1118],[46.5402,68.1084],[46.6983,67.8165],[45.3504,67.7304],[45.3146,67.5921],[45.0282,67.5319],[44.9121,67.372],[45.5939,67.1582],[45.8245,66.8991],[46.0252,66.8334],[46.5979,66.858],[46.4067,66.7462],[47.4098,66.9293],[47.5814,66.8699],[47.742,67.0307],[47.6895,67.1964],[47.7871,67.2515],[47.7704,67.3378],[47.9479,67.4443],[47.8457,67.6009],[48.7,67.7159],[49.1067,67.6395],[48.7778,67.7274],[48.7936,67.8312],[48.5859,67.9343],[49.1333,67.8626],[50.0012,68.0581],[50.7788,68.3793],[51.0588,68.3514],[52.1771,68.5824],[52.0518,68.4924],[52.361,68.4749],[52.1356,68.3793],[52.2485,68.3177],[52.402,68.3377],[52.7313,68.4742],[52.4914,68.5915],[52.6345,68.6585],[52.2791,68.5978],[52.3285,68.6334],[53.8786,68.9741],[54.5613,68.9997],[53.5949,68.9069],[54.0262,68.8454],[53.865,68.7979],[53.8177,68.6892],[53.7205,68.6569],[53.9443,68.406],[53.8037,68.3445],[53.6089,68.4135],[53.6912,68.3445],[53.4404,68.3725],[53.2107,68.2694],[53.9925,68.2214],[54.1849,68.3205],[54.2033,68.2095],[54.5044,68.3122],[54.6911,68.176],[54.8319,68.1733],[54.9245,68.2527],[54.8561,68.324],[54.9367,68.3984],[55.3929,68.5643],[55.9971,68.6605],[57.3298,68.5648],[57.604,68.7424],[57.9295,68.751],[57.9567,68.8455],[58.1712,68.8893],[58.2451,68.8884],[58.2036,68.8321],[58.2642,68.7812],[58.3779,68.756],[58.3369,68.7356],[58.4241,68.7427],[58.2854,68.8005],[58.2705,68.8937],[58.8788,69.0031],[59.2239,68.9997],[58.8919,68.9342],[59.423,68.757],[59.3984,68.7011],[59.2015,68.706],[59.0564,68.6195],[59.1188,68.5317],[59.0871,68.4169],[59.6748,68.3362],[59.9639,68.466],[59.7627,68.6387],[59.8112,68.6879],[60.4666,68.7223],[60.9688,68.9069],[60.9072,68.9274],[60.9027,69.1223],[60.7767,69.1772],[60.7109,69.1063],[60.5913,69.1328],[60.5425,69.3156],[60.1388,69.5779],[60.2326,69.6648],[60.6536,69.6728],[60.7056,69.8237],[60.9266,69.8675],[63.4105,69.6713],[64.1276,69.5501],[65.0044,69.3041],[64.8311,69.2944],[64.7859,69.1471],[64.9318,69.1971],[64.9232,69.2607],[65.0682,69.2681],[65.9026,69.113],[65.635,69.1267],[65.6897,69.085],[67.0901,68.8557],[67.0397,68.7971],[67.1963,68.7073],[67.7932,68.4786],[68.1349,68.4234],[68.2586,68.3339],[68.1843,68.2421],[68.2881,68.1883],[68.6509,68.3179],[68.561,68.3725],[68.9235,68.6373],[69.1091,68.879],[68.9514,68.9032],[69.2189,68.9621],[68.686,68.9184],[68.458,68.9846],[68.0262,69.3194],[68.105,69.397],[68.1066,69.5487],[68.0306,69.5406],[68.0402,69.4897],[67.8244,69.5107],[67.0173,69.7031],[66.8552,69.6369],[66.9577,69.5369],[66.7957,69.5862],[66.7688,69.7616],[66.8848,70.0129],[66.9782,70.0576],[66.985,69.9695],[67.1433,69.9831],[67.3276,70.106],[67.2717,70.1889],[67.2435,70.1453],[67.0942,70.2209],[67.2663,70.4145],[67.2928,70.4766],[67.2151,70.5239],[67.3345,70.7578],[67.1384,70.8418],[66.6887,70.7698],[66.6082,70.8807],[66.8895,71.0787],[66.8195,71.101],[66.6903,71.0014],[66.6205,71.0578],[66.9121,71.2947],[67.5884,71.4151],[68.3488,71.6752],[68.3078,71.7167],[68.6437,72.0332],[68.8523,72.4669],[68.9172,72.484],[68.8694,72.5324],[69.0545,72.6621],[68.9758,72.696],[69.2318,72.8045],[69.3538,72.9526],[69.7949,72.9637],[69.5567,72.9138],[69.5882,72.8785],[71.5632,72.916],[72.0083,72.834],[71.8166,72.8123],[71.8865,72.7966],[72.131,72.8316],[72.8369,72.7099],[72.7214,72.703],[72.8096,72.6552],[72.7315,72.5972],[72.845,72.5204],[72.7985,72.4133],[72.8743,72.2811],[72.577,72.0445],[72.5222,71.9223],[72.3508,71.8642],[72.345,71.7082],[71.8034,71.4803],[72.1057,71.2904],[72.6365,71.1317],[72.6321,71.0111],[72.8369,70.8596],[72.6833,70.6166],[72.7754,70.5381],[72.7713,70.4252],[72.4356,70.2859],[72.6216,70.1617],[72.492,70.0412],[72.6917,69.8369],[72.5017,69.6467],[72.6384,69.4414],[72.488,69.414],[72.6477,69.2922],[72.4779,69.1769],[72.5774,68.9404],[73.5391,68.581],[73.6463,68.4578],[73.5337,68.4815],[73.0908,68.2143],[73.1371,68.1662],[73.0728,68.0904],[73.2044,67.9572],[73.1955,67.8495],[73.0715,67.8156],[73.1514,67.7319],[73.1143,67.6904],[73.0394,67.7286],[72.8521,67.6353],[72.5813,67.6202],[72.5329,67.5201],[72.3919,67.4675],[72.4543,67.4006],[72.4026,67.3281],[72.0483,67.3029],[72.2259,67.1595],[72.1279,67.2068],[72.1385,67.1597],[71.9133,67.1323],[72.015,67.1113],[71.9946,67.056],[71.7476,66.9161],[71.3019,66.9536],[71.5149,66.8785],[71.4807,66.827],[71.5769,66.6588],[71.1654,66.6588],[71.2337,66.6252],[70.6886,66.5154],[70.2952,66.6383],[70.6799,66.716],[70.7234,66.7618],[70.3157,66.6799],[69.8978,66.8716],[69.8366,66.8163],[69.6025,66.8376],[69.598,66.789],[69.3977,66.8302],[68.965,66.8096],[69.1038,66.7713],[69.1126,66.6188],[69.2056,66.5694],[69.9028,66.4155],[70.3626,66.3344],[71.4289,66.3559],[71.8329,66.2345],[72.0757,66.2358],[72.3473,66.3064],[72.4124,66.5085],[72.2888,66.5011],[72.4738,66.611],[72.9424,66.6567],[73.0031,66.7394],[73.4924,66.8234],[73.8692,67.0014],[73.9509,67.2106],[73.8996,67.2962],[74.7303,67.6863],[74.825,67.9405],[74.7254,68.1524],[74.3316,68.3856],[74.4578,68.5063],[74.4544,68.694],[74.6279,68.7746],[76.1131,68.9777],[76.5824,68.9752],[76.6906,68.8733],[76.6188,68.8054],[76.6626,68.7626],[77.3257,68.5233],[77.2478,68.4569],[77.2951,68.3817],[77.1619,68.2936],[77.3566,68.2329],[77.2166,68.105],[77.1926,67.9852],[77.3052,67.9101],[77.0798,67.7904],[77.6755,67.6172],[77.693,67.5453],[79.0525,67.5705],[78.806,67.6252],[78.868,67.6531],[78.5647,67.6041],[78.4634,67.6326],[78.6104,67.6625],[78.4385,67.7025],[78.4002,67.6374],[77.8743,67.6853],[77.9489,67.7282],[77.7757,67.7784],[77.4942,67.7513],[77.4788,67.9073],[77.5864,67.9479],[77.4697,67.9951],[77.537,68.1286],[77.7085,68.2219],[78.1726,68.2744],[77.9585,68.3984],[77.9279,68.519],[77.7869,68.5146],[77.647,68.9111],[76.929,69.0093],[76.7312,69.1313],[76.042,69.2391],[75.5086,69.2614],[75.1071,69.1039],[74.7728,69.0812],[74.3137,69.1464],[73.9613,69.0838],[73.7588,69.1694],[73.8996,69.4208],[73.516,69.7464],[73.6599,69.8597],[73.7648,70.079],[73.7077,70.1613],[74.3162,70.5203],[74.3179,70.6678],[73.9275,70.8554],[73.8958,70.9726],[73.7036,71.0714],[73.5562,71.2551],[73.0225,71.4288],[73.4985,71.6649],[73.4702,71.7734],[73.5259,71.8222],[74.9949,72.1378],[75.1111,72.3464],[75.0588,72.595],[74.7511,72.82],[75.0366,72.8817],[75.3189,72.8192],[75.5308,72.7412],[75.3382,72.6832],[75.7082,72.5659],[75.5565,72.4975],[75.7424,72.2655],[75.5178,72.1532],[75.439,71.9853],[75.2537,71.9422],[75.2275,71.7774],[75.4917,71.6661],[75.3924,71.6179],[75.5329,71.5423],[75.4419,71.4622],[75.2415,71.4536],[75.263,71.3655],[76.1084,71.2045],[76.8889,71.1904],[76.9142,71.0725],[76.929,71.1606],[77.0051,71.1845],[77.5581,71.1737],[77.8377,71.1246],[77.9489,70.9763],[78.4114,70.8955],[79.0396,70.9373],[79.1145,71.0042],[78.845,71.0133],[78.7857,70.9905],[78.9016,70.9763],[78.4424,70.9143],[78.4634,71.0241],[78.5597,71.0452],[78.4973,71.1151],[78.3462,71.0998],[78.4976,71.0452],[78.2376,71.1097],[78.311,71.2084],[78.279,71.2589],[77.9285,71.2575],[77.9011,71.3127],[77.9883,71.3747],[77.7119,71.2813],[77.4356,71.3332],[77.4922,71.3013],[76.2723,71.5729],[76.2635,71.6531],[75.9968,71.9079],[76.8782,72.05],[77.5846,71.8311],[78.1095,71.8804],[78.2258,71.9826],[77.9856,72.1095],[77.5106,72.0621],[77.3772,72.1102],[77.4907,72.1754],[77.4739,72.2224],[77.6682,72.1928],[78.1245,72.3846],[78.4976,72.4082],[79.3914,72.3856],[80.0101,72.2078],[80.8346,72.0833],[80.8208,72.0246],[80.7321,72.0451],[80.814,72.0799],[80.6323,72.0461],[81.2498,71.8592],[81.3423,71.7642],[81.7367,71.6999],[82.8674,71.7864],[83.2517,71.7257],[83.3052,71.6584],[83.012,71.529],[82.9854,71.4628],[83.0479,71.4151],[82.2726,71.2788],[82.3528,71.0963],[82.2083,70.9868],[82.4172,70.777],[82.082,70.5654],[82.2396,70.2773],[82.3489,70.2023],[82.1572,70.5716],[82.4646,70.6132],[82.4309,70.6951],[82.5542,70.7615],[82.4787,70.805],[82.5786,70.9111],[82.7345,70.9655],[82.8766,70.917],[82.9016,71.001],[83.1338,70.8824],[83.1372,70.764],[82.9932,70.5716],[83.0525,70.4999],[83.0105,70.4266],[82.6641,70.2602],[82.6438,70.1812],[83.1111,70.0695],[83.183,70.1389],[82.9517,70.3251],[83.5344,70.332],[83.7747,70.4766],[83.3818,71.0327],[83.1161,71.1135],[83.257,71.1165],[83.1476,71.2448],[83.3758,71.3698],[83.3822,71.465],[83.5628,71.5099],[83.6189,71.6312],[83.3605,71.8406],[82.6781,71.8795],[82.4706,72.0208],[82.1851,72.0935],[82.3074,72.1828],[82.1981,72.2816],[81.2082,72.3549],[80.7041,72.5454],[80.8345,72.6205],[80.6859,72.6463],[80.6321,72.7338],[80.773,72.8061],[80.8143,72.9743],[80.4372,73.1009],[80.5686,73.1415],[80.2311,73.176],[80.5635,73.2215],[80.5283,73.2815],[80.2549,73.3297],[80.6774,73.5049],[80.5055,73.4981],[80.513,73.567],[81.9569,73.6627],[83.4837,73.6555],[84.7932,73.7647],[85.427,73.7119],[85.5855,73.8187],[86.0161,73.8665],[87.0801,73.8715],[87.0108,73.7787],[85.7868,73.4808],[85.8332,73.3318],[86.6633,73.1221],[86.7825,73.0009],[86.6597,73.1518],[85.9339,73.3239],[85.844,73.4398],[86.2036,73.5578],[87.1648,73.6114],[87.3442,73.7042],[87.2487,73.6906],[87.2805,73.7299],[87.6174,73.8236],[87.6641,73.8909],[87.2964,73.8414],[86.9402,74.0331],[87.4199,74.0121],[87.3623,74.0478],[86.8958,74.0702],[86.7239,74.1321],[86.803,74.184],[86.7114,74.2244],[86.02,74.2625],[85.9055,74.3547],[86.2971,74.3131],[86.2549,74.3889],[86.0495,74.4162],[86.4753,74.4582],[86.6235,74.3875],[86.9539,74.3889],[86.7158,74.3018],[86.9489,74.3426],[86.9929,74.2703],[87.0501,74.3063],[87.016,74.3673],[87.2624,74.3547],[87.0801,74.39],[87.0791,74.442],[86.7959,74.4236],[86.5355,74.5124],[86.7825,74.5607],[85.7404,74.6359],[86.1011,74.7358],[86.0283,74.814],[86.0906,74.8208],[86.367,74.7751],[86.2134,74.7656],[86.3215,74.7077],[86.9575,74.6088],[86.9026,74.6541],[86.9539,74.6837],[86.7621,74.7041],[87.0637,74.7253],[87.0613,74.8397],[87.3858,74.9443],[87.1729,74.9853],[87.4263,75.0058],[87.5741,74.9297],[87.7899,75.0263],[86.8986,75.0877],[87.0246,75.1642],[87.9526,75.1],[88.3067,75.176],[88.3713,75.2553],[88.626,75.2665],[88.5503,75.3143],[88.6117,75.3442],[89.0852,75.403],[88.7572,75.4167],[89.2458,75.5067],[89.7036,75.4435],[89.6128,75.4924],[90.0579,75.5197],[89.9541,75.5776],[90.8867,75.6706],[90.978,75.6204],[91.5803,75.6378],[91.7002,75.7364],[92.3713,75.7405],[93.5498,75.853],[94.1631,75.9443],[93.7405,75.9002],[93.5461,75.9534],[93.419,75.8729],[93.2774,75.9821],[92.964,75.9306],[93.1079,75.9108],[93.007,75.8867],[92.8268,75.9654],[92.9525,76.0668],[93.2308,76.0541],[93.1209,76.0957],[93.4303,76.1069],[93.3338,76.0678],[93.427,76.012],[93.9987,76.0541],[93.6355,76.123],[93.6858,76.1323],[94.3742,76.1208],[94.4595,76.0517],[94.7385,76.1156],[94.5728,76.16],[96.1965,76.0876],[95.5752,75.889],[95.7395,75.8564],[95.9373,75.9492],[96.3418,75.9722],[96.3011,75.9993],[96.6646,75.9654],[96.4614,75.8719],[96.8352,75.889],[97.251,76.0434],[97.3968,76.0473],[97.1992,75.9931],[97.2468,75.958],[97.1853,75.9306],[97.8239,75.9881],[97.5483,76.0541],[98.1614,76.0908],[98.22,76.1025],[97.9177,76.123],[98.8164,76.267],[98.7127,76.205],[99.235,76.2236],[99.2956,76.205],[99.0902,76.164],[99.5742,76.1551],[99.4675,76.1087],[99.7549,76.049],[99.6792,75.876],[99.424,75.7934],[99.5706,75.7797],[99.9024,75.9272],[99.8252,76.0244],[99.8657,76.1077],[99.5907,76.2724],[99.0202,76.3624],[98.8179,76.4942],[100.3045,76.4619],[100.8511,76.5401],[101.0571,76.4862],[101.0156,76.4588],[101.3162,76.484],[102.2495,76.3831],[100.8783,76.555],[101.1048,76.6164],[101.126,76.7326],[101.2346,76.7673],[100.9813,76.7872],[100.8577,76.8732],[100.9193,76.9759],[101.2063,76.986],[101.207,77.0985],[102.0757,77.3912],[102.2708,77.3806],[103.1966,77.6589],[103.5925,77.6316],[104.2903,77.7375],[104.2889,77.673],[104.7516,77.7062],[104.8669,77.613],[105.3342,77.541],[105.8737,77.5686],[105.8333,77.5407],[105.9773,77.4252],[106.292,77.37],[105.7581,77.3695],[105.4558,77.2405],[104.1419,77.0889],[105.9285,77.1441],[105.7371,77.0615],[105.7849,77.041],[105.4354,77.0001],[106.2056,77.062],[106.7554,77.0012],[106.6489,77.0342],[106.8298,77.0547],[107.2858,77.0206],[107.238,77.0063],[107.4998,76.9245],[107.2659,76.8908],[107.3547,76.8691],[106.9255,76.7128],[106.7241,76.7189],[106.7991,76.6745],[106.6123,76.5596],[106.3967,76.6043],[106.417,76.5092],[106.8198,76.4689],[107.8455,76.5348],[107.9846,76.6227],[107.9021,76.6711],[107.9461,76.7373],[109.3978,76.76],[110.0614,76.6916],[110.3586,76.7557],[111.0903,76.7623],[111.1194,76.6821],[111.5554,76.6841],[111.4456,76.6301],[111.8264,76.5964],[112.1991,76.4719],[111.8291,76.3415],[112.2568,76.4544],[112.7478,76.3353],[112.6584,76.3223],[112.7404,76.267],[112.6926,76.2316],[112.5007,76.2391],[112.8577,76.1435],[112.5697,76.0473],[112.9622,76.0651],[113.0593,76.1638],[113.3027,76.1156],[113.2891,76.1708],[112.9321,76.2596],[113.2593,76.2664],[113.2412,76.205],[113.3589,76.2113],[113.4597,76.1484],[113.4528,76.0413],[113.5491,76.0207],[113.532,75.954],[113.4398,75.9443],[113.5628,75.8965],[113.4808,75.8555],[113.7809,75.9393],[113.8901,75.854],[113.7205,75.6193],[113.5559,75.5402],[113.4261,75.5402],[113.6174,75.6562],[113.0676,75.6835],[113.1375,75.7115],[112.5591,75.8513],[112.3369,75.8481],[112.8706,75.7115],[112.7478,75.6985],[112.8781,75.6467],[112.8136,75.5573],[113.0355,75.553],[112.993,75.6098],[113.2674,75.6511],[113.2905,75.5505],[113.6377,75.5241],[113.7205,75.4099],[113.5491,75.4064],[113.6707,75.3689],[113.6052,75.285],[112.8796,74.9929],[112.1468,74.8784],[111.7723,74.6685],[111.4028,74.6911],[110.9602,74.5485],[110.3316,74.4962],[110.2805,74.4782],[110.3626,74.4183],[110.2121,74.3724],[109.5612,74.3137],[109.9795,74.2963],[109.7969,74.1617],[108.9961,74.0156],[108.0666,73.6353],[107.1468,73.6177],[107.1013,73.5739],[107.1697,73.5534],[106.8816,73.4435],[106.7854,73.3405],[106.0628,73.273],[106.0093,73.1551],[105.8533,73.0948],[105.8338,73.0023],[105.073,72.7651],[105.4826,72.7681],[106.0364,72.9525],[106.6571,72.832],[107.1033,72.8564],[106.2546,72.9672],[106.1756,73.0944],[106.3599,73.1943],[106.7756,73.141],[108.3167,73.2216],[108.3962,73.2579],[108.1975,73.279],[109.2212,73.3871],[109.2092,73.4688],[109.4349,73.4267],[109.1936,73.5517],[109.7139,73.4526],[110.9248,73.7042],[110.8765,73.7346],[110.918,73.7656],[110.6637,73.7873],[109.7375,73.6617],[109.5311,73.7753],[110.0215,74.0145],[110.959,73.9086],[111.103,73.95],[111.1262,74.0305],[111.5365,74.0512],[111.5822,74.0257],[111.1985,73.9779],[111.4356,73.8126],[112.3718,73.7053],[112.9453,73.7905],[112.8469,73.9945],[113.1314,73.8823],[113.4279,73.634],[113.1314,73.4497],[113.4983,73.3359],[113.4871,72.9637],[113.1177,72.8607],[113.1773,72.733],[113.4972,72.6453],[114.0903,72.6007],[113.391,72.6806],[113.1582,72.8227],[113.5422,72.9774],[113.6006,73.104],[113.5293,73.1827],[113.5623,73.2534],[114.0358,73.3473],[113.7751,73.3561],[113.4666,73.5049],[115.4131,73.7104],[118.4502,73.5888],[118.9976,73.4914],[118.4671,73.4781],[118.3464,73.4025],[118.4284,73.3747],[118.3533,73.2824],[118.3942,73.238],[119.5345,73.0552],[119.7225,72.9589],[120.5337,72.8742],[119.7638,73.0083],[121.0547,72.9318],[121.7914,72.9769],[122.0433,72.8915],[122.7322,72.8266],[122.3083,72.9414],[122.9534,72.8915],[122.4304,72.9848],[122.6138,73.031],[123.2345,72.9347],[123.4004,73.0932],[123.4679,73.0796],[123.4009,73.1743],[123.6707,73.2033],[123.3318,73.3507],[123.4133,73.3909],[123.2181,73.4088],[123.3075,73.4265],[123.2819,73.4642],[123.4173,73.4435],[123.2461,73.5459],[123.4242,73.5807],[123.3696,73.6627],[123.5913,73.717],[123.5617,73.6434],[123.6455,73.603],[123.9738,73.627],[123.8767,73.7725],[124.0596,73.6848],[124.3831,73.8064],[124.8562,73.7241],[124.9866,73.6279],[125.1375,73.7042],[125.2124,73.6489],[125.1975,73.5509],[125.6519,73.5255],[125.521,73.4572],[125.5625,73.4088],[125.8766,73.4606],[125.8158,73.4914],[125.9185,73.5397],[125.9728,73.5323],[125.9412,73.4283],[126.014,73.5087],[126.2881,73.5573],[126.4048,73.5124],[126.3911,73.464],[126.1707,73.4593],[126.2546,73.4025],[126.1585,73.3815],[126.4197,73.4095],[126.5488,73.3473],[126.5652,73.2335],[126.6587,73.3026],[126.563,73.3815],[126.7302,73.4442],[126.8288,73.3886],[126.8332,73.4401],[126.9324,73.4299],[126.9177,73.5043],[126.8301,73.5186],[127.0505,73.549],[127.4509,73.4907],[127.9876,73.4709],[127.8994,73.4361],[128.0769,73.4057],[127.9602,73.3473],[128.3403,73.361],[128.2346,73.2654],[128.6594,73.2613],[128.9692,73.1774],[128.7774,73.0708],[129.0662,73.1277],[129.4435,73.0289],[129.4789,72.9792],[129.3596,72.94],[128.9275,72.9802],[128.2908,72.9086],[128.1292,72.7861],[129.3581,72.703],[129.1984,72.6552],[128.4792,72.7246],[127.9054,72.6671],[128.6113,72.4827],[129.2583,72.4639],[129.242,72.4157],[129.5007,72.3325],[129.3401,72.3051],[129.3576,72.2629],[129.5641,72.2307],[129.242,72.1345],[129.489,72.1276],[128.9341,72.073],[128.4943,72.2028],[128.5695,72.2437],[128.5288,72.2593],[127.6658,72.4301],[127.8644,72.3325],[127.7801,72.3063],[128.1921,72.2283],[128.4417,72.1003],[128.4534,72.024],[128.6235,71.9626],[128.6639,71.863],[128.9266,71.7388],[129.1839,71.8093],[129.0412,72.0188],[129.2869,71.8835],[129.3099,71.8042],[129.5437,71.723],[129.3054,71.7609],[128.8205,71.6581],[128.8753,71.5967],[129.1458,71.6131],[129.2487,71.5499],[129.3921,71.3468],[129.6526,71.2609],[129.7627,71.1476],[129.6262,71.0861],[130.0804,71.0834],[130.2217,70.9936],[130.1673,70.9688],[130.6199,70.8664],[130.7689,70.9775],[130.8884,70.7628],[131.042,70.7388],[131.5462,70.8871],[131.7614,71.1352],[131.8659,71.1489],[131.8509,71.2082],[132.1883,71.2159],[131.9419,71.2674],[132.2642,71.682],[132.7178,71.9462],[133.0663,71.9713],[133.3414,71.8863],[133.354,71.834],[133.0313,71.9551],[132.7964,71.9109],[132.8131,71.8315],[132.7151,71.8107],[132.9852,71.7197],[133.1516,71.5792],[133.9087,71.3994],[134.739,71.368],[134.6506,71.2973],[134.6686,71.2643],[134.77,71.3669],[134.6965,71.4213],[134.8102,71.4818],[135.4233,71.5312],[135.3408,71.5659],[135.6216,71.6231],[136.4439,71.5759],[136.5469,71.4765],[136.7746,71.5234],[137.4922,71.3468],[137.4035,71.2847],[137.5325,71.2457],[137.7049,71.2847],[137.6924,71.2209],[137.5261,71.2203],[137.813,71.1196],[138.0744,71.134],[137.7393,71.2295],[138.0672,71.2249],[138.2395,71.2779],[137.9961,71.3022],[138.363,71.3189],[137.8286,71.3872],[138.0986,71.5814],[138.5003,71.6131],[138.404,71.5795],[138.4382,71.5386],[138.756,71.643],[139.0451,71.569],[139.1581,71.4486],[139.1165,71.4288],[139.1922,71.4151],[139.4434,71.4951],[140.0332,71.4721],[139.7345,71.6722],[139.6919,71.7918],[139.8093,71.8608],[139.3362,71.9495],[139.6345,71.9545],[139.8742,72.1782],[140.1321,72.1539],[140.1971,72.2138],[139.2567,72.179],[139.3499,72.1345],[139.094,72.2482],[139.5418,72.4976],[140.5765,72.4963],[141.1108,72.587],[140.9326,72.6007],[140.9915,72.7094],[140.5832,72.8675],[140.7258,72.8986],[142.2317,72.7016],[143.4868,72.7001],[145.4095,72.5559],[146.854,72.3542],[145.3529,72.3467],[144.9432,72.4382],[144.7083,72.3741],[144.5208,72.225],[144.3425,72.2938],[144.1055,72.2779],[144.4155,72.175],[145.0687,72.2643],[146.9292,72.3126],[145.9725,71.8563],[145.993,72.0297],[146.3469,72.1276],[146.0789,72.1704],[145.968,72.0705],[145.9417,72.155],[145.8494,72.1622],[145.8801,72.2191],[145.6133,72.2443],[145.7503,72.2096],[145.6211,72.0803],[145.7913,72.0283],[145.8057,71.929],[145.3294,71.871],[144.971,71.9803],[144.9744,71.9137],[145.216,71.8433],[144.8864,71.7714],[144.8932,71.6752],[145.3333,71.6611],[146.0363,71.7864],[147.1956,72.3299],[148.402,72.3109],[149.6113,72.1484],[150.0742,71.8942],[149.7095,71.7729],[149.369,71.9038],[149.1487,71.7714],[148.834,71.8123],[149.0394,71.7578],[148.8272,71.6752],[149.9533,71.6699],[150.1021,71.5947],[149.9517,71.5916],[149.9646,71.5294],[149.868,71.4622],[150.1172,71.5157],[150.6707,71.4902],[150.5151,71.3464],[150.0269,71.2226],[150.0467,71.2097],[150.4087,71.285],[150.657,71.3903],[150.7389,71.394],[150.5949,71.2779],[151.0331,71.394],[151.5912,71.3102],[152.1367,71.0173],[151.6815,70.9759],[152.5049,70.8478],[152.5408,70.7913],[155.4798,71.0616],[155.5298,70.9762],[155.6045,71.0657],[155.9364,71.0994],[157.9891,71.0475],[159.2378,70.8293],[159.8431,70.5815],[160.0942,70.3099],[159.9382,70.1285],[159.6886,70.134],[159.9146,70.0986],[159.863,69.9928],[159.6921,69.9109],[159.8011,69.807],[159.7691,69.762],[160.2559,69.7187],[160.3186,69.6542],[160.9151,69.6467],[161.0064,69.5773],[160.9212,69.4618],[161.0386,69.1949],[160.9629,69.1055],[161.4154,68.982],[161.1069,68.6052],[160.7581,68.5643],[160.8211,68.5274],[161.1341,68.5614],[161.347,68.7014],[161.3191,68.7902],[161.5741,68.9211],[161.3993,69.2213],[161.4631,69.2871],[161.4154,69.3314],[161.7026,69.4959],[162.0256,69.5512],[162.3272,69.702],[163.5848,69.6841],[164.027,69.7738],[164.4391,69.6208],[164.8343,69.5674],[165.6747,69.596],[166.8938,69.4959],[167.802,69.7752],[168.0833,69.7088],[167.9264,69.6542],[168.2541,69.5443],[168.1921,69.3799],[168.2883,69.2427],[169.3713,69.0766],[169.4539,68.8454],[169.6255,68.7772],[170.3511,68.8281],[170.6252,68.7486],[170.4492,68.8635],[170.6331,68.9182],[170.728,68.822],[170.6804,68.9404],[170.9793,69.0559],[171.0503,69.0277],[171.1594,69.0441],[171.0276,69.0548],[170.9001,69.1712],[170.9131,69.3041],[170.7485,69.3912],[170.6061,69.5898],[170.1607,69.6134],[170.2316,69.6886],[170.5918,69.7647],[170.5227,69.9385],[170.5568,70.0924],[170.4067,70.1129],[170.4816,70.142],[172.7254,69.9809],[173.2363,69.8187],[173.198,69.7834],[173.4793,69.8358],[173.2537,69.9187],[173.1641,69.8867],[173.2786,69.9418],[173.9285,69.8454],[175.7155,69.8815],[175.5297,69.8563],[175.9972,69.7694],[176.1577,69.8215],[175.7816,69.8853],[176.1276,69.8938],[176.2721,69.8187],[176.242,69.7744],[176.7345,69.6748],[178.7726,69.4152],[179.0677,69.3253],[178.6662,69.3833],[178.654,69.3174],[179.2615,69.2722],[179.9585,68.9957],[179.5481,69.113],[179.6921,69.0161],[180.0,68.981],[180.0,65.0662],[179.7796,65.0182],[179.4787,64.8227],[179.1712,64.7927],[178.5615,64.5915],[178.4856,64.6105],[178.7559,64.6822],[177.625,64.7202],[177.3894,64.8358],[177.4919,64.8501],[177.433,64.929],[176.9369,65.0828],[176.3063,65.0555],[176.5462,65.0009],[176.9585,65.0466],[177.3001,64.8227],[177.0398,64.7728],[176.6261,64.8679],[176.4358,64.8109],[176.0457,64.9628],[175.7146,64.7936],[175.0408,64.7781],[174.7503,64.6889],[174.4417,64.6924],[174.7717,64.6806],[175.1072,64.7648],[175.7117,64.7747],[176.0824,64.9189],[176.4237,64.7096],[176.1453,64.6276],[176.1145,64.59],[176.1143,64.5419],[176.4575,64.6924],[176.7429,64.5712],[176.9858,64.7111],[177.4919,64.7675],[177.3615,64.5484],[177.4536,64.4206],[177.8133,64.2542],[178.1838,64.2058],[178.0746,64.2542],[178.2826,64.354],[178.2,64.4402],[178.5886,64.0351],[178.4841,64.0709],[178.3826,64.001],[178.4924,63.9867],[178.3826,63.973],[178.6394,63.9464],[178.6432,64.001],[178.7593,63.623],[178.6086,63.6765],[178.7331,63.6083],[178.3552,63.6304],[178.2688,63.5654],[178.3723,63.5224],[178.7113,63.57],[178.7202,63.4765],[178.5955,63.4113],[178.699,63.3857],[178.8384,63.4349],[178.7542,63.5383],[178.777,63.5952],[179.0055,63.3214],[178.8482,63.4042],[178.8093,63.3505],[179.3865,63.1612],[179.4178,63.0681],[179.242,63.0065],[179.3162,62.9062],[179.5407,62.8489],[179.6091,62.7056],[179.563,62.6247],[179.4334,62.6161],[179.3491,62.5065],[179.1488,62.496],[179.1504,62.3419],[179.0736,62.2872],[178.9382,62.366],[178.061,62.5411],[177.3068,62.5821],[177.2659,62.6156],[177.3198,62.7459],[177.4578,62.8148],[177.189,62.7097],[176.9922,62.8695],[177.0422,62.7687],[176.9279,62.6729],[177.0501,62.5842],[177.2659,62.5883],[176.6619,62.5346],[176.5942,62.4858],[176.6421,62.4722],[176.2793,62.3171],[175.3064,62.0749],[175.3952,62.1227],[175.2581,62.1688],[175.251,62.0657],[175.1745,62.0219],[174.7651,61.9167],[174.8049,61.944],[174.5999,61.985],[174.7269,61.8863],[174.4898,61.8146],[174.073,61.8416],[174.0207,61.7969],[174.1066,61.7802],[173.8049,61.6498],[173.5446,61.7491],[173.4811,61.5552],[173.3312,61.5473],[173.1284,61.397],[172.8971,61.4723],[172.7156,61.4307],[172.9551,61.314],[172.6678,61.3345],[172.7668,61.2625],[172.6467,61.1911],[172.3382,61.211],[172.4344,61.1427],[172.263,61.1147],[172.4896,61.0812],[172.3726,61.0129],[172.0093,61.1011],[172.2009,60.9758],[172.0471,60.8607],[171.9578,60.9531],[171.9494,60.8483],[171.5369,60.807],[171.6326,60.7448],[171.4134,60.6902],[171.4679,60.7311],[171.3963,60.7829],[171.3724,60.6431],[171.1795,60.5589],[170.7507,60.5295],[170.8107,60.4984],[170.7173,60.4282],[170.5159,60.4506],[170.6621,60.332],[170.5023,60.2725],[170.4006,59.9656],[170.2651,59.9204],[169.9558,60.0592],[169.8488,60.1816],[169.9746,60.2322],[169.7552,60.2756],[169.6934,60.4165],[169.2642,60.5505],[169.3713,60.5673],[169.2144,60.6287],[169.1665,60.5673],[167.7681,60.553],[167.772,60.4967],[167.5923,60.4455],[167.3361,60.4711],[167.374,60.406],[167.1921,60.355],[167.0249,60.4277],[167.0481,60.3284],[166.8978,60.2998],[166.9318,60.259],[166.2451,59.8306],[166.1095,59.8275],[166.1028,59.9094],[166.1753,60.1203],[166.2854,60.1973],[166.2326,60.396],[166.3127,60.3927],[166.3733,60.4995],[166.0134,60.4404],[165.9241,60.3824],[165.9797,60.3757],[166.0408,60.4233],[166.0806,60.4374],[166.2121,60.4575],[165.6709,60.252],[165.445,60.2589],[165.445,60.1968],[165.2293,60.0972],[165.16,60.1291],[165.1917,60.1701],[164.9993,60.1353],[165.2121,59.9914],[164.8386,59.7874],[164.7017,59.9811],[164.4885,60.111],[164.3206,60.0886],[164.3391,59.9915],[164.1179,59.9414],[164.1904,59.8542],[164.0417,59.9075],[164.2048,59.9975],[163.6287,60.0466],[163.6831,59.9743],[163.7938,59.9914],[163.6885,59.8983],[163.3618,59.8275],[163.3901,59.6315],[163.1802,59.5583],[163.3215,59.411],[163.3125,59.2875],[163.0669,59.2341],[163.2619,59.0808],[163.1643,59.0337],[163.0745,59.1422],[162.8827,59.1328],[163.0685,58.9681],[162.8782,58.9065],[162.8899,58.9787],[162.8162,58.8872],[162.6766,58.8741],[162.7877,58.8319],[162.4053,58.6544],[162.1699,58.4059],[161.9932,58.0874],[162.082,57.8825],[162.4555,57.7844],[162.3545,57.6885],[162.5218,57.7542],[162.5298,57.9365],[162.69,57.9697],[163.2189,57.8135],[163.3295,57.7089],[163.0748,57.461],[162.8002,57.3464],[162.7859,57.1455],[162.8599,57.0514],[162.7835,56.763],[162.9672,56.7036],[163.239,56.733],[163.2503,56.4511],[163.3533,56.322],[163.3661,56.1807],[163.1179,56.1064],[163.0512,56.0054],[162.8216,56.0562],[162.5568,56.2285],[163.1161,56.5005],[163.0201,56.5376],[162.9099,56.4257],[162.6829,56.4839],[162.414,56.3839],[162.5925,56.2685],[162.0568,56.0691],[161.7641,55.5548],[161.813,55.1792],[162.1517,54.8626],[162.1276,54.7604],[161.7238,54.5094],[161.3119,54.4901],[161.1509,54.5973],[160.7412,54.5352],[160.053,54.1757],[159.9015,53.9819],[159.8182,53.6597],[159.9146,53.5908],[159.8729,53.6665],[159.9307,53.6451],[159.9605,53.4968],[159.791,53.5163],[159.9754,53.3316],[159.9146,53.2686],[159.9692,53.2147],[160.0176,53.2652],[160.0586,53.0974],[159.7715,53.2036],[159.825,53.2829],[159.1638,53.1349],[158.7087,52.8918],[158.5916,53.0622],[158.4378,53.0253],[158.4356,52.9197],[158.6471,52.8994],[158.4998,52.779],[158.5994,52.7138],[158.5647,52.6474],[158.4212,52.6591],[158.5304,52.4879],[158.4212,52.4121],[158.5435,52.4207],[158.5032,52.3581],[158.5579,52.3131],[158.3901,52.2262],[158.427,52.1843],[158.319,52.1303],[158.2869,51.9675],[157.9133,51.6313],[157.5369,51.4861],[157.4757,51.3615],[156.67,50.8639],[156.7615,51.078],[156.7081,51.0877],[156.7219,51.1955],[156.5236,51.3115],[156.4392,52.216],[156.2822,52.5294],[156.3723,52.4468],[156.4466,52.5114],[156.2657,52.5982],[156.1112,52.9354],[155.9547,53.7861],[155.728,54.4268],[155.5512,55.2842],[155.6862,56.0391],[155.9465,56.6219],[156.1253,56.832],[156.174,56.8459],[156.0825,56.7671],[156.0637,56.716],[156.2058,56.8543],[156.4613,56.9484],[156.5521,57.109],[156.6838,57.0483],[157.0013,57.4255],[156.9307,57.6584],[156.749,57.7296],[156.9815,57.8571],[157.2419,57.7705],[157.4699,57.8039],[157.6397,58.025],[158.2246,58.0255],[158.3382,57.953],[158.2288,58.0386],[159.1525,58.5079],[159.237,58.4678],[159.1937,58.542],[159.7278,58.883],[159.8035,59.0964],[160.3363,59.3611],[160.4973,59.5525],[160.8469,59.618],[161.4667,60.0322],[161.8972,60.203],[161.9386,60.4168],[162.2062,60.538],[162.7537,60.6459],[162.9167,60.76],[163.3248,60.8047],[163.3148,60.7217],[163.4362,60.8315],[163.751,60.8831],[163.7341,60.9385],[163.4873,61.0017],[164.0288,61.3466],[163.9523,61.4345],[163.7515,61.4433],[163.8661,61.6465],[164.0448,61.6834],[164.1272,62.2624],[164.5383,62.4511],[165.2254,62.3829],[165.2969,62.3226],[165.2873,62.3661],[165.1238,62.4506],[165.6509,62.4592],[165.11,62.4853],[164.4469,62.6894],[163.9084,62.5844],[163.3989,62.5759],[163.1677,62.4321],[163.3689,62.3277],[163.0915,62.2266],[163.1504,62.1133],[163.105,62.08],[163.1931,62.0666],[162.9767,61.7996],[163.3434,61.7057],[163.3265,61.6579],[163.1121,61.6159],[163.1121,61.5481],[163.0173,61.5166],[162.8598,61.6025],[162.9432,61.6501],[162.8388,61.7076],[162.6227,61.6591],[162.7748,61.5939],[162.4172,61.6758],[161.9864,61.3726],[161.8884,61.4307],[161.8902,61.3355],[161.8073,61.3722],[161.5671,61.1837],[161.4712,61.1956],[161.4458,61.121],[160.9151,60.8996],[160.7916,60.7177],[160.6868,60.7601],[160.4103,60.7061],[160.431,60.7492],[160.1859,60.5784],[160.147,60.662],[160.2196,60.6651],[160.2517,60.7724],[160.1701,60.8249],[160.2537,60.8246],[160.4442,61.0362],[159.7975,60.9311],[160.0001,61.1061],[159.9433,61.2438],[159.7756,61.2422],[159.9964,61.2843],[159.9102,61.3139],[160.1069,61.43],[160.035,61.459],[160.2851,61.5541],[160.2598,61.6251],[160.3188,61.6668],[160.2591,61.6904],[160.414,61.7648],[160.3457,61.9447],[160.039,61.8462],[159.8807,61.7052],[159.7077,61.721],[159.5772,61.6528],[159.5117,61.7004],[159.5656,61.8166],[159.4776,61.7636],[159.3561,61.8165],[159.4025,61.8531],[159.3599,61.893],[159.1178,61.9167],[158.8949,61.8944],[158.8372,61.8211],[158.2602,61.8259],[158.0802,61.734],[157.5373,61.7919],[157.3646,61.6854],[157.0276,61.6506],[156.9238,61.5518],[156.6704,61.516],[156.655,61.1968],[156.3739,61.1488],[155.9431,60.9226],[155.9136,60.7036],[155.8298,60.729],[155.4798,60.5339],[154.9524,60.3674],[154.6921,60.2013],[154.4876,59.9463],[154.5637,60.0937],[154.4078,60.0629],[154.4735,59.8793],[154.2208,59.8696],[154.2288,59.7304],[154.3683,59.5747],[154.2201,59.664],[154.075,59.5092],[154.1384,59.457],[154.2979,59.4426],[154.4023,59.535],[154.4269,59.4209],[154.5368,59.4228],[154.4288,59.547],[154.9629,59.4961],[155.2097,59.3439],[155.1496,59.2216],[155.1941,59.1758],[154.8133,59.1942],[154.7907,59.1313],[154.438,59.2155],[154.3327,59.1918],[154.3577,59.1106],[154.0487,59.0528],[153.692,59.1851],[153.7686,59.2466],[153.648,59.1908],[153.3692,59.2413],[153.3484,59.1536],[153.2835,59.149],[153.3373,59.0899],[153.0067,59.0606],[152.8999,58.9036],[152.5567,58.95],[152.3633,59.0597],[152.0203,58.875],[151.3537,58.8326],[151.0881,59.102],[152.3222,59.2074],[152.1367,59.2962],[151.7343,59.3073],[151.7703,59.3497],[151.6655,59.4594],[151.3961,59.6042],[150.9067,59.5594],[150.9418,59.4612],[150.7799,59.4323],[150.7656,59.4843],[150.5037,59.4887],[150.7743,59.5619],[150.6013,59.541],[150.306,59.6462],[149.3753,59.7722],[149.3268,59.7586],[149.3786,59.7247],[149.0407,59.6429],[149.2121,59.4691],[148.8923,59.4668],[148.846,59.5527],[148.7434,59.4716],[148.7357,59.3684],[148.9899,59.3754],[148.9345,59.2333],[148.4375,59.2623],[148.3937,59.3793],[148.2194,59.4089],[147.8455,59.3766],[147.7887,59.3439],[147.8255,59.2696],[147.5911,59.3041],[147.546,59.2375],[146.5039,59.4631],[146.3191,59.4017],[146.323,59.18],[146.0503,59.1389],[145.825,59.2413],[145.957,59.4167],[145.8181,59.416],[145.8089,59.3668],[145.6747,59.4364],[145.0008,59.3696],[143.9039,59.4227],[143.4936,59.3185],[143.1648,59.381],[142.2624,59.1246],[142.0153,58.9973],[141.5837,58.6177],[140.9043,58.3828],[140.6668,58.1911],[140.4957,57.8448],[140.0348,57.7131],[139.7897,57.4827],[139.6206,57.4673],[139.4185,57.2972],[139.1965,57.2726],[138.933,57.135],[138.8851,57.0191],[138.6056,56.9452],[138.5817,56.7845],[138.5498,56.8595],[138.4544,56.8393],[138.2605,56.6158],[138.1296,56.5856],[138.1251,56.5069],[138.2578,56.4661],[138.2235,56.4242],[138.0694,56.4378],[137.9141,56.3595],[137.7236,56.1363],[137.4437,56.0485],[137.3908,55.9456],[137.2956,55.9613],[136.7733,55.6605],[136.4302,55.5652],[136.1616,55.3183],[135.4691,55.0567],[135.1733,54.8213],[135.2442,54.7012],[135.6541,54.666],[135.7502,54.571],[136.5349,54.5955],[136.6624,54.6852],[136.6814,54.6147],[136.8235,54.6475],[136.8833,54.5914],[136.8075,54.5163],[136.8408,54.4323],[136.7386,54.4138],[136.8206,54.3161],[136.7523,54.2835],[136.8145,54.1593],[136.6592,53.935],[136.6847,53.8085],[136.7752,53.7731],[136.8987,53.847],[137.1857,53.8511],[137.2909,54.0357],[137.157,54.044],[137.0614,54.1457],[137.3948,54.3083],[137.7358,54.321],[137.4839,54.0847],[137.4369,54.1457],[137.3079,54.1184],[137.3201,54.0495],[137.5905,53.9561],[137.8628,53.9676],[137.6091,53.8344],[137.488,53.6706],[137.2176,53.6006],[137.3351,53.5294],[137.9182,53.5866],[138.1501,53.6728],[138.2842,53.7385],[138.3664,53.9095],[138.5786,53.9993],[138.5799,53.8283],[138.2156,53.4918],[138.4392,53.5137],[138.6558,53.7318],[138.7718,54.0156],[138.7671,54.1047],[138.6647,54.0775],[138.7466,54.2425],[138.6436,54.2972],[139.3023,54.1906],[139.7676,54.3039],[139.8159,54.2152],[140.2406,54.057],[140.2357,54.0013],[140.3308,53.9703],[140.2573,53.8686],[140.5812,53.6393],[141.0978,53.4748],[140.9497,53.489],[140.9309,53.4363],[141.4075,53.3038],[141.3578,53.2209],[141.424,53.2178],[141.433,53.1489],[141.3644,53.0734],[141.1864,53.0502],[141.2616,53.0359],[141.1888,52.9875],[140.8607,53.1185],[140.7067,53.111],[140.9334,53.0316],[141.0825,52.884],[141.2606,52.8522],[141.201,52.7774],[141.3163,52.6591],[141.1282,52.4229],[141.5558,52.1623],[141.355,52.1059],[141.3026,52.0217],[141.4255,51.9255],[141.2002,51.8237],[141.1092,51.6788],[140.9153,51.6238],[140.9014,51.4941],[140.8001,51.4542],[140.896,51.4288],[140.8738,51.3718],[140.6863,51.3128],[140.7067,51.0317],[140.5298,50.8624],[140.4634,50.699],[140.5149,50.6171],[140.4421,50.5301],[140.5454,50.3441],[140.523,50.1511],[140.6909,50.0803],[140.4152,49.8746],[140.535,49.7774],[140.5608,49.5754],[140.4356,49.2944],[140.3359,49.2875],[140.3902,49.2751],[140.3565,49.0958],[140.2949,49.0883],[140.3436,49.0471],[140.2192,49.0139],[140.398,48.9927],[140.213,48.7674],[140.177,48.4618],[139.2617,47.7879],[138.9695,47.3175],[138.5628,47.0299],[138.3491,46.6643],[138.3446,46.5487],[138.2024,46.4543],[138.034,46.156],[137.1445,45.3747],[136.8108,45.1932],[136.4436,44.7851],[136.3546,44.7888],[136.1653,44.4965],[135.8379,44.3627],[135.6559,44.1687],[135.624,44.0385],[135.512,43.9217],[135.4636,43.9497],[135.5188,43.8808],[135.4258,43.7632],[135.1822,43.7106],[135.2239,43.6446],[135.1399,43.5084],[134.1937,43.0798],[133.9268,42.8827],[133.7173,42.8166],[133.5934,42.8529],[133.1577,42.6884],[133.0244,42.6994],[133.0789,42.7498],[132.9898,42.827],[132.8159,42.7564],[132.7634,42.9081],[132.5779,42.8404],[132.4044,42.9423],[132.3115,42.8454],[132.2911,43.0856],[132.3817,43.1912],[132.3077,43.2382],[132.3458,43.2979],[131.9299,43.0696],[131.9207,43.1204],[131.8499,43.1005],[132.052,43.3148],[131.9684,43.2706],[131.8267,43.338],[131.565,42.9963],[131.3939,42.945],[131.4004,42.8734],[131.4717,42.8732],[131.2731,42.7773],[131.2195,42.5547],[131.1203,42.6672],[130.8897,42.5996],[130.8155,42.6342],[130.9497,42.6531],[130.6567,42.6641],[130.8729,42.5277],[130.7036,42.2952],[130.5308,42.5305],[130.5719,42.6218],[130.3797,42.6967],[130.5865,42.8173],[131.103,42.9104],[131.0783,43.0318],[131.184,43.1208],[131.2809,43.3802],[131.1607,43.5328],[131.2645,44.0542],[131.0658,44.682],[130.9334,44.8417],[131.4338,44.9613],[131.6091,45.0897],[131.6278,45.1985],[131.8531,45.3376],[131.9688,45.234],[132.9212,45.0279],[133.0988,45.1078],[133.1798,45.4938],[133.4773,45.6277],[133.4773,45.8201],[133.6581,45.9345],[133.6874,46.1418],[133.9025,46.259],[133.8634,46.3393],[133.9339,46.3908],[133.8458,46.4707],[134.0148,46.665],[134.0692,46.9812],[134.2273,47.1177],[134.1836,47.3275],[134.5569,47.4712],[134.7726,47.7107],[134.5594,48.0095],[134.7187,48.2634],[134.3863,48.3813],[133.7379,48.2511],[133.5244,48.0954],[133.092,48.1068],[132.8059,47.9362],[132.6746,47.9506],[132.5247,47.7075],[131.6033,47.6615],[131.4409,47.7412],[130.9657,47.7039],[130.907,47.8843],[130.6747,48.0639],[130.824,48.2942],[130.759,48.4857],[130.6264,48.4823],[130.5297,48.6163],[130.6743,48.8708],[130.2018,48.8826],[129.9265,49.0257],[129.7112,49.2742],[129.5518,49.2905],[129.4806,49.4213],[129.3787,49.425],[129.341,49.3412],[129.2179,49.3908],[129.1154,49.3488],[128.9982,49.4413],[128.7601,49.4709],[128.8017,49.5651],[128.6719,49.6114],[128.1983,49.539],[127.8547,49.5849],[127.5387,49.7899],[127.4867,50.0256],[127.5906,50.2087],[127.3307,50.3282],[127.3585,50.4151],[127.289,50.466],[127.3671,50.5778],[127.2874,50.751],[126.9318,51.0638],[126.9052,51.2081],[126.9722,51.324],[126.8699,51.2517],[126.809,51.2891],[126.9094,51.3911],[126.8003,51.419],[126.8074,51.5342],[126.6769,51.5766],[126.7256,51.7087],[126.4393,51.9979],[126.556,52.1306],[126.3167,52.1998],[126.4393,52.2753],[126.3157,52.3162],[126.3507,52.3769],[126.2003,52.4671],[126.2123,52.533],[125.9908,52.5864],[126.088,52.7754],[125.9769,52.765],[125.8374,52.9067],[125.6465,52.8849],[125.7335,52.9817],[125.6214,53.0621],[125.5213,53.0424],[125.0737,53.2122],[124.8977,53.1855],[124.8701,53.108],[123.6143,53.5633],[123.5419,53.5141],[123.2526,53.5678],[122.8597,53.4739],[122.3168,53.496],[121.2035,53.2767],[120.8743,53.2802],[120.033,52.7607],[120.0794,52.59],[120.454,52.639],[120.724,52.5422],[120.6262,52.3468],[120.7841,52.158],[120.7058,51.98],[120.1005,51.6599],[119.8953,51.384],[119.9157,51.3307],[119.7622,51.215],[119.7408,51.0715],[119.518,50.9048],[119.4967,50.7371],[119.1376,50.3925],[119.3566,50.3408],[119.3162,50.0927],[119.0917,49.9866],[118.6444,49.9546],[117.8738,49.5132],[117.0576,49.6729],[116.5754,49.9218],[116.2176,50.0138],[115.7163,49.8778],[115.3878,49.8911],[114.7537,50.2362],[114.2863,50.2769],[113.5797,50.0199],[113.1827,49.802],[113.0608,49.596],[112.7771,49.5014],[112.4733,49.5341],[112.0302,49.4119],[111.3385,49.3647],[110.7314,49.1377],[110.3712,49.2418],[110.1814,49.162],[109.2867,49.3385],[108.5381,49.3274],[107.9274,49.67],[107.9465,49.9335],[107.1922,50.006],[106.9737,50.1964],[106.6565,50.327],[106.2223,50.2924],[105.9849,50.3998],[105.3286,50.4765],[104.4058,50.3005],[104.1217,50.1483],[103.7853,50.1861],[103.6014,50.1335],[103.2768,50.1976],[103.2017,50.297],[102.9274,50.303],[102.3029,50.5639],[102.3294,50.7188],[102.2168,50.7989],[102.2297,50.9793],[102.1465,51.0976],[102.1934,51.3072],[102.0747,51.3748],[101.5264,51.4758],[101.3502,51.4505],[100.5109,51.7269],[99.9179,51.7495],[99.7097,51.8806],[99.3239,51.9342],[98.9276,52.1296],[98.6827,51.8195],[98.3322,51.7183],[98.2204,51.4752],[98.0397,51.4573],[97.8064,51.0011],[97.9846,50.8469],[97.944,50.7745],[98.0385,50.623],[98.2935,50.5186],[98.2625,50.2838],[98.048,50.023],[97.8299,49.9233],[97.5666,49.9168],[97.5736,49.8475],[97.3433,49.7342],[97.153,49.7502],[96.9692,49.8867],[96.7019,49.9138],[96.5851,49.8575],[96.056,49.9988],[95.9463,49.9385],[95.8279,50.0202],[95.5007,49.8867],[95.0764,49.9455],[94.9216,50.0459],[94.6035,50.0197],[94.3545,50.2236],[94.2587,50.5575],[93.1049,50.5988],[93.0114,50.6233],[92.9617,50.7779],[92.7961,50.788],[92.6498,50.6741],[92.3609,50.8684],[92.1589,50.6891],[91.7498,50.6841],[91.4157,50.4614],[91.012,50.4253],[90.6839,50.2162],[90.4752,50.2146],[90.0205,50.0707],[89.9694,49.9671],[89.6677,49.9273],[89.6153,49.8419],[89.7024,49.72],[89.3719,49.5817],[89.2164,49.6345],[89.1953,49.5215],[88.9753,49.4558],[88.8682,49.5381],[88.8706,49.436],[88.6158,49.4929],[88.2,49.4543],[88.1155,49.3566],[88.144,49.2707]]],[[[22.7672,54.3563],[19.6803,54.4367],[19.6095,54.4567],[19.9002,54.6671],[19.9767,54.9646],[20.4824,54.9755],[20.9246,55.2827],[20.9895,55.2704],[20.5309,54.9647],[21.0907,54.9016],[21.2434,54.9612],[21.1834,55.2017],[21.3748,55.29],[21.5039,55.1944],[22.0034,55.0935],[22.05,55.0335],[22.5807,55.0576],[22.8443,54.8323],[22.7248,54.7234],[22.6817,54.5699],[22.6804,54.4532],[22.7672,54.3563]]],[[[33.6199,45.9508],[33.6703,46.2181],[33.8019,46.2027],[34.3339,46.0697],[34.4646,45.9553],[34.6886,45.974],[34.81,45.785],[35.0019,45.729],[35.3322,45.3712],[35.4807,45.2978],[35.716,45.3406],[35.8333,45.4709],[35.986,45.3627],[36.284,45.4766],[36.5833,45.4274],[36.6384,45.3513],[36.5025,45.3469],[36.4373,45.272],[36.4401,45.0675],[35.848,44.9924],[35.7064,45.0947],[35.5062,45.1135],[35.4081,45.0625],[35.4354,45.0048],[35.3672,44.9433],[35.256,44.9587],[35.0808,44.7938],[34.721,44.811],[34.469,44.7298],[34.3313,44.5455],[34.1026,44.4251],[33.721,44.3996],[33.3723,44.5765],[33.5715,44.6206],[33.5163,44.6343],[33.5163,44.7851],[33.6196,44.9315],[33.5374,45.1174],[33.3965,45.1898],[33.2596,45.1561],[32.8993,45.3542],[32.5915,45.3201],[32.4816,45.4089],[33.1692,45.7844],[33.2654,45.7538],[33.4822,45.8545],[33.6917,45.8607],[33.777,45.9296],[33.6199,45.9508]]],[[[-180.0,65.0662],[-180.0,68.9824],[-179.5799,68.9086],[-179.5228,68.9645],[-179.3195,68.812],[-178.8448,68.7524],[-178.4849,68.5915],[-178.7246,68.6757],[-178.6999,68.5432],[-178.0214,68.416],[-177.9505,68.3377],[-178.0737,68.2593],[-177.7047,68.3445],[-178.3751,68.5574],[-177.4923,68.2917],[-177.7656,68.2626],[-177.6347,68.1953],[-177.3381,68.2446],[-177.1735,68.1987],[-177.2591,68.2111],[-177.2187,68.1396],[-177.0754,68.1643],[-176.5645,68.0103],[-176.725,68.0379],[-176.7893,67.9786],[-176.5394,67.8951],[-176.2088,67.9018],[-176.5333,68.003],[-175.9207,67.851],[-176.1159,67.8065],[-176.0697,67.7273],[-176.3409,67.6959],[-176.2058,67.6452],[-175.6818,67.5896],[-176.012,67.7273],[-175.824,67.813],[-175.2655,67.6586],[-175.2908,67.6056],[-175.1268,67.4999],[-175.2265,67.5326],[-175.1724,67.4351],[-175.3669,67.3578],[-175.1596,67.3375],[-174.9689,67.4247],[-175.0798,67.4811],[-174.8061,67.3647],[-174.7564,67.3032],[-174.8603,67.2755],[-174.9076,67.0374],[-174.7,66.9165],[-174.7629,66.8994],[-174.6878,66.7324],[-174.9713,66.6654],[-174.4357,66.5315],[-174.3952,66.4745],[-174.4657,66.4014],[-174.3894,66.3375],[-174.4635,66.2797],[-174.3537,66.277],[-174.2961,66.3425],[-174.3682,66.3375],[-174.166,66.3994],[-174.2056,66.4726],[-174.0159,66.4722],[-173.9292,66.3408],[-174.0189,66.3054],[-173.9993,66.2193],[-173.7965,66.308],[-173.8954,66.3364],[-173.7053,66.3705],[-173.6911,66.4391],[-174.2639,66.5659],[-173.9306,66.6676],[-174.0262,66.9611],[-174.612,67.0614],[-173.6465,67.1156],[-173.4466,67.0746],[-173.4636,67.0295],[-173.3894,67.0785],[-173.0713,67.0442],[-173.2722,67.052],[-173.1434,66.9996],[-173.295,66.9813],[-173.3025,66.8221],[-173.0866,66.8467],[-173.2265,66.9109],[-173.074,66.9931],[-173.0512,66.9341],[-172.7823,66.894],[-172.3625,66.9332],[-173.0352,67.0234],[-172.9863,67.0392],[-171.7185,66.9508],[-171.6402,66.9298],[-171.6942,66.8796],[-171.63,66.8301],[-171.3534,66.7719],[-171.3634,66.6748],[-170.3852,66.3165],[-170.6257,66.2348],[-170.2743,66.2904],[-170.1062,66.193],[-170.3384,66.1858],[-170.1363,66.1392],[-169.9227,66.1503],[-170.0436,66.1933],[-169.9521,66.1838],[-169.6414,66.0683],[-169.7186,66.0061],[-169.9815,66.039],[-170.6063,65.8613],[-170.5159,65.8301],[-170.5712,65.7612],[-170.4888,65.6708],[-170.5882,65.6046],[-170.8754,65.6234],[-171.4633,65.8326],[-171.2639,65.6556],[-170.9818,65.5921],[-171.0387,65.467],[-171.2509,65.522],[-172.0342,65.4744],[-171.7436,65.4997],[-172.2601,65.5452],[-172.206,65.5808],[-172.3224,65.6221],[-172.2905,65.6662],[-172.8596,65.6999],[-172.3897,65.5818],[-172.3197,65.4653],[-172.428,65.4705],[-172.3886,65.4322],[-172.0934,65.4836],[-172.2029,65.3245],[-172.1885,65.2425],[-172.702,65.2476],[-172.2015,65.2169],[-172.1709,65.1523],[-172.2563,65.1374],[-172.2268,65.0998],[-172.0801,65.0759],[-172.323,64.9483],[-172.7628,64.8379],[-173.0001,64.8553],[-173.1641,64.7646],[-172.8057,64.8034],[-172.7553,64.7335],[-173.0429,64.6597],[-172.8446,64.6489],[-172.9672,64.5611],[-172.8159,64.6117],[-172.4651,64.5584],[-172.2202,64.4073],[-172.5901,64.3704],[-172.8833,64.4947],[-173.0131,64.4616],[-172.7883,64.4379],[-172.8222,64.3204],[-172.9515,64.3388],[-172.9241,64.2644],[-173.1063,64.241],[-173.3683,64.2855],[-173.2637,64.446],[-173.4145,64.6166],[-173.3531,64.5075],[-173.3852,64.395],[-173.6354,64.3322],[-173.9893,64.4123],[-174.0423,64.5283],[-174.3468,64.644],[-174.3059,64.6662],[-174.6523,64.7253],[-174.592,64.8174],[-174.6532,64.8979],[-174.7231,64.8072],[-174.898,64.7981],[-174.9519,64.8615],[-174.9878,64.7663],[-175.4115,64.7713],[-175.4568,64.7972],[-175.3684,64.8465],[-175.8647,64.9992],[-175.7675,65.0375],[-175.8105,65.0872],[-175.735,65.1468],[-175.8816,65.2585],[-175.9088,65.403],[-176.0441,65.4521],[-176.9766,65.6081],[-177.4159,65.4407],[-178.4611,65.4727],[-178.5323,65.523],[-178.4242,65.7129],[-178.6282,65.7295],[-178.9033,65.9196],[-178.9784,66.0493],[-178.6843,66.0126],[-178.6824,66.1019],[-178.4957,66.1401],[-178.5402,66.2684],[-178.4771,66.3828],[-178.6037,66.3608],[-178.7851,66.1672],[-178.9824,66.1589],[-179.1177,66.2427],[-179.082,66.3062],[-179.1643,66.4144],[-179.1715,66.2895],[-179.424,66.3441],[-179.2179,66.1822],[-179.252,66.1452],[-179.5746,66.1113],[-179.693,66.1839],[-179.8287,65.9468],[-179.7667,65.8198],[-179.277,65.6303],[-179.3213,65.5745],[-179.2605,65.5322],[-179.499,65.3957],[-179.5242,65.2354],[-179.6631,65.1413],[-180.0,65.0662]]],[[[180.0,71.5364],[180.0,70.9924],[179.807,70.9131],[178.7933,70.805],[178.6227,71.0377],[178.9054,71.237],[180.0,71.5364]]],[[[-180.0,70.992],[-180.0,71.5367],[-179.736,71.5864],[-178.3948,71.5407],[-177.4434,71.237],[-177.9305,71.0414],[-179.3421,70.908],[-180.0,70.992]]],[[[131.9201,43.0195],[131.8833,42.9608],[131.757,42.9901],[131.8265,43.0652],[131.9201,43.0195]]],[[[142.5291,54.2972],[142.5432,54.2372],[142.6351,54.2661],[142.7232,54.4256],[143.0129,54.1191],[142.8518,53.872],[142.9338,53.8577],[143.0021,53.7006],[142.9268,53.8298],[142.9065,53.7668],[143.0708,53.5982],[142.9885,53.5629],[143.1211,53.5181],[143.0941,53.3819],[143.2106,53.3632],[143.3605,52.8714],[143.2969,52.4537],[143.1937,52.337],[143.1978,52.4258],[143.2723,52.4633],[143.2614,52.5976],[143.1187,52.3378],[143.1775,52.3138],[143.1514,52.1201],[143.0977,52.1042],[143.1255,51.967],[143.1631,51.874],[143.2385,51.8915],[143.3179,51.7064],[143.2241,51.5222],[143.3379,51.5084],[143.3651,51.645],[143.4478,51.5084],[143.4749,51.3432],[143.3794,51.3501],[143.4831,51.2136],[143.5217,51.2851],[143.7903,50.3092],[144.0027,50.0128],[144.385,49.0727],[144.6847,48.8732],[144.7566,48.6433],[144.6773,48.6564],[144.5037,48.9487],[144.0579,49.2534],[143.2586,49.3934],[143.3313,49.3139],[143.6668,49.3149],[143.1742,49.246],[143.0088,49.123],[142.9885,48.9167],[142.5374,48.0101],[142.5453,47.7667],[142.714,47.4372],[142.8786,47.3894],[143.0164,47.2536],[143.0977,46.8756],[143.1741,46.8627],[143.0838,46.8135],[143.1729,46.7078],[143.3897,46.7081],[143.1937,46.78],[143.1971,46.8408],[143.4782,46.8284],[143.5576,46.3964],[143.6257,46.3747],[143.4305,46.0252],[143.3379,46.4094],[143.3687,46.5555],[143.2764,46.5602],[143.3032,46.5144],[143.1595,46.5983],[142.7966,46.5944],[142.7246,46.7408],[142.6184,46.7186],[142.4065,46.5537],[142.2017,46.0307],[142.0853,45.9008],[141.9326,46.0358],[141.8142,46.5384],[142.0567,47.0537],[141.9658,47.6125],[142.1911,47.9667],[142.1331,48.3337],[141.8574,48.7742],[141.9673,48.8624],[142.125,49.4623],[142.1738,50.0864],[142.1455,50.3638],[142.0414,50.551],[142.097,50.8219],[142.2692,51.1124],[142.0789,51.4714],[141.6868,51.7473],[141.823,51.7442],[141.639,51.8845],[141.6999,52.1657],[141.6419,52.3182],[141.8438,52.5908],[141.9284,53.0207],[141.7688,53.3716],[142.2411,53.5294],[142.2639,53.3801],[142.4553,53.3803],[142.6873,53.5294],[142.514,53.5456],[142.4977,53.6583],[142.7185,53.6402],[142.8045,53.707],[142.7391,53.8457],[142.6042,53.6976],[142.7083,53.9482],[142.2826,54.3039],[142.5291,54.2972]]],[[[28.6346,60.6014],[28.5755,60.5804],[28.561,60.6295],[28.6045,60.645],[28.6346,60.6014]]],[[[-172.4613,64.8276],[-172.0434,64.7512],[-172.6332,64.6844],[-172.4613,64.8276]]],[[[70.1306,66.5563],[69.8706,66.4779],[69.5454,66.591],[69.5752,66.6383],[69.4246,66.7684],[69.1307,66.7966],[69.473,66.7977],[69.5168,66.739],[69.6355,66.6938],[69.5404,66.7637],[70.0498,66.7089],[70.0798,66.6391],[70.0271,66.6252],[70.1306,66.5563]]],[[[51.1717,68.5015],[51.4983,68.4886],[50.7925,68.3793],[51.1717,68.5015]]],[[[55.2398,68.9274],[55.5066,68.9138],[55.2254,68.9138],[55.2398,68.9274]]],[[[54.6289,69.0058],[54.6979,68.982],[54.5708,68.9641],[54.6289,69.0058]]],[[[161.3191,69.2427],[161.515,68.9346],[161.4092,68.8933],[161.4556,69.001],[161.1348,69.0919],[161.169,69.3253],[161.0659,69.4174],[161.0925,69.4648],[161.3745,69.5459],[161.3887,69.4618],[161.2925,69.414],[161.3744,69.296],[161.3191,69.2427]]],[[[161.6311,69.5611],[161.6157,69.4504],[161.3607,69.414],[161.4256,69.465],[161.3948,69.5921],[161.4751,69.638],[161.6311,69.5611]]],[[[71.3534,73.3852],[71.3425,73.3314],[71.1375,73.2927],[71.2495,73.4179],[71.3534,73.3852]]],[[[51.4095,71.8061],[51.4396,71.9422],[51.61,72.0917],[51.8657,72.1587],[52.0667,72.0743],[52.1878,72.1292],[52.3684,72.0753],[52.3684,72.1624],[52.4901,72.1642],[52.402,72.2232],[52.4845,72.2096],[52.4165,72.2893],[52.5876,72.2642],[52.6843,72.3226],[52.5807,72.3741],[52.7229,72.3452],[52.8682,72.3467],[52.69,72.3672],[52.6841,72.4469],[52.8203,72.4504],[52.68,72.4787],[53.1021,72.6007],[52.724,72.559],[52.8118,72.6139],[52.7549,72.6384],[53.2181,72.6484],[52.3753,72.7304],[52.6167,72.8632],[53.0269,72.925],[53.382,72.8886],[53.1419,72.9625],[53.1528,73.0142],[53.382,73.0115],[53.1219,73.1009],[53.3225,73.2209],[53.7532,73.2989],[54.1908,73.2722],[54.9348,73.4254],[55.3042,73.3393],[56.4352,73.2301],[56.582,73.1296],[55.8084,73.0661],[56.4662,73.0525],[56.3772,73.0067],[55.6165,72.9637],[56.2518,72.9724],[56.2199,72.8266],[56.0627,72.7778],[55.4807,72.8058],[55.4317,72.7856],[55.8107,72.7584],[55.9461,72.6689],[55.6165,72.6968],[55.7235,72.6383],[55.6227,72.6205],[55.6848,72.5733],[55.6182,72.5422],[55.2671,72.587],[55.5427,72.5268],[55.5361,72.4725],[55.1156,72.4504],[55.4657,72.4362],[55.4756,72.3706],[55.377,72.3027],[55.575,72.1997],[55.3428,72.0656],[55.4526,72.0588],[55.3496,71.9763],[55.3905,71.9427],[55.2254,71.929],[55.5064,71.898],[55.6721,71.611],[56.1057,71.259],[57.0387,70.8698],[57.4668,70.818],[57.6387,70.7299],[57.4326,70.7436],[57.5393,70.7048],[57.3978,70.6262],[57.4525,70.6064],[56.7405,70.7026],[57.3433,70.5716],[57.2957,70.5647],[56.5853,70.6423],[56.4935,70.6951],[56.5521,70.754],[56.1992,70.7094],[56.3018,70.6815],[56.238,70.6531],[56.4336,70.6762],[56.6546,70.59],[56.514,70.5449],[56.4006,70.5639],[56.5625,70.579],[56.041,70.6479],[56.1782,70.6098],[56.1315,70.5959],[55.8084,70.6951],[56.0479,70.5853],[55.7192,70.6114],[55.6253,70.6337],[55.6028,70.6479],[55.7915,70.6337],[55.738,70.7076],[55.5994,70.7214],[55.6937,70.6987],[55.7468,70.6479],[55.4048,70.7504],[55.3496,70.7026],[55.4207,70.6962],[55.4725,70.6541],[55.25,70.6785],[55.2956,70.6064],[55.1626,70.5531],[54.5134,70.8254],[54.5681,70.777],[54.4788,70.736],[54.7674,70.6479],[54.287,70.777],[54.2251,70.7296],[53.8548,70.8222],[53.8898,70.7845],[53.5446,70.8543],[53.5397,70.805],[53.3001,70.8664],[53.5768,70.8887],[53.7048,70.8459],[53.7246,70.9688],[53.5017,71.0944],[53.9043,71.0546],[53.8071,71.134],[54.244,71.1229],[53.9922,71.1606],[54.1641,71.2097],[54.0645,71.237],[53.943,71.1764],[53.801,71.2097],[53.7959,71.1553],[53.4509,71.2643],[53.9512,71.4622],[53.4133,71.3118],[53.2517,71.456],[53.4441,71.5455],[53.3478,71.5675],[53.113,71.4224],[53.0296,71.4996],[53.0387,71.4428],[52.8823,71.394],[52.8213,71.4699],[52.6099,71.4687],[52.6438,71.5461],[52.5472,71.6348],[52.3684,71.5349],[52.4163,71.4765],[52.2804,71.5137],[52.2688,71.588],[52.1419,71.5455],[52.2791,71.4765],[51.8403,71.456],[51.5324,71.5659],[51.4095,71.8061]]],[[[127.4048,73.5186],[127.6909,73.5429],[128.0633,73.4914],[127.7751,73.4926],[127.4048,73.5186]]],[[[86.8923,73.6967],[86.7839,73.6082],[86.3989,73.5944],[86.5096,73.6418],[86.8923,73.6967]]],[[[96.6986,75.9958],[97.3348,76.1087],[97.0474,76.0063],[96.6986,75.9958]]],[[[95.1016,76.2254],[95.1973,76.164],[95.006,76.1777],[95.1016,76.2254]]],[[[94.9992,76.2733],[94.8489,76.1861],[94.4102,76.2124],[94.7787,76.2109],[94.7454,76.2596],[94.9992,76.2733]]],[[[96.3833,76.3353],[96.7246,76.3464],[96.7669,76.3353],[96.3833,76.3353]]],[[[96.7874,76.2124],[97.0413,76.2391],[96.7609,76.1764],[96.716,76.2087],[96.854,76.3557],[97.0755,76.308],[96.8595,76.2722],[96.7874,76.2124]]],[[[93.9441,76.6164],[94.3623,76.5749],[93.8683,76.5886],[93.9441,76.6164]]],[[[95.1221,76.7189],[95.3275,76.6643],[94.8176,76.654],[95.1221,76.7189]]],[[[56.987,74.6905],[56.6028,74.6973],[56.4168,74.7531],[56.466,74.7993],[55.8327,74.8],[56.6785,74.9487],[56.2949,74.9648],[56.4665,75.0128],[56.4206,75.0373],[55.9033,74.9913],[55.9461,75.074],[55.7263,75.0815],[56.0711,75.2189],[56.2336,75.1976],[56.1736,75.1502],[56.3713,75.1882],[56.4458,75.0673],[56.5304,75.0784],[56.9071,75.2402],[56.758,75.3184],[57.0462,75.3981],[57.7411,75.3279],[57.5008,75.4992],[58.1647,75.5784],[58.1468,75.6289],[57.9255,75.629],[58.6045,75.7326],[58.5361,75.76],[58.931,75.8676],[60.3477,76.0057],[60.0427,76.0541],[60.2681,76.1101],[60.8384,76.123],[60.4684,76.0131],[60.7347,76.0054],[61.1458,76.1161],[60.8997,76.1572],[61.0769,76.28],[62.3825,76.2712],[62.3889,76.1971],[62.5037,76.1777],[62.7795,76.2707],[62.9568,76.2069],[63.7192,76.3497],[64.0908,76.3128],[65.4849,76.5749],[65.9988,76.5334],[65.7534,76.6828],[66.6541,76.9007],[67.5881,77.0134],[68.4629,76.9667],[68.8086,76.8691],[68.7591,76.8274],[69.0339,76.7121],[68.7876,76.5886],[68.9383,76.5681],[68.1777,76.3146],[68.2879,76.2813],[63.7617,75.6416],[63.6484,75.7195],[63.552,75.7115],[63.6204,75.6911],[63.3044,75.5886],[61.6942,75.3757],[61.654,75.2795],[61.4817,75.2235],[61.3796,75.2597],[61.3796,75.3342],[61.2766,75.3279],[61.2717,75.2635],[61.1074,75.1977],[60.8128,75.1461],[60.7248,75.0277],[60.5915,75.0342],[60.5711,75.1179],[60.416,75.0109],[59.9273,75.0058],[60.6875,74.9238],[60.1941,74.855],[60.3723,74.7935],[60.2764,74.7497],[59.9338,74.7253],[59.5088,74.7998],[59.8726,74.6768],[59.7552,74.5875],[59.0905,74.7383],[59.2898,74.6426],[59.0837,74.6489],[59.2214,74.6154],[59.0912,74.4949],[59.1458,74.444],[58.1868,74.5812],[58.6387,74.4236],[58.5705,74.3889],[58.728,74.3],[58.6803,74.2517],[58.728,74.2386],[58.5361,74.2386],[58.659,74.2175],[58.5083,74.2175],[58.5908,74.184],[58.5295,74.1718],[58.2922,74.2216],[58.2483,74.1902],[58.3006,74.1606],[58.522,74.1492],[58.308,74.0876],[58.1621,74.1504],[58.0974,74.0599],[58.2134,74.0084],[58.1233,73.9867],[57.7393,74.0509],[57.5317,74.1918],[57.4121,74.184],[57.5357,74.094],[57.2608,74.0803],[57.5477,74.0608],[57.9119,73.9158],[57.8094,73.8954],[57.946,73.8066],[57.7487,73.726],[57.3954,73.8455],[56.5557,73.8886],[57.3499,73.8276],[57.6175,73.6689],[57.3501,73.5534],[56.7351,73.6802],[56.8504,73.6148],[56.7468,73.6074],[57.2376,73.5096],[57.2539,73.4572],[56.9085,73.3147],[56.7493,73.3615],[56.7952,73.3206],[56.7298,73.2445],[56.1209,73.29],[55.9175,73.4484],[55.8704,73.4361],[55.9865,73.3852],[55.924,73.312],[55.4349,73.3321],[54.9001,73.4484],[54.25,73.3283],[54.0331,73.3747],[54.2936,73.4177],[54.4173,73.4777],[54.1846,73.4914],[54.5415,73.611],[55.3496,73.7172],[54.53,73.7042],[54.2808,73.6005],[53.9665,73.6267],[53.6311,73.7596],[53.6536,73.8125],[53.8687,73.7787],[54.3159,73.931],[54.8015,73.9704],[54.5886,74.0189],[55.0189,74.173],[55.8644,74.1059],[55.0759,74.2659],[55.7468,74.2963],[55.2329,74.3758],[55.3884,74.4451],[56.2874,74.4917],[55.6569,74.5198],[55.7058,74.5499],[55.4998,74.567],[55.5296,74.6549],[56.3871,74.7214],[56.5557,74.6837],[56.987,74.6905]]],[[[93.9209,78.157],[93.6291,78.157],[93.5929,78.1724],[93.9209,78.157]]],[[[92.2134,79.1396],[92.7244,79.0768],[92.1756,79.1308],[92.2134,79.1396]]],[[[92.9906,79.4195],[92.7918,79.3832],[92.5872,79.4151],[92.7913,79.44],[92.9906,79.4195]]],[[[91.7847,79.4195],[92.4706,79.4326],[92.2438,79.3823],[91.7847,79.4195]]],[[[91.1442,79.5373],[91.5313,79.4493],[90.7938,79.5635],[91.1442,79.5373]]],[[[99.9829,79.6979],[100.3098,79.666],[99.9058,79.6038],[99.9829,79.6979]]],[[[94.3276,80.029],[94.1541,79.9833],[93.9299,79.9744],[93.9844,80.0154],[94.3276,80.029]]],[[[146.0794,43.5176],[146.2295,43.5313],[146.1519,43.4628],[146.0794,43.5176]]],[[[146.6047,43.8086],[146.9421,43.8466],[146.9146,43.8027],[146.6022,43.7361],[146.6047,43.8086]]],[[[146.1193,44.506],[146.5721,44.4499],[146.5139,44.364],[146.1165,44.2544],[145.7782,43.9326],[145.5887,43.8476],[145.5562,43.6527],[145.5518,43.7163],[145.4431,43.7245],[145.4109,43.836],[145.7288,44.0438],[146.1193,44.506]]],[[[148.8513,45.4815],[148.8167,45.3335],[148.2777,45.2226],[147.913,44.963],[147.6538,44.9949],[147.6454,44.9081],[147.226,44.581],[147.0547,44.5372],[146.9583,44.421],[146.8618,44.4453],[146.937,44.6248],[147.0007,44.566],[146.9986,44.6626],[147.0914,44.6374],[147.1966,44.7137],[147.1092,44.8271],[147.2165,44.799],[147.4666,44.9669],[147.5114,45.0873],[147.6196,45.0653],[147.8949,45.2239],[147.8607,45.3542],[147.94,45.4263],[148.0696,45.2512],[148.3119,45.2753],[148.7266,45.5252],[148.8513,45.4815]]],[[[150.3342,46.2108],[150.5693,46.2318],[150.023,45.8238],[149.6378,45.6109],[149.4367,45.587],[149.6673,45.8532],[149.811,45.8798],[150.0202,46.073],[150.3342,46.2108]]],[[[152.2056,47.1288],[152.2949,47.1425],[151.8506,46.7905],[151.7122,46.8066],[152.2254,47.1766],[152.2056,47.1288]]],[[[152.5034,47.3832],[152.5244,47.2986],[152.4132,47.3407],[152.4263,47.3835],[152.5034,47.3832]]],[[[153.0213,47.7996],[153.0688,47.7433],[152.9783,47.6843],[152.9702,47.7516],[153.0213,47.7996]]],[[[153.2884,48.0775],[153.2333,48.0398],[153.1646,48.1214],[153.2147,48.1257],[153.2884,48.0775]]],[[[154.2129,48.9177],[154.0564,48.7378],[153.9733,48.7395],[154.1195,48.8996],[154.2129,48.9177]]],[[[153.987,48.9654],[153.9607,48.9267],[153.9021,48.9565],[153.9151,48.9825],[153.987,48.9654]]],[[[154.4395,49.1572],[154.6013,49.1111],[154.5117,49.0802],[154.4395,49.1572]]],[[[154.3739,49.7785],[154.4913,49.7833],[154.4119,49.7331],[154.3739,49.7785]]],[[[156.1172,50.7491],[156.1525,50.519],[156.0493,50.4793],[155.8849,50.2537],[155.5015,50.1373],[155.3958,49.9958],[155.2166,50.0671],[155.2551,50.1547],[155.2019,50.2935],[155.6896,50.4037],[155.8895,50.6909],[156.0412,50.7728],[156.1172,50.7491]]],[[[156.4605,50.8737],[156.511,50.7658],[156.4058,50.6301],[156.18,50.6884],[156.1994,50.7805],[156.4605,50.8737]]],[[[155.6699,50.812],[155.4676,50.8525],[155.4741,50.9218],[155.6729,50.8703],[155.6699,50.812]]],[[[142.5407,54.2978],[142.5872,54.3133],[142.6042,54.3102],[142.5407,54.2978]]],[[[137.7151,54.3672],[137.918,54.5094],[137.8197,54.385],[137.7151,54.3672]]],[[[137.6226,54.5708],[137.6411,54.4005],[137.5681,54.3966],[137.5467,54.5163],[137.6226,54.5708]]],[[[167.7341,54.7626],[168.1104,54.5035],[167.4391,54.8663],[167.7341,54.7626]]],[[[137.1712,55.1195],[137.075,54.9332],[136.6704,54.9073],[136.8093,55.0181],[137.1712,55.1195]]],[[[137.8831,55.0029],[138.2122,55.0364],[138.0109,54.9333],[137.9862,54.7974],[137.7189,54.6243],[137.4854,54.8793],[137.2259,54.7778],[137.5679,55.1946],[137.9522,55.1469],[137.9862,55.0991],[137.8831,55.0029]]],[[[166.6498,54.8445],[166.6644,54.6801],[166.5,54.8247],[166.3565,54.8395],[166.0829,55.0606],[165.9929,55.2219],[165.7464,55.2971],[165.9404,55.365],[166.2537,55.3319],[166.2503,55.1523],[166.6498,54.8445]]],[[[150.6985,59.1404],[150.7828,59.0909],[150.4721,59.0042],[150.6985,59.1404]]],[[[164.7341,59.0233],[164.6319,58.8654],[164.1702,58.8243],[163.846,58.6905],[163.49,58.4445],[163.4129,58.5354],[163.6105,58.6075],[163.9132,58.9943],[163.6964,58.9919],[163.7493,59.019],[164.2831,59.1137],[164.5581,59.2397],[164.7341,59.0233]]],[[[155.509,59.3201],[155.5669,59.3404],[155.6,59.3194],[155.509,59.3201]]],[[[29.7136,60.0219],[29.7869,59.9751],[29.6574,60.0255],[29.7136,60.0219]]],[[[27.885,60.0111],[27.8205,59.9827],[27.8026,59.9993],[27.8201,60.0308],[27.885,60.0111]]],[[[26.9641,60.0994],[26.9847,60.0177],[26.95,60.0996],[26.9641,60.0994]]],[[[28.7118,60.295],[28.6242,60.2702],[28.5414,60.3474],[28.5803,60.3489],[28.7118,60.295]]],[[[28.4849,60.3619],[28.5037,60.311],[28.4255,60.3608],[28.4849,60.3619]]],[[[35.8568,64.3874],[36.0313,64.3731],[36.0449,64.3603],[35.8568,64.3874]]],[[[35.8669,65.0313],[35.7447,64.9616],[35.5061,65.1213],[35.7865,65.1651],[35.8669,65.076],[35.7813,65.0727],[35.8669,65.0313]]],[[[-169.0765,65.7551],[-169.0632,65.8282],[-168.9946,65.8159],[-169.0765,65.7551]]],[[[42.6458,66.7423],[42.668,66.6667],[42.4265,66.752],[42.5045,66.7779],[42.6458,66.7423]]],[[[32.3561,67.1391],[32.3937,67.1003],[32.3377,67.1249],[32.3561,67.1391]]],[[[59.1507,69.2546],[59.2446,69.1457],[58.7621,69.3389],[59.1507,69.2546]]],[[[33.9756,69.3696],[34.2158,69.4078],[34.4069,69.3525],[33.9756,69.3696]]],[[[50.323,69.1505],[50.1693,69.0116],[50.1135,68.9957],[50.2233,69.154],[49.9549,69.0747],[49.7197,68.89],[49.2485,68.78],[48.5921,68.7309],[48.2194,68.8957],[48.3042,69.2768],[48.9063,69.508],[49.2717,69.508],[50.1644,69.2609],[50.323,69.1505]]],[[[169.4465,69.8491],[169.4123,69.7634],[169.2776,69.7595],[169.3099,69.6645],[169.2347,69.5921],[168.8745,69.5679],[167.7538,69.8323],[168.2647,70.0241],[169.4465,69.8491]]],[[[60.5398,69.8187],[60.4485,69.7659],[60.4759,69.7225],[60.2541,69.6894],[59.5635,69.715],[59.5469,69.779],[59.6237,69.8043],[59.4315,69.8895],[58.9397,69.9422],[59.1321,69.8733],[59.016,69.8597],[58.6956,70.0028],[58.5705,70.0788],[58.5908,70.1812],[58.4121,70.2603],[58.8242,70.2159],[58.4946,70.332],[59.0236,70.4798],[59.5332,70.2649],[59.554,70.1996],[60.4138,69.9627],[60.5398,69.8187]]],[[[56.843,70.6064],[57.2217,70.5261],[57.0354,70.5449],[57.1384,70.4971],[57.0637,70.5024],[56.843,70.6064]]],[[[162.3456,70.6621],[162.4841,70.6541],[162.2378,70.6541],[162.3456,70.6621]]],[[[161.5305,70.8416],[161.6946,70.7504],[161.4631,70.805],[161.5305,70.8416]]],[[[160.6744,70.9142],[160.764,70.804],[160.5041,70.805],[160.5528,70.8848],[160.408,70.9143],[160.6744,70.9142]]],[[[53.2318,71.2159],[53.1511,71.0955],[53.0469,71.0725],[53.1393,70.9936],[53.0098,70.9682],[52.7564,71.1767],[52.2118,71.3081],[52.5296,71.3878],[52.7209,71.3493],[52.6872,71.3977],[52.7411,71.4058],[52.9097,71.3673],[53.0195,71.2813],[52.862,71.3537],[52.8031,71.3723],[52.7446,71.3742],[52.8755,71.3332],[52.7793,71.3189],[53.2318,71.2159]]],[[[137.2183,71.5762],[137.9658,71.5107],[137.6934,71.4194],[136.9919,71.5175],[137.2183,71.5762]]],[[[77.6102,72.6347],[78.3945,72.4914],[77.7708,72.305],[77.1271,72.2779],[76.8527,72.3331],[77.6102,72.6347]]],[[[128.8311,72.6552],[128.9745,72.5938],[128.6533,72.5275],[128.1037,72.6347],[128.8311,72.6552]]],[[[128.3171,72.8123],[128.9941,72.9325],[129.2197,72.9264],[129.4171,72.8126],[129.207,72.7619],[128.3171,72.8123]]],[[[79.563,72.7683],[79.3953,72.704],[78.9099,72.7413],[78.5846,72.8419],[79.1731,73.1014],[79.5414,72.9255],[79.4907,72.9084],[79.563,72.7683]]],[[[74.2117,73.1146],[74.8452,73.0937],[74.9616,73.06],[74.7026,73.0788],[74.6563,72.8586],[74.0933,73.0278],[74.2117,73.1146]]],[[[120.2786,73.1009],[120.2302,73.0395],[119.7207,73.0338],[119.7647,73.0729],[119.6345,73.1282],[120.022,73.1681],[120.2786,73.1009]]],[[[76.1333,73.2083],[76.7289,73.144],[76.6326,73.1313],[76.1333,73.2083]]],[[[71.6691,73.2275],[71.7302,73.0344],[71.3745,73.1789],[69.8748,73.0383],[70.065,73.2371],[69.9593,73.3988],[70.4696,73.4992],[71.2292,73.4647],[71.2678,73.4435],[71.1115,73.4473],[71.0964,73.3132],[70.9803,73.2654],[71.2889,73.2517],[71.4357,73.353],[71.6691,73.2275]]],[[[76.2507,73.5542],[76.7544,73.4299],[76.072,73.5255],[76.2507,73.5542]]],[[[76.0794,73.5596],[75.8659,73.5015],[75.9006,73.4709],[75.4964,73.4497],[75.5443,73.4981],[75.3042,73.4088],[75.6194,73.5534],[76.0794,73.5596]]],[[[143.4409,73.4088],[143.5651,73.2311],[143.1749,73.1766],[140.7886,73.41],[139.9651,73.3266],[139.8167,73.3391],[139.7671,73.4183],[140.4933,73.485],[140.8992,73.8015],[141.1272,73.8817],[142.0452,73.9166],[142.5828,73.8253],[143.4072,73.5428],[143.537,73.4435],[143.4409,73.4088]]],[[[124.381,73.9394],[124.6607,73.892],[124.5142,73.8414],[124.2879,73.8809],[124.381,73.9394]]],[[[84.3552,74.0189],[84.4183,73.9704],[83.8845,74.0189],[84.4183,74.04],[84.3552,74.0189]]],[[[83.18,74.1552],[83.6201,74.0909],[83.3923,74.0358],[82.8145,74.094],[83.18,74.1552]]],[[[82.568,74.1629],[82.74,74.1014],[82.6196,74.055],[82.3176,74.1168],[82.568,74.1629]]],[[[136.259,73.9575],[136.1353,73.8792],[135.4393,74.1611],[135.354,74.2591],[136.0108,74.1035],[136.259,73.9575]]],[[[141.0978,74.1492],[141.0378,74.0039],[140.5451,73.9158],[140.3267,73.9386],[140.1647,74.0706],[140.2219,74.2201],[140.3499,74.2542],[140.8914,74.2765],[141.0584,74.2344],[141.0978,74.1492]]],[[[116.0983,74.3547],[116.053,74.2852],[115.8858,74.3236],[115.9807,74.3775],[116.0983,74.3547]]],[[[84.3866,74.4577],[84.9348,74.482],[84.5418,74.4571],[84.7328,74.3957],[84.3866,74.4577]]],[[[113.4058,74.444],[113.4295,74.3942],[113.2201,74.2448],[112.7749,74.0881],[112.1629,74.1386],[111.4592,74.3137],[111.6477,74.3799],[111.9513,74.3708],[112.0073,74.5382],[112.1101,74.5512],[113.4058,74.444]]],[[[85.5389,74.5744],[85.6307,74.5113],[85.3119,74.4656],[85.1481,74.5372],[85.5389,74.5744]]],[[[85.803,74.5744],[86.2072,74.5124],[85.6585,74.4714],[85.803,74.5744]]],[[[79.6141,74.6018],[79.49,74.5169],[79.1487,74.6079],[79.3169,74.5908],[79.1828,74.6291],[79.2443,74.6586],[79.6141,74.6018]]],[[[85.7062,74.7314],[85.0967,74.7556],[85.4959,74.8139],[85.7062,74.7314]]],[[[87.029,74.9915],[87.1388,74.9369],[86.6869,74.8959],[86.9196,74.8198],[86.2134,74.9034],[86.5975,74.9171],[86.5013,74.9306],[86.5239,74.987],[87.029,74.9915]]],[[[82.0825,75.158],[82.1504,75.0952],[82.0267,75.1287],[82.0825,75.158]]],[[[82.013,75.444],[82.2943,75.3342],[82.0412,75.3378],[82.013,75.1772],[81.9066,75.2082],[81.8708,75.3159],[81.6885,75.277],[81.4924,75.362],[81.7518,75.4633],[81.7388,75.3825],[81.9396,75.3935],[81.8692,75.444],[81.951,75.4651],[81.897,75.4924],[82.1707,75.5197],[82.1646,75.4377],[82.013,75.444]]],[[[150.5003,75.0945],[150.958,75.1423],[150.6541,75.0079],[150.6805,74.9338],[150.6092,74.8935],[149.209,74.758],[148.1721,74.8035],[147.6638,74.9534],[147.0879,75.0052],[146.0718,75.2403],[146.1729,75.2907],[146.1686,75.3962],[146.4071,75.4713],[146.3415,75.5226],[146.4362,75.5967],[146.7708,75.5067],[146.6343,75.4377],[146.7967,75.3664],[147.3254,75.3498],[147.1681,75.362],[147.4362,75.3893],[147.3739,75.4404],[148.4077,75.4211],[148.5801,75.3825],[148.4445,75.2873],[148.6104,75.2155],[149.1268,75.2686],[150.1294,75.2255],[150.2147,75.187],[150.1634,75.1566],[150.5608,75.1287],[150.5003,75.0945]]],[[[137.0813,75.5682],[136.9676,75.6018],[136.9698,75.609],[137.0813,75.5682]]],[[[136.9846,75.6216],[137.1399,75.6528],[136.9702,75.6097],[136.9846,75.6216]]],[[[135.9914,75.5272],[136.033,75.444],[135.9834,75.4172],[135.45,75.3757],[135.5941,75.5682],[135.5394,75.678],[135.6931,75.8693],[135.8648,75.7047],[136.1843,75.6159],[135.9914,75.5272]]],[[[81.6276,75.9368],[82.259,75.876],[81.5539,75.9306],[81.6276,75.9368]]],[[[83.2795,75.9563],[82.8623,75.9172],[82.259,75.9722],[82.6575,75.9988],[83.2795,75.9563]]],[[[145.3662,75.5402],[144.7293,75.4316],[144.6777,75.3278],[144.9411,75.2733],[144.7214,75.246],[144.6882,75.16],[144.3763,75.053],[143.9985,75.025],[142.8845,75.1468],[142.8376,75.2255],[142.4943,75.3757],[142.5345,75.4765],[143.0135,75.6024],[143.0011,75.708],[142.3379,75.7257],[142.2901,75.7115],[142.4341,75.678],[142.0083,75.6227],[142.1397,75.5952],[142.0806,75.5347],[142.187,75.4713],[142.1629,75.3791],[142.4395,75.2031],[142.6687,75.088],[143.6145,75.0111],[143.7078,74.9475],[142.7151,74.8952],[142.6253,74.8481],[142.678,74.834],[142.514,74.8174],[141.9741,74.9338],[142.3645,74.9306],[142.1987,75.0042],[141.8438,74.999],[140.0687,74.8279],[139.8496,74.9648],[139.652,74.9808],[139.4585,74.9306],[139.5166,74.8559],[139.6448,74.8891],[139.4963,74.7676],[139.1272,74.6523],[137.8953,74.8462],[137.7938,74.9754],[137.1341,75.1415],[136.8622,75.362],[137.4224,75.3698],[137.3973,75.4172],[137.1433,75.4102],[137.1487,75.4648],[137.301,75.4713],[137.1807,75.5507],[137.2936,75.6016],[137.0676,75.7258],[137.1985,75.7896],[137.7427,75.7491],[137.432,75.8873],[137.433,75.9532],[138.0275,76.0319],[138.116,76.0753],[137.9727,76.0541],[138.3766,76.1572],[138.3283,76.1361],[138.4321,76.0634],[138.5327,76.1861],[139.0488,76.2391],[138.8973,76.2187],[139.1096,76.0969],[139.8254,75.97],[139.9116,75.9374],[139.7986,75.8862],[139.9561,75.8358],[140.5095,75.7905],[140.5459,75.7555],[140.433,75.6566],[140.4758,75.6403],[141.0623,75.6501],[140.8644,75.7388],[140.9089,75.9841],[141.001,76.0474],[141.6247,76.0131],[141.3101,76.1845],[142.5469,75.863],[143.0588,75.8068],[143.5848,75.8698],[143.9471,75.8348],[145.3662,75.5402]]],[[[96.6441,76.267],[96.5956,76.1572],[96.4468,76.2716],[96.3469,76.2547],[96.4243,76.2124],[96.2461,76.205],[96.3965,76.1777],[96.3447,76.105],[95.2661,76.2186],[95.3499,76.2888],[95.5702,76.2382],[95.8123,76.3029],[96.1042,76.2316],[96.283,76.3093],[96.6441,76.267]]],[[[113.4466,76.3695],[113.1375,76.3695],[113.1177,76.3769],[113.2643,76.4443],[113.3094,76.4235],[113.2617,76.3967],[113.4466,76.3695]]],[[[111.9588,76.6022],[112.3672,76.6581],[112.5281,76.6227],[112.4865,76.6022],[112.5697,76.555],[112.5076,76.5407],[112.7141,76.5205],[112.5759,76.4997],[112.618,76.4588],[112.5679,76.4435],[111.9588,76.6022]]],[[[96.472,76.6916],[96.3135,76.6225],[95.8899,76.6164],[96.2324,76.7121],[96.472,76.6916]]],[[[95.417,76.7053],[95.8347,76.6916],[95.5287,76.6487],[95.417,76.7053]]],[[[97.4463,76.7147],[97.5962,76.6022],[97.3431,76.5993],[97.387,76.654],[97.2883,76.6916],[97.4463,76.7147]]],[[[149.4535,76.7688],[149.2001,76.6268],[148.4318,76.6293],[148.8667,76.734],[149.4535,76.7688]]],[[[96.5274,77.2055],[96.5894,77.1441],[96.235,76.9905],[95.6844,76.9523],[95.9514,77.0137],[95.2319,77.0063],[96.5274,77.2055]]],[[[105.7849,77.2806],[105.9027,77.304],[106.0115,77.2874],[105.8618,77.2549],[105.7849,77.2806]]],[[[89.6892,77.2806],[89.817,77.2106],[89.4928,77.1408],[89.1346,77.2177],[89.3044,77.3079],[89.6892,77.2806]]],[[[106.333,77.3216],[106.4085,77.331],[106.4566,77.3216],[106.333,77.3216]]],[[[107.7451,77.329],[107.7217,77.2697],[107.2048,77.2343],[107.457,77.2806],[107.2796,77.3017],[107.3954,77.3603],[107.7451,77.329]]],[[[106.9431,77.4587],[106.7009,77.3836],[106.5247,77.3904],[106.7303,77.4704],[106.9431,77.4587]]],[[[107.7041,78.1372],[107.451,78.0532],[107.3906,78.1025],[106.395,78.1309],[107.3379,78.1907],[107.7041,78.1372]]],[[[106.5322,78.2539],[106.1939,78.1931],[105.991,78.2191],[106.4701,78.3426],[106.7656,78.3085],[106.4502,78.2613],[106.5322,78.2539]]],[[[105.4155,78.5834],[105.3574,78.5063],[104.7874,78.3364],[103.016,78.2565],[102.6603,78.1645],[102.6815,78.2129],[102.6071,78.2255],[101.2098,78.1935],[99.8713,77.9522],[99.3713,77.9597],[99.426,77.987],[99.2683,78.0416],[100.0497,78.3432],[100.0007,78.4177],[100.2756,78.5797],[100.2546,78.6654],[100.3853,78.7516],[100.6016,78.7982],[101.1664,78.761],[100.8237,78.8088],[100.7849,78.8951],[100.9072,78.9851],[101.0701,79.0347],[101.5916,78.977],[101.6257,78.9869],[100.9881,79.0626],[101.0427,79.133],[101.1956,79.1472],[101.126,79.165],[101.1942,79.2029],[101.5574,79.2544],[101.5437,79.3408],[101.8176,79.371],[101.9608,79.2612],[102.2463,79.2416],[102.1397,79.3568],[102.3029,79.4328],[103.1532,79.3096],[102.8255,79.2271],[102.6914,79.0322],[102.3792,78.8225],[102.6658,78.8924],[102.9212,79.0584],[103.6243,79.1712],[104.0013,79.1277],[103.9762,79.0626],[104.0735,79.0048],[104.4553,78.9667],[104.5249,78.8851],[104.3667,78.8571],[104.6546,78.8299],[104.5789,78.7752],[104.7251,78.7908],[104.759,78.8533],[105.1751,78.8093],[105.4155,78.5834]]],[[[77.6136,79.5219],[76.6961,79.4776],[76.6206,79.5486],[76.1743,79.5691],[76.0514,79.6485],[77.6136,79.5219]]],[[[91.7821,80.0638],[93.8137,79.8987],[93.0521,79.7153],[91.9219,79.6789],[92.3533,79.7342],[92.0995,79.8099],[91.0725,79.851],[91.2986,79.9191],[91.0176,79.967],[91.1819,79.9949],[91.1136,80.0489],[90.8665,80.0626],[91.7821,80.0638]]],[[[51.3469,79.9533],[51.5051,79.9334],[50.0453,79.9744],[50.5525,79.988],[51.001,80.1025],[51.2648,80.0563],[51.2012,80.0109],[51.3884,79.967],[51.3469,79.9533]]],[[[36.5936,80.1588],[36.6526,80.1749],[36.8537,80.1519],[36.7859,80.1398],[36.5936,80.1588]]],[[[99.886,79.0415],[99.9255,78.946],[99.4056,78.8225],[97.4422,78.8172],[97.603,78.8435],[97.2639,78.853],[96.7985,78.9892],[95.6725,79.001],[95.6702,79.0694],[95.5238,79.1091],[94.8267,79.0666],[94.6323,79.1274],[94.6174,79.2013],[94.334,79.2486],[94.3623,79.44],[94.3123,79.4792],[93.697,79.4599],[93.9912,79.494],[93.6902,79.5424],[93.882,79.6038],[93.2358,79.439],[93.1141,79.4673],[93.3202,79.5015],[92.8542,79.5561],[93.2803,79.5525],[94.1694,79.7752],[94.6901,79.8161],[94.2246,79.8987],[94.952,80.1045],[95.2419,80.0216],[95.5021,80.1115],[97.5921,80.1749],[98.0896,80.0563],[97.5205,79.8093],[97.6087,79.7766],[97.1916,79.7069],[97.7058,79.7632],[97.9261,79.9022],[98.3772,79.8779],[98.5824,79.976],[98.4391,80.0154],[98.557,80.0585],[99.199,80.05],[99.2478,80.0358],[99.1585,80.0154],[100.0225,79.8236],[100.077,79.7827],[99.8171,79.7416],[99.886,79.6933],[99.7072,79.5691],[99.7891,79.5219],[99.686,79.4735],[99.7481,79.3642],[99.6667,79.3122],[99.4601,79.2475],[99.0349,79.296],[99.886,79.0415]]],[[[50.0813,80.0681],[49.8831,80.0699],[49.5313,80.1588],[49.8986,80.234],[50.3356,80.1816],[50.126,80.1422],[50.0813,80.0681]]],[[[55.7949,80.6423],[55.4317,80.7143],[56.5304,80.7871],[56.9461,80.6938],[55.7949,80.6423]]],[[[46.6873,80.5293],[46.084,80.4399],[46.0213,80.4886],[46.084,80.556],[46.0437,80.5736],[45.5153,80.5198],[44.8574,80.6174],[46.9207,80.7487],[47.2012,80.8099],[47.092,80.831],[47.1382,80.8422],[47.5363,80.8567],[48.4963,80.7981],[48.6548,80.7552],[48.4556,80.7273],[48.764,80.6596],[48.7268,80.6107],[48.0637,80.6624],[47.7488,80.7705],[47.3042,80.6528],[47.4307,80.5938],[46.6326,80.556],[46.6873,80.5293]]],[[[62.0677,80.8799],[62.2595,80.7414],[62.0374,80.6658],[62.116,80.6224],[61.7062,80.5975],[61.0446,80.4052],[60.3074,80.4956],[59.6364,80.4312],[59.242,80.5293],[59.3723,80.5703],[59.2214,80.6528],[59.6939,80.8371],[60.1709,80.8539],[60.2562,80.831],[59.9681,80.8099],[60.362,80.79],[61.6026,80.8957],[62.0677,80.8799]]],[[[58.5427,80.7543],[57.8157,80.8099],[58.7459,80.9027],[59.0291,80.8241],[58.5427,80.7543]]],[[[55.9865,80.8037],[54.8767,80.7211],[54.657,80.788],[53.9803,80.8162],[54.8229,80.8359],[55.097,80.9028],[55.9865,80.8037]]],[[[51.3127,80.79],[51.744,80.7143],[50.9496,80.5368],[49.6753,80.4815],[49.8162,80.401],[48.8395,80.3878],[48.627,80.2953],[48.9426,80.273],[49.1072,80.1895],[48.5283,80.2091],[48.5106,80.1242],[48.3724,80.0918],[48.1161,80.1368],[47.6277,80.0722],[47.7365,80.162],[48.0851,80.2072],[47.4513,80.2398],[47.1018,80.1703],[46.6184,80.2953],[47.0886,80.3716],[47.2239,80.309],[48.133,80.3265],[48.1887,80.3376],[47.6195,80.4052],[48.2358,80.4269],[48.1001,80.4763],[47.3794,80.4536],[48.3755,80.5711],[48.569,80.5056],[49.1882,80.5214],[49.4071,80.6174],[49.2849,80.6453],[49.631,80.6396],[49.682,80.7211],[48.9553,80.7348],[50.2372,80.9335],[50.443,80.9061],[49.9973,80.8651],[50.856,80.9185],[51.0452,80.8515],[50.2512,80.7416],[51.3127,80.79]]],[[[79.2107,80.9613],[80.4372,80.9402],[80.3264,80.8605],[78.9746,80.8426],[79.2107,80.9613]]],[[[58.0695,81.1115],[58.6966,81.0247],[58.5613,80.957],[58.367,80.9459],[57.841,81.0477],[58.0695,81.1115]]],[[[57.3364,80.8918],[56.8967,81.0161],[56.0956,81.091],[56.7029,81.1131],[58.2824,80.9265],[57.8381,80.8533],[57.3364,80.8918]]],[[[55.3806,80.9686],[54.4173,81.0084],[54.6709,81.1252],[55.5203,81.0084],[56.0192,81.0436],[57.7161,80.7932],[57.0588,80.6918],[56.6685,80.8092],[55.7988,80.8544],[55.3806,80.9686]]],[[[50.4766,81.07],[50.3474,81.091],[50.5296,81.1679],[50.9768,81.1059],[50.3743,81.0228],[50.4766,81.07]]],[[[91.5472,81.1538],[91.1862,81.0568],[89.9963,81.1053],[89.8939,81.1736],[91.5472,81.1538]]],[[[97.7471,80.7416],[97.9729,80.7211],[97.1306,80.6658],[97.1916,80.6453],[97.0208,80.5259],[97.1488,80.487],[97.2058,80.3556],[97.4229,80.327],[97.188,80.2336],[94.53,80.131],[93.7498,79.9968],[92.0658,80.1724],[92.8882,80.1724],[92.1074,80.2897],[93.3202,80.2761],[93.2444,80.3096],[91.4221,80.3096],[91.6624,80.3852],[92.6276,80.3915],[91.8877,80.4604],[92.7693,80.5168],[92.8252,80.6506],[93.2703,80.7971],[92.4972,80.7757],[92.7312,80.8515],[92.6765,80.8787],[93.1626,80.947],[93.0527,80.9954],[95.5472,81.2208],[95.0339,81.2487],[95.1035,81.2713],[95.7766,81.2888],[96.5547,81.0774],[96.5441,81.0299],[96.7328,81.0084],[96.6441,80.988],[96.7664,80.9499],[97.8836,80.7695],[97.7471,80.7416]]],[[[58.5705,81.4132],[56.7405,81.4535],[57.013,81.5368],[57.784,81.5648],[57.8888,81.4856],[58.5705,81.4132]]],[[[63.4675,81.5891],[62.1065,81.6801],[62.8047,81.7216],[63.8059,81.6601],[63.4675,81.5891]]],[[[59.3556,81.7533],[57.8913,81.708],[58.1453,81.7768],[57.9397,81.8036],[58.1561,81.8303],[59.44,81.8178],[59.3313,81.7899],[59.3556,81.7533]]],[[[150.8085,46.4864],[150.8329,46.4409],[150.7801,46.4572],[150.8085,46.4864]]],[[[154.8367,49.6501],[154.905,49.6308],[154.8027,49.4787],[154.8151,49.3102],[154.606,49.2927],[154.6384,49.4243],[154.8367,49.6501]]],[[[58.7317,75.9169],[59.2625,75.9654],[58.6932,75.9033],[58.7317,75.9169]]],[[[59.3721,79.9197],[58.7687,80.0211],[59.5291,80.1209],[59.8096,80.0889],[59.9273,79.9949],[59.3721,79.9197]]],[[[55.7121,80.1035],[56.0191,80.1818],[55.9728,80.3232],[56.1299,80.3512],[57.022,80.364],[57.131,80.3061],[57.0837,80.2581],[57.1536,80.199],[57.0469,80.1544],[57.1179,80.096],[56.9568,80.0663],[55.7121,80.1035]]],[[[52.6229,80.1833],[52.1829,80.2761],[53.1496,80.4126],[53.8695,80.2709],[53.4899,80.1718],[52.6229,80.1833]]],[[[57.9705,80.0989],[57.2777,80.1784],[57.2197,80.2413],[57.259,80.3259],[57.1924,80.3642],[57.2428,80.4115],[56.9461,80.4815],[58.4524,80.4681],[59.2761,80.33],[58.391,80.3202],[58.0769,80.2618],[58.4749,80.2224],[58.4065,80.1656],[58.0414,80.2058],[57.905,80.1724],[58.0149,80.111],[57.9705,80.0989]]],[[[53.798,80.4729],[53.9729,80.5293],[53.8587,80.5544],[53.8833,80.6107],[54.2691,80.5887],[54.315,80.5771],[54.1361,80.556],[54.4098,80.5429],[54.4651,80.4815],[54.2883,80.4204],[53.798,80.4729]]],[[[60.0227,80.9954],[60.6128,81.0925],[61.7017,81.1053],[61.5998,81.0314],[60.9878,80.922],[60.0227,80.9954]]],[[[62.5037,80.8241],[63.1423,80.9714],[64.0365,80.9869],[64.186,81.019],[64.2168,81.0569],[64.1204,81.0936],[64.2747,81.1691],[64.7048,81.2053],[65.2298,81.1367],[65.4363,81.0371],[65.3062,80.9954],[65.4657,80.9349],[64.5867,80.7552],[63.1307,80.6831],[62.5037,80.8241]]],[[[56.9944,81.1662],[57.8879,81.2456],[58.0838,81.2145],[57.7004,81.1372],[56.9944,81.1662]]],[[[56.6145,81.1785],[55.5606,81.2231],[55.6091,81.2759],[55.4317,81.2834],[55.7121,81.3306],[56.5448,81.2548],[56.6028,81.2691],[56.3359,81.3852],[56.7262,81.3972],[57.905,81.2971],[56.6145,81.1785]]],[[[59.3854,81.3306],[58.4641,81.3349],[59.0179,81.4034],[59.3854,81.3306]]],[[[61.654,81.6049],[62.1411,81.5861],[62.1963,81.5648],[61.654,81.6049]]],[[[40.4314,64.6127],[40.1948,64.5742],[40.0547,64.6525],[39.8242,64.6798],[40.1885,64.7082],[40.3023,64.6355],[40.4314,64.6127]]],[[[39.9497,64.7419],[39.9805,64.7294],[39.9437,64.728],[39.9497,64.7419]]],[[[40.4067,64.6425],[40.0348,64.7606],[40.3335,64.7724],[40.4067,64.6425]]],[[[35.9274,65.0541],[36.0051,65.0265],[35.8919,65.0407],[35.9274,65.0541]]],[[[35.9904,65.1912],[36.261,65.1545],[35.9422,65.1546],[35.9904,65.1912]]],[[[54.3298,68.3115],[54.3169,68.2591],[54.1995,68.2565],[54.2394,68.3038],[54.3298,68.3115]]],[[[53.8657,68.307],[53.9915,68.3459],[53.9577,68.2934],[53.8657,68.307]]],[[[48.8123,68.6965],[49.1243,68.6677],[48.766,68.6966],[48.8123,68.6965]]],[[[49.5703,68.8171],[49.5985,68.8148],[49.492,68.7924],[49.5703,68.8171]]],[[[54.1927,68.8137],[54.3748,68.791],[54.3954,68.7825],[54.1927,68.8137]]],[[[49.7531,68.8803],[49.8418,68.9062],[49.7517,68.8774],[49.7531,68.8803]]],[[[54.928,68.9402],[55.0195,68.9154],[54.9119,68.931],[54.928,68.9402]]],[[[50.0007,68.9323],[50.1077,68.9635],[50.0698,68.9431],[50.0007,68.9323]]],[[[67.2173,69.4206],[67.3083,69.4377],[67.1322,69.3639],[66.9386,69.4394],[67.2173,69.4206]]],[[[67.328,69.5727],[67.259,69.4386],[67.0218,69.477],[67.1882,69.571],[67.328,69.5727]]],[[[66.6685,70.5383],[66.8675,70.3808],[66.7637,70.4031],[66.5903,70.473],[66.6685,70.5383]]],[[[66.428,70.7995],[66.5825,70.5017],[66.3973,70.6303],[66.428,70.7995]]],[[[66.5996,71.0044],[66.5085,70.8279],[66.4339,70.8271],[66.5996,71.0044]]],[[[53.2399,71.3544],[53.3954,71.2805],[53.1615,71.3549],[53.2399,71.3544]]],[[[152.8753,76.1514],[152.7734,76.0834],[152.5549,76.1393],[152.8293,76.1962],[152.8753,76.1514]]],[[[156.5503,77.1258],[156.6533,77.0842],[156.4917,77.0982],[156.5503,77.1258]]],[[[91.9436,77.6439],[92.1101,77.6109],[91.866,77.6286],[91.9436,77.6439]]],[[[58.6139,79.9794],[58.8704,79.9013],[58.2483,79.9334],[58.6139,79.9794]]],[[[60.0523,80.1877],[60.2105,80.1492],[59.8913,80.1754],[60.0523,80.1877]]],[[[54.4077,80.2848],[54.3821,80.2104],[54.1781,80.1893],[54.1012,80.2729],[54.4077,80.2848]]],[[[55.4988,80.3168],[55.2349,80.2279],[54.9297,80.2596],[55.2964,80.3322],[55.4988,80.3168]]],[[[54.9875,80.4144],[55.245,80.4385],[55.2705,80.4094],[55.1299,80.3743],[54.9875,80.4144]]],[[[54.8418,80.4313],[54.7715,80.393],[54.3904,80.3865],[54.6267,80.4772],[54.8418,80.4313]]],[[[54.9819,80.4489],[54.6224,80.5113],[55.073,80.4841],[54.9819,80.4489]]],[[[59.0977,81.2131],[59.7555,81.17],[58.9946,81.1982],[59.0977,81.2131]]],[[[60.5628,81.2736],[60.4323,81.2444],[59.8406,81.2916],[60.032,81.3111],[60.5628,81.2736]]],[[[58.493,81.5791],[58.2757,81.5927],[58.7023,81.6126],[58.493,81.5791]]],[[[132.4536,42.8609],[132.4015,42.832],[132.4275,42.8959],[132.4536,42.8609]]],[[[47.8511,43.9992],[47.7629,43.9284],[47.6282,43.9626],[47.6657,43.9963],[47.8511,43.9992]]],[[[47.9971,45.4678],[47.9177,45.5701],[47.957,45.6505],[47.9971,45.5205],[47.9971,45.4678]]],[[[138.1959,54.7011],[138.2268,54.7156],[138.241,54.7137],[138.1959,54.7011]]],[[[149.1035,59.1615],[149.04,59.2029],[149.1411,59.2077],[149.1035,59.1615]]],[[[-172.4753,64.6418],[-172.5194,64.593],[-172.725,64.6265],[-172.696,64.6525],[-172.4753,64.6418]]],[[[67.2356,68.8204],[67.3931,68.7573],[67.1158,68.7984],[67.2356,68.8204]]],[[[-175.6173,71.381],[-175.6287,71.3518],[-175.8108,71.4117],[-175.6173,71.381]]],[[[161.8938,69.6538],[161.8669,69.5546],[161.6656,69.6205],[161.6672,69.6367],[161.8938,69.6538]]],[[[169.9552,69.7267],[170.2753,69.7734],[170.1015,69.6872],[169.9552,69.7267]]],[[[83.3051,70.8055],[83.4694,70.7377],[83.3048,70.6446],[83.2592,70.5488],[83.3096,70.4431],[83.0653,70.3653],[83.1322,70.4338],[83.1471,70.6499],[83.3051,70.8055]]],[[[97.639,76.7731],[97.4598,76.7185],[97.1607,76.7536],[97.639,76.7731]]],[[[88.6639,77.0804],[89.1359,77.1271],[88.9196,76.9771],[88.6639,77.0804]]]]}}