{"type":"Feature","bbox":[-13.3011,6.9194,-10.2822,9.996],"properties":{"iso":"SL","name":"Sierra Leone","name_de":"Sierra Leone","key":"SL"},"geometry":{"type":"MultiPolygon","coordinates":[[[[-10.2822,8.4846],[-10.2829,8.4329],[-10.3137,8.3103],[-10.3313,8.2723],[-10.3333,8.2498],[-10.326,8.2215],[-10.3182,8.2016],[-10.3209,8.1831],[-10.3455,8.1593],[-10.3649,8.1482],[-10.3846,8.1421],[-10.4051,8.1393],[-10.4857,8.1389],[-10.5057,8.1358],[-10.5292,8.1243],[-10.544,8.1061],[-10.5672,8.0632],[-10.5778,8.0532],[-10.6031,8.0392],[-10.6121,8.0319],[-10.6162,8.0225],[-10.6177,8.0108],[-10.6152,7.769],[-10.6381,7.7655],[-10.6454,7.763],[-10.6926,7.7376],[-10.7306,7.7055],[-10.8746,7.5309],[-10.8857,7.5222],[-10.899,7.5165],[-10.937,7.5078],[-10.9779,7.4849],[-11.1263,7.368],[-11.2093,7.2622],[-11.2179,7.2541],[-11.3002,7.2171],[-11.3172,7.2136],[-11.352,7.1593],[-11.3701,7.1426],[-11.3732,7.1388],[-11.3706,7.1284],[-11.3564,7.1054],[-11.3531,7.0928],[-11.3551,7.0841],[-11.3605,7.0786],[-11.3679,7.076],[-11.3897,7.0735],[-11.3929,7.0669],[-11.3893,7.0467],[-11.3915,7.0318],[-11.3977,7.0128],[-11.4073,6.9964],[-11.4347,6.9808],[-11.4389,6.9639],[-11.4367,6.9385],[-11.4445,6.9339],[-11.4762,6.9194],[-11.4928,6.9328],[-11.5339,6.9421],[-11.5539,6.9525],[-11.5729,6.9658],[-11.588,6.9789],[-11.579,6.9804],[-11.5743,6.9826],[-11.5675,6.9926],[-11.5955,6.9933],[-11.6077,6.9914],[-11.6159,6.9858],[-11.6221,6.9858],[-11.6312,7.0082],[-11.6452,7.0228],[-11.6982,7.067],[-11.8396,7.149],[-12.0737,7.2336],[-12.3148,7.329],[-12.5066,7.3898],[-12.4762,7.4151],[-12.4396,7.4165],[-12.4022,7.4046],[-12.3695,7.3898],[-12.3711,7.3986],[-12.3759,7.405],[-12.3834,7.409],[-12.3933,7.4103],[-12.401,7.4125],[-12.4092,7.4247],[-12.4172,7.4308],[-12.4359,7.4382],[-12.4465,7.4391],[-12.4643,7.4296],[-12.4728,7.434],[-12.4809,7.4412],[-12.4892,7.4451],[-12.4924,7.4536],[-12.4836,7.4724],[-12.4708,7.4912],[-12.452,7.5075],[-12.4415,7.5229],[-12.4283,7.5336],[-12.4104,7.5277],[-12.3994,7.5329],[-12.3878,7.5346],[-12.3627,7.5344],[-12.3454,7.5397],[-12.3387,7.5407],[-12.3315,7.5386],[-12.3193,7.5295],[-12.3148,7.5277],[-12.2951,7.5331],[-12.2781,7.5434],[-12.2589,7.5524],[-12.2322,7.5537],[-12.2343,7.5571],[-12.2366,7.5645],[-12.2384,7.568],[-12.2202,7.5735],[-12.2018,7.576],[-12.1881,7.5831],[-12.1838,7.6027],[-12.1913,7.6027],[-12.1975,7.6012],[-12.2113,7.5998],[-12.218,7.5959],[-12.2239,7.605],[-12.2255,7.609],[-12.2353,7.6071],[-12.2467,7.6068],[-12.2563,7.6052],[-12.2602,7.5993],[-12.2628,7.5906],[-12.2693,7.5864],[-12.2869,7.5816],[-12.2987,7.576],[-12.3179,7.5754],[-12.3277,7.5732],[-12.3483,7.5634],[-12.37,7.5593],[-12.3913,7.5505],[-12.4036,7.5475],[-12.41,7.5482],[-12.4301,7.5527],[-12.4411,7.5537],[-12.4637,7.562],[-12.4711,7.5811],[-12.4763,7.6022],[-12.493,7.6164],[-12.493,7.6225],[-12.488,7.6271],[-12.4852,7.633],[-12.4845,7.6407],[-12.4855,7.6505],[-12.493,7.6437],[-12.5004,7.6391],[-12.507,7.6386],[-12.5128,7.6443],[-12.5196,7.6443],[-12.5196,7.6301],[-12.5439,7.6536],[-12.5314,7.6871],[-12.493,7.7399],[-12.4766,7.7313],[-12.4713,7.7263],[-12.465,7.7331],[-12.4709,7.7462],[-12.4718,7.76],[-12.4659,7.7706],[-12.452,7.7741],[-12.4722,7.7877],[-12.4901,7.7719],[-12.5196,7.7263],[-12.5695,7.6955],[-12.6019,7.6838],[-12.6164,7.6952],[-12.6242,7.6948],[-12.6884,7.7069],[-12.7012,7.7081],[-12.7114,7.712],[-12.7512,7.74],[-12.7657,7.7466],[-12.7781,7.7558],[-12.7872,7.7741],[-12.7905,7.7924],[-12.7875,7.8046],[-12.7775,7.8134],[-12.7598,7.8218],[-12.7779,7.819],[-12.8287,7.7983],[-12.8759,7.8287],[-12.8893,7.8548],[-12.8986,7.8657],[-12.9137,7.8703],[-12.9246,7.8749],[-12.9379,7.8864],[-12.9591,7.9112],[-12.9394,7.9151],[-12.9055,7.9341],[-12.8867,7.9385],[-12.871,7.9365],[-12.8545,7.9316],[-12.8213,7.9174],[-12.8415,7.938],[-12.8669,7.9555],[-12.8884,7.9753],[-12.9053,8.0241],[-12.9072,8.0273],[-12.9118,8.0307],[-12.9101,8.0383],[-12.9038,8.0515],[-12.9015,8.0657],[-12.8952,8.0796],[-12.8863,8.0924],[-12.8759,8.103],[-12.9081,8.1074],[-12.9215,8.1199],[-12.9294,8.1394],[-12.9448,8.1645],[-12.9562,8.1722],[-12.9697,8.1778],[-12.9811,8.1862],[-12.9857,8.2023],[-12.9851,8.2167],[-12.983,8.2298],[-12.9787,8.242],[-12.9721,8.2539],[-12.9811,8.2521],[-12.9921,8.2438],[-12.9994,8.2402],[-13.0063,8.2387],[-13.0236,8.2402],[-13.0677,8.2333],[-13.0904,8.2246],[-13.1179,8.2088],[-13.1427,8.1898],[-13.1577,8.1713],[-13.1639,8.1713],[-13.1617,8.1872],[-13.1639,8.2296],[-13.1683,8.2507],[-13.1688,8.263],[-13.1639,8.2744],[-13.1756,8.2838],[-13.2103,8.3391],[-13.2123,8.3395],[-13.2145,8.3431],[-13.2191,8.3437],[-13.2239,8.3456],[-13.2259,8.3532],[-13.231,8.3638],[-13.2564,8.3972],[-13.2637,8.4017],[-13.2681,8.4114],[-13.2742,8.4209],[-13.2868,8.4245],[-13.2729,8.4419],[-13.2685,8.4499],[-13.267,8.4627],[-13.2697,8.4721],[-13.2827,8.491],[-13.2868,8.5002],[-13.2655,8.497],[-13.2595,8.4934],[-13.2527,8.4975],[-13.2504,8.4951],[-13.2458,8.4866],[-13.2289,8.4937],[-13.2108,8.4934],[-13.193,8.4878],[-13.1776,8.4792],[-13.1649,8.465],[-13.1444,8.4312],[-13.11,8.4132],[-13.0857,8.3904],[-13.0604,8.3727],[-13.0336,8.3767],[-13.0336,8.3835],[-13.0458,8.3862],[-13.0563,8.3912],[-13.0638,8.3992],[-13.0677,8.4109],[-13.0541,8.4109],[-13.0541,8.4177],[-13.0834,8.4244],[-13.111,8.4338],[-13.1256,8.449],[-13.1161,8.473],[-13.1044,8.4816],[-13.0743,8.4931],[-13.0615,8.5002],[-13.054,8.5102],[-13.0479,8.5211],[-13.0399,8.5268],[-13.0267,8.5207],[-13.0271,8.5322],[-13.0242,8.5432],[-13.0192,8.5531],[-13.0131,8.5617],[-13.0033,8.5591],[-12.9371,8.5543],[-12.9183,8.5492],[-12.9072,8.548],[-12.899,8.551],[-12.879,8.5648],[-12.8697,8.5692],[-12.8881,8.5731],[-12.9093,8.5705],[-12.9281,8.5722],[-12.9303,8.5834],[-12.9311,8.5828],[-12.9119,8.6068],[-12.8759,8.6852],[-12.9009,8.6549],[-12.9169,8.6276],[-12.9364,8.607],[-12.9721,8.5964],[-12.9899,8.5973],[-13.0049,8.6002],[-13.0181,8.6002],[-13.0439,8.5847],[-13.0618,8.5832],[-13.0785,8.589],[-13.0888,8.6027],[-13.0663,8.6068],[-13.0544,8.619],[-13.0443,8.6334],[-13.0267,8.6442],[-13.0267,8.6511],[-13.0356,8.6525],[-13.0411,8.6543],[-13.0447,8.658],[-13.0478,8.6647],[-13.0541,8.6647],[-13.0635,8.6339],[-13.0706,8.622],[-13.0819,8.6169],[-13.098,8.6219],[-13.1122,8.6339],[-13.1304,8.6579],[-13.1406,8.6522],[-13.1484,8.6534],[-13.154,8.6601],[-13.1577,8.671],[-13.1626,8.654],[-13.1543,8.6431],[-13.1392,8.6361],[-13.1229,8.6306],[-13.1366,8.6238],[-13.109,8.6033],[-13.1075,8.581],[-13.1221,8.5596],[-13.1434,8.5418],[-13.1392,8.5334],[-13.1393,8.5245],[-13.1441,8.5174],[-13.1543,8.5146],[-13.1624,8.5176],[-13.1685,8.5252],[-13.1951,8.5692],[-13.2025,8.5849],[-13.2089,8.6143],[-13.2169,8.6326],[-13.2272,8.6496],[-13.2366,8.6613],[-13.2412,8.6722],[-13.242,8.6886],[-13.2402,8.7194],[-13.2352,8.7199],[-13.2402,8.8258],[-13.2123,8.8571],[-13.2009,8.8598],[-13.1965,8.8564],[-13.1932,8.8498],[-13.185,8.8435],[-13.1081,8.8441],[-13.0922,8.8466],[-13.0718,8.8555],[-13.0431,8.8583],[-12.9857,8.8571],[-13.027,8.8697],[-13.0336,8.8668],[-13.0411,8.8612],[-13.0582,8.8612],[-13.0768,8.8647],[-13.0888,8.8702],[-13.0998,8.8654],[-13.1158,8.8624],[-13.1304,8.8641],[-13.1366,8.8739],[-13.1398,8.8814],[-13.1467,8.8834],[-13.1539,8.8833],[-13.1577,8.8845],[-13.1584,8.8923],[-13.1559,8.8953],[-13.1526,8.8971],[-13.1426,8.9167],[-13.1226,8.926],[-13.0978,8.9305],[-13.0751,8.9316],[-13.0751,8.9391],[-13.0925,8.9446],[-13.1151,8.9406],[-13.1577,8.9254],[-13.181,8.923],[-13.2061,8.9284],[-13.2257,8.9425],[-13.2328,8.9664],[-13.2367,8.9619],[-13.2389,8.9614],[-13.24,8.9598],[-13.2402,8.9521],[-13.2549,8.9664],[-13.2605,8.9653],[-13.267,8.9521],[-13.2884,8.9695],[-13.285,9.017],[-13.3011,9.0353],[-13.3011,9.0415],[-13.2774,9.0586],[-13.2336,9.0721],[-13.2075,9.0767],[-13.1918,9.073],[-13.1538,9.0493],[-13.1311,9.0415],[-13.1159,9.0439],[-13.0856,9.066],[-13.047,9.0845],[-13.0289,9.096],[-13.0152,9.1128],[-13.002,9.1441],[-12.9938,9.1587],[-12.9842,9.1723],[-12.9785,9.1752],[-12.9628,9.1767],[-12.9592,9.1778],[-12.9602,9.1861],[-12.9739,9.2028],[-12.9784,9.2128],[-12.9738,9.2416],[-12.9579,9.2724],[-12.937,9.2871],[-12.9175,9.267],[-12.8956,9.2785],[-12.8761,9.2798],[-12.8569,9.2785],[-12.8358,9.282],[-12.8191,9.2958],[-12.7953,9.3351],[-12.7779,9.3438],[-12.7642,9.3477],[-12.7636,9.3553],[-12.7676,9.3644],[-12.7678,9.3723],[-12.7598,9.3828],[-12.7541,9.3878],[-12.7372,9.3972],[-12.7329,9.3965],[-12.7278,9.3931],[-12.7229,9.3921],[-12.719,9.3984],[-12.7165,9.4044],[-12.7062,9.4139],[-12.7016,9.4202],[-12.6675,9.5287],[-12.6673,9.5337],[-12.6693,9.5382],[-12.6686,9.5424],[-12.661,9.546],[-12.6553,9.5477],[-12.6521,9.5494],[-12.6499,9.5521],[-12.6473,9.5566],[-12.6386,9.5894],[-12.6338,9.5979],[-12.6246,9.6013],[-12.6149,9.6001],[-12.6068,9.6007],[-12.6028,9.6094],[-12.6016,9.6517],[-12.5986,9.6549],[-12.5823,9.6834],[-12.5731,9.6926],[-12.542,9.7113],[-12.5388,9.7119],[-12.5375,9.7157],[-12.5377,9.7279],[-12.5357,9.7328],[-12.5256,9.7321],[-12.5225,9.7345],[-12.5229,9.7394],[-12.5273,9.7536],[-12.5136,9.8278],[-12.5137,9.8383],[-12.515,9.8451],[-12.5143,9.8513],[-12.5083,9.8604],[-12.4723,9.8813],[-12.427,9.8976],[-12.2767,9.9293],[-12.2536,9.9284],[-12.2356,9.9168],[-12.2174,9.9006],[-12.1936,9.8861],[-12.1748,9.8792],[-12.1583,9.8756],[-12.1413,9.8749],[-11.9218,9.9222],[-11.915,9.9315],[-11.9101,9.9925],[-11.2727,9.996],[-11.2473,9.9934],[-11.2134,9.9834],[-11.1996,9.9822],[-11.1885,9.9726],[-11.1813,9.9504],[-11.1677,9.8845],[-11.1603,9.8728],[-11.086,9.8262],[-11.0449,9.7871],[-11.0101,9.7427],[-10.9863,9.6978],[-10.9746,9.6638],[-10.9685,9.6542],[-10.9629,9.6508],[-10.9466,9.6448],[-10.9401,9.6397],[-10.9358,9.6319],[-10.9291,9.6057],[-10.9217,9.5959],[-10.896,9.5783],[-10.8863,9.5684],[-10.8828,9.5602],[-10.8777,9.5327],[-10.8706,9.5234],[-10.8602,9.5185],[-10.8526,9.5121],[-10.8537,9.4979],[-10.8591,9.473],[-10.8549,9.4553],[-10.844,9.4403],[-10.8291,9.4239],[-10.8134,9.4139],[-10.8115,9.4083],[-10.8222,9.4009],[-10.8318,9.3921],[-10.8194,9.3881],[-10.8017,9.3873],[-10.7952,9.3885],[-10.7854,9.3872],[-10.7748,9.3873],[-10.7655,9.3852],[-10.7535,9.3676],[-10.7415,9.3571],[-10.7282,9.3482],[-10.7178,9.3433],[-10.6751,9.3065],[-10.6738,9.294],[-10.6777,9.2829],[-10.6835,9.2718],[-10.6881,9.2593],[-10.6879,9.2507],[-10.6839,9.2338],[-10.6852,9.2245],[-10.6932,9.2128],[-10.7038,9.2063],[-10.715,9.2014],[-10.7247,9.1945],[-10.7426,9.1633],[-10.7535,9.1201],[-10.7463,9.0838],[-10.7104,9.073],[-10.6691,9.0744],[-10.6293,9.0704],[-10.606,9.0638],[-10.5941,9.0541],[-10.5918,9.0391],[-10.6071,8.9798],[-10.6119,8.9451],[-10.6101,8.8723],[-10.6085,8.8623],[-10.5994,8.834],[-10.5991,8.8296],[-10.6002,8.819],[-10.5997,8.8154],[-10.5963,8.8112],[-10.5863,8.8041],[-10.5453,8.75],[-10.5302,8.7392],[-10.5248,8.7295],[-10.4819,8.6725],[-10.4897,8.651],[-10.5033,8.6316],[-10.5221,8.6186],[-10.5452,8.6168],[-10.5654,8.6128],[-10.5846,8.5968],[-10.6005,8.5757],[-10.6165,8.5465],[-10.6319,8.532],[-10.6389,8.5199],[-10.6412,8.5066],[-10.6411,8.4948],[-10.6439,8.4869],[-10.6547,8.4855],[-10.6691,8.3991],[-10.6838,8.3749],[-10.702,8.3536],[-10.725,8.3199],[-10.7353,8.2873],[-10.7152,8.2696],[-10.7079,8.3031],[-10.6882,8.3241],[-10.6598,8.3333],[-10.6267,8.3315],[-10.6119,8.3253],[-10.5833,8.3069],[-10.5727,8.3046],[-10.5544,8.3118],[-10.5193,8.3348],[-10.4602,8.3922],[-10.448,8.4076],[-10.4238,8.4566],[-10.4141,8.4702],[-10.4024,8.481],[-10.3898,8.4891],[-10.3747,8.4948],[-10.3443,8.4991],[-10.3376,8.4986],[-10.3102,8.4904],[-10.3022,8.4859],[-10.2937,8.4831],[-10.2822,8.4846]]],[[[-12.493,7.568],[-12.5044,7.561],[-12.5054,7.5495],[-12.4991,7.5202],[-12.5018,7.5024],[-12.5087,7.4918],[-12.5176,7.4818],[-12.5264,7.4656],[-12.5275,7.4497],[-12.5189,7.4166],[-12.5196,7.4041],[-12.5323,7.3925],[-12.5497,7.3896],[-12.5658,7.3957],[-12.5749,7.4103],[-12.5544,7.4103],[-12.568,7.4354],[-12.5856,7.4599],[-12.6055,7.4787],[-12.6261,7.486],[-12.6406,7.4873],[-12.7318,7.5113],[-12.7644,7.528],[-12.8492,7.5407],[-12.9517,7.568],[-12.9517,7.5754],[-12.9143,7.5844],[-12.9103,7.5981],[-12.8981,7.6107],[-12.8833,7.6164],[-12.8448,7.6225],[-12.7357,7.6225],[-12.7189,7.6249],[-12.6811,7.6347],[-12.6214,7.6397],[-12.6007,7.6382],[-12.5811,7.6301],[-12.5959,7.6127],[-12.586,7.6076],[-12.5475,7.609],[-12.5297,7.6038],[-12.5154,7.5949],[-12.5035,7.5826],[-12.493,7.568]]]]}}