{"type":"Feature","bbox":[-17.536,12.3056,-11.3778,16.6914],"properties":{"iso":"SN","name":"Senegal","name_de":"Senegal","key":"SN"},"geometry":{"type":"Polygon","coordinates":[[[-12.2641,14.7749],[-12.2565,14.7458],[-12.2366,14.7285],[-12.2305,14.7146],[-12.2228,14.7033],[-12.2076,14.6966],[-12.1914,14.6934],[-12.1803,14.6928],[-12.1858,14.6808],[-12.1903,14.6737],[-12.1922,14.6669],[-12.1898,14.656],[-12.1828,14.6502],[-12.1726,14.6479],[-12.165,14.6419],[-12.1659,14.6252],[-12.1715,14.6164],[-12.191,14.598],[-12.1984,14.5876],[-12.2005,14.5774],[-12.2014,14.5652],[-12.2042,14.5543],[-12.2115,14.548],[-12.2304,14.5367],[-12.2364,14.5195],[-12.2342,14.4986],[-12.2224,14.4549],[-12.2199,14.4346],[-12.2217,14.3912],[-12.2088,14.3888],[-12.1156,14.3551],[-12.1087,14.342],[-12.113,14.3296],[-12.1278,14.3243],[-12.1196,14.3106],[-12.11,14.2981],[-12.0978,14.2881],[-12.0584,14.2741],[-12.0443,14.2649],[-12.0345,14.2503],[-11.9976,14.1662],[-11.9954,14.144],[-12.0028,14.1035],[-12.0252,14.0267],[-12.0253,13.9852],[-12.0153,13.9593],[-11.999,13.9436],[-11.9804,13.9296],[-11.9629,13.9092],[-11.9568,13.8903],[-11.957,13.87],[-11.9629,13.8295],[-11.9788,13.7848],[-12.0123,13.7512],[-12.0976,13.7044],[-12.0839,13.693],[-12.0704,13.6732],[-12.0498,13.6344],[-12.0373,13.5983],[-12.0152,13.5644],[-11.9968,13.5442],[-11.939,13.503],[-11.9327,13.4961],[-11.9238,13.4811],[-11.9182,13.4747],[-11.9077,13.4696],[-11.8985,13.4685],[-11.8904,13.4651],[-11.8835,13.4535],[-11.8857,13.4358],[-11.9,13.3822],[-11.8976,13.3712],[-11.8888,13.3689],[-11.8623,13.3561],[-11.8546,13.3506],[-11.8508,13.3431],[-11.8446,13.3238],[-11.84,13.3169],[-11.8281,13.3073],[-11.8226,13.3067],[-11.8171,13.3123],[-11.7751,13.3433],[-11.7725,13.3627],[-11.7666,13.3832],[-11.7565,13.3998],[-11.7412,13.4078],[-11.7269,13.4058],[-11.7198,13.3979],[-11.714,13.3881],[-11.704,13.3804],[-11.6945,13.3792],[-11.675,13.3832],[-11.6498,13.3841],[-11.6453,13.3798],[-11.6466,13.3655],[-11.644,13.3556],[-11.6329,13.3544],[-11.6203,13.3575],[-11.6131,13.3608],[-11.613,13.3391],[-11.6058,13.3197],[-11.5812,13.2861],[-11.5585,13.2665],[-11.5543,13.2569],[-11.5558,13.2459],[-11.5686,13.2279],[-11.5723,13.2171],[-11.5693,13.1992],[-11.5597,13.1869],[-11.5478,13.1762],[-11.5385,13.163],[-11.5381,13.128],[-11.5331,13.1118],[-11.5154,13.1078],[-11.5015,13.0996],[-11.4897,13.0908],[-11.4771,13.0833],[-11.4608,13.0792],[-11.4503,13.0751],[-11.4514,13.0681],[-11.4569,13.0604],[-11.459,13.0547],[-11.4452,13.0352],[-11.4395,13.023],[-11.4357,13.0167],[-11.4317,13.0135],[-11.423,13.0094],[-11.4245,13.0052],[-11.4301,13.001],[-11.4334,12.997],[-11.4335,12.9884],[-11.436,12.9688],[-11.4387,12.9589],[-11.4231,12.956],[-11.4115,12.9607],[-11.4042,12.9721],[-11.4018,12.9895],[-11.3934,12.9808],[-11.3888,12.9706],[-11.3866,12.9591],[-11.3844,12.9331],[-11.3878,12.9271],[-11.3942,12.9233],[-11.4029,12.9164],[-11.4073,12.9163],[-11.4136,12.9197],[-11.4207,12.922],[-11.4272,12.9186],[-11.428,12.9125],[-11.4173,12.902],[-11.4151,12.8967],[-11.4193,12.8865],[-11.4249,12.8762],[-11.4286,12.8658],[-11.4255,12.8496],[-11.427,12.8452],[-11.43,12.8411],[-11.4325,12.8355],[-11.4321,12.8293],[-11.4282,12.827],[-11.421,12.8256],[-11.416,12.8201],[-11.4117,12.8129],[-11.4085,12.8045],[-11.4064,12.7943],[-11.4054,12.7823],[-11.4076,12.7715],[-11.4146,12.7642],[-11.4146,12.7597],[-11.404,12.7412],[-11.4022,12.7317],[-11.4103,12.7188],[-11.4242,12.7164],[-11.4374,12.7122],[-11.448,12.6859],[-11.4558,12.6806],[-11.4619,12.6731],[-11.461,12.6584],[-11.4572,12.656],[-11.4496,12.6532],[-11.4418,12.6478],[-11.4368,12.6375],[-11.4366,12.6271],[-11.4418,12.5955],[-11.4409,12.5849],[-11.4386,12.578],[-11.4374,12.5708],[-11.4398,12.5593],[-11.4606,12.5498],[-11.4678,12.5435],[-11.4567,12.5398],[-11.4495,12.5352],[-11.4379,12.5154],[-11.4298,12.5083],[-11.4304,12.5157],[-11.4247,12.5264],[-11.417,12.5293],[-11.4024,12.4885],[-11.4005,12.4795],[-11.3926,12.4918],[-11.3904,12.4975],[-11.3778,12.4802],[-11.3798,12.4569],[-11.3866,12.4305],[-11.3884,12.4039],[-11.416,12.405],[-11.4816,12.4282],[-11.5154,12.4316],[-11.6015,12.4252],[-11.6431,12.4176],[-11.72,12.3895],[-11.7578,12.3833],[-11.8396,12.3867],[-11.8602,12.3911],[-11.9206,12.416],[-11.9239,12.4188],[-11.9309,12.4187],[-11.9352,12.417],[-11.9463,12.4094],[-11.9843,12.389],[-11.9976,12.3864],[-12.0189,12.3884],[-12.0792,12.4081],[-12.104,12.4074],[-12.1219,12.3987],[-12.155,12.369],[-12.192,12.3488],[-12.3609,12.3056],[-12.3771,12.3137],[-12.4055,12.3565],[-12.4234,12.3691],[-12.4668,12.3845],[-12.4878,12.3895],[-12.5051,12.3903],[-12.5219,12.3869],[-12.5415,12.3795],[-12.5706,12.3637],[-12.5794,12.3612],[-12.5937,12.3616],[-12.5973,12.3654],[-12.5981,12.3724],[-12.6034,12.3819],[-12.6316,12.4127],[-12.648,12.4258],[-12.6675,12.4337],[-12.6881,12.436],[-12.7527,12.4324],[-12.7733,12.4351],[-12.7792,12.4433],[-12.7835,12.4531],[-12.7994,12.4606],[-12.8291,12.4628],[-12.8386,12.4664],[-12.8491,12.4758],[-12.8513,12.4844],[-12.8492,12.495],[-12.874,12.5164],[-12.9131,12.5363],[-12.9495,12.5359],[-12.9662,12.4961],[-12.9695,12.4768],[-12.981,12.467],[-12.9974,12.4659],[-13.0152,12.4727],[-13.0346,12.4706],[-13.052,12.4723],[-13.0667,12.4801],[-13.0783,12.4962],[-13.0827,12.5157],[-13.0791,12.5322],[-13.0642,12.5662],[-13.0604,12.5834],[-13.0593,12.6035],[-13.0636,12.6223],[-13.0765,12.6359],[-13.0917,12.6382],[-13.109,12.6354],[-13.1273,12.6348],[-13.1453,12.6439],[-13.1547,12.6328],[-13.1626,12.6381],[-13.1692,12.6388],[-13.1763,12.6377],[-13.1852,12.6378],[-13.2019,12.6334],[-13.2065,12.6357],[-13.216,12.6457],[-13.2215,12.6484],[-13.2291,12.6478],[-13.246,12.6432],[-13.2547,12.6418],[-13.2634,12.6432],[-13.2757,12.6511],[-13.2841,12.6533],[-13.2929,12.6527],[-13.3229,12.6465],[-13.3277,12.6449],[-13.3328,12.6396],[-13.3386,12.6392],[-13.3434,12.641],[-13.352,12.647],[-13.3566,12.6489],[-13.4048,12.6618],[-13.7283,12.6734],[-15.1951,12.6794],[-15.2238,12.6752],[-15.2497,12.6636],[-15.3078,12.6227],[-15.3686,12.5954],[-15.4246,12.555],[-15.677,12.4393],[-15.7115,12.4322],[-15.8939,12.4428],[-15.9733,12.4372],[-15.9925,12.4407],[-16.055,12.4612],[-16.0905,12.4643],[-16.1661,12.4514],[-16.1819,12.4434],[-16.1901,12.4448],[-16.2117,12.4531],[-16.2224,12.4551],[-16.2329,12.4529],[-16.382,12.3738],[-16.4123,12.3617],[-16.4627,12.3613],[-16.5149,12.3485],[-16.5333,12.3478],[-16.6689,12.3567],[-16.7056,12.348],[-16.7284,12.3325],[-16.735,12.3452],[-16.7397,12.3584],[-16.7441,12.3789],[-16.7505,12.3856],[-16.7655,12.396],[-16.7885,12.418],[-16.7987,12.4309],[-16.803,12.4438],[-16.803,12.4854],[-16.8008,12.4945],[-16.7909,12.5032],[-16.7887,12.5124],[-16.7814,12.5229],[-16.7317,12.5521],[-16.7099,12.5528],[-16.6788,12.5502],[-16.6454,12.5707],[-16.6347,12.5795],[-16.618,12.6055],[-16.5797,12.6328],[-16.5614,12.6118],[-16.5472,12.5739],[-16.5333,12.5653],[-16.5327,12.5809],[-16.5224,12.5931],[-16.5048,12.598],[-16.4851,12.5937],[-16.4516,12.575],[-16.4215,12.5669],[-16.3883,12.5516],[-16.371,12.5502],[-16.3513,12.5595],[-16.3273,12.5887],[-16.3096,12.598],[-16.2863,12.5971],[-16.2665,12.59],[-16.2467,12.588],[-16.2239,12.6018],[-16.2122,12.6064],[-16.2045,12.5976],[-16.1986,12.5849],[-16.1929,12.5776],[-16.115,12.6061],[-16.0971,12.6103],[-16.0731,12.6117],[-16.0576,12.6162],[-16.0447,12.6255],[-16.0298,12.633],[-16.0079,12.6321],[-15.9903,12.6229],[-15.948,12.5898],[-15.9396,12.5806],[-15.928,12.5786],[-15.8639,12.5776],[-15.8577,12.5732],[-15.8448,12.5599],[-15.84,12.5571],[-15.8312,12.5583],[-15.8055,12.5645],[-15.7941,12.5715],[-15.7829,12.5847],[-15.7688,12.5926],[-15.7479,12.5837],[-15.7424,12.5883],[-15.7361,12.5914],[-15.7296,12.5915],[-15.7159,12.5818],[-15.7101,12.5828],[-15.705,12.5852],[-15.6995,12.5837],[-15.6916,12.5749],[-15.6849,12.5579],[-15.6796,12.5502],[-15.6731,12.5444],[-15.6659,12.5402],[-15.6569,12.5376],[-15.6448,12.5373],[-15.6334,12.5395],[-15.5877,12.558],[-15.5694,12.5763],[-15.5387,12.6154],[-15.5273,12.6237],[-15.5171,12.6289],[-15.5098,12.6358],[-15.5071,12.6496],[-15.5128,12.6557],[-15.5238,12.6603],[-15.5299,12.6658],[-15.5213,12.6738],[-15.5311,12.6964],[-15.5402,12.7269],[-15.5434,12.758],[-15.5349,12.783],[-15.5233,12.7899],[-15.509,12.7904],[-15.494,12.789],[-15.4803,12.7905],[-15.4664,12.7965],[-15.4569,12.8037],[-15.4507,12.8128],[-15.4462,12.8246],[-15.4256,12.805],[-15.4068,12.7997],[-15.394,12.8102],[-15.3916,12.8382],[-15.4071,12.8223],[-15.4218,12.8228],[-15.4369,12.8293],[-15.453,12.8314],[-15.4681,12.8249],[-15.4928,12.8071],[-15.5107,12.8035],[-15.5209,12.8034],[-15.5359,12.8013],[-15.5495,12.7943],[-15.5554,12.7796],[-15.5554,12.7216],[-15.5441,12.6841],[-15.5423,12.6738],[-15.5417,12.6575],[-15.5425,12.6494],[-15.5455,12.6427],[-15.5697,12.6223],[-15.5774,12.6125],[-15.6278,12.5676],[-15.641,12.5595],[-15.6529,12.5589],[-15.6633,12.5635],[-15.6721,12.5707],[-15.6664,12.6007],[-15.6968,12.6142],[-15.7677,12.6254],[-15.8158,12.5954],[-15.8335,12.5913],[-15.8369,12.5944],[-15.8413,12.6015],[-15.8485,12.6085],[-15.8605,12.6117],[-15.8727,12.6096],[-15.8896,12.6002],[-15.9017,12.598],[-15.9133,12.6012],[-15.9284,12.6089],[-15.9533,12.6254],[-15.9545,12.6303],[-15.9527,12.6437],[-15.9565,12.6464],[-15.9697,12.6482],[-15.9767,12.6502],[-15.9812,12.6527],[-15.9875,12.661],[-16.0011,12.6874],[-16.0048,12.6908],[-16.0093,12.6927],[-16.0132,12.6962],[-16.017,12.7175],[-16.0221,12.729],[-16.0283,12.729],[-16.0283,12.7216],[-16.0298,12.7175],[-16.0405,12.697],[-16.0452,12.6905],[-16.0489,12.6564],[-16.0768,12.639],[-16.1177,12.6321],[-16.1283,12.6277],[-16.1489,12.6144],[-16.155,12.6117],[-16.1656,12.6129],[-16.1898,12.6191],[-16.2276,12.6191],[-16.2388,12.6165],[-16.2579,12.6082],[-16.2686,12.6055],[-16.2807,12.6055],[-16.313,12.6117],[-16.3238,12.6096],[-16.3378,12.6002],[-16.3468,12.598],[-16.3502,12.5933],[-16.3551,12.5826],[-16.362,12.5712],[-16.371,12.5645],[-16.412,12.5776],[-16.4452,12.5961],[-16.4607,12.6089],[-16.4672,12.6223],[-16.4712,12.6246],[-16.4803,12.6274],[-16.4896,12.6318],[-16.4945,12.639],[-16.4928,12.6489],[-16.4865,12.6578],[-16.4773,12.6641],[-16.4672,12.6663],[-16.4672,12.6738],[-16.4826,12.6741],[-16.4923,12.6817],[-16.4979,12.6938],[-16.5013,12.7079],[-16.5082,12.6254],[-16.5157,12.6254],[-16.5289,12.6428],[-16.5657,12.6739],[-16.5702,12.6936],[-16.5819,12.6844],[-16.5897,12.6733],[-16.5988,12.664],[-16.6146,12.6601],[-16.6266,12.6625],[-16.6347,12.6694],[-16.6387,12.68],[-16.6379,12.6936],[-16.6238,12.7197],[-16.6038,12.7393],[-16.5907,12.762],[-16.5969,12.7973],[-16.6014,12.7702],[-16.6037,12.7625],[-16.6091,12.7537],[-16.6138,12.7494],[-16.6185,12.7465],[-16.6384,12.7285],[-16.6469,12.7182],[-16.651,12.7053],[-16.6523,12.684],[-16.6451,12.6486],[-16.6472,12.6322],[-16.6773,12.6196],[-16.7211,12.5837],[-16.7546,12.5722],[-16.7731,12.583],[-16.7809,12.6088],[-16.7825,12.6427],[-16.7771,12.678],[-16.7612,12.7132],[-16.7355,12.7329],[-16.7006,12.7216],[-16.699,12.7364],[-16.7132,12.7473],[-16.734,12.7514],[-16.7515,12.7454],[-16.7721,12.7206],[-16.7836,12.7126],[-16.7962,12.7153],[-16.7903,12.7235],[-16.7882,12.7321],[-16.7903,12.7405],[-16.7962,12.7488],[-16.7745,12.7786],[-16.7701,12.7934],[-16.7751,12.8109],[-16.7825,12.8109],[-16.7872,12.7999],[-16.7941,12.795],[-16.8003,12.7988],[-16.803,12.814],[-16.8005,12.826],[-16.7945,12.8388],[-16.7589,12.8908],[-16.7552,12.9035],[-16.7563,12.9162],[-16.761,12.9397],[-16.7621,12.9512],[-16.7598,12.9721],[-16.75,13.0136],[-16.7478,13.0403],[-16.7493,13.0566],[-16.7537,13.065],[-16.7521,13.088],[-16.7485,13.0992],[-16.7422,13.1074],[-16.7263,13.1226],[-16.7232,13.1322],[-16.7084,13.1567],[-16.6735,13.1643],[-15.8333,13.1568],[-15.8266,13.1617],[-15.8227,13.3194],[-15.8187,13.3335],[-15.8071,13.3398],[-15.7374,13.3463],[-15.6925,13.3603],[-15.6799,13.3607],[-15.6125,13.3542],[-15.5961,13.3558],[-15.566,13.3657],[-15.5429,13.378],[-15.5195,13.3866],[-15.4883,13.3853],[-15.3792,13.3625],[-15.3424,13.3626],[-15.3098,13.3684],[-15.2771,13.3803],[-15.2483,13.399],[-15.2278,13.4252],[-15.2217,13.4528],[-15.218,13.5147],[-15.204,13.5369],[-15.1605,13.581],[-15.1377,13.59],[-15.1102,13.5725],[-15.0653,13.5313],[-15.0156,13.4961],[-14.9497,13.4631],[-14.9159,13.4544],[-14.8776,13.4514],[-14.8626,13.4471],[-14.8291,13.427],[-14.8108,13.4212],[-14.7903,13.4173],[-14.7796,13.4109],[-14.7595,13.3834],[-14.7316,13.359],[-14.6981,13.3452],[-14.6616,13.3409],[-14.6246,13.3452],[-14.5922,13.3531],[-14.5807,13.3492],[-14.5429,13.3147],[-14.5296,13.3073],[-14.5151,13.3032],[-14.4836,13.3019],[-14.4703,13.2983],[-14.4591,13.2869],[-14.4515,13.2769],[-14.442,13.2685],[-14.4314,13.2614],[-14.395,13.243],[-14.3688,13.2357],[-14.3418,13.2336],[-14.2849,13.2385],[-14.2306,13.2286],[-14.2017,13.2296],[-14.1798,13.2401],[-14.1318,13.2756],[-14.1168,13.2822],[-14.0995,13.282],[-14.0566,13.2972],[-14.0163,13.2976],[-13.9761,13.3082],[-13.9006,13.3146],[-13.851,13.3358],[-13.8226,13.3782],[-13.8187,13.4294],[-13.8427,13.4766],[-13.8528,13.4848],[-13.8755,13.4979],[-13.8846,13.5055],[-13.8898,13.514],[-13.8962,13.5329],[-13.9013,13.5416],[-13.9181,13.555],[-13.9421,13.5669],[-13.9675,13.5756],[-13.9885,13.5791],[-14.0019,13.577],[-14.0223,13.5653],[-14.034,13.5602],[-14.0445,13.5586],[-14.0618,13.5601],[-14.0726,13.5597],[-14.0929,13.5547],[-14.1391,13.5316],[-14.1968,13.5188],[-14.2158,13.5108],[-14.2712,13.477],[-14.3299,13.4564],[-14.3473,13.4524],[-14.3656,13.4548],[-14.3896,13.4659],[-14.4703,13.5224],[-14.4804,13.5331],[-14.4869,13.5465],[-14.5002,13.59],[-14.5097,13.6091],[-14.5232,13.6257],[-14.5426,13.6408],[-14.5855,13.6605],[-14.6267,13.6635],[-14.6672,13.6529],[-14.7286,13.6193],[-14.7409,13.6154],[-14.7549,13.6204],[-14.796,13.6447],[-14.8029,13.6523],[-14.8224,13.7172],[-14.8313,13.7356],[-14.844,13.7527],[-14.8793,13.7806],[-14.9158,13.7924],[-15.0168,13.7969],[-15.0763,13.819],[-15.0977,13.82],[-15.1706,13.7938],[-15.246,13.7467],[-15.2673,13.7418],[-15.2757,13.7481],[-15.2951,13.7732],[-15.3045,13.7819],[-15.3478,13.7886],[-15.3941,13.7715],[-15.4363,13.7412],[-15.4675,13.7083],[-15.4786,13.6913],[-15.4889,13.6703],[-15.4968,13.6483],[-15.5005,13.628],[-15.5025,13.5883],[-15.5182,13.5831],[-16.5614,13.5869],[-16.5714,13.6018],[-16.5764,13.6122],[-16.5758,13.6403],[-16.5587,13.6559],[-16.5335,13.6686],[-16.5082,13.688],[-16.5135,13.6909],[-16.5238,13.6984],[-16.5293,13.701],[-16.5166,13.7128],[-16.5072,13.7281],[-16.5089,13.7402],[-16.5293,13.7426],[-16.5266,13.7266],[-16.5315,13.7073],[-16.5421,13.6937],[-16.5565,13.6948],[-16.5637,13.6738],[-16.5793,13.6596],[-16.5989,13.6542],[-16.618,13.6601],[-16.6356,13.678],[-16.64,13.6965],[-16.6317,13.7358],[-16.6298,13.7605],[-16.6271,13.7705],[-16.618,13.7836],[-16.5825,13.8247],[-16.5764,13.8388],[-16.5705,13.8351],[-16.5549,13.8279],[-16.5491,13.8245],[-16.5514,13.8291],[-16.5565,13.8456],[-16.5218,13.8518],[-16.5201,13.832],[-16.5129,13.8133],[-16.5016,13.802],[-16.487,13.8046],[-16.4946,13.8275],[-16.4963,13.8527],[-16.5006,13.8727],[-16.5157,13.8798],[-16.5104,13.8933],[-16.4887,13.9864],[-16.487,14.0026],[-16.5089,13.9714],[-16.5181,13.9519],[-16.526,13.9105],[-16.5362,13.8857],[-16.5494,13.8693],[-16.5628,13.873],[-16.5702,13.873],[-16.5802,13.8595],[-16.5979,13.8543],[-16.6186,13.8516],[-16.6379,13.8456],[-16.6487,13.8369],[-16.6523,13.8286],[-16.6539,13.8201],[-16.659,13.8109],[-16.6645,13.806],[-16.6759,13.7995],[-16.6825,13.7941],[-16.6925,13.7757],[-16.7001,13.769],[-16.7102,13.7736],[-16.7134,13.7834],[-16.7135,13.7957],[-16.7153,13.8063],[-16.7245,13.8109],[-16.7372,13.8196],[-16.7424,13.8394],[-16.7411,13.8604],[-16.7341,13.873],[-16.7402,13.8866],[-16.7445,13.9022],[-16.7478,13.9344],[-16.7468,13.9514],[-16.7434,13.9611],[-16.7372,13.9677],[-16.7142,13.9856],[-16.7025,13.99],[-16.6897,13.9905],[-16.6603,13.9872],[-16.6463,13.983],[-16.6368,13.9749],[-16.6379,13.9617],[-16.6239,13.9739],[-16.6129,13.9887],[-16.599,13.9968],[-16.5764,13.989],[-16.5768,14.011],[-16.5689,14.0208],[-16.5563,14.0269],[-16.5423,14.0373],[-16.5548,14.0331],[-16.5683,14.0303],[-16.581,14.0328],[-16.5907,14.0436],[-16.5455,14.071],[-16.5293,14.0852],[-16.5033,14.1163],[-16.4891,14.1282],[-16.457,14.1374],[-16.4415,14.1566],[-16.4294,14.161],[-16.421,14.1571],[-16.413,14.1498],[-16.4047,14.1454],[-16.3949,14.1504],[-16.3888,14.1549],[-16.3726,14.1624],[-16.3647,14.1678],[-16.4277,14.1701],[-16.4547,14.1802],[-16.453,14.2019],[-16.4687,14.1938],[-16.4746,14.1794],[-16.4715,14.1643],[-16.4604,14.1541],[-16.4728,14.1474],[-16.4831,14.1481],[-16.4931,14.1518],[-16.5048,14.1541],[-16.5132,14.151],[-16.5168,14.1435],[-16.5188,14.1343],[-16.5218,14.1262],[-16.5475,14.0819],[-16.5565,14.0715],[-16.5668,14.067],[-16.5885,14.062],[-16.6003,14.0542],[-16.6091,14.0432],[-16.6216,14.02],[-16.6317,14.0101],[-16.6542,14.0028],[-16.6754,14.0069],[-16.697,14.0142],[-16.7211,14.0163],[-16.6976,14.0574],[-16.6968,14.0647],[-16.68,14.0694],[-16.6523,14.0995],[-16.6656,14.0956],[-16.6786,14.0761],[-16.6897,14.0715],[-16.7118,14.0709],[-16.7205,14.0689],[-16.7279,14.0647],[-16.7161,14.0513],[-16.7171,14.0424],[-16.7341,14.0231],[-16.737,14.0154],[-16.7396,14.0011],[-16.7447,13.9927],[-16.7646,13.9706],[-16.7689,13.9617],[-16.7734,13.9336],[-16.7689,13.8388],[-16.7751,13.8388],[-16.781,14.0307],[-16.786,14.0597],[-16.8026,14.1079],[-16.8208,14.1435],[-16.8297,14.1541],[-16.8428,14.1601],[-16.8688,14.1658],[-16.8787,14.1745],[-16.8839,14.189],[-16.8924,14.2429],[-16.8989,14.26],[-16.907,14.2725],[-16.9259,14.2912],[-16.9346,14.2959],[-16.9412,14.2973],[-16.9455,14.3014],[-16.947,14.3145],[-16.9458,14.3248],[-16.9407,14.3444],[-16.9396,14.3559],[-16.9444,14.3724],[-16.9565,14.3901],[-16.9879,14.421],[-17.0595,14.4539],[-17.0705,14.4654],[-17.0762,14.4786],[-17.1115,14.5302],[-17.1378,14.599],[-17.1782,14.6531],[-17.2069,14.6789],[-17.2241,14.6904],[-17.2438,14.6993],[-17.2655,14.7028],[-17.2816,14.7073],[-17.324,14.7289],[-17.3306,14.7363],[-17.3636,14.7359],[-17.3923,14.7393],[-17.4174,14.7377],[-17.4398,14.7221],[-17.4314,14.7125],[-17.4193,14.709],[-17.4268,14.6944],[-17.4398,14.6885],[-17.4268,14.6749],[-17.433,14.6605],[-17.4364,14.6596],[-17.4398,14.6538],[-17.453,14.6621],[-17.5202,14.7431],[-17.536,14.7574],[-17.371,14.8003],[-17.3221,14.839],[-17.173,14.9008],[-17.1387,14.9277],[-16.9797,15.1119],[-16.9479,15.1579],[-16.8782,15.2331],[-16.7392,15.4724],[-16.6697,15.5618],[-16.5389,15.7744],[-16.5343,15.7844],[-16.536,15.7947],[-16.5423,15.8088],[-16.5197,15.8464],[-16.5099,15.9015],[-16.5075,16.0104],[-16.5016,16.0219],[-16.4878,16.066],[-16.4704,16.1064],[-16.466,16.1741],[-16.4588,16.1942],[-16.4442,16.2063],[-16.4073,16.2148],[-16.3917,16.2247],[-16.3854,16.2349],[-16.3811,16.2467],[-16.3402,16.4159],[-16.3349,16.4558],[-16.3274,16.4746],[-16.3135,16.4933],[-16.2951,16.5106],[-16.2738,16.5232],[-16.251,16.5276],[-16.2179,16.5215],[-16.2067,16.5207],[-16.1954,16.5227],[-16.1852,16.5273],[-16.1558,16.5475],[-16.1443,16.5527],[-16.1323,16.5548],[-16.1197,16.5524],[-16.1105,16.5469],[-16.1031,16.5396],[-16.091,16.5222],[-16.074,16.5049],[-16.0538,16.4954],[-16.0312,16.4929],[-16.0073,16.4962],[-16.0002,16.5011],[-15.9931,16.5046],[-15.9856,16.5059],[-15.9773,16.504],[-15.9644,16.499],[-15.9581,16.4984],[-15.9507,16.4998],[-15.911,16.5169],[-15.8969,16.5184],[-15.862,16.5103],[-15.8536,16.5103],[-15.8289,16.5145],[-15.813,16.5138],[-15.7677,16.4995],[-15.7353,16.4977],[-15.7268,16.4953],[-15.7032,16.4844],[-15.6875,16.4805],[-15.6722,16.4814],[-15.6574,16.4862],[-15.6436,16.4947],[-15.6215,16.5142],[-15.6097,16.5213],[-15.5944,16.5236],[-15.5515,16.5151],[-15.5367,16.5165],[-15.5248,16.5222],[-15.5152,16.5309],[-15.4909,16.5645],[-15.4785,16.5752],[-15.464,16.5815],[-15.4488,16.5802],[-15.4394,16.5727],[-15.4337,16.5625],[-15.4269,16.5532],[-15.4145,16.548],[-15.3998,16.5483],[-15.3857,16.5518],[-15.3436,16.5687],[-15.328,16.572],[-15.2959,16.573],[-15.2486,16.5658],[-15.2325,16.5664],[-15.1251,16.5827],[-15.104,16.5904],[-15.0975,16.5945],[-15.0932,16.6002],[-15.0928,16.6076],[-15.0962,16.614],[-15.1123,16.6292],[-15.1183,16.6426],[-15.1163,16.6555],[-15.1076,16.6654],[-15.0933,16.6692],[-15.0789,16.665],[-15.0699,16.6553],[-15.062,16.6438],[-15.0516,16.6342],[-15.0444,16.6319],[-15.0369,16.6326],[-15.0299,16.6355],[-15.0237,16.64],[-15.0187,16.6461],[-15.0165,16.6526],[-15.0134,16.6666],[-15.0069,16.6758],[-14.9966,16.6824],[-14.9743,16.6914],[-14.9629,16.6858],[-14.9499,16.6723],[-14.9413,16.656],[-14.9309,16.6434],[-14.9125,16.6406],[-14.882,16.6477],[-14.7112,16.6358],[-14.6997,16.6371],[-14.6659,16.6457],[-14.656,16.6459],[-14.6472,16.6435],[-14.6191,16.6307],[-14.6081,16.6288],[-14.597,16.6292],[-14.5551,16.6406],[-14.5445,16.6408],[-14.5039,16.6327],[-14.4931,16.6325],[-14.4824,16.6337],[-14.472,16.6364],[-14.4621,16.6408],[-14.4358,16.656],[-14.4262,16.6596],[-14.4066,16.6608],[-14.3433,16.6367],[-14.3355,16.6315],[-14.3313,16.6241],[-14.3318,16.6131],[-14.337,16.5941],[-14.3353,16.5865],[-14.326,16.5824],[-14.2876,16.5857],[-14.278,16.5813],[-14.2746,16.5735],[-14.2733,16.5556],[-14.2681,16.5479],[-14.2577,16.5432],[-14.2337,16.5416],[-14.2223,16.5396],[-14.2142,16.535],[-14.1972,16.5135],[-14.1901,16.5071],[-14.1664,16.4909],[-14.1324,16.4526],[-14.073,16.4007],[-14.0398,16.3821],[-14.0331,16.3761],[-14.0156,16.3559],[-14.0067,16.3503],[-13.987,16.3429],[-13.9779,16.338],[-13.9719,16.3312],[-13.9712,16.3242],[-13.9775,16.3088],[-13.9793,16.3004],[-13.9773,16.2938],[-13.9674,16.2814],[-13.963,16.2724],[-13.9627,16.264],[-13.9678,16.246],[-13.9641,16.2301],[-13.9471,16.2211],[-13.9078,16.21],[-13.8996,16.2053],[-13.8838,16.1937],[-13.8772,16.1869],[-13.8723,16.1788],[-13.8638,16.1518],[-13.8591,16.1423],[-13.8528,16.1335],[-13.8448,16.126],[-13.8358,16.1206],[-13.8273,16.1185],[-13.8192,16.1193],[-13.8113,16.1221],[-13.7949,16.1312],[-13.7788,16.1432],[-13.772,16.1504],[-13.7542,16.1753],[-13.7467,16.1824],[-13.7382,16.1871],[-13.7294,16.1895],[-13.7201,16.19],[-13.7106,16.1889],[-13.7126,16.1761],[-13.7228,16.1461],[-13.7196,16.1356],[-13.7148,16.1328],[-13.7045,16.1288],[-13.7,16.1256],[-13.696,16.1189],[-13.6847,16.1138],[-13.6781,16.1082],[-13.6759,16.1069],[-13.669,16.1057],[-13.6624,16.1074],[-13.635,16.1216],[-13.6293,16.1228],[-13.607,16.1233],[-13.5994,16.1255],[-13.5691,16.1382],[-13.5164,16.149],[-13.4973,16.1561],[-13.4915,16.1563],[-13.4849,16.155],[-13.4831,16.141],[-13.4999,16.1106],[-13.5017,16.0951],[-13.4915,16.0884],[-13.4551,16.1022],[-13.44,16.1019],[-13.4351,16.0965],[-13.427,16.0831],[-13.4221,16.0772],[-13.3946,16.0593],[-13.3886,16.0521],[-13.3861,16.0444],[-13.385,16.0269],[-13.3837,16.0192],[-13.3698,15.9855],[-13.3633,15.9751],[-13.3558,15.9655],[-13.347,15.9568],[-13.3218,15.9382],[-13.3159,15.9305],[-13.3137,15.9221],[-13.3144,15.9136],[-13.3182,15.8967],[-13.3182,15.8885],[-13.316,15.8818],[-13.3118,15.8758],[-13.2937,15.8553],[-13.2848,15.8399],[-13.28,15.8229],[-13.2797,15.8035],[-13.2875,15.7782],[-13.2861,15.7696],[-13.281,15.7628],[-13.274,15.7575],[-13.2587,15.7488],[-13.2507,15.7428],[-13.2439,15.7358],[-13.2325,15.7196],[-13.2283,15.7113],[-13.2271,15.704],[-13.2289,15.6966],[-13.244,15.6737],[-13.2477,15.6656],[-13.2487,15.6567],[-13.2473,15.6483],[-13.2378,15.6234],[-13.2228,15.6239],[-13.1928,15.629],[-13.1782,15.6282],[-13.1711,15.6254],[-13.1526,15.6124],[-13.1452,15.6095],[-13.1222,15.6035],[-13.1097,15.5964],[-13.099,15.5869],[-13.0918,15.5751],[-13.0895,15.561],[-13.0951,15.5234],[-13.095,15.5147],[-13.0931,15.5062],[-13.0896,15.497],[-13.0838,15.4927],[-13.0532,15.4851],[-13.0389,15.4869],[-13.0238,15.496],[-13.0105,15.5063],[-12.9958,15.5142],[-12.9802,15.5163],[-12.9643,15.5092],[-12.958,15.5017],[-12.9549,15.4931],[-12.9509,15.4654],[-12.9476,15.4586],[-12.9376,15.4458],[-12.9331,15.4383],[-12.9312,15.4305],[-12.931,15.397],[-12.9272,15.3807],[-12.919,15.3654],[-12.9068,15.3527],[-12.8473,15.3133],[-12.8345,15.3002],[-12.828,15.2839],[-12.8334,15.27],[-12.85,15.2674],[-12.8842,15.2708],[-12.8944,15.2634],[-12.8884,15.2509],[-12.8655,15.2287],[-12.8568,15.222],[-12.8479,15.2189],[-12.8383,15.2188],[-12.817,15.2231],[-12.8064,15.2231],[-12.7963,15.2203],[-12.7872,15.2142],[-12.782,15.2073],[-12.7795,15.1996],[-12.7793,15.1914],[-12.7847,15.166],[-12.784,15.1581],[-12.7798,15.1464],[-12.7546,15.1386],[-12.717,15.1034],[-12.6903,15.0924],[-12.6793,15.0938],[-12.6476,15.1032],[-12.6323,15.1054],[-12.6229,15.1023],[-12.6151,15.0946],[-12.6021,15.0788],[-12.5471,15.0472],[-12.5296,15.0344],[-12.519,15.0283],[-12.4956,15.023],[-12.4849,15.0173],[-12.4763,15.0077],[-12.4715,14.998],[-12.4482,14.9182],[-12.4476,14.9074],[-12.4338,14.8994],[-12.4001,14.8604],[-12.3825,14.846],[-12.3196,14.8172],[-12.2641,14.7749]]]}}