{"type":"Feature","bbox":[97.3514,5.6299,105.651,20.445],"properties":{"iso":"TH","name":"Thailand","name_de":"Thailand","key":"TH"},"geometry":{"type":"MultiPolygon","coordinates":[[[[102.9136,11.6459],[102.906,11.6662],[102.9087,11.718],[102.9067,11.7414],[102.8933,11.7697],[102.8255,11.8581],[102.7835,11.8923],[102.777,11.9025],[102.777,11.9674],[102.7669,12.0118],[102.7497,12.0403],[102.6318,12.152],[102.6301,12.1614],[102.6536,12.1592],[102.6414,12.1755],[102.6045,12.2039],[102.6057,12.2213],[102.5894,12.2122],[102.5739,12.2087],[102.5619,12.2021],[102.5573,12.1837],[102.5716,12.091],[102.584,12.0673],[102.5859,12.0602],[102.5824,12.0493],[102.574,12.0493],[102.5635,12.0539],[102.5539,12.0568],[102.5501,12.0612],[102.551,12.0828],[102.5505,12.091],[102.5322,12.1136],[102.5042,12.1334],[102.4736,12.149],[102.3662,12.186],[102.3504,12.1957],[102.3362,12.1976],[102.3245,12.1803],[102.3184,12.1803],[102.2959,12.19],[102.2904,12.194],[102.2865,12.2025],[102.2871,12.2102],[102.2904,12.2213],[102.2835,12.2414],[102.2654,12.2715],[102.2632,12.2895],[102.29,12.2829],[102.3152,12.2912],[102.3363,12.3074],[102.3519,12.3237],[102.3599,12.3471],[102.3521,12.3673],[102.3372,12.3761],[102.3245,12.3653],[102.3325,12.3619],[102.3384,12.3572],[102.3425,12.3513],[102.3451,12.3448],[102.3307,12.3278],[102.3102,12.3162],[102.2917,12.3181],[102.2835,12.3414],[102.2861,12.3857],[102.2922,12.4069],[102.304,12.4274],[102.2979,12.4274],[102.2915,12.4196],[102.2767,12.3926],[102.27,12.3926],[102.2659,12.4048],[102.2635,12.4173],[102.2644,12.4294],[102.27,12.4404],[102.2585,12.4319],[102.2424,12.4263],[102.2283,12.4277],[102.2222,12.4404],[102.2057,12.4358],[102.201,12.4335],[102.2106,12.4277],[102.2144,12.4196],[102.2134,12.41],[102.2085,12.3994],[102.2146,12.3994],[102.2358,12.4137],[102.2425,12.4028],[102.2471,12.393],[102.2478,12.3832],[102.2427,12.3721],[102.263,12.357],[102.2734,12.3262],[102.2648,12.3062],[102.2283,12.3237],[102.1668,12.3857],[102.1369,12.4018],[102.1244,12.4105],[102.126,12.4199],[102.1099,12.4409],[102.0872,12.4647],[102.072,12.4885],[102.0781,12.5093],[102.0818,12.5011],[102.0859,12.4984],[102.0986,12.4956],[102.0855,12.5043],[102.0921,12.5127],[102.1056,12.5229],[102.1123,12.5373],[102.1047,12.5373],[102.0995,12.5274],[102.0929,12.5234],[102.0855,12.5244],[102.0781,12.5297],[102.0882,12.5387],[102.0986,12.5434],[102.0479,12.5423],[102.0433,12.5505],[102.0645,12.5707],[102.0222,12.5685],[102.0093,12.5645],[102.0093,12.5571],[102.0225,12.5478],[102.0315,12.5341],[102.0432,12.5235],[102.0645,12.5229],[102.0596,12.5105],[102.0575,12.4972],[102.057,12.4683],[102.0225,12.5195],[102.009,12.5341],[101.9922,12.5398],[101.9735,12.5414],[101.9608,12.5373],[101.9608,12.5806],[101.9588,12.5913],[101.9544,12.6013],[101.9499,12.6064],[101.946,12.5957],[101.937,12.5892],[101.9343,12.5837],[101.9473,12.5407],[101.9478,12.5297],[101.9141,12.5551],[101.8996,12.5697],[101.8926,12.5837],[101.9131,12.5776],[101.9094,12.5942],[101.9026,12.5979],[101.8943,12.5965],[101.8858,12.598],[101.8776,12.6055],[101.8735,12.613],[101.8705,12.6216],[101.8652,12.6321],[101.8488,12.6545],[101.8303,12.6728],[101.8084,12.6879],[101.7827,12.7011],[101.7661,12.7059],[101.7044,12.7079],[101.6864,12.7021],[101.676,12.6886],[101.6685,12.6728],[101.6598,12.6601],[101.6423,12.6514],[101.6221,12.6496],[101.5811,12.6527],[101.5735,12.6498],[101.572,12.6433],[101.5726,12.6364],[101.5711,12.6321],[101.5664,12.6313],[101.5554,12.6324],[101.5391,12.6317],[101.509,12.639],[101.4651,12.6323],[101.4429,12.6248],[101.4333,12.6154],[101.4289,12.5969],[101.4181,12.5956],[101.3929,12.6117],[101.3235,12.6422],[101.2489,12.6601],[101.0877,12.6806],[101.0667,12.6763],[101.0321,12.657],[100.9886,12.6494],[100.9777,12.6392],[100.9745,12.6222],[100.9745,12.598],[100.9261,12.6191],[100.9261,12.6254],[100.9408,12.6364],[100.9346,12.6529],[100.9177,12.6626],[100.8996,12.6527],[100.8887,12.6588],[100.8799,12.6581],[100.8706,12.6547],[100.8579,12.6527],[100.8626,12.656],[100.8669,12.6603],[100.8699,12.666],[100.8714,12.6738],[100.8511,12.6738],[100.8646,12.7011],[100.8563,12.7014],[100.8374,12.7079],[100.8548,12.7523],[100.8679,12.7711],[100.8859,12.7625],[100.8921,12.7625],[100.8992,12.7735],[100.9079,12.7825],[100.9157,12.7936],[100.9199,12.8109],[100.9185,12.8263],[100.9133,12.8404],[100.9061,12.8532],[100.8687,12.9062],[100.8646,12.9196],[100.8682,12.929],[100.8755,12.9348],[100.884,12.94],[100.8921,12.9481],[100.8945,12.9555],[100.8967,12.9739],[100.8996,12.9822],[100.9082,12.9774],[100.9188,12.9824],[100.9284,12.9925],[100.9336,13.0028],[100.9331,13.0264],[100.9231,13.0428],[100.9114,13.057],[100.9058,13.0744],[100.9015,13.0806],[100.8921,13.0835],[100.8828,13.0878],[100.8783,13.0983],[100.8996,13.1256],[100.9158,13.1549],[100.937,13.184],[100.9452,13.2009],[100.9445,13.22],[100.9336,13.256],[100.929,13.2656],[100.9154,13.2871],[100.9124,13.2939],[100.9147,13.3044],[100.9193,13.3108],[100.924,13.3156],[100.9324,13.3381],[100.9471,13.3444],[100.9653,13.3485],[100.9813,13.359],[100.9854,13.373],[100.9872,13.3961],[100.9851,13.4177],[100.9709,13.4372],[100.9784,13.4589],[100.9958,13.4893],[100.9958,13.4962],[100.9839,13.488],[100.9739,13.4788],[100.9634,13.4714],[100.9507,13.4682],[100.8889,13.4682],[100.864,13.4715],[100.814,13.486],[100.7713,13.4912],[100.7498,13.4999],[100.6799,13.5092],[100.6497,13.5203],[100.6102,13.5475],[100.5921,13.5545],[100.5896,13.562],[100.5916,13.5715],[100.5967,13.5827],[100.5989,13.5965],[100.5978,13.6122],[100.5869,13.592],[100.5832,13.576],[100.5842,13.5337],[100.5759,13.5196],[100.5559,13.5109],[100.4299,13.4893],[100.3811,13.4915],[100.3565,13.4897],[100.3372,13.4819],[100.2899,13.505],[100.2751,13.5167],[100.265,13.4975],[100.2533,13.4858],[100.2372,13.4774],[100.1504,13.444],[100.113,13.4366],[100.0693,13.4174],[100.0531,13.413],[100.0388,13.4027],[100.0313,13.382],[100.0217,13.3666],[100.0013,13.372],[100.0156,13.3659],[100.0139,13.3484],[100.0062,13.3328],[99.9937,13.3217],[99.9774,13.3174],[99.9627,13.3099],[99.9607,13.2924],[99.9671,13.259],[99.9985,13.2181],[100.0565,13.1703],[100.0598,13.1657],[100.0667,13.1601],[100.074,13.1528],[100.077,13.1427],[100.0778,13.1338],[100.0877,13.0962],[100.1043,13.0573],[100.1019,13.0399],[100.093,13.024],[100.0601,12.9803],[100.053,12.9661],[100.043,12.9338],[100.0293,12.8618],[100.0239,12.8471],[99.9876,12.7905],[99.9743,12.7512],[99.965,12.7102],[99.9605,12.6679],[99.9609,12.6254],[99.978,12.5608],[99.9808,12.5404],[99.9771,12.4769],[99.9808,12.4547],[100.011,12.3832],[100.0122,12.3687],[100.0037,12.3539],[99.9817,12.2799],[99.9828,12.2705],[99.9917,12.2595],[100.0017,12.2503],[100.0093,12.2411],[100.0139,12.2307],[100.0171,12.2101],[100.0197,12.2022],[100.02,12.1927],[100.0156,12.1803],[100.0104,12.175],[99.9943,12.1626],[99.9876,12.153],[99.9815,12.1172],[99.9774,12.1083],[99.9553,12.0725],[99.8553,11.9684],[99.8312,11.9247],[99.8233,11.8786],[99.8369,11.8435],[99.8338,11.8377],[99.8196,11.8364],[99.8125,11.8321],[99.8098,11.8246],[99.8096,11.8135],[99.8171,11.7756],[99.8118,11.7623],[99.811,11.7531],[99.8171,11.7414],[99.7804,11.7372],[99.7518,11.7099],[99.6706,11.5779],[99.6655,11.5668],[99.6613,11.551],[99.6419,11.5233],[99.6375,11.5053],[99.6361,11.4818],[99.632,11.4606],[99.6257,11.4405],[99.5999,11.3842],[99.5973,11.3749],[99.5929,11.3642],[99.5737,11.3441],[99.5693,11.334],[99.5663,11.2763],[99.5693,11.2555],[99.5862,11.2139],[99.5862,11.1951],[99.5693,11.1791],[99.562,11.1989],[99.5462,11.1984],[99.5286,11.1868],[99.5153,11.1729],[99.5081,11.1622],[99.5013,11.1487],[99.4963,11.1329],[99.4942,11.1146],[99.4976,11.0931],[99.5121,11.057],[99.5153,11.0392],[99.5125,11.0192],[99.4987,10.9853],[99.4942,10.9675],[99.4961,10.9442],[99.5116,10.9024],[99.5153,10.8815],[99.5116,10.8664],[99.5033,10.8668],[99.4959,10.8738],[99.4942,10.8781],[99.4754,10.8789],[99.4612,10.8774],[99.4517,10.8753],[99.4432,10.8703],[99.4397,10.861],[99.4397,10.8201],[99.4351,10.8018],[99.375,10.712],[99.3713,10.7031],[99.3737,10.6926],[99.3767,10.6855],[99.3744,10.6814],[99.3611,10.6801],[99.3435,10.6754],[99.3272,10.6633],[99.3132,10.6474],[99.3024,10.631],[99.2962,10.6109],[99.2883,10.5629],[99.2782,10.546],[99.2673,10.5417],[99.2547,10.5399],[99.2446,10.5351],[99.2404,10.5219],[99.2427,10.5145],[99.249,10.51],[99.258,10.508],[99.2683,10.5082],[99.261,10.4948],[99.2517,10.484],[99.2438,10.4724],[99.2404,10.457],[99.2468,10.4439],[99.2777,10.4236],[99.2887,10.412],[99.2905,10.3992],[99.2893,10.3808],[99.285,10.3645],[99.2782,10.3574],[99.2638,10.3573],[99.2564,10.3561],[99.2341,10.3437],[99.2307,10.3565],[99.2234,10.3654],[99.2131,10.3721],[99.2,10.3785],[99.1847,10.3713],[99.1716,10.3703],[99.1607,10.368],[99.1516,10.3574],[99.1514,10.3463],[99.1585,10.3027],[99.169,10.2877],[99.2063,10.2543],[99.2246,10.2324],[99.2361,10.2293],[99.2546,10.2344],[99.2417,10.2145],[99.2013,10.2106],[99.1926,10.1963],[99.1868,10.1724],[99.1599,10.1283],[99.1516,10.1035],[99.1535,10.0758],[99.1631,10.0577],[99.174,10.0429],[99.1789,10.0253],[99.1758,10.0135],[99.1616,10.0033],[99.1585,9.9905],[99.1653,9.9465],[99.1653,9.8676],[99.1724,9.8574],[99.1721,9.8502],[99.1683,9.8445],[99.1558,9.8348],[99.1516,9.8292],[99.1482,9.8192],[99.1462,9.8097],[99.1448,9.7882],[99.148,9.7674],[99.162,9.7271],[99.1672,9.6881],[99.1729,9.6652],[99.1814,9.6433],[99.2121,9.5977],[99.2178,9.5822],[99.22,9.5591],[99.2232,9.5426],[99.2653,9.466],[99.3236,9.3915],[99.3157,9.3896],[99.299,9.3915],[99.2908,9.3901],[99.29,9.3864],[99.2913,9.3818],[99.2887,9.3773],[99.2638,9.3638],[99.2546,9.3568],[99.2355,9.3363],[99.2302,9.3198],[99.2341,9.2783],[99.2551,9.2325],[99.3018,9.2226],[99.3508,9.2192],[99.3782,9.1929],[99.411,9.1964],[99.4439,9.196],[99.4748,9.201],[99.5017,9.2203],[99.5093,9.2355],[99.5144,9.2532],[99.5215,9.2699],[99.5358,9.2817],[99.5482,9.2831],[99.5935,9.2748],[99.6101,9.278],[99.6235,9.2848],[99.6338,9.2917],[99.6413,9.2947],[99.6724,9.3022],[99.6891,9.3139],[99.6895,9.3159],[99.7273,9.3137],[99.7337,9.3122],[99.7395,9.3205],[99.7528,9.3198],[99.7816,9.3084],[99.7869,9.3128],[99.7977,9.3183],[99.8034,9.3227],[99.8154,9.3112],[99.8535,9.2947],[99.8545,9.2851],[99.853,9.274],[99.8596,9.2578],[99.8778,9.2265],[99.886,9.2333],[99.8865,9.1579],[99.8914,9.1383],[99.8996,9.1253],[99.9087,9.1141],[99.9163,9.102],[99.9194,9.0865],[99.9194,9.0384],[99.9216,9.0282],[99.9313,9.0119],[99.9331,9.0006],[99.9312,8.9998],[99.9265,8.9945],[99.9219,8.9871],[99.9194,8.98],[99.9194,8.9558],[99.9312,8.879],[99.9263,8.8633],[99.9392,8.8325],[99.9592,8.6376],[99.9671,8.6057],[99.9841,8.5794],[100.0408,8.5456],[100.0497,8.531],[100.0537,8.5137],[100.0759,8.4704],[100.0921,8.4464],[100.0985,8.4265],[100.1043,8.4177],[100.112,8.4132],[100.134,8.4038],[100.1385,8.4009],[100.1442,8.3888],[100.1576,8.3857],[100.1735,8.3894],[100.1863,8.3972],[100.1771,8.4262],[100.1751,8.4665],[100.1648,8.5014],[100.1311,8.5146],[100.1506,8.5229],[100.1808,8.5012],[100.2083,8.4697],[100.2205,8.4487],[100.2715,8.3171],[100.3029,8.1186],[100.3674,7.8256],[100.4402,7.477],[100.5006,7.334],[100.5672,7.2295],[100.5746,7.2092],[100.574,7.195],[100.5481,7.197],[100.5355,7.21],[100.4996,7.2423],[100.4724,7.2589],[100.4443,7.2578],[100.4255,7.2676],[100.439,7.2941],[100.4291,7.3264],[100.4223,7.37],[100.4081,7.3787],[100.41,7.4583],[100.406,7.5277],[100.3895,7.5662],[100.3589,7.5786],[100.3256,7.5745],[100.303,7.5407],[100.2957,7.5236],[100.2896,7.5182],[100.2788,7.5239],[100.2726,7.5311],[100.2697,7.5375],[100.2688,7.5455],[100.2688,7.5574],[100.2756,7.577],[100.3096,7.5977],[100.3235,7.6164],[100.327,7.6552],[100.3206,7.708],[100.307,7.7579],[100.2887,7.7883],[100.2697,7.7954],[100.2505,7.792],[100.231,7.7848],[100.2106,7.7809],[100.1564,7.7334],[100.1448,7.7194],[100.1429,7.7],[100.1546,7.6158],[100.1726,7.568],[100.1792,7.5312],[100.1854,7.5142],[100.1965,7.5071],[100.1992,7.5038],[100.2205,7.486],[100.2251,7.4795],[100.2278,7.4746],[100.2605,7.3936],[100.2788,7.3622],[100.303,7.3427],[100.3249,7.3398],[100.3498,7.3393],[100.3701,7.3327],[100.3787,7.3113],[100.3794,7.2877],[100.3812,7.2757],[100.3849,7.2663],[100.3938,7.2585],[100.408,7.2583],[100.4177,7.2535],[100.4269,7.2453],[100.4107,7.237],[100.4019,7.2335],[100.3952,7.2287],[100.3923,7.2226],[100.3955,7.2113],[100.4026,7.2032],[100.4109,7.1986],[100.4244,7.1712],[100.4366,7.1601],[100.4506,7.1553],[100.4661,7.1572],[100.4778,7.1462],[100.486,7.1399],[100.4948,7.1366],[100.52,7.1356],[100.5316,7.1375],[100.5559,7.1447],[100.5808,7.1676],[100.5886,7.1796],[100.5857,7.2072],[100.5854,7.2244],[100.6111,7.1926],[100.7651,6.9831],[100.7844,6.9671],[100.8273,6.9517],[100.8499,6.9621],[100.8964,6.9196],[100.9481,6.8807],[100.9976,6.8567],[101.0267,6.8563],[101.1914,6.8619],[101.2315,6.8803],[101.2443,6.902],[101.2777,6.8963],[101.2916,6.8848],[101.3101,6.8804],[101.3171,6.8759],[101.3192,6.878],[101.3513,6.8759],[101.3436,6.8961],[101.3283,6.9179],[101.2625,6.9448],[101.2917,6.9546],[101.3208,6.9493],[101.3467,6.9286],[101.3852,6.9052],[101.4194,6.8945],[101.4369,6.8902],[101.4519,6.8884],[101.4712,6.884],[101.488,6.8783],[101.4954,6.8725],[101.523,6.8608],[101.5574,6.8418],[101.5663,6.8322],[101.6683,6.6586],[101.7717,6.5007],[101.8084,6.4645],[101.9087,6.4019],[102.02,6.2956],[102.0731,6.2575],[102.0667,6.2047],[102.0713,6.1267],[102.06,6.0948],[102.0334,6.0684],[101.9594,6.0116],[101.9347,5.9817],[101.9198,5.9403],[101.9193,5.8976],[101.9129,5.8593],[101.8803,5.831],[101.8692,5.8239],[101.8643,5.8154],[101.8608,5.8065],[101.8547,5.7977],[101.8255,5.7798],[101.8202,5.7737],[101.8123,5.7525],[101.8005,5.7399],[101.7842,5.7381],[101.7629,5.7495],[101.7542,5.7603],[101.7479,5.7724],[101.74,5.7824],[101.7268,5.7865],[101.7148,5.7829],[101.6966,5.7663],[101.6867,5.7612],[101.6659,5.7656],[101.6504,5.7826],[101.6308,5.8284],[101.6313,5.8374],[101.6344,5.8473],[101.6341,5.8556],[101.6246,5.8594],[101.6129,5.8613],[101.6051,5.8661],[101.5998,5.8741],[101.5951,5.8854],[101.5793,5.9063],[101.5579,5.9113],[101.5347,5.906],[101.3927,5.8511],[101.3576,5.8284],[101.319,5.8101],[101.2797,5.803],[101.249,5.787],[101.2366,5.7417],[101.2336,5.7194],[101.225,5.6992],[101.2123,5.6815],[101.1969,5.6668],[101.15,5.6386],[101.1222,5.6299],[101.1054,5.6376],[101.094,5.6627],[101.0788,5.6878],[101.0598,5.7096],[101.0373,5.7246],[101.0274,5.7266],[101.0084,5.7257],[100.9986,5.7295],[100.9917,5.7375],[100.98,5.761],[100.9672,5.781],[100.9653,5.7924],[100.9677,5.8041],[100.9743,5.8153],[101.0153,5.8983],[101.0318,5.9089],[101.0529,5.9131],[101.0711,5.9198],[101.0788,5.9382],[101.0804,5.957],[101.0875,5.9897],[101.089,6.0466],[101.0943,6.0858],[101.0871,6.1056],[101.0685,6.1196],[101.0525,6.1346],[101.0534,6.1576],[101.0669,6.1743],[101.08,6.1803],[101.0892,6.1888],[101.091,6.2132],[101.0883,6.2335],[101.0817,6.2465],[101.069,6.2509],[101.0231,6.241],[101.0065,6.2464],[100.9743,6.2726],[100.9552,6.2686],[100.9289,6.2406],[100.9101,6.2358],[100.8684,6.2462],[100.8551,6.2479],[100.8428,6.2439],[100.8373,6.2372],[100.833,6.2367],[100.8246,6.2515],[100.8221,6.2599],[100.8215,6.2888],[100.8234,6.2977],[100.8269,6.3071],[100.829,6.3163],[100.8271,6.3246],[100.8152,6.3448],[100.8107,6.3558],[100.8085,6.3673],[100.8056,6.4148],[100.7963,6.4339],[100.7733,6.4473],[100.7619,6.449],[100.7516,6.4488],[100.7423,6.4501],[100.7339,6.4564],[100.7312,6.4647],[100.7315,6.487],[100.73,6.4932],[100.7129,6.493],[100.6484,6.4472],[100.6307,6.4448],[100.6126,6.4492],[100.5784,6.4643],[100.5174,6.4819],[100.4992,6.4903],[100.4672,6.5132],[100.4523,6.5169],[100.4265,6.5139],[100.4097,6.5153],[100.3874,6.5221],[100.3488,6.5406],[100.3292,6.5578],[100.3179,6.5767],[100.2808,6.6889],[100.274,6.6963],[100.2633,6.7],[100.2517,6.7011],[100.2426,6.7003],[100.2275,6.6908],[100.2275,6.6889],[100.2124,6.6892],[100.2038,6.6939],[100.1967,6.7025],[100.1876,6.708],[100.1733,6.7034],[100.1668,6.6951],[100.164,6.6837],[100.1628,6.6611],[100.1561,6.6206],[100.1572,6.6035],[100.1652,6.5803],[100.1672,6.5661],[100.1612,6.5575],[100.1524,6.55],[100.1457,6.5395],[100.1448,6.5306],[100.1481,6.5132],[100.1485,6.5045],[100.1444,6.4796],[100.1356,6.4577],[100.1273,6.4423],[100.12,6.4631],[100.1082,6.4796],[100.0901,6.4848],[100.1023,6.5171],[100.1035,6.5332],[100.0935,6.5401],[100.0806,6.5368],[100.0729,6.5285],[100.0633,6.5066],[100.03,6.5347],[100.0013,6.5675],[99.9979,6.5761],[99.9951,6.5877],[99.9912,6.5978],[99.9841,6.6022],[99.9714,6.5956],[99.9641,6.5937],[99.9609,6.5985],[99.9631,6.6057],[99.9722,6.6179],[99.974,6.6227],[99.9715,6.6328],[99.9629,6.6496],[99.9609,6.6605],[99.9566,6.664],[99.947,6.6634],[99.9373,6.6647],[99.9331,6.6742],[99.9285,6.6926],[99.9175,6.7053],[99.8914,6.725],[99.8675,6.7626],[99.8517,6.7764],[99.8338,6.7701],[99.8249,6.7696],[99.8176,6.7826],[99.8096,6.8083],[99.8025,6.8175],[99.7972,6.8217],[99.7107,6.8542],[99.6858,6.8773],[99.686,6.9175],[99.6904,6.9355],[99.6958,6.9377],[99.7102,6.938],[99.7139,6.9422],[99.7129,6.9516],[99.7072,6.961],[99.6963,6.9653],[99.6809,6.9736],[99.6821,6.9927],[99.6862,7.0134],[99.6792,7.0268],[99.6955,7.0599],[99.7057,7.0754],[99.7168,7.082],[99.72,7.0885],[99.7481,7.126],[99.7406,7.1371],[99.7234,7.1318],[99.7048,7.1212],[99.6929,7.1161],[99.6776,7.1233],[99.6719,7.1354],[99.6724,7.1707],[99.6375,7.1509],[99.6211,7.137],[99.6141,7.1367],[99.6108,7.1509],[99.6035,7.1509],[99.584,7.1564],[99.5579,7.1975],[99.54,7.2441],[99.5454,7.2663],[99.5667,7.278],[99.5852,7.3067],[99.5984,7.3427],[99.6035,7.3762],[99.5973,7.3762],[99.569,7.3222],[99.5496,7.3018],[99.5247,7.3113],[99.5205,7.327],[99.5254,7.37],[99.5215,7.3836],[99.5081,7.385],[99.4978,7.3708],[99.491,7.351],[99.488,7.3352],[99.4922,7.2999],[99.4883,7.2857],[99.4707,7.28],[99.4602,7.2829],[99.4452,7.2897],[99.4318,7.2978],[99.426,7.3045],[99.4207,7.3074],[99.3923,7.3122],[99.3782,7.3209],[99.3659,7.3364],[99.3366,7.3836],[99.3459,7.4001],[99.3474,7.4235],[99.344,7.469],[99.3418,7.4757],[99.3319,7.4919],[99.3298,7.5034],[99.3252,7.5049],[99.3034,7.5046],[99.2956,7.5071],[99.3088,7.5283],[99.3074,7.5503],[99.3001,7.5754],[99.2927,7.6207],[99.2859,7.6218],[99.277,7.6175],[99.2683,7.6164],[99.2595,7.6208],[99.2498,7.6278],[99.2468,7.6341],[99.2581,7.6369],[99.2622,7.6433],[99.2557,7.6574],[99.2437,7.6715],[99.2305,7.6778],[99.2144,7.68],[99.2062,7.6859],[99.1926,7.7051],[99.1726,7.7197],[99.1531,7.7307],[99.1375,7.7443],[99.1305,7.7672],[99.1243,7.7672],[99.1219,7.7331],[99.1122,7.7055],[99.0915,7.6918],[99.056,7.6989],[99.0332,7.7228],[99.0277,7.7889],[99.0144,7.815],[99.056,7.8474],[99.0623,7.8594],[99.0641,7.8781],[99.0703,7.9079],[99.0696,7.9249],[99.0503,7.9055],[99.0407,7.9018],[99.0281,7.9038],[99.023,7.9096],[99.0076,7.9351],[99.0003,7.9426],[98.9841,7.9473],[98.9678,7.9562],[98.9605,7.9764],[98.9639,7.9983],[98.9605,8.0068],[98.9535,8.0154],[98.9373,8.0243],[98.9295,8.031],[98.9237,8.0414],[98.9221,8.0485],[98.918,8.0513],[98.9053,8.0484],[98.8989,8.0427],[98.8916,8.0249],[98.8882,8.0211],[98.8728,8.0168],[98.8579,8.0084],[98.8436,8.0029],[98.8294,8.0068],[98.8246,8.0144],[98.8177,8.0366],[98.8128,8.045],[98.8003,8.0524],[98.7947,8.0485],[98.792,8.0402],[98.7886,8.0347],[98.7756,8.0234],[98.7703,8.0237],[98.7681,8.0382],[98.7654,8.0471],[98.7525,8.0601],[98.7474,8.0683],[98.7451,8.0876],[98.7474,8.1365],[98.7439,8.1499],[98.7474,8.182],[98.7474,8.1992],[98.7442,8.2149],[98.7271,8.2539],[98.7127,8.2259],[98.7066,8.2259],[98.7031,8.2985],[98.6963,8.3085],[98.6773,8.3032],[98.6482,8.2849],[98.6375,8.288],[98.6309,8.288],[98.6309,8.2812],[98.624,8.2812],[98.6221,8.2929],[98.6262,8.3461],[98.6316,8.3544],[98.648,8.3665],[98.6554,8.3796],[98.6421,8.3859],[98.6206,8.3902],[98.6035,8.3972],[98.5989,8.3749],[98.5851,8.369],[98.5676,8.3679],[98.552,8.36],[98.5418,8.349],[98.5261,8.3363],[98.5104,8.3311],[98.5005,8.3432],[98.4937,8.3432],[98.492,8.3313],[98.4867,8.3249],[98.4798,8.3258],[98.4732,8.3358],[98.4663,8.3358],[98.4663,8.3227],[98.4456,8.3251],[98.4282,8.317],[98.4222,8.3063],[98.4531,8.294],[98.4568,8.2775],[98.4566,8.2583],[98.4627,8.2433],[98.4629,8.2161],[98.4461,8.1751],[98.425,8.1484],[98.4116,8.1645],[98.4055,8.1645],[98.4048,8.1552],[98.402,8.149],[98.3913,8.1365],[98.3753,8.1508],[98.3569,8.185],[98.3312,8.1951],[98.324,8.2096],[98.3125,8.2129],[98.3015,8.2136],[98.2933,8.2159],[98.2869,8.2199],[98.2814,8.2259],[98.2776,8.2407],[98.2776,8.2835],[98.2715,8.2979],[98.2624,8.3128],[98.242,8.4065],[98.1995,8.5344],[98.198,8.5561],[98.203,8.5739],[98.2097,8.5815],[98.2131,8.5726],[98.2157,8.5534],[98.2232,8.5404],[98.2473,8.5146],[98.2531,8.5347],[98.2443,8.5469],[98.2302,8.5566],[98.22,8.5692],[98.2195,8.5756],[98.2253,8.5849],[98.2268,8.589],[98.2262,8.6054],[98.2268,8.6101],[98.238,8.6411],[98.2405,8.6511],[98.2385,8.673],[98.2228,8.7124],[98.22,8.7262],[98.2241,8.7353],[98.2312,8.7409],[98.2396,8.7458],[98.2473,8.7535],[98.2507,8.76],[98.2528,8.7664],[98.2565,8.8286],[98.2616,8.8507],[98.2835,8.885],[98.2927,8.9244],[98.3122,8.9514],[98.3249,8.9752],[98.333,8.98],[98.3368,8.9776],[98.3516,8.9738],[98.364,8.9739],[98.3606,8.9835],[98.3581,8.996],[98.3678,9.01],[98.3913,9.0353],[98.3613,9.023],[98.3425,9.0182],[98.3327,9.0261],[98.3298,9.0521],[98.3421,9.0629],[98.366,9.0639],[98.382,9.0719],[98.3708,9.1036],[98.3415,9.1418],[98.3284,9.1644],[98.323,9.1892],[98.3223,9.2094],[98.3269,9.2037],[98.3397,9.1998],[98.3478,9.2028],[98.3558,9.2099],[98.3708,9.2265],[98.3523,9.2359],[98.3519,9.2514],[98.3611,9.2682],[98.364,9.2817],[98.376,9.2982],[98.3833,9.3166],[98.3971,9.3788],[98.405,9.3969],[98.4255,9.4325],[98.4432,9.5208],[98.4572,9.5485],[98.4868,9.5281],[98.5199,9.5538],[98.5311,9.5661],[98.5285,9.5759],[98.5208,9.5776],[98.5017,9.575],[98.4937,9.5759],[98.4896,9.5804],[98.4858,9.5937],[98.4834,9.5964],[98.4634,9.6044],[98.4717,9.6212],[98.4902,9.635],[98.5005,9.6345],[98.5027,9.6384],[98.512,9.6502],[98.5142,9.6547],[98.5115,9.6621],[98.4937,9.6857],[98.51,9.6866],[98.5132,9.6949],[98.5066,9.7056],[98.4937,9.7137],[98.5005,9.7199],[98.5156,9.7102],[98.5314,9.7039],[98.544,9.7065],[98.549,9.7236],[98.5532,9.7246],[98.5613,9.7331],[98.5658,9.7426],[98.5593,9.7472],[98.5387,9.7475],[98.5298,9.7496],[98.521,9.7546],[98.5164,9.7478],[98.5142,9.7404],[98.508,9.7404],[98.5091,9.7485],[98.5088,9.7708],[98.508,9.7746],[98.5164,9.7829],[98.5242,9.785],[98.5322,9.7853],[98.5415,9.7882],[98.5554,9.798],[98.5662,9.81],[98.575,9.8247],[98.583,9.8428],[98.575,9.8356],[98.5584,9.815],[98.549,9.8093],[98.54,9.811],[98.5347,9.818],[98.5303,9.8256],[98.5127,9.8369],[98.5208,9.8544],[98.5369,9.873],[98.549,9.8837],[98.5536,9.8767],[98.5599,9.873],[98.5674,9.8732],[98.5762,9.8776],[98.5705,9.8842],[98.5855,9.895],[98.5899,9.9055],[98.5864,9.9093],[98.5789,9.9113],[98.5716,9.9155],[98.5736,9.9209],[98.5838,9.9303],[98.592,9.9427],[98.5999,9.9481],[98.6221,9.9478],[98.6309,9.9527],[98.6331,9.963],[98.6235,9.9672],[98.6126,9.966],[98.6104,9.9601],[98.5996,9.9739],[98.5998,9.9805],[98.6035,9.9936],[98.648,10.0693],[98.6623,10.0853],[98.6896,10.1621],[98.7129,10.2055],[98.7205,10.2279],[98.7254,10.2516],[98.7271,10.272],[98.7308,10.2917],[98.7463,10.329],[98.7474,10.3505],[98.7664,10.4112],[98.7765,10.4621],[98.7904,10.5003],[98.7913,10.5204],[98.7773,10.5832],[98.7707,10.594],[98.7515,10.6104],[98.7479,10.6231],[98.7568,10.6661],[98.7667,10.6888],[98.811,10.7466],[98.8301,10.7636],[98.8396,10.7664],[98.8609,10.7677],[98.8682,10.7699],[98.8753,10.7786],[98.8836,10.7992],[98.8921,10.8085],[98.9054,10.8144],[98.9147,10.8123],[98.9233,10.8081],[98.934,10.8077],[98.9697,10.8231],[98.9745,10.8242],[98.9819,10.8324],[98.9861,10.8403],[98.9899,10.8604],[98.9898,10.8752],[98.9818,10.8955],[98.9796,10.9077],[98.9802,10.918],[98.9826,10.9289],[98.9866,10.9393],[98.9923,10.948],[99.0015,10.9576],[99.0056,10.9588],[99.0106,10.9562],[99.0233,10.9544],[99.0347,10.951],[99.0453,10.9455],[99.0551,10.9452],[99.0636,10.9574],[99.0725,10.9876],[99.0769,10.9965],[99.0932,11.013],[99.1331,11.0334],[99.1517,11.0477],[99.1582,11.0573],[99.1676,11.078],[99.1751,11.0874],[99.1849,11.093],[99.2062,11.1],[99.213,11.1083],[99.2433,11.1977],[99.2562,11.22],[99.2884,11.2583],[99.3005,11.2806],[99.3157,11.3208],[99.3264,11.3362],[99.3643,11.3767],[99.3705,11.3933],[99.3721,11.4109],[99.3776,11.4355],[99.387,11.4515],[99.4159,11.4802],[99.4282,11.4969],[99.4374,11.5167],[99.4411,11.5334],[99.4392,11.5739],[99.4406,11.5973],[99.4498,11.6138],[99.4661,11.6239],[99.4892,11.6284],[99.5307,11.6309],[99.5426,11.6405],[99.6069,11.7257],[99.6153,11.7494],[99.63,11.8158],[99.628,11.8254],[99.611,11.8302],[99.5918,11.8423],[99.5738,11.8577],[99.5614,11.8729],[99.5541,11.895],[99.5574,11.9156],[99.5729,11.9559],[99.574,11.9763],[99.567,11.9933],[99.5533,12.0055],[99.5343,12.0116],[99.5184,12.0259],[99.5217,12.0537],[99.5376,12.1009],[99.5393,12.1123],[99.5435,12.1225],[99.5458,12.1319],[99.5417,12.1407],[99.5329,12.1445],[99.5226,12.1442],[99.4663,12.126],[99.4523,12.1294],[99.4488,12.1472],[99.4541,12.1569],[99.4638,12.1646],[99.472,12.1736],[99.4738,12.1873],[99.4701,12.1974],[99.4594,12.2171],[99.4556,12.2276],[99.4547,12.2382],[99.4571,12.2564],[99.4544,12.2673],[99.4476,12.2782],[99.4322,12.2964],[99.4267,12.3087],[99.4234,12.3278],[99.4206,12.3834],[99.414,12.4052],[99.3913,12.4453],[99.387,12.4659],[99.3895,12.476],[99.4003,12.4975],[99.4042,12.5081],[99.4071,12.5302],[99.4073,12.5515],[99.4033,12.5759],[99.3938,12.5898],[99.3445,12.6167],[99.3334,12.6254],[99.3236,12.6354],[99.3172,12.6459],[99.3097,12.6535],[99.2863,12.66],[99.2769,12.6656],[99.2735,12.6735],[99.2712,12.6938],[99.2667,12.7028],[99.2563,12.7095],[99.2335,12.7131],[99.2245,12.7175],[99.2141,12.7347],[99.2132,12.7526],[99.2144,12.7717],[99.2107,12.7923],[99.2031,12.8039],[99.1832,12.8226],[99.1753,12.8334],[99.1719,12.8433],[99.1684,12.8741],[99.1553,12.9045],[99.1532,12.9136],[99.1542,12.9266],[99.1579,12.936],[99.1631,12.9447],[99.1673,12.956],[99.1648,12.9755],[99.1511,12.9948],[99.1325,13.011],[99.1153,13.0214],[99.0932,13.0383],[99.0883,13.0584],[99.0938,13.0807],[99.1025,13.1044],[99.1053,13.1296],[99.1022,13.1518],[99.1021,13.1713],[99.1141,13.1881],[99.1332,13.1952],[99.1728,13.1995],[99.1873,13.2122],[99.1902,13.2295],[99.186,13.25],[99.1734,13.2874],[99.1728,13.3009],[99.1769,13.3103],[99.1827,13.3187],[99.1869,13.3291],[99.1869,13.3387],[99.1836,13.358],[99.1888,13.4079],[99.1879,13.4271],[99.152,13.582],[99.1495,13.666],[99.1528,13.6887],[99.1525,13.7149],[99.1413,13.7321],[99.1088,13.7627],[99.1012,13.7788],[99.0898,13.8267],[99.0895,13.8439],[99.0919,13.8559],[99.0922,13.8636],[99.09,13.8701],[99.0848,13.8785],[99.0803,13.8816],[99.0663,13.8853],[99.0611,13.888],[99.0571,13.8941],[99.0521,13.909],[99.0476,13.915],[99.0162,13.9379],[99.0071,13.9496],[98.997,13.9716],[98.9848,13.9906],[98.953,14.028],[98.9476,14.0464],[98.9453,14.0691],[98.9353,14.0854],[98.9177,14.0964],[98.8937,14.1032],[98.8723,14.1125],[98.7537,14.2001],[98.7311,14.2235],[98.707,14.27],[98.6974,14.2714],[98.6856,14.2674],[98.6704,14.2679],[98.6636,14.2729],[98.6508,14.2894],[98.6442,14.2957],[98.6369,14.299],[98.6215,14.3024],[98.6145,14.3051],[98.6015,14.3136],[98.5932,14.3216],[98.5477,14.3777],[98.4782,14.5165],[98.4651,14.5234],[98.4528,14.5281],[98.4455,14.542],[98.44,14.5663],[98.4313,14.5878],[98.4182,14.6076],[98.2975,14.7212],[98.2433,14.8051],[98.2354,14.8245],[98.2388,14.8391],[98.2391,14.844],[98.2359,14.8504],[98.2251,14.859],[98.2221,14.8643],[98.2204,14.8853],[98.2216,14.9213],[98.2149,14.9432],[98.1951,14.9776],[98.1911,14.9881],[98.1913,15.0012],[98.1957,15.0107],[98.2012,15.0193],[98.2044,15.0296],[98.199,15.0514],[98.1681,15.0828],[98.1604,15.1064],[98.165,15.1258],[98.1858,15.1608],[98.1907,15.1792],[98.1779,15.2088],[98.1772,15.2206],[98.2154,15.2189],[98.2329,15.2268],[98.2477,15.2409],[98.283,15.29],[98.2951,15.2926],[98.3179,15.289],[98.336,15.2822],[98.3703,15.2619],[98.3852,15.2563],[98.3923,15.2582],[98.3947,15.2649],[98.3947,15.2801],[98.3921,15.2858],[98.38,15.2938],[98.3775,15.2965],[98.3788,15.3016],[98.3837,15.3103],[98.3936,15.3163],[98.3991,15.3218],[98.4003,15.3307],[98.3962,15.3476],[98.3969,15.3557],[98.4034,15.3601],[98.4394,15.3676],[98.4554,15.3736],[98.4745,15.3835],[98.495,15.3748],[98.5155,15.3635],[98.5302,15.3477],[98.5336,15.326],[98.5599,15.3553],[98.569,15.4021],[98.5671,15.4525],[98.5437,15.6015],[98.5457,15.6586],[98.5403,15.712],[98.5431,15.7354],[98.5744,15.836],[98.5766,15.8542],[98.5693,15.8961],[98.5686,15.9202],[98.5807,15.9591],[98.5838,15.977],[98.577,15.9969],[98.5501,16.0342],[98.547,16.0475],[98.5559,16.0555],[98.5677,16.054],[98.58,16.0488],[98.5901,16.0458],[98.6031,16.0458],[98.6116,16.0469],[98.6191,16.051],[98.6302,16.06],[98.6441,16.0796],[98.6503,16.0996],[98.6587,16.1163],[98.6796,16.1261],[98.6972,16.1269],[98.7584,16.1192],[98.7703,16.1138],[98.776,16.1069],[98.783,16.1024],[98.7984,16.1044],[98.8072,16.1105],[98.8308,16.1356],[98.8354,16.1445],[98.8347,16.1677],[98.8367,16.189],[98.8431,16.2087],[98.8556,16.227],[98.8837,16.2587],[98.8887,16.2746],[98.8934,16.3199],[98.9033,16.3634],[98.9025,16.3816],[98.8853,16.4062],[98.8621,16.4207],[98.8434,16.4384],[98.8396,16.4724],[98.8187,16.4556],[98.8104,16.4396],[98.8021,16.3983],[98.7886,16.3746],[98.7283,16.3283],[98.6984,16.2849],[98.6824,16.2735],[98.6633,16.2867],[98.657,16.3016],[98.6424,16.3736],[98.6295,16.4027],[98.6282,16.4136],[98.6382,16.4344],[98.6398,16.445],[98.6316,16.4631],[98.5704,16.5416],[98.5642,16.552],[98.564,16.5627],[98.5673,16.5733],[98.5678,16.5825],[98.5658,16.5915],[98.5616,16.6017],[98.5471,16.6201],[98.5123,16.6433],[98.4984,16.6624],[98.4914,16.6897],[98.4863,16.701],[98.4567,16.7232],[98.4547,16.741],[98.4625,16.7601],[98.4745,16.7767],[98.4892,16.7807],[98.5054,16.7907],[98.5175,16.803],[98.5205,16.8141],[98.5132,16.8222],[98.5034,16.826],[98.4944,16.8312],[98.49,16.8432],[98.4925,16.8574],[98.5006,16.8622],[98.5119,16.8593],[98.5246,16.8504],[98.516,16.879],[98.5095,16.8927],[98.5001,16.8989],[98.4845,16.9059],[98.4807,16.9206],[98.4804,16.9373],[98.4745,16.9504],[98.4637,16.9636],[98.4467,16.9963],[98.4362,17.0116],[98.4179,17.029],[98.3999,17.0402],[98.3798,17.0458],[98.3307,17.0469],[98.3133,17.052],[98.2997,17.0647],[98.2862,17.0874],[98.2902,17.0908],[98.2953,17.0998],[98.2944,17.1076],[98.2683,17.1077],[98.2662,17.1164],[98.2708,17.1278],[98.279,17.1366],[98.2563,17.1516],[98.221,17.2008],[98.2018,17.2157],[98.1862,17.2242],[98.1006,17.3026],[98.0926,17.3122],[98.0905,17.3252],[98.0941,17.3463],[98.0947,17.3586],[98.0887,17.3728],[98.0768,17.38],[98.0623,17.3848],[98.0487,17.3915],[98.0355,17.405],[98.0286,17.4188],[98.0182,17.4474],[97.9961,17.4808],[97.9917,17.4957],[97.9828,17.5054],[97.9722,17.5117],[97.9486,17.5224],[97.9338,17.5318],[97.7689,17.6792],[97.7593,17.6915],[97.7531,17.7054],[97.7518,17.7181],[97.7516,17.7296],[97.7496,17.7398],[97.741,17.7502],[97.7169,17.7698],[97.7112,17.7813],[97.7065,17.7947],[97.6965,17.8066],[97.684,17.8165],[97.6761,17.8303],[97.6991,17.8333],[97.6855,17.8807],[97.6918,17.8956],[97.7201,17.9432],[97.7476,17.9609],[97.7509,17.9637],[97.7541,17.969],[97.7518,17.9808],[97.7472,17.9925],[97.7398,18.0029],[97.7252,18.0368],[97.7221,18.0489],[97.7201,18.0531],[97.7022,18.0618],[97.6977,18.0607],[97.6942,18.0615],[97.6928,18.0701],[97.6937,18.0751],[97.698,18.0847],[97.6991,18.0907],[97.6968,18.1016],[97.6875,18.1198],[97.6853,18.1316],[97.6853,18.1402],[97.6843,18.1461],[97.6804,18.1526],[97.629,18.2209],[97.6179,18.2417],[97.6207,18.2511],[97.6357,18.2576],[97.6433,18.273],[97.6438,18.2913],[97.6376,18.3063],[97.6247,18.3134],[97.5738,18.3331],[97.5624,18.3305],[97.5606,18.3283],[97.542,18.2802],[97.5376,18.2726],[97.5283,18.2653],[97.5081,18.2766],[97.4865,18.2921],[97.4665,18.3114],[97.4526,18.3336],[97.4468,18.3583],[97.4465,18.3812],[97.4431,18.4033],[97.4176,18.4411],[97.3946,18.4871],[97.3905,18.5018],[97.3791,18.5208],[97.3576,18.5399],[97.3514,18.5512],[97.3801,18.5478],[97.3889,18.5422],[97.4094,18.5114],[97.4122,18.503],[97.4166,18.496],[97.4275,18.4895],[97.4381,18.4881],[97.4628,18.4925],[97.5095,18.4913],[97.5484,18.5091],[97.6179,18.5532],[97.6374,18.5593],[97.6903,18.5579],[97.7379,18.5705],[97.7428,18.5693],[97.7457,18.5711],[97.7518,18.5825],[97.7597,18.6228],[97.7526,18.6634],[97.7412,18.7031],[97.7363,18.7406],[97.7358,18.7627],[97.7327,18.7805],[97.7204,18.8176],[97.7194,18.8259],[97.7234,18.852],[97.7191,18.8646],[97.7086,18.8752],[97.6844,18.8925],[97.6619,18.9138],[97.6578,18.9257],[97.6681,18.9354],[97.6891,18.9497],[97.7033,18.9644],[97.7104,18.9799],[97.717,19.0183],[97.7278,19.0371],[97.7899,19.0826],[97.8041,19.098],[97.8108,19.1122],[97.8151,19.1906],[97.8126,19.2085],[97.8052,19.2274],[97.7963,19.2367],[97.7697,19.2573],[97.7641,19.2664],[97.768,19.2771],[97.7773,19.2786],[97.7887,19.2777],[97.7983,19.2814],[97.8062,19.3011],[97.7971,19.3184],[97.7831,19.3371],[97.7767,19.3611],[97.7751,19.3711],[97.7677,19.3904],[97.7671,19.3975],[97.8004,19.4408],[97.8335,19.4687],[97.8421,19.4794],[97.8487,19.494],[97.8481,19.4996],[97.8443,19.5045],[97.841,19.5172],[97.8389,19.5371],[97.8398,19.5553],[97.8486,19.5676],[97.8858,19.5728],[97.9481,19.6024],[97.9561,19.6094],[97.9707,19.6259],[97.9795,19.6333],[97.9904,19.6366],[98.0001,19.6363],[98.0083,19.6391],[98.0136,19.6517],[98.0139,19.6694],[98.0056,19.7056],[98.0046,19.7239],[98.0179,19.7894],[98.0245,19.803],[98.0456,19.8076],[98.0606,19.7939],[98.0729,19.7773],[98.0859,19.7732],[98.1114,19.7771],[98.1322,19.7661],[98.172,19.7316],[98.2059,19.7215],[98.2133,19.7178],[98.2179,19.708],[98.2167,19.6875],[98.2192,19.677],[98.2375,19.6647],[98.2628,19.6699],[98.3073,19.69],[98.3476,19.6906],[98.3944,19.6863],[98.4396,19.6877],[98.4745,19.7053],[98.4888,19.7067],[98.4976,19.7007],[98.5051,19.6915],[98.5155,19.6834],[98.5326,19.6759],[98.5365,19.6771],[98.538,19.6839],[98.5483,19.6926],[98.5683,19.7],[98.5907,19.7041],[98.5984,19.7091],[98.6154,19.7298],[98.6238,19.7375],[98.6413,19.7449],[98.7301,19.7573],[98.7492,19.7635],[98.8079,19.8065],[98.8379,19.7934],[98.8519,19.784],[98.8645,19.7732],[98.8837,19.7455],[98.8993,19.7486],[98.9351,19.7735],[98.9738,19.7881],[98.9877,19.7994],[99.0009,19.821],[99.0088,19.8459],[99.0076,19.8649],[99.0027,19.8836],[98.9994,19.9077],[99.0014,19.9179],[99.0062,19.9249],[99.0109,19.9302],[99.0135,19.935],[99.0128,19.9442],[99.007,19.9625],[99.0059,19.9723],[99.0168,20.041],[99.0365,20.0752],[99.0735,20.1012],[99.1175,20.1178],[99.1584,20.1236],[99.1777,20.1218],[99.219,20.1105],[99.2365,20.1027],[99.2753,20.0722],[99.2957,20.0625],[99.3212,20.0663],[99.4414,20.1016],[99.4745,20.1281],[99.4875,20.1413],[99.4993,20.1469],[99.5103,20.1538],[99.5206,20.171],[99.5258,20.1962],[99.5189,20.2122],[99.4863,20.2455],[99.475,20.3037],[99.4664,20.3222],[99.4296,20.3587],[99.4206,20.3756],[99.44,20.3822],[99.4541,20.3771],[99.5029,20.3452],[99.5797,20.3212],[99.5893,20.3208],[99.6076,20.3232],[99.618,20.3224],[99.627,20.3188],[99.6422,20.3088],[99.6519,20.3068],[99.6713,20.3101],[99.7084,20.325],[99.7291,20.3285],[99.7696,20.3284],[99.7872,20.3341],[99.804,20.349],[99.813,20.3653],[99.8263,20.4014],[99.8377,20.4168],[99.8557,20.4281],[99.8779,20.4351],[99.9325,20.4427],[99.9371,20.445],[99.942,20.444],[99.9524,20.4363],[99.9588,20.4275],[99.9611,20.4178],[99.9647,20.4086],[99.9743,20.4008],[99.9859,20.387],[99.9967,20.3835],[100.0084,20.3836],[100.0229,20.3808],[100.0361,20.3731],[100.0427,20.3648],[100.0476,20.3552],[100.0555,20.3442],[100.0993,20.3178],[100.0973,20.2832],[100.103,20.2636],[100.1166,20.248],[100.1346,20.2391],[100.1525,20.2392],[100.1677,20.2536],[100.1671,20.2926],[100.1795,20.3025],[100.2017,20.3103],[100.2072,20.3111],[100.2092,20.313],[100.2207,20.349],[100.2404,20.3728],[100.2702,20.3918],[100.3065,20.3997],[100.3443,20.39],[100.3644,20.369],[100.4216,20.2502],[100.4473,20.218],[100.4521,20.2102],[100.4573,20.1964],[100.461,20.1907],[100.4688,20.1857],[100.4856,20.1788],[100.4889,20.1733],[100.4964,20.1649],[100.5128,20.1553],[100.5292,20.1497],[100.5367,20.1535],[100.542,20.1667],[100.5465,20.1679],[100.5487,20.158],[100.5506,20.1065],[100.5434,20.0666],[100.5185,19.9955],[100.4927,19.9317],[100.488,19.897],[100.484,19.8807],[100.4743,19.8654],[100.4656,19.8598],[100.4463,19.8521],[100.4384,19.8472],[100.4314,19.8383],[100.4205,19.8104],[100.3835,19.7639],[100.3792,19.7457],[100.3838,19.732],[100.4005,19.7116],[100.4072,19.6999],[100.4105,19.6843],[100.4129,19.6516],[100.4189,19.6344],[100.4271,19.6218],[100.4475,19.5978],[100.4556,19.5847],[100.459,19.5681],[100.459,19.5518],[100.462,19.5371],[100.4743,19.525],[100.4918,19.5145],[100.5206,19.5026],[100.5493,19.4945],[100.5667,19.4956],[100.586,19.526],[100.607,19.5409],[100.6333,19.5422],[100.7148,19.5125],[100.7292,19.5047],[100.7382,19.495],[100.7455,19.485],[100.753,19.4824],[100.7626,19.4955],[100.8085,19.5365],[100.849,19.5825],[100.8612,19.6026],[100.865,19.6072],[100.8746,19.6129],[100.8798,19.6136],[100.8857,19.6124],[100.9743,19.6135],[101.0025,19.6106],[101.0243,19.6029],[101.0682,19.5771],[101.0958,19.5673],[101.1247,19.5651],[101.1527,19.5684],[101.1769,19.5747],[101.1883,19.5807],[101.1973,19.5869],[101.208,19.5896],[101.225,19.5852],[101.2382,19.5782],[101.2462,19.5703],[101.2511,19.5603],[101.2549,19.5472],[101.257,19.5228],[101.2517,19.4944],[101.2382,19.4723],[101.2153,19.4664],[101.1929,19.4528],[101.1778,19.4172],[101.1724,19.3764],[101.1785,19.3466],[101.185,19.342],[101.202,19.3387],[101.2078,19.3347],[101.2113,19.3264],[101.2109,19.3206],[101.2093,19.3156],[101.2095,19.3094],[101.2299,19.2258],[101.2268,19.1672],[101.2291,19.1436],[101.2357,19.1281],[101.2474,19.1158],[101.2912,19.079],[101.3179,19.0501],[101.3264,19.0205],[101.2839,18.9815],[101.277,18.9671],[101.2673,18.9345],[101.2573,18.9195],[101.2329,18.8927],[101.2249,18.8748],[101.2233,18.8555],[101.2286,18.7956],[101.224,18.7785],[101.2092,18.7463],[101.2058,18.7301],[101.2113,18.7119],[101.2348,18.6895],[101.2401,18.6736],[101.2347,18.6584],[101.2219,18.642],[101.1941,18.6168],[101.1853,18.6125],[101.1678,18.6064],[101.1609,18.5998],[101.1581,18.59],[101.1591,18.5677],[101.1554,18.5567],[101.1421,18.5443],[101.0779,18.5104],[101.0738,18.5058],[101.0719,18.4957],[101.0647,18.4764],[101.0356,18.4478],[101.0303,18.4278],[101.037,18.4105],[101.051,18.3925],[101.0823,18.3642],[101.1455,18.3362],[101.1554,18.3229],[101.1524,18.3164],[101.1354,18.2984],[101.1301,18.2912],[101.128,18.281],[101.1284,18.2457],[101.1396,18.2187],[101.1455,18.213],[101.1528,18.2091],[101.1593,18.2041],[101.1628,18.1953],[101.1605,18.1795],[101.1456,18.1419],[101.1416,18.124],[101.145,18.1047],[101.1621,18.0675],[101.1652,18.0534],[101.1575,18.0404],[101.1254,18.0213],[101.1123,18.0113],[101.0949,17.9844],[101.082,17.9583],[101.0662,17.934],[101.0398,17.912],[101.0083,17.8952],[101.0008,17.8848],[100.9971,17.8646],[101.0003,17.8305],[100.9948,17.8177],[100.9743,17.8092],[100.967,17.8038],[100.9652,17.7976],[100.9677,17.791],[100.9743,17.784],[100.9755,17.7798],[100.9743,17.7755],[100.9649,17.7706],[100.9586,17.7641],[100.9564,17.7559],[100.9587,17.7458],[100.9607,17.7256],[100.9538,17.6998],[100.9329,17.6545],[100.8995,17.617],[100.8857,17.5959],[100.886,17.5738],[100.9019,17.5619],[100.9815,17.5476],[101.0008,17.5382],[101.019,17.5266],[101.0355,17.5126],[101.0493,17.4957],[101.0662,17.4922],[101.096,17.4753],[101.1247,17.4639],[101.1289,17.4612],[101.1323,17.4617],[101.1418,17.4672],[101.1472,17.4725],[101.1642,17.4958],[101.1667,17.5106],[101.177,17.5164],[101.1903,17.5187],[101.2022,17.5232],[101.2085,17.5313],[101.2286,17.5685],[101.247,17.5922],[101.3573,17.679],[101.3699,17.6832],[101.3775,17.6826],[101.3838,17.6849],[101.4016,17.7067],[101.4031,17.7095],[101.404,17.7156],[101.3988,17.7172],[101.3884,17.7178],[101.3819,17.7207],[101.388,17.7293],[101.4019,17.7338],[101.417,17.7324],[101.432,17.7336],[101.4453,17.7458],[101.4535,17.751],[101.4561,17.7502],[101.4591,17.7395],[101.4683,17.7204],[101.4704,17.7226],[101.483,17.7458],[101.5027,17.7654],[101.5365,17.7791],[101.5563,17.7921],[101.534,17.8096],[101.564,17.8203],[101.5705,17.8289],[101.5751,17.8398],[101.5776,17.8529],[101.5776,17.8681],[101.6004,17.8544],[101.6111,17.8655],[101.6199,17.8846],[101.6362,17.8948],[101.7291,17.9122],[101.7326,17.932],[101.7569,17.9978],[101.7658,18.0403],[101.7739,18.0586],[101.7904,18.0736],[101.7967,18.0736],[101.8061,18.0624],[101.8452,18.0521],[101.8838,18.0308],[101.9043,18.0371],[102.0713,18.2085],[102.0785,18.2138],[102.1535,18.2101],[102.1719,18.2003],[102.1784,18.186],[102.1821,18.1692],[102.1916,18.1521],[102.2218,18.1316],[102.2256,18.1282],[102.2331,18.1242],[102.2566,18.094],[102.3067,18.0515],[102.3365,18.037],[102.3664,18.0388],[102.3852,18.0161],[102.4122,17.9942],[102.4455,17.9778],[102.482,17.9712],[102.5675,17.9708],[102.5996,17.9552],[102.6123,17.9153],[102.5956,17.8501],[102.5953,17.8408],[102.6094,17.837],[102.6608,17.8129],[102.6829,17.8101],[102.6829,17.8174],[102.6733,17.8318],[102.6676,17.8501],[102.673,17.8654],[102.6867,17.8735],[102.7222,17.8818],[102.7374,17.8904],[102.7741,17.9227],[102.8319,17.9531],[102.838,17.9638],[102.8527,17.972],[102.9386,18.0089],[102.9549,18.0121],[102.9729,18.0077],[103.0038,17.9886],[103.0205,17.9842],[103.0379,17.9907],[103.0494,18.005],[103.0583,18.0193],[103.0682,18.0258],[103.0731,18.0355],[103.0648,18.094],[103.0663,18.1123],[103.0713,18.1256],[103.0799,18.1348],[103.0928,18.1412],[103.0891,18.1348],[103.1101,18.1418],[103.1267,18.1519],[103.1386,18.1667],[103.1451,18.188],[103.1509,18.2215],[103.1573,18.237],[103.1682,18.2498],[103.1767,18.2549],[103.1852,18.2578],[103.2149,18.2623],[103.2367,18.27],[103.2735,18.2761],[103.2863,18.2803],[103.2954,18.2878],[103.2965,18.2969],[103.2904,18.3051],[103.2487,18.3326],[103.2402,18.336],[103.238,18.3416],[103.2353,18.3453],[103.2337,18.3493],[103.234,18.3558],[103.2441,18.3801],[103.2608,18.4002],[103.2826,18.4156],[103.3069,18.4257],[103.3866,18.4415],[103.3968,18.4414],[103.4515,18.4253],[103.4699,18.422],[103.4891,18.4244],[103.4977,18.4237],[103.5232,18.4177],[103.5488,18.4154],[103.6071,18.4004],[103.6214,18.3908],[103.6299,18.3832],[103.6386,18.3779],[103.6956,18.3532],[103.7091,18.3497],[103.7672,18.3467],[103.7846,18.3439],[103.8014,18.3383],[103.8173,18.3304],[103.8321,18.3207],[103.8422,18.3091],[103.849,18.2964],[103.8578,18.2865],[103.8739,18.2832],[103.8813,18.2844],[103.8859,18.287],[103.8937,18.2973],[103.91,18.3153],[103.9293,18.3276],[103.9513,18.333],[103.9754,18.3307],[104.0,18.3184],[104.0186,18.2991],[104.0684,18.2154],[104.1109,18.1146],[104.1224,18.0953],[104.1357,18.0797],[104.1981,18.0256],[104.2109,18.0086],[104.2551,17.915],[104.2643,17.8846],[104.2703,17.874],[104.2783,17.8646],[104.2876,17.8567],[104.3526,17.8193],[104.3678,17.8006],[104.3903,17.7572],[104.4049,17.74],[104.4089,17.7337],[104.4116,17.7274],[104.4178,17.7076],[104.4223,17.6998],[104.452,17.666],[104.4812,17.6404],[104.6364,17.5624],[104.6551,17.5561],[104.7026,17.5273],[104.7145,17.5153],[104.7343,17.4869],[104.7497,17.4582],[104.7568,17.4499],[104.7646,17.4444],[104.7816,17.4353],[104.7889,17.429],[104.7927,17.4235],[104.8164,17.3728],[104.8193,17.3611],[104.82,17.3489],[104.8164,17.3001],[104.8183,17.2402],[104.8145,17.194],[104.8099,17.1717],[104.7453,17.0248],[104.7404,17.0026],[104.7497,16.9108],[104.753,16.8998],[104.7629,16.8791],[104.7664,16.8682],[104.7671,16.8561],[104.7652,16.8447],[104.7584,16.8219],[104.7563,16.8099],[104.7568,16.7985],[104.7783,16.7158],[104.779,16.7049],[104.7776,16.694],[104.7637,16.6568],[104.753,16.6148],[104.7484,16.5719],[104.7495,16.5493],[104.7545,16.5289],[104.7652,16.5113],[104.7827,16.4971],[104.8389,16.4677],[104.8555,16.4541],[104.8689,16.4384],[104.8795,16.4218],[104.8877,16.4039],[104.897,16.3727],[104.9016,16.3625],[104.908,16.3534],[104.9173,16.3456],[104.9441,16.3308],[104.9521,16.3244],[104.9715,16.3043],[104.9793,16.2986],[105.0074,16.2836],[105.0155,16.2767],[105.0264,16.2577],[105.0297,16.236],[105.0289,16.1915],[105.0326,16.1653],[105.0425,16.1414],[105.0581,16.1212],[105.0793,16.1054],[105.2372,16.0508],[105.2474,16.0492],[105.2885,16.0474],[105.4049,16.0188],[105.4145,16.0152],[105.4221,16.0099],[105.4239,16.0021],[105.4181,15.9947],[105.4074,15.9889],[105.3865,15.9808],[105.3625,15.9548],[105.3606,15.9194],[105.3726,15.8821],[105.412,15.7998],[105.423,15.7839],[105.4357,15.7716],[105.448,15.7649],[105.4624,15.7628],[105.5034,15.7662],[105.5254,15.7635],[105.5685,15.7494],[105.6129,15.7215],[105.6409,15.682],[105.651,15.6346],[105.6409,15.5833],[105.6163,15.5213],[105.612,15.4995],[105.6104,15.4572],[105.6043,15.4392],[105.5884,15.4238],[105.5528,15.402],[105.5062,15.3876],[105.4863,15.3749],[105.4775,15.3528],[105.4833,15.3345],[105.499,15.3247],[105.5194,15.3211],[105.5386,15.3215],[105.558,15.3251],[105.5615,15.3209],[105.5648,15.2995],[105.564,15.2725],[105.5603,15.2709],[105.5316,15.2529],[105.5039,15.2311],[105.4631,15.1894],[105.4544,15.1755],[105.4477,15.1553],[105.4438,15.1338],[105.4436,15.1114],[105.4519,15.0948],[105.4739,15.0906],[105.4983,15.0661],[105.5036,15.0649],[105.5165,15.0671],[105.5209,15.0661],[105.5232,15.0612],[105.5228,15.05],[105.5243,15.046],[105.5535,15.0053],[105.5661,14.9959],[105.5931,14.9908],[105.5836,14.9776],[105.5439,14.9531],[105.5342,14.934],[105.5506,14.9023],[105.543,14.8801],[105.5376,14.878],[105.5219,14.8787],[105.5178,14.8777],[105.5159,14.8717],[105.5169,14.8565],[105.5241,14.8425],[105.5244,14.8372],[105.52,14.8335],[105.5062,14.8304],[105.5015,14.8273],[105.4938,14.809],[105.4891,14.7863],[105.4907,14.7638],[105.5015,14.7459],[105.5051,14.7364],[105.4974,14.6904],[105.4958,14.6599],[105.5101,14.5936],[105.5075,14.564],[105.4955,14.5371],[105.4637,14.496],[105.4404,14.4753],[105.4339,14.4679],[105.4289,14.4582],[105.4203,14.4352],[105.416,14.4282],[105.4057,14.423],[105.3792,14.4182],[105.3677,14.4145],[105.3596,14.4083],[105.3408,14.3901],[105.3351,14.3857],[105.3222,14.3864],[105.3047,14.3982],[105.2947,14.3991],[105.2877,14.3933],[105.2757,14.3721],[105.2686,14.3644],[105.2505,14.3572],[105.1982,14.3452],[105.1843,14.3457],[105.155,14.3305],[105.1322,14.2807],[105.1014,14.2305],[105.0473,14.2141],[105.0254,14.2244],[105.0077,14.2438],[104.9759,14.3011],[104.9743,14.3096],[104.979,14.355],[104.9787,14.3685],[104.9738,14.3806],[104.9551,14.3863],[104.8982,14.3963],[104.8902,14.4002],[104.8742,14.4106],[104.8666,14.4138],[104.8574,14.4141],[104.8385,14.4114],[104.8314,14.4118],[104.8151,14.4198],[104.8019,14.4301],[104.7883,14.4382],[104.7717,14.4399],[104.7579,14.433],[104.728,14.4099],[104.7129,14.4068],[104.7062,14.4122],[104.701,14.4301],[104.6929,14.434],[104.6846,14.4306],[104.6747,14.4147],[104.6684,14.4096],[104.6514,14.4089],[104.6266,14.4193],[104.6104,14.419],[104.5946,14.41],[104.5835,14.3958],[104.5739,14.3805],[104.5628,14.3685],[104.5428,14.3604],[104.5265,14.3635],[104.5108,14.3705],[104.4926,14.374],[104.482,14.3712],[104.4739,14.3657],[104.4675,14.3601],[104.462,14.3571],[104.4526,14.3569],[104.4392,14.3614],[104.3254,14.3776],[104.2712,14.3991],[104.2475,14.4011],[104.2324,14.3931],[104.2191,14.3829],[104.2013,14.378],[104.1892,14.3823],[104.1835,14.3914],[104.1826,14.4004],[104.1857,14.404],[104.177,14.4042],[104.1748,14.4013],[104.1733,14.396],[104.1485,14.3696],[104.1409,14.366],[104.1284,14.3664],[104.1213,14.3715],[104.1162,14.3775],[104.1102,14.3804],[104.0737,14.3708],[104.036,14.3526],[104.0014,14.3451],[103.974,14.3673],[103.9198,14.3646],[103.9105,14.3563],[103.908,14.3483],[103.9028,14.3424],[103.8852,14.3404],[103.8703,14.3433],[103.8592,14.3496],[103.8492,14.3571],[103.8384,14.3634],[103.824,14.368],[103.8155,14.368],[103.8073,14.366],[103.7942,14.3648],[103.7752,14.367],[103.7165,14.3815],[103.6822,14.3838],[103.6749,14.3865],[103.6717,14.3956],[103.6739,14.4193],[103.6715,14.4296],[103.6654,14.4359],[103.6572,14.4412],[103.6472,14.444],[103.6371,14.4433],[103.6275,14.4378],[103.6245,14.4306],[103.6229,14.4225],[103.6168,14.4145],[103.5961,14.4043],[103.5816,14.4074],[103.5681,14.4159],[103.5502,14.4219],[103.5334,14.4191],[103.4948,14.3999],[103.457,14.3744],[103.4497,14.3716],[103.4392,14.3729],[103.4315,14.3775],[103.4262,14.3825],[103.4225,14.3848],[103.4081,14.3808],[103.3802,14.3611],[103.3629,14.3535],[103.3414,14.3509],[103.2737,14.3511],[103.1986,14.3285],[103.1382,14.3197],[103.118,14.3132],[103.085,14.2958],[103.0049,14.2288],[102.9878,14.219],[102.9509,14.2086],[102.9341,14.201],[102.9186,14.1855],[102.914,14.1693],[102.9137,14.1518],[102.9113,14.1321],[102.9041,14.116],[102.8833,14.0869],[102.8762,14.0713],[102.8729,14.0484],[102.8733,14.0334],[102.8698,14.0206],[102.855,14.004],[102.7974,13.96],[102.7728,13.9361],[102.7544,13.9041],[102.7372,13.8496],[102.7291,13.8322],[102.7113,13.8104],[102.7065,13.8019],[102.704,13.7918],[102.7027,13.7712],[102.6986,13.7618],[102.675,13.7419],[102.5744,13.6939],[102.5423,13.6697],[102.5411,13.6486],[102.5625,13.628],[102.5977,13.6054],[102.5796,13.6005],[102.5325,13.5738],[102.5132,13.5672],[102.4522,13.5622],[102.3713,13.5689],[102.3322,13.5646],[102.3134,13.541],[102.3148,13.5303],[102.3255,13.5134],[102.3294,13.5043],[102.3301,13.4964],[102.3294,13.4819],[102.3336,13.4063],[102.3271,13.3454],[102.3282,13.2752],[102.3821,13.1366],[102.4019,13.103],[102.4473,13.0508],[102.4632,13.0193],[102.4732,13.0061],[102.4902,12.9961],[102.4897,12.99],[102.4866,12.9848],[102.4814,12.9806],[102.4688,12.9734],[102.4672,12.9695],[102.4691,12.9652],[102.4776,12.9573],[102.4789,12.9536],[102.4776,12.9499],[102.4663,12.9379],[102.4648,12.9275],[102.4679,12.9163],[102.4741,12.9053],[102.4792,12.8821],[102.4833,12.8438],[102.4897,12.8231],[102.4955,12.8127],[102.5005,12.8065],[102.5043,12.7997],[102.5066,12.7875],[102.5056,12.7778],[102.4953,12.7461],[102.4827,12.7352],[102.478,12.7196],[102.4767,12.6985],[102.4793,12.6771],[102.4864,12.6612],[102.5018,12.6498],[102.5586,12.6312],[102.5885,12.6098],[102.6648,12.5342],[102.6897,12.5197],[102.6968,12.5131],[102.7005,12.5049],[102.7021,12.4881],[102.7048,12.4803],[102.7184,12.4659],[102.7506,12.449],[102.7621,12.4361],[102.7651,12.4163],[102.7565,12.4022],[102.7307,12.3801],[102.7201,12.3612],[102.7151,12.3422],[102.6922,12.1785],[102.7,12.1387],[102.7512,12.061],[102.7711,12.0374],[102.7871,12.0026],[102.7971,11.953],[102.843,11.866],[102.8852,11.8077],[102.9138,11.7655],[102.9251,11.7258],[102.9288,11.6687],[102.9136,11.6459]]],[[[97.8718,9.3796],[97.84,9.4043],[97.8353,9.4121],[97.8377,9.4193],[97.8436,9.425],[97.8508,9.4284],[97.8573,9.4287],[97.8684,9.4204],[97.8747,9.4057],[97.8761,9.3902],[97.8718,9.3796]]],[[[99.6987,9.5422],[99.7035,9.5213],[99.6815,9.5129],[99.6681,9.5192],[99.6987,9.5422]]],[[[99.6843,9.62],[99.6804,9.6122],[99.6781,9.6104],[99.6753,9.6245],[99.6782,9.6241],[99.6818,9.6208],[99.6843,9.62]]],[[[99.2478,6.5749],[99.2603,6.5658],[99.2576,6.5609],[99.2473,6.557],[99.2173,6.5369],[99.1948,6.5331],[99.174,6.539],[99.1585,6.5544],[99.1764,6.5502],[99.186,6.5594],[99.1956,6.5712],[99.2137,6.5749],[99.2063,6.5749],[99.2393,6.5768],[99.2478,6.5749]]],[[[99.6724,6.5165],[99.6721,6.5073],[99.6704,6.5015],[99.6663,6.497],[99.6587,6.4923],[99.6468,6.5097],[99.6341,6.5521],[99.6003,6.5834],[99.603,6.597],[99.6139,6.6088],[99.6239,6.6227],[99.626,6.6328],[99.6235,6.6511],[99.6239,6.6574],[99.6292,6.6636],[99.6364,6.6669],[99.6424,6.6713],[99.645,6.6811],[99.6465,6.6994],[99.6506,6.7178],[99.657,6.7238],[99.6805,6.6729],[99.6803,6.624],[99.696,6.5875],[99.7044,6.5583],[99.7033,6.5444],[99.6997,6.5333],[99.6926,6.5281],[99.6836,6.5268],[99.6758,6.5246],[99.6724,6.5165]]],[[[99.4054,7.2663],[99.4191,7.2566],[99.4458,7.2509],[99.4539,7.239],[99.4406,7.2402],[99.4282,7.239],[99.4172,7.2353],[99.4089,7.2294],[99.3943,7.2055],[99.3833,7.1941],[99.3782,7.2018],[99.3778,7.2523],[99.3855,7.2756],[99.4054,7.2663]]],[[[99.0349,7.6443],[99.0657,7.6151],[99.0759,7.609],[99.0759,7.5732],[99.0861,7.5365],[99.1014,7.5036],[99.1174,7.4792],[99.0999,7.4672],[99.0772,7.4803],[99.0571,7.5041],[99.0313,7.5619],[99.0281,7.5717],[99.0291,7.6062],[99.0271,7.6229],[99.0207,7.6369],[99.0256,7.6409],[99.0281,7.6443],[99.0349,7.6443]]],[[[99.1243,7.6574],[99.1275,7.6444],[99.1275,7.6252],[99.124,7.6068],[99.1174,7.5959],[99.1087,7.5942],[99.0999,7.5966],[99.093,7.6013],[99.0877,7.612],[99.0819,7.616],[99.0696,7.6225],[99.0446,7.6634],[99.0671,7.6752],[99.1045,7.6694],[99.1243,7.6574]]],[[[98.5405,8.1049],[98.5404,8.1056],[98.5869,8.0793],[98.6024,8.0635],[98.6104,8.0347],[98.6118,7.9261],[98.6035,7.9038],[98.5882,7.9049],[98.5773,7.9196],[98.5708,7.9394],[98.5676,7.9634],[98.5628,7.9781],[98.5632,7.9863],[98.568,7.9934],[98.5746,7.9941],[98.5804,7.9962],[98.583,8.0068],[98.5823,8.0154],[98.5796,8.0246],[98.5744,8.0318],[98.5659,8.0347],[98.5549,8.0369],[98.5511,8.0425],[98.5498,8.0501],[98.5369,8.0712],[98.531,8.0886],[98.5282,8.1071],[98.5285,8.1235],[98.533,8.1195],[98.5363,8.1151],[98.5405,8.1049]]],[[[98.4186,7.9038],[98.4219,7.9084],[98.428,7.9132],[98.4317,7.9174],[98.4396,7.9019],[98.4398,7.8866],[98.4318,7.8749],[98.3997,7.8646],[98.3954,7.8505],[98.3981,7.815],[98.3623,7.8324],[98.3439,7.8329],[98.3361,7.8113],[98.3325,7.786],[98.3231,7.7709],[98.3091,7.7677],[98.2918,7.7775],[98.2866,7.7917],[98.2814,7.8559],[98.273,7.8707],[98.2691,7.8791],[98.2678,7.8901],[98.272,7.8935],[98.28,7.8969],[98.2853,7.9038],[98.2814,7.9174],[98.2757,7.921],[98.258,7.9264],[98.2542,7.9283],[98.2586,7.9383],[98.2676,7.9463],[98.2741,7.9537],[98.2715,7.9621],[98.266,7.9738],[98.27,7.984],[98.2776,7.9936],[98.2814,8.0031],[98.2804,8.0142],[98.2761,8.0338],[98.2744,8.0693],[98.2752,8.0757],[98.2776,8.0832],[98.2853,8.0989],[98.2883,8.1092],[98.2902,8.1301],[98.2889,8.1518],[98.2814,8.1918],[98.286,8.1911],[98.2891,8.1897],[98.2957,8.185],[98.3029,8.1881],[98.3115,8.1855],[98.3208,8.1791],[98.3301,8.1705],[98.3357,8.1564],[98.3435,8.1092],[98.3496,8.1092],[98.3601,8.1188],[98.3737,8.1109],[98.3892,8.0954],[98.4055,8.0825],[98.4129,8.0943],[98.4226,8.0993],[98.4321,8.0959],[98.4391,8.0825],[98.4385,8.0657],[98.4319,8.0498],[98.4186,8.0273],[98.4177,8.0191],[98.4199,8.001],[98.4186,7.9931],[98.4143,7.9889],[98.4082,7.9857],[98.4022,7.981],[98.3981,7.9726],[98.3975,7.955],[98.4015,7.9358],[98.4089,7.9177],[98.4186,7.9038]]],[[[98.6375,8.1713],[98.6214,8.1025],[98.6209,8.09],[98.5877,8.1018],[98.5796,8.1061],[98.5701,8.1189],[98.5747,8.125],[98.5967,8.1303],[98.5923,8.1468],[98.6018,8.1616],[98.6159,8.1762],[98.624,8.1918],[98.6321,8.1898],[98.6358,8.1855],[98.6371,8.1793],[98.6375,8.1713]]],[[[98.2957,9.1452],[98.3079,9.133],[98.3174,9.1171],[98.3228,9.098],[98.323,9.0762],[98.302,9.0552],[98.3093,9.049],[98.2944,9.0416],[98.2742,9.036],[98.2542,9.0368],[98.2405,9.049],[98.24,9.0627],[98.2484,9.1434],[98.2482,9.1501],[98.2508,9.154],[98.2609,9.1581],[98.2733,9.16],[98.2822,9.1567],[98.2957,9.1452]]],[[[100.0702,9.5864],[100.0759,9.585],[100.0859,9.5745],[100.0907,9.5609],[100.0801,9.55],[100.0718,9.5217],[100.0686,9.4898],[100.0609,9.4638],[100.032,9.4502],[100.0296,9.4435],[100.0288,9.4357],[100.0259,9.4291],[100.0193,9.4257],[100.0036,9.4262],[99.9563,9.4216],[99.9466,9.4182],[99.9408,9.4375],[99.9367,9.4746],[99.9263,9.494],[99.9412,9.5119],[99.9396,9.5303],[99.9312,9.5486],[99.9263,9.566],[99.9363,9.5777],[99.9595,9.5808],[99.9847,9.579],[100.0437,9.5642],[100.0623,9.5674],[100.0702,9.5864]]],[[[98.4116,9.7683],[98.4178,9.7471],[98.4167,9.7335],[98.3981,9.7062],[98.3849,9.7279],[98.3897,9.7424],[98.4021,9.7558],[98.4116,9.7746],[98.4116,9.7683]]],[[[100.0354,9.7956],[100.0672,9.7756],[100.0793,9.7424],[100.0901,9.6653],[100.0786,9.6738],[100.054,9.6877],[99.9992,9.7104],[99.9876,9.7199],[99.9933,9.7317],[99.9899,9.7429],[99.9706,9.7646],[99.9707,9.7712],[99.9836,9.7919],[99.9876,9.8018],[99.9979,9.7973],[100.0078,9.7964],[100.0261,9.7978],[100.0354,9.7956]]],[[[102.5641,11.708],[102.5896,11.71],[102.606,11.6845],[102.6082,11.6483],[102.5916,11.6186],[102.5916,11.6118],[102.6057,11.6118],[102.5972,11.5985],[102.5946,11.5889],[102.5983,11.5634],[102.5916,11.5634],[102.5847,11.5688],[102.577,11.585],[102.5716,11.5913],[102.5622,11.5956],[102.53,11.6049],[102.5379,11.6158],[102.5425,11.6207],[102.5442,11.626],[102.5437,11.6385],[102.5408,11.6479],[102.5309,11.6704],[102.53,11.6801],[102.5498,11.7523],[102.5552,11.7598],[102.5641,11.7551],[102.5684,11.744],[102.5708,11.7328],[102.57,11.7209],[102.5641,11.708]]],[[[102.3997,12.0432],[102.4065,12.0363],[102.417,12.0178],[102.4321,12.0004],[102.4431,11.9837],[102.4412,11.9674],[102.4275,11.9614],[102.411,11.9715],[102.3792,12.0028],[102.376,11.9912],[102.3779,11.9796],[102.3761,11.9709],[102.3622,11.9674],[102.3491,11.9689],[102.3109,11.9811],[102.3109,11.9748],[102.3138,11.9714],[102.3184,11.9612],[102.3064,11.9698],[102.2904,11.9748],[102.2904,11.9811],[102.2941,11.9947],[102.2942,12.0568],[102.2847,12.0668],[102.2564,12.1319],[102.27,12.1319],[102.2617,12.1444],[102.2564,12.149],[102.2495,12.153],[102.2663,12.1524],[102.2932,12.1454],[102.3109,12.1462],[102.3428,12.1236],[102.3552,12.1113],[102.3662,12.0978],[102.3781,12.0718],[102.3866,12.0583],[102.3997,12.0493],[102.3997,12.0432]]],[[[97.87,9.4252],[97.8496,9.4421],[97.8533,9.4614],[97.8718,9.473],[97.8953,9.4674],[97.8994,9.4611],[97.9002,9.4531],[97.8982,9.445],[97.8948,9.4387],[97.887,9.4382],[97.8772,9.4421],[97.8699,9.4407],[97.87,9.4252]]],[[[98.2884,9.0045],[98.2991,8.9974],[98.3109,8.9782],[98.307,8.9579],[98.294,8.9346],[98.2705,8.8772],[98.2616,8.8786],[98.2531,8.8979],[98.251,8.9184],[98.2557,8.9398],[98.2559,8.9664],[98.2522,8.997],[98.2609,9.0129],[98.2793,9.0093],[98.2884,9.0045]]]]}}