{"type":"Feature","bbox":[-172.7826,-14.0528,-171.4377,-13.4628],"properties":{"iso":"WS","name":"Samoa","name_de":"Samoa","key":"WS"},"geometry":{"type":"MultiPolygon","coordinates":[[[[-172.201,-13.5925],[-172.1976,-13.6031],[-172.1957,-13.6139],[-172.1949,-13.6369],[-172.1903,-13.656],[-172.1814,-13.6677],[-172.1756,-13.6803],[-172.1806,-13.7024],[-172.1907,-13.718],[-172.2021,-13.7302],[-172.2115,-13.7446],[-172.2153,-13.7677],[-172.2124,-13.7906],[-172.213,-13.801],[-172.2191,-13.8054],[-172.2428,-13.8051],[-172.2532,-13.8029],[-172.2638,-13.798],[-172.2795,-13.7848],[-172.2877,-13.775],[-172.2976,-13.7698],[-172.3184,-13.7713],[-172.3686,-13.789],[-172.5232,-13.8054],[-172.5329,-13.7986],[-172.5432,-13.7853],[-172.5511,-13.7775],[-172.5674,-13.7688],[-172.5751,-13.7628],[-172.5785,-13.754],[-172.5806,-13.7448],[-172.59,-13.7248],[-172.5921,-13.7127],[-172.5971,-13.7006],[-172.609,-13.693],[-172.6225,-13.6878],[-172.633,-13.6819],[-172.6545,-13.6492],[-172.6675,-13.6339],[-172.6933,-13.6241],[-172.7035,-13.6166],[-172.7187,-13.6028],[-172.7219,-13.5978],[-172.723,-13.5873],[-172.7256,-13.582],[-172.7313,-13.5789],[-172.7445,-13.58],[-172.7497,-13.5783],[-172.7612,-13.565],[-172.7765,-13.5421],[-172.7826,-13.5203],[-172.7665,-13.5105],[-172.7324,-13.5105],[-172.6951,-13.5242],[-172.6612,-13.5252],[-172.639,-13.5221],[-172.6153,-13.5094],[-172.604,-13.5064],[-172.5819,-13.5045],[-172.5692,-13.5014],[-172.5422,-13.4879],[-172.5306,-13.484],[-172.4519,-13.484],[-172.4315,-13.4809],[-172.3892,-13.467],[-172.3662,-13.4628],[-172.3444,-13.463],[-172.3224,-13.4669],[-172.3008,-13.4765],[-172.2805,-13.4936],[-172.2228,-13.5584],[-172.2219,-13.5626],[-172.2236,-13.5739],[-172.2228,-13.5783],[-172.2175,-13.5828],[-172.2053,-13.5877],[-172.201,-13.5925]]],[[[-171.5643,-13.9494],[-171.5195,-13.9448],[-171.4693,-13.9694],[-171.4377,-14.0061],[-171.4482,-14.0375],[-171.4453,-14.0414],[-171.4407,-14.0519],[-171.4662,-14.0528],[-171.5369,-14.0457],[-171.5792,-14.0495],[-171.5988,-14.0478],[-171.6195,-14.0375],[-171.6358,-14.0462],[-171.6524,-14.0452],[-171.684,-14.0375],[-171.7001,-14.039],[-171.743,-14.0519],[-171.7533,-14.0515],[-171.762,-14.0488],[-171.7681,-14.0432],[-171.7703,-14.0348],[-171.7745,-14.0263],[-171.7844,-14.0222],[-171.8044,-14.0178],[-171.8222,-14.0085],[-171.838,-14.0032],[-171.8541,-14.0019],[-171.8935,-14.007],[-171.9111,-14.0064],[-171.9266,-14.0012],[-171.941,-13.9904],[-171.9619,-13.9581],[-171.9724,-13.9462],[-171.982,-13.9494],[-171.9888,-13.9494],[-172.0063,-13.925],[-172.018,-13.9179],[-172.0406,-13.9152],[-172.061,-13.9062],[-172.0637,-13.885],[-172.0556,-13.8619],[-172.0441,-13.8464],[-171.9652,-13.8185],[-171.8802,-13.8054],[-171.8345,-13.8074],[-171.7923,-13.8165],[-171.6502,-13.8713],[-171.6069,-13.8762],[-171.5852,-13.8839],[-171.5676,-13.8967],[-171.5574,-13.9152],[-171.5591,-13.9254],[-171.5657,-13.9314],[-171.57,-13.9382],[-171.5643,-13.9494]]]]}}