{"type":"Feature","bbox":[20.0248,41.844,21.7728,43.2631],"properties":{"iso":"XK","name":"Kosovo","name_de":"Kosovo","key":"XK"},"geometry":{"type":"Polygon","coordinates":[[[20.065,42.5468],[20.077,42.5599],[20.0782,42.5729],[20.0754,42.587],[20.0757,42.6031],[20.0792,42.6112],[20.0906,42.6273],[20.1039,42.6531],[20.0942,42.667],[20.0361,42.708],[20.0248,42.7234],[20.0265,42.7432],[20.0347,42.7514],[20.0651,42.7695],[20.0763,42.7734],[20.1121,42.7665],[20.1495,42.7499],[20.1834,42.7425],[20.2084,42.7633],[20.21,42.773],[20.2084,42.7821],[20.2092,42.7917],[20.2176,42.8027],[20.2261,42.8068],[20.2644,42.8173],[20.3454,42.8274],[20.428,42.8406],[20.4763,42.8555],[20.4988,42.8779],[20.4889,42.8992],[20.4667,42.9095],[20.451,42.922],[20.4595,42.95],[20.4764,42.9664],[20.4935,42.9702],[20.5111,42.9702],[20.5305,42.9752],[20.5384,42.9807],[20.5439,42.9872],[20.5534,43.0026],[20.5624,43.0095],[20.5728,43.0093],[20.5843,43.0069],[20.5964,43.0071],[20.6173,43.0221],[20.6438,43.0523],[20.6649,43.0854],[20.6692,43.1098],[20.6618,43.1159],[20.6517,43.1163],[20.6409,43.1153],[20.6321,43.1173],[20.6261,43.1237],[20.6206,43.1333],[20.6121,43.1549],[20.6001,43.1738],[20.5975,43.185],[20.604,43.198],[20.6123,43.2023],[20.6449,43.2033],[20.667,43.2097],[20.7453,43.2529],[20.7695,43.2608],[20.7944,43.2631],[20.8194,43.2574],[20.8384,43.2459],[20.8485,43.2381],[20.8551,43.2314],[20.8647,43.2173],[20.8515,43.2198],[20.84,43.2121],[20.8406,43.207],[20.8391,43.1925],[20.8361,43.1794],[20.832,43.1786],[20.8386,43.1705],[21.0052,43.0991],[21.0258,43.0934],[21.0926,43.0907],[21.1085,43.0816],[21.124,43.0583],[21.1393,43.0058],[21.1479,42.9926],[21.1654,42.9851],[21.1794,42.9906],[21.1931,42.9979],[21.2098,42.9959],[21.2253,42.9736],[21.2267,42.9425],[21.2324,42.9109],[21.2605,42.8866],[21.2716,42.8843],[21.295,42.8844],[21.3063,42.8824],[21.317,42.8776],[21.3364,42.8655],[21.3467,42.8608],[21.3788,42.8553],[21.3989,42.8546],[21.4084,42.847],[21.4083,42.8207],[21.4041,42.804],[21.3906,42.7704],[21.3871,42.755],[21.3839,42.75],[21.3792,42.747],[21.3787,42.7441],[21.3887,42.739],[21.4055,42.7353],[21.4418,42.7361],[21.5425,42.7258],[21.5652,42.7202],[21.5805,42.7102],[21.6127,42.6804],[21.6294,42.6722],[21.6441,42.6723],[21.6874,42.6868],[21.7089,42.6872],[21.7387,42.6822],[21.7644,42.6696],[21.7728,42.6475],[21.7671,42.6387],[21.7565,42.6336],[21.7445,42.6296],[21.7347,42.6242],[21.7356,42.6213],[21.7288,42.5983],[21.727,42.5964],[21.7202,42.5939],[21.7183,42.591],[21.7197,42.5867],[21.7268,42.5779],[21.7277,42.5741],[21.7177,42.5512],[21.6679,42.4901],[21.6279,42.4604],[21.619,42.4492],[21.6169,42.4339],[21.6219,42.4022],[21.6174,42.3866],[21.5966,42.3721],[21.5373,42.3586],[21.516,42.3419],[21.5149,42.3178],[21.5539,42.274],[21.5641,42.2463],[21.5618,42.2472],[21.5199,42.239],[21.4993,42.2387],[21.4815,42.2478],[21.4676,42.2351],[21.4572,42.237],[21.4479,42.2441],[21.4363,42.2469],[21.4199,42.2401],[21.4215,42.2314],[21.4287,42.2226],[21.4298,42.2158],[21.4191,42.215],[21.3843,42.2249],[21.3668,42.2239],[21.3538,42.216],[21.295,42.149],[21.2937,42.1402],[21.2988,42.1294],[21.3003,42.1209],[21.3013,42.1006],[21.2993,42.0914],[21.2889,42.0897],[21.2378,42.0974],[21.2254,42.1068],[21.2162,42.1212],[21.1999,42.1412],[21.1644,42.167],[21.1264,42.1889],[21.113,42.1944],[21.1062,42.1958],[21.0985,42.196],[21.0744,42.1845],[21.0292,42.1514],[21.0039,42.142],[20.8105,42.0929],[20.7849,42.082],[20.7654,42.0643],[20.7554,42.0428],[20.7431,41.9935],[20.7418,41.9708],[20.7544,41.9309],[20.7505,41.9068],[20.74,41.888],[20.7233,41.8666],[20.703,41.8496],[20.6815,41.844],[20.6718,41.8493],[20.6528,41.8693],[20.6434,41.8736],[20.637,41.8704],[20.6262,41.8552],[20.6187,41.8505],[20.6024,41.8499],[20.5903,41.8547],[20.5671,41.8732],[20.5678,41.8805],[20.5627,41.8928],[20.5625,41.9001],[20.5673,41.9122],[20.5733,41.9177],[20.5806,41.9217],[20.5887,41.9296],[20.5993,41.9479],[20.5993,41.9606],[20.5943,41.9737],[20.5897,41.9936],[20.5583,42.0551],[20.5522,42.0738],[20.552,42.1058],[20.5494,42.1235],[20.5386,42.1501],[20.5008,42.2112],[20.4817,42.2307],[20.457,42.2505],[20.3334,42.3179],[20.318,42.3198],[20.2496,42.3186],[20.2378,42.3199],[20.2296,42.3267],[20.2209,42.3431],[20.2195,42.3502],[20.2212,42.3637],[20.2188,42.3714],[20.2131,42.3775],[20.1975,42.3874],[20.1928,42.3937],[20.194,42.4001],[20.2044,42.4118],[20.2047,42.4201],[20.1997,42.4278],[20.1863,42.4374],[20.1808,42.4431],[20.1526,42.4937],[20.1355,42.5096],[20.0856,42.53],[20.065,42.5468]]]}}