{"type":"Feature","bbox":[16.47,-46.9658,37.9778,-22.1265],"properties":{"iso":"ZA","name":"South Africa","name_de":"Südafrika","key":"ZA"},"geometry":{"type":"MultiPolygon","coordinates":[[[[19.9814,-24.7525],[19.9864,-24.7688],[19.9929,-24.7759],[20.0105,-24.788],[20.0293,-24.8152],[20.0811,-24.8526],[20.1078,-24.8803],[20.1189,-24.8874],[20.1284,-24.8897],[20.1491,-24.891],[20.1593,-24.8937],[20.2357,-24.936],[20.3649,-25.0332],[20.3755,-25.0461],[20.4068,-25.1078],[20.4339,-25.1468],[20.4448,-25.1684],[20.4432,-25.1831],[20.4344,-25.1998],[20.4438,-25.2133],[20.4625,-25.2237],[20.4817,-25.2305],[20.4835,-25.2566],[20.4855,-25.2632],[20.4918,-25.2691],[20.5099,-25.2775],[20.5164,-25.2836],[20.5186,-25.293],[20.5104,-25.3047],[20.5105,-25.3123],[20.5146,-25.3193],[20.5251,-25.3322],[20.5292,-25.3401],[20.5358,-25.3712],[20.5422,-25.3822],[20.5588,-25.392],[20.588,-25.404],[20.5936,-25.4132],[20.5969,-25.4329],[20.612,-25.431],[20.6114,-25.4394],[20.6059,-25.4518],[20.6066,-25.462],[20.6166,-25.4661],[20.6256,-25.4627],[20.6344,-25.4577],[20.6435,-25.4574],[20.6565,-25.4678],[20.6269,-25.4847],[20.6204,-25.5006],[20.6185,-25.5285],[20.6634,-25.5647],[20.6714,-25.5912],[20.6652,-25.601],[20.6433,-25.6132],[20.6379,-25.6203],[20.641,-25.6312],[20.6514,-25.6346],[20.6631,-25.6363],[20.6708,-25.6423],[20.6714,-25.6533],[20.6627,-25.6749],[20.6629,-25.6853],[20.671,-25.6955],[20.6965,-25.7071],[20.7069,-25.7148],[20.7167,-25.7326],[20.7378,-25.7989],[20.7271,-25.8182],[20.7265,-25.8274],[20.7401,-25.8231],[20.75,-25.8185],[20.7558,-25.819],[20.7669,-25.8307],[20.7671,-25.8344],[20.7941,-25.8939],[20.8028,-25.9805],[20.8005,-26.0525],[20.8039,-26.0713],[20.8414,-26.1313],[20.8379,-26.1468],[20.7947,-26.2019],[20.7762,-26.2406],[20.7533,-26.2762],[20.6955,-26.342],[20.666,-26.3918],[20.6521,-26.4078],[20.6225,-26.4275],[20.6182,-26.4397],[20.6053,-26.4933],[20.6023,-26.5222],[20.6053,-26.5477],[20.6115,-26.5599],[20.6277,-26.5808],[20.6324,-26.5953],[20.6307,-26.6183],[20.6089,-26.6861],[20.6092,-26.7162],[20.6147,-26.7532],[20.6248,-26.7894],[20.6387,-26.817],[20.6449,-26.8245],[20.6506,-26.8297],[20.6656,-26.8391],[20.6755,-26.85],[20.6857,-26.8818],[20.6908,-26.8918],[20.6935,-26.889],[20.7149,-26.8751],[20.7794,-26.8481],[20.826,-26.8188],[20.8519,-26.8065],[20.9077,-26.8],[20.9502,-26.816],[20.9904,-26.8386],[21.1225,-26.8653],[21.1535,-26.8645],[21.2406,-26.842],[21.2549,-26.8418],[21.2829,-26.845],[21.2969,-26.8445],[21.3808,-26.824],[21.4266,-26.8227],[21.4495,-26.8264],[21.4987,-26.8464],[21.5839,-26.8484],[21.6434,-26.8628],[21.6645,-26.8631],[21.6872,-26.8552],[21.7438,-26.8205],[21.7623,-26.8045],[21.7734,-26.7868],[21.7775,-26.7685],[21.7765,-26.7492],[21.7675,-26.7043],[21.7687,-26.6887],[21.7806,-26.6782],[21.8073,-26.6696],[21.8388,-26.6645],[21.9358,-26.6639],[21.999,-26.6503],[22.0577,-26.6176],[22.1081,-26.5719],[22.1462,-26.5192],[22.1783,-26.4399],[22.1974,-26.4041],[22.2377,-26.3668],[22.2483,-26.3469],[22.2573,-26.3409],[22.3032,-26.3336],[22.3188,-26.3288],[22.3429,-26.3174],[22.395,-26.2719],[22.4288,-26.2265],[22.4509,-26.2101],[22.4826,-26.2048],[22.528,-26.2137],[22.5451,-26.2074],[22.5638,-26.1811],[22.5803,-26.1465],[22.5915,-26.1332],[22.6112,-26.1206],[22.6232,-26.1093],[22.665,-26.0514],[22.6658,-26.0399],[22.6621,-26.0298],[22.6616,-26.0209],[22.6722,-26.0129],[22.7007,-26.0033],[22.7105,-25.9969],[22.7194,-25.9843],[22.7242,-25.9675],[22.7272,-25.9439],[22.7268,-25.9216],[22.7216,-25.909],[22.7088,-25.891],[22.7195,-25.8743],[22.7395,-25.8585],[22.7547,-25.8434],[22.7655,-25.8265],[22.7641,-25.8203],[22.7579,-25.806],[22.7509,-25.796],[22.745,-25.7941],[22.7412,-25.7909],[22.7405,-25.777],[22.7464,-25.7553],[22.7598,-25.7349],[22.8044,-25.6872],[22.8102,-25.6774],[22.8128,-25.6671],[22.815,-25.6528],[22.8134,-25.6419],[22.8096,-25.6333],[22.8108,-25.6253],[22.8244,-25.6158],[22.8334,-25.6061],[22.8287,-25.5955],[22.8192,-25.5849],[22.8134,-25.5751],[22.814,-25.5666],[22.8168,-25.5584],[22.8247,-25.543],[22.8446,-25.4811],[22.8513,-25.4713],[22.8768,-25.462],[22.8876,-25.4502],[22.9036,-25.4114],[22.9119,-25.3991],[22.9205,-25.3905],[22.9309,-25.3843],[22.9448,-25.3787],[22.9561,-25.3721],[22.9603,-25.3643],[22.9626,-25.3558],[22.968,-25.3469],[23.007,-25.3108],[23.0307,-25.2994],[23.0545,-25.3025],[23.0612,-25.3107],[23.0655,-25.3208],[23.0717,-25.326],[23.0839,-25.3197],[23.0934,-25.3125],[23.1685,-25.28],[23.2161,-25.2672],[23.2657,-25.264],[23.3204,-25.2734],[23.3659,-25.2893],[23.3814,-25.2926],[23.3992,-25.2914],[23.432,-25.2803],[23.4449,-25.2781],[23.4593,-25.2822],[23.4682,-25.2902],[23.4835,-25.3115],[23.4966,-25.3242],[23.5066,-25.331],[23.5359,-25.3433],[23.5611,-25.3573],[23.6667,-25.4327],[23.6742,-25.4426],[23.6867,-25.4544],[23.7427,-25.47],[23.7521,-25.4776],[23.7623,-25.4985],[23.769,-25.5074],[23.7783,-25.5126],[23.7986,-25.5185],[23.8075,-25.5236],[23.8454,-25.5691],[23.8907,-25.5988],[23.9058,-25.6185],[23.9248,-25.6292],[23.9764,-25.6176],[23.988,-25.6195],[23.9983,-25.6253],[24.0087,-25.6332],[24.0096,-25.6413],[24.0042,-25.6499],[24.0057,-25.6547],[24.0271,-25.6518],[24.131,-25.6262],[24.1835,-25.6259],[24.2277,-25.649],[24.2967,-25.7235],[24.3389,-25.7518],[24.3892,-25.7595],[24.4167,-25.7531],[24.4368,-25.7453],[24.4567,-25.743],[24.5767,-25.7833],[24.6296,-25.8161],[24.665,-25.8233],[24.738,-25.8159],[24.7986,-25.8292],[24.8289,-25.826],[24.8885,-25.8117],[24.9084,-25.8041],[24.9679,-25.7629],[25.0133,-25.743],[25.0517,-25.7379],[25.0903,-25.7436],[25.136,-25.7566],[25.1778,-25.7633],[25.3865,-25.7435],[25.4584,-25.7112],[25.5873,-25.6195],[25.6089,-25.5593],[25.6635,-25.44],[25.6955,-25.31],[25.7829,-25.1314],[25.8049,-25.0648],[25.8352,-25.0164],[25.8371,-24.9791],[25.8662,-24.9182],[25.8767,-24.886],[25.8773,-24.8457],[25.8669,-24.7726],[25.8684,-24.7482],[25.8741,-24.7434],[25.8817,-24.7422],[25.9147,-24.7318],[25.966,-24.7336],[25.9811,-24.7263],[26.0136,-24.7045],[26.2788,-24.6285],[26.3257,-24.6224],[26.3445,-24.624],[26.3635,-24.6281],[26.3816,-24.6295],[26.4044,-24.6328],[26.4695,-24.5714],[26.4768,-24.5599],[26.5061,-24.4888],[26.5312,-24.4587],[26.5584,-24.4382],[26.6235,-24.3994],[26.6841,-24.3415],[26.6929,-24.3266],[26.714,-24.3159],[26.8023,-24.2897],[26.8233,-24.2788],[26.8392,-24.2656],[26.8497,-24.2481],[26.8689,-24.1604],[26.8709,-24.1158],[26.9412,-23.8502],[26.945,-23.8232],[26.9381,-23.8029],[26.9666,-23.7552],[26.9621,-23.7374],[26.9672,-23.7187],[26.9865,-23.687],[27.0042,-23.6458],[27.0138,-23.6385],[27.0243,-23.6425],[27.0299,-23.6547],[27.0376,-23.6657],[27.0548,-23.6664],[27.0701,-23.6561],[27.0694,-23.6417],[27.0631,-23.6242],[27.0615,-23.6044],[27.0752,-23.6112],[27.0783,-23.602],[27.0841,-23.596],[27.1025,-23.5838],[27.0958,-23.5838],[27.1038,-23.5717],[27.1134,-23.5643],[27.1244,-23.5632],[27.1367,-23.5702],[27.1412,-23.5583],[27.1357,-23.5519],[27.1274,-23.5453],[27.1231,-23.533],[27.1274,-23.525],[27.1377,-23.5234],[27.1491,-23.5275],[27.1572,-23.5367],[27.1615,-23.5299],[27.169,-23.5216],[27.1714,-23.5156],[27.1787,-23.5236],[27.1866,-23.5273],[27.1956,-23.5271],[27.2057,-23.5231],[27.1915,-23.5038],[27.2025,-23.4921],[27.2397,-23.4814],[27.2781,-23.4636],[27.2956,-23.4517],[27.312,-23.4371],[27.3356,-23.4024],[27.35,-23.3915],[27.3612,-23.4225],[27.3713,-23.417],[27.3808,-23.4053],[27.3837,-23.3996],[27.3958,-23.3941],[27.4105,-23.3893],[27.4185,-23.3913],[27.4111,-23.4058],[27.4252,-23.4127],[27.435,-23.4066],[27.4432,-23.3951],[27.4527,-23.3853],[27.4657,-23.3804],[27.5072,-23.3791],[27.5288,-23.3731],[27.5489,-23.3608],[27.5637,-23.3428],[27.5694,-23.3204],[27.5633,-23.2992],[27.5659,-23.2965],[27.5696,-23.2949],[27.5731,-23.2905],[27.5752,-23.2848],[27.5761,-23.2791],[27.5804,-23.2639],[27.5992,-23.2446],[27.608,-23.2167],[27.6192,-23.217],[27.6334,-23.2234],[27.6471,-23.2276],[27.6588,-23.2234],[27.6984,-23.1935],[27.7257,-23.2217],[27.7392,-23.2276],[27.7536,-23.2208],[27.7594,-23.2114],[27.7742,-23.173],[27.7846,-23.1656],[27.7893,-23.1638],[27.7874,-23.1598],[27.781,-23.1525],[27.7791,-23.1477],[27.7746,-23.1408],[27.7717,-23.133],[27.7742,-23.1252],[27.7849,-23.127],[27.8064,-23.1284],[27.8223,-23.123],[27.8157,-23.1047],[27.8538,-23.0956],[27.8955,-23.0795],[27.9301,-23.057],[27.9461,-23.029],[27.9379,-22.9867],[27.9375,-22.9638],[27.9492,-22.9539],[27.9684,-22.951],[27.9894,-22.9438],[28.0083,-22.9348],[28.0218,-22.9266],[28.0374,-22.9114],[28.0497,-22.8914],[28.054,-22.8691],[28.0454,-22.8478],[28.0472,-22.8369],[28.0658,-22.8288],[28.0888,-22.8226],[28.1037,-22.8167],[28.1077,-22.8106],[28.1132,-22.7954],[28.1174,-22.7895],[28.1256,-22.7855],[28.1356,-22.7834],[28.1459,-22.7797],[28.155,-22.772],[28.1625,-22.759],[28.1627,-22.751],[28.1597,-22.7433],[28.1577,-22.7311],[28.1597,-22.7181],[28.1647,-22.7086],[28.1962,-22.6716],[28.2055,-22.666],[28.2163,-22.6632],[28.2407,-22.6609],[28.2506,-22.6556],[28.2868,-22.6158],[28.3018,-22.6038],[28.3386,-22.5846],[28.3769,-22.575],[28.4594,-22.5696],[28.5225,-22.5848],[28.5385,-22.5803],[28.5598,-22.563],[28.5776,-22.56],[28.5972,-22.5627],[28.6239,-22.5628],[28.659,-22.552],[28.7314,-22.5139],[28.7748,-22.5014],[28.7968,-22.4982],[28.8168,-22.4929],[28.8312,-22.4823],[28.8368,-22.4632],[28.8466,-22.4499],[28.8694,-22.4489],[28.9125,-22.4537],[28.9304,-22.4409],[28.9535,-22.4007],[28.9634,-22.3922],[28.9679,-22.3804],[28.9602,-22.3102],[28.9837,-22.282],[29.0028,-22.2634],[29.0181,-22.255],[29.0178,-22.2504],[29.0387,-22.2239],[29.0478,-22.2203],[29.1688,-22.214],[29.1866,-22.2077],[29.2028,-22.1945],[29.2221,-22.1822],[29.2482,-22.1793],[29.3029,-22.1902],[29.3315,-22.1928],[29.3501,-22.1867],[29.3569,-22.1909],[29.3633,-22.1923],[29.378,-22.1929],[29.4361,-22.1631],[29.4569,-22.1588],[29.5069,-22.1701],[29.5318,-22.1724],[29.5425,-22.1625],[29.551,-22.146],[29.5702,-22.142],[29.604,-22.1451],[29.6411,-22.1292],[29.6614,-22.1265],[29.6796,-22.1383],[29.6914,-22.1341],[29.7589,-22.1309],[29.7792,-22.1364],[29.8373,-22.1724],[29.8715,-22.1793],[29.896,-22.1914],[29.9321,-22.1944],[29.9467,-22.1983],[29.974,-22.214],[29.9838,-22.2177],[30.0053,-22.2223],[30.0155,-22.227],[30.0345,-22.2461],[30.0359,-22.2506],[30.0381,-22.2538],[30.0679,-22.2571],[30.0826,-22.2629],[30.1111,-22.2823],[30.1351,-22.2936],[30.1527,-22.2948],[30.197,-22.2891],[30.2217,-22.2909],[30.2404,-22.2962],[30.2553,-22.3047],[30.2693,-22.3164],[30.3008,-22.337],[30.335,-22.3447],[30.3721,-22.3435],[30.4127,-22.3369],[30.4317,-22.3312],[30.4692,-22.3151],[30.4885,-22.3102],[30.5074,-22.3096],[30.5722,-22.3166],[30.6011,-22.3164],[30.6103,-22.3187],[30.6256,-22.3286],[30.6324,-22.3307],[30.6474,-22.3264],[30.6743,-22.3086],[30.6939,-22.3028],[30.8053,-22.2945],[30.8379,-22.2823],[30.8671,-22.2896],[30.9272,-22.2957],[31.0361,-22.3196],[31.0703,-22.3337],[31.0876,-22.3369],[31.1045,-22.3334],[31.1377,-22.3185],[31.1526,-22.3164],[31.1633,-22.3226],[31.1837,-22.3456],[31.1907,-22.3506],[31.1979,-22.3526],[31.2135,-22.3619],[31.2215,-22.3649],[31.2296,-22.364],[31.2457,-22.3575],[31.2556,-22.358],[31.2656,-22.3655],[31.2889,-22.3973],[31.2791,-22.4153],[31.5363,-23.157],[31.5424,-23.1873],[31.5215,-23.4156],[31.5276,-23.4568],[31.5463,-23.4924],[31.6423,-23.5879],[31.662,-23.624],[31.7006,-23.7491],[31.7412,-23.8368],[31.7552,-23.8578],[31.7741,-23.8741],[31.8387,-23.9178],[31.8504,-23.9306],[31.8558,-23.9465],[31.863,-24.1214],[31.8695,-24.1638],[31.9613,-24.3463],[31.9866,-24.4231],[31.9919,-24.5004],[31.9838,-24.5691],[31.9887,-25.3726],[31.9717,-25.4215],[31.9676,-25.4468],[31.9664,-25.4797],[31.9701,-25.5109],[31.9806,-25.5316],[31.9864,-25.5524],[31.9956,-25.6152],[31.9958,-25.6369],[31.9916,-25.6502],[31.9848,-25.6563],[31.9751,-25.6617],[31.9623,-25.6729],[31.9544,-25.6849],[31.9119,-25.7853],[31.9058,-25.813],[31.91,-25.843],[31.9492,-25.9581],[31.8919,-25.9838],[31.8634,-25.9899],[31.8346,-25.9821],[31.4269,-25.7436],[31.4015,-25.736],[31.372,-25.7364],[31.3374,-25.7447],[31.3093,-25.7574],[31.1198,-25.91],[31.1069,-25.9309],[31.0916,-25.9836],[31.0378,-26.1001],[30.9699,-26.2091],[30.8046,-26.3975],[30.7829,-26.4724],[30.7857,-26.7169],[30.7957,-26.7855],[30.8024,-26.8089],[30.8198,-26.808],[30.8364,-26.8051],[30.8534,-26.7966],[30.8687,-26.7849],[30.8802,-26.7722],[30.9026,-26.8313],[30.9158,-26.8494],[30.9444,-26.8766],[30.9551,-26.8914],[30.961,-26.9112],[30.9597,-26.9361],[30.9494,-26.9754],[30.9536,-27.0003],[30.9761,-27.035],[31.0788,-27.1182],[31.1265,-27.1826],[31.142,-27.1965],[31.157,-27.2056],[31.4595,-27.2987],[31.5265,-27.3109],[31.9683,-27.3163],[31.9677,-27.303],[31.9648,-27.2917],[31.9598,-27.281],[31.953,-27.2702],[31.9474,-27.2555],[31.9421,-27.1007],[31.9922,-26.8383],[31.9901,-26.8083],[32.0571,-26.8086],[32.0732,-26.8114],[32.0978,-26.8335],[32.1139,-26.84],[32.1432,-26.8457],[32.1941,-26.8403],[32.223,-26.8414],[32.3522,-26.8603],[32.8931,-26.8461],[32.8805,-26.8869],[32.8652,-27.0173],[32.8469,-27.081],[32.8446,-27.1027],[32.8394,-27.1236],[32.8037,-27.1682],[32.801,-27.1769],[32.7969,-27.2057],[32.7947,-27.2143],[32.7854,-27.2297],[32.781,-27.256],[32.6765,-27.5207],[32.6072,-27.8137],[32.6057,-27.8361],[32.6038,-27.8464],[32.5944,-27.87],[32.5915,-27.8808],[32.5913,-27.893],[32.5969,-27.9118],[32.5983,-27.9225],[32.5505,-28.1716],[32.544,-28.1901],[32.46,-28.3067],[32.4543,-28.3227],[32.4504,-28.3456],[32.4392,-28.3666],[32.422,-28.3819],[32.3997,-28.3879],[32.4033,-28.3976],[32.407,-28.4003],[32.4121,-28.3987],[32.4202,-28.3947],[32.4282,-28.4294],[32.4172,-28.4665],[32.4007,-28.5027],[32.3921,-28.5353],[32.3794,-28.5528],[32.2931,-28.631],[32.28,-28.6401],[32.2479,-28.6539],[32.2351,-28.6616],[32.2254,-28.6726],[32.2068,-28.7013],[32.1936,-28.7162],[32.0838,-28.7995],[32.0563,-28.7795],[32.0169,-28.7849],[31.994,-28.8062],[32.0161,-28.8336],[32.0241,-28.825],[32.0374,-28.8147],[32.0534,-28.8071],[32.0701,-28.8056],[32.051,-28.8378],[32.0121,-28.8665],[31.8884,-28.9247],[31.8521,-28.9313],[31.8137,-28.9301],[31.7691,-28.9223],[31.7704,-28.9308],[31.7723,-28.9366],[31.7761,-28.9405],[31.7827,-28.9435],[31.7827,-28.9496],[31.7521,-28.9662],[31.5575,-29.1619],[31.5103,-29.199],[31.4945,-29.2057],[31.4885,-29.2096],[31.4861,-29.2158],[31.4822,-29.2333],[31.4782,-29.237],[31.4653,-29.2449],[31.427,-29.2922],[31.4126,-29.3032],[31.3786,-29.3219],[31.365,-29.3326],[31.36,-29.3425],[31.3547,-29.3634],[31.3421,-29.37],[31.334,-29.3764],[31.3265,-29.3842],[31.3186,-29.402],[31.1869,-29.5603],[31.0555,-29.7898],[31.0453,-29.8295],[31.0558,-29.8683],[31.0158,-29.8681],[31.0061,-29.8762],[31.0012,-29.9024],[31.0164,-29.8952],[31.0505,-29.8852],[31.0633,-29.8744],[31.0633,-29.8819],[31.0615,-29.8889],[31.0583,-29.8959],[31.0496,-29.9086],[31.0238,-29.9358],[30.9199,-30.0185],[30.8906,-30.0501],[30.8425,-30.1233],[30.7865,-30.2375],[30.6416,-30.4596],[30.6214,-30.5001],[30.6177,-30.5153],[30.6095,-30.5296],[30.5623,-30.5739],[30.3923,-30.8471],[30.364,-30.8823],[30.3482,-30.8966],[30.3338,-30.9023],[30.3203,-30.9123],[30.2887,-30.9711],[30.1234,-31.1616],[30.0951,-31.1786],[30.0628,-31.2387],[30.0099,-31.2922],[29.8641,-31.4116],[29.8462,-31.4196],[29.7845,-31.4347],[29.7617,-31.4439],[29.742,-31.4575],[29.7337,-31.4749],[29.6724,-31.5397],[29.6504,-31.5478],[29.6414,-31.5533],[29.6346,-31.5724],[29.6277,-31.5803],[29.6199,-31.586],[29.6144,-31.5881],[29.5921,-31.593],[29.5741,-31.6054],[29.542,-31.6359],[29.5261,-31.644],[29.4867,-31.6564],[29.4608,-31.6723],[29.4522,-31.674],[29.4427,-31.6747],[29.4321,-31.6775],[29.4273,-31.678],[29.4162,-31.6765],[29.4116,-31.6775],[29.4055,-31.6842],[29.4069,-31.6894],[29.4107,-31.6938],[29.4116,-31.698],[29.3919,-31.7355],[29.3625,-31.7498],[29.3569,-31.7558],[29.3529,-31.7804],[29.3421,-31.7936],[29.3093,-31.8141],[29.2767,-31.8447],[29.2612,-31.8635],[29.2546,-31.8796],[29.252,-31.8891],[29.2341,-31.9166],[29.2205,-31.924],[29.2155,-31.9401],[29.2136,-31.9438],[29.1476,-31.9698],[29.138,-31.982],[29.1338,-31.9985],[29.1238,-32.017],[29.0964,-32.0536],[28.9733,-32.1667],[28.8704,-32.287],[28.8171,-32.3151],[28.8084,-32.3249],[28.6741,-32.4306],[28.6512,-32.4591],[28.6428,-32.4655],[28.6262,-32.4723],[28.6172,-32.4782],[28.5803,-32.5112],[28.5627,-32.532],[28.555,-32.5505],[28.5486,-32.5624],[28.4375,-32.636],[28.412,-32.6476],[28.3794,-32.671],[28.3633,-32.6782],[28.3601,-32.6939],[28.3369,-32.7094],[28.2876,-32.7321],[28.2406,-32.7609],[28.2108,-32.7747],[28.1555,-32.7885],[28.1301,-32.8089],[28.1108,-32.8365],[28.1033,-32.8661],[28.094,-32.8875],[28.0723,-32.9083],[27.9699,-32.9806],[27.9396,-32.9898],[27.9307,-32.9977],[27.9177,-33.0138],[27.904,-33.0207],[27.9024,-33.0243],[27.9011,-33.0349],[27.8971,-33.04],[27.8493,-33.0585],[27.8298,-33.0772],[27.8187,-33.0816],[27.7993,-33.0842],[27.7498,-33.0998],[27.7327,-33.1088],[27.6432,-33.1887],[27.6099,-33.2118],[27.5392,-33.2346],[27.5278,-33.2429],[27.5233,-33.2444],[27.5,-33.2734],[27.4924,-33.277],[27.4847,-33.279],[27.4763,-33.2781],[27.4657,-33.2734],[27.4585,-33.2989],[27.4346,-33.3207],[27.3802,-33.3574],[27.3558,-33.3696],[27.3517,-33.3696],[27.3423,-33.3634],[27.3389,-33.3664],[27.3348,-33.377],[27.2283,-33.4389],[27.2188,-33.4487],[27.1431,-33.4794],[27.1275,-33.4898],[27.1198,-33.4968],[27.1164,-33.5036],[27.1144,-33.5112],[27.1089,-33.5191],[27.1009,-33.5253],[27.0918,-33.5278],[27.0713,-33.5309],[26.9846,-33.5702],[26.9653,-33.5743],[26.9413,-33.5756],[26.9191,-33.5815],[26.863,-33.6227],[26.8428,-33.6274],[26.7946,-33.6323],[26.7612,-33.649],[26.6654,-33.6837],[26.6533,-33.6848],[26.6455,-33.6891],[26.6389,-33.7078],[26.6326,-33.7122],[26.6108,-33.7149],[26.5151,-33.7553],[26.4761,-33.7643],[26.4348,-33.766],[26.3499,-33.7555],[26.3234,-33.7564],[26.3042,-33.7638],[26.2866,-33.7664],[26.2632,-33.758],[26.2256,-33.7394],[26.0925,-33.7171],[25.9553,-33.7109],[25.8674,-33.7219],[25.7854,-33.7436],[25.7111,-33.7742],[25.679,-33.7952],[25.6531,-33.8227],[25.634,-33.8552],[25.6175,-33.9114],[25.6149,-33.935],[25.6194,-33.9459],[25.6389,-33.9538],[25.6434,-33.9626],[25.6482,-33.9687],[25.677,-33.9865],[25.6956,-34.0118],[25.7044,-34.0207],[25.7029,-34.0285],[25.701,-34.0317],[25.6975,-34.0349],[25.666,-34.0265],[25.6443,-34.0325],[25.6242,-34.0431],[25.5982,-34.0485],[25.5669,-34.0455],[25.5139,-34.0315],[25.4852,-34.0275],[25.4354,-34.0329],[25.4105,-34.033],[25.3836,-34.0196],[25.348,-34.0144],[25.3138,-33.9933],[25.2775,-33.9811],[25.1926,-33.9622],[25.1011,-33.9605],[25.0115,-33.971],[24.9529,-33.9851],[24.929,-33.9959],[24.9133,-34.0113],[24.9274,-34.0523],[24.9164,-34.0724],[24.8993,-34.0896],[24.8887,-34.0964],[24.8411,-34.1325],[24.8342,-34.1476],[24.8382,-34.1598],[24.8477,-34.1663],[24.8571,-34.1712],[24.8613,-34.1783],[24.8579,-34.1869],[24.8408,-34.198],[24.8342,-34.2057],[24.8273,-34.2057],[24.8147,-34.1907],[24.7937,-34.1847],[24.7254,-34.1833],[24.6703,-34.1708],[24.6472,-34.1682],[24.584,-34.1783],[24.565,-34.1769],[24.4785,-34.1578],[24.4352,-34.1389],[24.4002,-34.1126],[24.3809,-34.1064],[24.2591,-34.0942],[24.2417,-34.0861],[24.2279,-34.0779],[24.1631,-34.0548],[23.9842,-34.0411],[23.9627,-34.0369],[23.9196,-34.0235],[23.813,-34.0144],[23.6355,-33.9797],[23.5886,-33.9812],[23.4276,-34.0124],[23.4061,-34.0204],[23.3869,-34.0312],[23.3709,-34.0449],[23.3612,-34.0667],[23.3679,-34.0866],[23.3856,-34.1003],[23.4084,-34.1032],[23.4084,-34.11],[23.0628,-34.0827],[23.0575,-34.0763],[23.0515,-34.0476],[23.049,-34.0411],[23.0189,-34.0392],[23.0065,-34.0351],[22.9981,-34.0275],[23.0016,-34.0426],[23.009,-34.0485],[23.0187,-34.0517],[23.0288,-34.0585],[23.0387,-34.0724],[23.0389,-34.0798],[23.0322,-34.0861],[23.0262,-34.081],[23.0122,-34.0774],[22.9845,-34.0753],[22.9717,-34.0777],[22.9621,-34.0813],[22.9515,-34.0839],[22.936,-34.0827],[22.8562,-34.0618],[22.8242,-34.0452],[22.8114,-34.0418],[22.8001,-34.0356],[22.792,-34.0207],[22.7898,-34.0113],[22.7905,-34.0043],[22.7972,-34.0006],[22.8125,-34.0007],[22.7967,-33.9895],[22.7746,-33.9836],[22.7305,-33.9797],[22.7399,-33.9947],[22.7532,-34.0095],[22.7689,-34.0214],[22.7852,-34.0275],[22.7668,-34.0329],[22.7425,-34.0289],[22.6299,-33.9958],[22.6099,-33.9933],[22.5837,-33.9941],[22.564,-33.9972],[22.5477,-34.0036],[22.4959,-34.0392],[22.4554,-34.0571],[22.4105,-34.0656],[22.3171,-34.0569],[22.2752,-34.0577],[22.1892,-34.0753],[22.1692,-34.0832],[22.1528,-34.0937],[22.1235,-34.1205],[22.111,-34.1415],[22.1154,-34.1578],[22.1299,-34.1697],[22.1477,-34.1783],[22.134,-34.1881],[22.1141,-34.1939],[21.9841,-34.2101],[21.947,-34.2237],[21.9217,-34.2467],[21.9187,-34.263],[21.9238,-34.2957],[21.9143,-34.3068],[21.8945,-34.336],[21.8887,-34.3396],[21.8296,-34.3686],[21.7887,-34.3813],[21.7461,-34.3884],[21.7026,-34.3906],[21.5972,-34.3727],[21.5597,-34.3534],[21.5376,-34.3489],[21.5159,-34.3522],[21.4741,-34.3668],[21.439,-34.3723],[21.4319,-34.3779],[21.4275,-34.3845],[21.4221,-34.3906],[21.4155,-34.395],[21.349,-34.4192],[21.3059,-34.4246],[21.2625,-34.4216],[21.0984,-34.3708],[21.0584,-34.3634],[20.9613,-34.3561],[20.9134,-34.3604],[20.8735,-34.3769],[20.8809,-34.3769],[20.8237,-34.3903],[20.8052,-34.398],[20.8322,-34.4018],[20.8561,-34.4169],[20.8682,-34.4379],[20.8599,-34.4588],[20.8411,-34.465],[20.6643,-34.4384],[20.5244,-34.4543],[20.4827,-34.4705],[20.448,-34.4933],[20.3932,-34.5548],[20.3745,-34.5698],[20.3555,-34.5761],[20.3412,-34.5787],[20.3343,-34.5852],[20.3289,-34.594],[20.3186,-34.6034],[20.3101,-34.6072],[20.2776,-34.6178],[20.2615,-34.627],[20.2433,-34.641],[20.2285,-34.6578],[20.2224,-34.6751],[20.2117,-34.6721],[20.1873,-34.6774],[20.1467,-34.6922],[20.0726,-34.7369],[20.0444,-34.7683],[20.0579,-34.7952],[20.0579,-34.8014],[20.0418,-34.8051],[20.0156,-34.8189],[19.9993,-34.822],[19.9836,-34.8201],[19.9679,-34.8152],[19.9535,-34.8087],[19.8905,-34.7697],[19.876,-34.7574],[19.8584,-34.7497],[19.6981,-34.7537],[19.6836,-34.7566],[19.667,-34.7704],[19.6532,-34.7741],[19.6424,-34.7721],[19.6358,-34.7659],[19.6311,-34.7589],[19.6265,-34.7537],[19.576,-34.728],[19.4997,-34.6642],[19.4485,-34.6401],[19.433,-34.63],[19.4173,-34.614],[19.3987,-34.6018],[19.3748,-34.5993],[19.3508,-34.6049],[19.3317,-34.6178],[19.323,-34.6125],[19.3142,-34.6109],[19.3055,-34.6127],[19.2969,-34.6178],[19.3006,-34.6066],[19.3601,-34.5387],[19.3651,-34.5278],[19.3602,-34.5004],[19.3444,-34.4684],[19.3239,-34.4387],[19.3044,-34.4179],[19.2904,-34.4091],[19.2777,-34.4065],[19.2078,-34.4186],[19.1465,-34.415],[19.1331,-34.4117],[19.1193,-34.4006],[19.1011,-34.3723],[19.0852,-34.3634],[19.0852,-34.3565],[19.111,-34.3526],[19.1229,-34.338],[19.1296,-34.3171],[19.1399,-34.2944],[19.1226,-34.3027],[19.099,-34.3355],[19.0884,-34.3427],[19.012,-34.3386],[18.999,-34.3393],[18.9702,-34.3482],[18.8729,-34.3619],[18.8519,-34.3735],[18.8479,-34.3816],[18.8382,-34.3839],[18.827,-34.3818],[18.8176,-34.3769],[18.8083,-34.3647],[18.8094,-34.3549],[18.8176,-34.3427],[18.8109,-34.3097],[18.8103,-34.3019],[18.8137,-34.2908],[18.8184,-34.2861],[18.8242,-34.2824],[18.8314,-34.2739],[18.8397,-34.2543],[18.8382,-34.2397],[18.8239,-34.2057],[18.8225,-34.185],[18.8314,-34.1759],[18.8451,-34.1677],[18.8582,-34.1503],[18.8162,-34.0971],[18.8001,-34.0895],[18.7407,-34.0774],[18.6472,-34.07],[18.555,-34.0738],[18.5403,-34.079],[18.5317,-34.0839],[18.4956,-34.0964],[18.4784,-34.1069],[18.4701,-34.114],[18.4608,-34.1243],[18.4461,-34.1371],[18.4417,-34.1442],[18.4403,-34.1578],[18.4427,-34.1681],[18.4478,-34.1736],[18.4544,-34.1779],[18.4608,-34.1845],[18.4745,-34.2262],[18.4766,-34.245],[18.4676,-34.3113],[18.4717,-34.3317],[18.4888,-34.3427],[18.4701,-34.3474],[18.4452,-34.3365],[18.4214,-34.3185],[18.4063,-34.3019],[18.3822,-34.2621],[18.3789,-34.2503],[18.3801,-34.2439],[18.3846,-34.2302],[18.3858,-34.2223],[18.3838,-34.2187],[18.3748,-34.2145],[18.3721,-34.2125],[18.3625,-34.1862],[18.3543,-34.1754],[18.3255,-34.1672],[18.3163,-34.1575],[18.3138,-34.1446],[18.3169,-34.1305],[18.3242,-34.1227],[18.3335,-34.1199],[18.3413,-34.1147],[18.3447,-34.0998],[18.3452,-34.0861],[18.3472,-34.0755],[18.3514,-34.0656],[18.3584,-34.0548],[18.3438,-34.0566],[18.3379,-34.0583],[18.3304,-34.0622],[18.3162,-34.0436],[18.3148,-34.0291],[18.3231,-34.0159],[18.3379,-34.0007],[18.3518,-33.9822],[18.3626,-33.9465],[18.3721,-33.9251],[18.4046,-33.9033],[18.443,-33.9041],[18.4754,-33.8998],[18.4888,-33.863],[18.4844,-33.8439],[18.4651,-33.818],[18.4608,-33.8049],[18.4583,-33.7853],[18.4318,-33.6967],[18.4056,-33.6529],[18.4001,-33.6334],[18.391,-33.6295],[18.3447,-33.5825],[18.3283,-33.5734],[18.3203,-33.5675],[18.3169,-33.5585],[18.3169,-33.5173],[18.3143,-33.4965],[18.3074,-33.4793],[18.2827,-33.4452],[18.2542,-33.4194],[18.1462,-33.3559],[18.156,-33.339],[18.1502,-33.3193],[18.125,-33.28],[18.112,-33.2535],[18.0877,-33.2258],[18.0847,-33.2153],[18.0752,-33.2022],[18.0293,-33.165],[18.0124,-33.1573],[17.9917,-33.1503],[17.9778,-33.1342],[17.9666,-33.1158],[17.9549,-33.102],[17.9805,-33.0912],[17.9953,-33.0881],[18.0059,-33.0917],[18.0137,-33.1032],[18.0192,-33.114],[18.0261,-33.1235],[18.0374,-33.13],[18.033,-33.1409],[18.0402,-33.1491],[18.0676,-33.1676],[18.0861,-33.1894],[18.0991,-33.2009],[18.112,-33.205],[18.1275,-33.1974],[18.1234,-33.1861],[18.1018,-33.1676],[18.0965,-33.1591],[18.0945,-33.1423],[18.0916,-33.1355],[18.0872,-33.1331],[18.0759,-33.132],[18.0711,-33.13],[18.0491,-33.1114],[18.0409,-33.1017],[18.0374,-33.0917],[18.0405,-33.0485],[18.0374,-33.0338],[18.0232,-33.0143],[17.9995,-33.0045],[17.9706,-33.0024],[17.9407,-33.0064],[17.9497,-33.0222],[17.9549,-33.0275],[17.9427,-33.03],[17.9323,-33.0344],[17.9128,-33.0475],[17.9019,-33.0369],[17.8958,-33.0265],[17.8934,-33.0172],[17.8928,-33.0102],[17.889,-33.0016],[17.8821,-32.9926],[17.8786,-32.9815],[17.8855,-32.9661],[17.8807,-32.9582],[17.8685,-32.9293],[17.8625,-32.9072],[17.8617,-32.899],[17.8651,-32.8906],[17.8753,-32.8798],[17.881,-32.8676],[17.8755,-32.8559],[17.8524,-32.8297],[17.8469,-32.8271],[17.843,-32.8233],[17.8439,-32.8146],[17.8478,-32.8134],[17.8618,-32.8152],[17.8682,-32.8082],[17.8836,-32.7966],[17.8892,-32.7941],[17.8973,-32.7927],[17.8991,-32.7892],[17.8994,-32.7839],[17.9028,-32.777],[17.9036,-32.7692],[17.9027,-32.7384],[17.9059,-32.7258],[17.9197,-32.7166],[17.9434,-32.7083],[17.9675,-32.7035],[17.9823,-32.7048],[17.9749,-32.7122],[17.9866,-32.727],[18.0374,-32.7668],[18.0806,-32.7813],[18.1188,-32.773],[18.1521,-32.7512],[18.2731,-32.6476],[18.2964,-32.6086],[18.3108,-32.5728],[18.3342,-32.4913],[18.3379,-32.4516],[18.3332,-32.382],[18.3274,-32.3661],[18.3154,-32.3437],[18.3211,-32.3273],[18.3447,-32.3007],[18.3494,-32.2603],[18.3107,-32.1295],[18.2995,-32.0226],[18.2817,-31.9792],[18.2759,-31.9575],[18.2783,-31.9138],[18.2769,-31.8927],[18.2656,-31.8723],[18.2531,-31.8583],[18.2417,-31.8414],[18.2357,-31.8281],[18.2349,-31.8191],[18.2358,-31.8111],[18.2349,-31.8005],[18.2137,-31.7306],[18.1968,-31.6974],[18.1729,-31.6633],[18.1262,-31.6122],[18.1188,-31.5981],[18.1167,-31.5906],[18.0711,-31.5335],[18.0233,-31.4904],[18.0158,-31.4749],[18.0095,-31.4566],[17.9942,-31.4413],[17.9612,-31.4162],[17.9222,-31.3639],[17.8937,-31.3448],[17.8838,-31.3201],[17.8718,-31.2729],[17.8594,-31.2603],[17.8186,-31.2321],[17.8097,-31.2216],[17.8044,-31.2086],[17.7503,-31.1319],[17.7453,-31.1288],[17.735,-31.1043],[17.7312,-31.0978],[17.7183,-31.0807],[17.6971,-31.0358],[17.6868,-31.019],[17.6172,-30.934],[17.5617,-30.8381],[17.5565,-30.8238],[17.5482,-30.7872],[17.536,-30.7521],[17.4772,-30.6824],[17.4504,-30.6391],[17.4541,-30.6013],[17.4295,-30.5768],[17.3735,-30.4872],[17.3646,-30.464],[17.3462,-30.4445],[17.282,-30.3478],[17.2775,-30.3376],[17.2744,-30.3117],[17.2659,-30.28],[17.2617,-30.2717],[17.2595,-30.245],[17.2069,-30.1653],[17.1934,-30.132],[17.1896,-30.093],[17.1664,-30.0129],[17.1037,-29.8849],[17.0972,-29.8508],[17.095,-29.8459],[17.0903,-29.8408],[17.0857,-29.8338],[17.0835,-29.8233],[17.0828,-29.8128],[17.0563,-29.7304],[17.0625,-29.7304],[17.0576,-29.7175],[17.0578,-29.6906],[17.0563,-29.6764],[17.0316,-29.6188],[17.0321,-29.6082],[17.0188,-29.5987],[17.012,-29.5771],[17.0078,-29.5392],[16.9783,-29.4679],[16.9709,-29.4567],[16.9339,-29.3577],[16.9297,-29.3513],[16.9103,-29.3328],[16.9032,-29.3183],[16.8849,-29.299],[16.8638,-29.2387],[16.8581,-29.2296],[16.8477,-29.2199],[16.8433,-29.2114],[16.8442,-29.1884],[16.8406,-29.1789],[16.8312,-29.1638],[16.8229,-29.1407],[16.8192,-29.1173],[16.8241,-29.101],[16.8088,-29.0783],[16.745,-29.0287],[16.7357,-29.0162],[16.7205,-28.9776],[16.7127,-28.964],[16.6677,-28.9086],[16.6004,-28.8575],[16.5895,-28.8359],[16.5794,-28.8004],[16.5739,-28.7651],[16.577,-28.7442],[16.5643,-28.7203],[16.5628,-28.7128],[16.5589,-28.7076],[16.5505,-28.7058],[16.5412,-28.7053],[16.5348,-28.7032],[16.5135,-28.6609],[16.4971,-28.6493],[16.4719,-28.6254],[16.47,-28.62],[16.4803,-28.6135],[16.4867,-28.5988],[16.4889,-28.5829],[16.4871,-28.5729],[16.5054,-28.5654],[16.5315,-28.5497],[16.5591,-28.5371],[16.5974,-28.5262],[16.6731,-28.4598],[16.6835,-28.4562],[16.6923,-28.4611],[16.6968,-28.4725],[16.6997,-28.4852],[16.7038,-28.4945],[16.7205,-28.496],[16.7404,-28.4809],[16.7584,-28.4597],[16.7693,-28.4426],[16.7721,-28.4258],[16.7734,-28.4029],[16.7785,-28.383],[16.7932,-28.3743],[16.8039,-28.3661],[16.7968,-28.3478],[16.7755,-28.3191],[16.7684,-28.3037],[16.7644,-28.2832],[16.7687,-28.2654],[16.7865,-28.2576],[16.7952,-28.2612],[16.8051,-28.2677],[16.8152,-28.2708],[16.8246,-28.2645],[16.8266,-28.2519],[16.8208,-28.24],[16.8133,-28.2299],[16.8103,-28.2229],[16.8143,-28.2135],[16.8198,-28.2097],[16.8411,-28.2099],[16.8564,-28.2066],[16.856,-28.1994],[16.8384,-28.1795],[16.8357,-28.1742],[16.8377,-28.1682],[16.8438,-28.1639],[16.8478,-28.1654],[16.852,-28.1683],[16.8687,-28.1679],[16.8738,-28.1715],[16.8782,-28.172],[16.8855,-28.162],[16.893,-28.0826],[16.8965,-28.0799],[16.9135,-28.0627],[16.9196,-28.0583],[16.9275,-28.0602],[16.9375,-28.071],[16.9475,-28.0727],[16.9595,-28.0686],[16.9738,-28.055],[16.9854,-28.0522],[17.012,-28.0583],[17.0454,-28.0363],[17.0567,-28.0312],[17.0764,-28.0268],[17.0865,-28.027],[17.0978,-28.0312],[17.1118,-28.046],[17.1232,-28.0665],[17.1363,-28.0847],[17.1558,-28.0925],[17.1809,-28.0995],[17.19,-28.1168],[17.1898,-28.1394],[17.1871,-28.162],[17.192,-28.2088],[17.2131,-28.2321],[17.2452,-28.2374],[17.3086,-28.2241],[17.3345,-28.2229],[17.3457,-28.2276],[17.3498,-28.2387],[17.3512,-28.2514],[17.355,-28.261],[17.3641,-28.2733],[17.367,-28.2835],[17.3681,-28.2938],[17.372,-28.3061],[17.3789,-28.3163],[17.3948,-28.3351],[17.4,-28.3464],[17.4021,-28.3678],[17.3997,-28.3953],[17.3913,-28.4188],[17.3754,-28.429],[17.3586,-28.4328],[17.3412,-28.4428],[17.3282,-28.4561],[17.3242,-28.4705],[17.3324,-28.4886],[17.3595,-28.5198],[17.3653,-28.5425],[17.373,-28.5594],[17.4096,-28.5714],[17.4206,-28.5934],[17.4143,-28.6327],[17.4018,-28.6742],[17.4036,-28.7043],[17.4409,-28.7096],[17.4852,-28.7002],[17.5266,-28.6958],[17.547,-28.6914],[17.566,-28.6835],[17.5829,-28.6802],[17.598,-28.6896],[17.6034,-28.7108],[17.6026,-28.7354],[17.6071,-28.7557],[17.6287,-28.7641],[17.661,-28.7723],[17.6738,-28.7716],[17.6834,-28.7675],[17.7032,-28.7556],[17.7141,-28.7511],[17.7463,-28.7486],[17.9133,-28.7813],[17.9495,-28.7947],[17.9833,-28.8137],[18.0441,-28.8584],[18.0824,-28.876],[18.1665,-28.9019],[18.1851,-28.9022],[18.2207,-28.8913],[18.3087,-28.88],[18.331,-28.8814],[18.3731,-28.8952],[18.3976,-28.8989],[18.417,-28.8917],[18.4247,-28.8872],[18.4357,-28.8842],[18.4552,-28.8814],[18.4607,-28.8799],[18.4694,-28.8749],[18.475,-28.874],[18.4794,-28.8763],[18.4916,-28.8863],[18.4962,-28.8883],[18.5177,-28.8823],[18.5539,-28.8647],[18.7457,-28.8399],[18.9545,-28.8667],[18.9712,-28.8805],[18.9964,-28.9155],[19.0069,-28.9263],[19.014,-28.9285],[19.049,-28.9324],[19.0601,-28.9357],[19.0647,-28.9398],[19.0817,-28.9594],[19.1202,-28.9575],[19.1615,-28.9454],[19.2185,-28.9189],[19.2267,-28.9115],[19.2376,-28.8956],[19.2437,-28.8919],[19.2766,-28.8895],[19.2884,-28.8831],[19.2889,-28.871],[19.2516,-28.8143],[19.245,-28.7925],[19.2486,-28.7716],[19.2659,-28.7426],[19.2773,-28.7294],[19.29,-28.7197],[19.3045,-28.7187],[19.3284,-28.7358],[19.339,-28.7375],[19.3535,-28.7319],[19.4346,-28.7135],[19.4551,-28.7052],[19.4724,-28.6927],[19.4829,-28.6782],[19.5117,-28.598],[19.5178,-28.5894],[19.5274,-28.586],[19.5337,-28.5824],[19.5422,-28.564],[19.5476,-28.5559],[19.5688,-28.5312],[19.5792,-28.5252],[19.588,-28.5227],[19.6883,-28.516],[19.7056,-28.508],[19.7253,-28.4942],[19.7481,-28.4871],[19.7963,-28.4842],[19.8256,-28.4767],[19.8703,-28.4408],[19.8967,-28.4277],[19.9079,-28.4265],[19.9402,-28.4302],[19.9505,-28.4293],[19.9817,-28.4223],[19.9832,-28.3927],[19.9832,-28.185],[19.9814,-24.7525]],[[28.9808,-28.909],[28.9259,-28.8595],[28.8857,-28.7972],[28.8728,-28.7836],[28.8588,-28.7728],[28.8437,-28.7648],[28.8272,-28.7593],[28.7959,-28.7543],[28.7877,-28.7487],[28.7586,-28.7005],[28.7439,-28.6895],[28.6995,-28.6885],[28.689,-28.6744],[28.6817,-28.6334],[28.6756,-28.6138],[28.6666,-28.5972],[28.6532,-28.5831],[28.6343,-28.5708],[28.6194,-28.5724],[28.5625,-28.6065],[28.5426,-28.6108],[28.4034,-28.6189],[28.3829,-28.6265],[28.3635,-28.6436],[28.3364,-28.6847],[28.3172,-28.7001],[28.2971,-28.7069],[28.2739,-28.7096],[28.2509,-28.7074],[28.2307,-28.6995],[28.164,-28.7054],[28.155,-28.7023],[28.145,-28.7147],[28.1317,-28.7293],[28.1041,-28.7651],[28.1009,-28.7709],[28.0566,-28.8125],[28.0187,-28.8568],[28.0145,-28.8648],[28.0148,-28.8726],[28.0136,-28.8784],[28.0047,-28.8807],[27.9775,-28.8807],[27.9662,-28.8757],[27.9569,-28.8651],[27.945,-28.8555],[27.9262,-28.8534],[27.9117,-28.8608],[27.9036,-28.874],[27.8973,-28.8898],[27.888,-28.9049],[27.8613,-28.9154],[27.7474,-28.9086],[27.7548,-28.9255],[27.7441,-28.9332],[27.7283,-28.938],[27.7201,-28.9459],[27.72,-28.9598],[27.719,-28.9678],[27.7134,-28.9795],[27.7133,-28.9869],[27.7117,-28.991],[27.7029,-28.9893],[27.6991,-28.9906],[27.6797,-29.0151],[27.6675,-29.0267],[27.655,-29.0315],[27.6392,-29.0353],[27.6438,-29.0445],[27.6563,-29.0558],[27.665,-29.0657],[27.6586,-29.0668],[27.6444,-29.0725],[27.6375,-29.0657],[27.6307,-29.0725],[27.6356,-29.0966],[27.613,-29.1338],[27.5557,-29.1954],[27.5485,-29.1989],[27.5382,-29.2024],[27.5282,-29.2076],[27.5215,-29.2165],[27.521,-29.2261],[27.5272,-29.2494],[27.5289,-29.261],[27.5189,-29.2684],[27.4699,-29.2824],[27.4533,-29.2916],[27.4503,-29.2997],[27.4483,-29.323],[27.4458,-29.332],[27.4361,-29.3435],[27.4268,-29.348],[27.4176,-29.3507],[27.4086,-29.3571],[27.4063,-29.364],[27.4103,-29.3698],[27.4162,-29.376],[27.4191,-29.3838],[27.4176,-29.3966],[27.4137,-29.4025],[27.4071,-29.4069],[27.3655,-29.4467],[27.3545,-29.4623],[27.3502,-29.4803],[27.3449,-29.4845],[27.3214,-29.4836],[27.316,-29.4872],[27.3141,-29.4987],[27.3091,-29.5092],[27.3025,-29.5181],[27.2957,-29.5244],[27.2631,-29.5411],[27.2418,-29.549],[27.2137,-29.5541],[27.1958,-29.5626],[27.1857,-29.5659],[27.1564,-29.5686],[27.1281,-29.5786],[27.1228,-29.5818],[27.0904,-29.6116],[27.0859,-29.6144],[27.0777,-29.6113],[27.072,-29.5999],[27.0622,-29.6002],[27.0568,-29.6044],[27.0492,-29.6205],[27.0424,-29.6281],[27.033,-29.6162],[27.0224,-29.6162],[27.0149,-29.6256],[27.0145,-29.6417],[27.0022,-29.6665],[27.0102,-29.6699],[27.0245,-29.68],[27.0377,-29.6865],[27.051,-29.6968],[27.0801,-29.7351],[27.0888,-29.7501],[27.1988,-29.9785],[27.218,-29.9981],[27.2659,-30.0333],[27.2802,-30.0535],[27.2937,-30.1009],[27.3004,-30.115],[27.3128,-30.1316],[27.322,-30.1348],[27.3344,-30.1322],[27.3567,-30.1322],[27.372,-30.1359],[27.3814,-30.1427],[27.3805,-30.1526],[27.3655,-30.1658],[27.3437,-30.2129],[27.3455,-30.2416],[27.3678,-30.2954],[27.3662,-30.311],[27.377,-30.3122],[27.3976,-30.3172],[27.4078,-30.3186],[27.4148,-30.3175],[27.436,-30.3099],[27.4521,-30.3101],[27.4594,-30.3166],[27.4667,-30.3411],[27.4775,-30.3563],[27.4932,-30.3677],[27.5297,-30.3822],[27.5366,-30.4032],[27.5627,-30.4255],[27.5868,-30.455],[27.5901,-30.4639],[27.5906,-30.4729],[27.5923,-30.4819],[27.5986,-30.4903],[27.6595,-30.5305],[27.7135,-30.5838],[27.7436,-30.6003],[27.7784,-30.6097],[27.8204,-30.6146],[27.8304,-30.6131],[27.8495,-30.605],[27.8582,-30.6037],[27.8698,-30.6071],[27.8956,-30.6262],[27.9156,-30.6349],[27.9366,-30.6408],[28.0547,-30.6497],[28.0788,-30.6588],[28.079,-30.6393],[28.0765,-30.6232],[28.0758,-30.607],[28.0816,-30.5869],[28.088,-30.5776],[28.0964,-30.5724],[28.1049,-30.5684],[28.1128,-30.5625],[28.1208,-30.5534],[28.1243,-30.5473],[28.1412,-30.5008],[28.1424,-30.4926],[28.1392,-30.4827],[28.1276,-30.4651],[28.1254,-30.4573],[28.1332,-30.4454],[28.2182,-30.3874],[28.2314,-30.3739],[28.2385,-30.3523],[28.2358,-30.3294],[28.2241,-30.3205],[28.2094,-30.3146],[28.1985,-30.3011],[28.2006,-30.2825],[28.216,-30.2674],[28.237,-30.2563],[28.2553,-30.2499],[28.2847,-30.2462],[28.2944,-30.2425],[28.3013,-30.2365],[28.3137,-30.2208],[28.323,-30.2147],[28.3387,-30.201],[28.3641,-30.1593],[28.3839,-30.1442],[28.408,-30.1409],[28.4562,-30.147],[28.4809,-30.1393],[28.5243,-30.1167],[28.5406,-30.1133],[28.5573,-30.115],[28.6059,-30.1313],[28.6397,-30.1315],[28.7295,-30.1018],[28.7956,-30.0894],[28.86,-30.0664],[28.9763,-29.9999],[29.0941,-29.9363],[29.1063,-29.9315],[29.1328,-29.9247],[29.1442,-29.9197],[29.1507,-29.9111],[29.1483,-29.9013],[29.1373,-29.8821],[29.1352,-29.868],[29.1358,-29.8592],[29.133,-29.852],[29.1204,-29.8434],[29.1058,-29.8256],[29.1063,-29.8016],[29.1123,-29.7751],[29.1138,-29.7501],[29.1324,-29.7203],[29.1451,-29.6919],[29.1613,-29.6669],[29.1903,-29.6469],[29.2673,-29.6261],[29.2786,-29.6136],[29.2784,-29.5971],[29.2799,-29.5814],[29.2963,-29.5716],[29.282,-29.5561],[29.2751,-29.5323],[29.2755,-29.5066],[29.2827,-29.4856],[29.3038,-29.4668],[29.332,-29.456],[29.3618,-29.4479],[29.3882,-29.4378],[29.3995,-29.4303],[29.4079,-29.4215],[29.4125,-29.4103],[29.4119,-29.3958],[29.4137,-29.3801],[29.4322,-29.357],[29.4359,-29.3424],[29.4328,-29.3366],[29.4195,-29.325],[29.415,-29.3189],[29.414,-29.3117],[29.4149,-29.2964],[29.414,-29.2903],[29.4039,-29.2687],[29.376,-29.2355],[29.365,-29.2003],[29.3575,-29.1833],[29.3437,-29.1698],[29.3281,-29.1594],[29.3168,-29.1474],[29.3118,-29.0898],[29.2814,-29.0786],[29.2414,-29.0777],[29.2084,-29.0689],[29.126,-28.9924],[29.0915,-28.9786],[29.069,-28.9733],[29.0558,-28.9654],[29.05,-28.9526],[29.0497,-28.933],[29.0405,-28.923],[29.019,-28.914],[28.9954,-28.9083],[28.9808,-28.909]]],[[[37.6624,-46.8285],[37.6948,-46.822],[37.7285,-46.8253],[37.8211,-46.8442],[37.8684,-46.8821],[37.8958,-46.8899],[37.8849,-46.9164],[37.8638,-46.9409],[37.8364,-46.9587],[37.8065,-46.9658],[37.7981,-46.9645],[37.7811,-46.9594],[37.6702,-46.956],[37.655,-46.9583],[37.6188,-46.9544],[37.6021,-46.9487],[37.5874,-46.9384],[37.5825,-46.9308],[37.5767,-46.9168],[37.5754,-46.9035],[37.5936,-46.892],[37.6154,-46.8687],[37.6248,-46.8634],[37.6311,-46.8586],[37.6524,-46.8361],[37.6624,-46.8285]]],[[[37.8611,-46.6362],[37.8649,-46.6142],[37.9004,-46.5997],[37.9456,-46.5983],[37.9778,-46.6157],[37.9764,-46.6447],[37.9387,-46.6544],[37.8911,-46.6497],[37.8611,-46.6362]]]]}}