{"type":"Feature","bbox":[21.9799,-18.0692,33.6742,-8.1941],"properties":{"iso":"ZM","name":"Zambia","name_de":"Sambia","key":"ZM"},"geometry":{"type":"Polygon","coordinates":[[[32.9209,-9.4079],[32.923,-9.4663],[32.9278,-9.4798],[32.9375,-9.4878],[32.9436,-9.4857],[32.9503,-9.4809],[32.9619,-9.4803],[32.9686,-9.4844],[32.9831,-9.4977],[32.992,-9.5018],[32.9924,-9.5291],[32.9747,-9.6013],[32.9869,-9.6285],[33.0001,-9.6328],[33.0112,-9.6278],[33.0223,-9.6203],[33.0357,-9.617],[33.0467,-9.622],[33.0508,-9.6327],[33.0531,-9.6448],[33.0583,-9.6543],[33.0804,-9.6623],[33.0892,-9.644],[33.0925,-9.6144],[33.0983,-9.5885],[33.1215,-9.5995],[33.1754,-9.6023],[33.1954,-9.6163],[33.2098,-9.6414],[33.2143,-9.6547],[33.2158,-9.6699],[33.213,-9.6806],[33.2078,-9.6887],[33.2046,-9.6981],[33.2073,-9.7129],[33.2167,-9.7271],[33.2418,-9.7424],[33.2527,-9.754],[33.2672,-9.7812],[33.2758,-9.7933],[33.2878,-9.8038],[33.3,-9.8103],[33.337,-9.8237],[33.3435,-9.8314],[33.3592,-9.8709],[33.3656,-9.8988],[33.3585,-9.9199],[33.3288,-9.9655],[33.31,-10.0127],[33.3047,-10.0379],[33.3041,-10.0638],[33.3175,-10.0821],[33.3992,-10.1179],[33.4202,-10.1356],[33.4365,-10.1533],[33.4546,-10.1681],[33.4805,-10.1771],[33.4991,-10.2012],[33.519,-10.215],[33.5333,-10.2312],[33.5356,-10.2627],[33.5293,-10.3186],[33.5329,-10.3426],[33.5592,-10.4043],[33.5676,-10.416],[33.5956,-10.4406],[33.6032,-10.4492],[33.6227,-10.494],[33.6382,-10.5116],[33.6654,-10.5151],[33.6656,-10.5414],[33.6727,-10.5596],[33.6742,-10.577],[33.6578,-10.6013],[33.6423,-10.6153],[33.6031,-10.6433],[33.5903,-10.649],[33.5769,-10.6576],[33.5283,-10.7116],[33.512,-10.7518],[33.501,-10.7692],[33.4805,-10.7816],[33.4653,-10.7844],[33.4471,-10.8022],[33.434,-10.8081],[33.4187,-10.8073],[33.3855,-10.8009],[33.3717,-10.8033],[33.3578,-10.8087],[33.3326,-10.8136],[33.3191,-10.8181],[33.3069,-10.8286],[33.2881,-10.8567],[33.2734,-10.8656],[33.2612,-10.8653],[33.2508,-10.8625],[33.2414,-10.8657],[33.2326,-10.8833],[33.2317,-10.8976],[33.2396,-10.9031],[33.2521,-10.9031],[33.2659,-10.9011],[33.2803,-10.9133],[33.2879,-10.9449],[33.294,-11.0045],[33.3037,-11.0346],[33.3181,-11.0623],[33.3366,-11.0874],[33.3589,-11.1094],[33.3909,-11.1648],[33.3822,-11.1947],[33.3685,-11.2227],[33.2983,-11.3292],[33.2968,-11.3357],[33.3003,-11.347],[33.2989,-11.3531],[33.2933,-11.3578],[33.2781,-11.3643],[33.2735,-11.3696],[33.2719,-11.3837],[33.2738,-11.3966],[33.2736,-11.4094],[33.2652,-11.4231],[33.2397,-11.4024],[33.2303,-11.4166],[33.235,-11.5017],[33.2338,-11.514],[33.2273,-11.5327],[33.2126,-11.5638],[33.2159,-11.5716],[33.2327,-11.5777],[33.2493,-11.5778],[33.2669,-11.5756],[33.2832,-11.5784],[33.2968,-11.5936],[33.3026,-11.6097],[33.314,-11.7722],[33.3106,-11.8088],[33.2974,-11.8465],[33.2975,-11.8625],[33.3087,-11.8844],[33.3127,-11.8987],[33.3093,-11.9143],[33.3036,-11.9302],[33.2942,-11.9813],[33.2549,-12.0726],[33.2513,-12.1058],[33.2527,-12.1395],[33.2603,-12.1557],[33.2884,-12.1822],[33.3,-12.1959],[33.3125,-12.2286],[33.3301,-12.2983],[33.3495,-12.3279],[33.3846,-12.34],[33.4583,-12.3181],[33.4974,-12.3315],[33.5141,-12.331],[33.5256,-12.3353],[33.5271,-12.3556],[33.5181,-12.3718],[33.4878,-12.3898],[33.4805,-12.4064],[33.4653,-12.4091],[33.4608,-12.4165],[33.46,-12.4411],[33.4511,-12.453],[33.4208,-12.465],[33.4094,-12.4752],[33.3938,-12.4983],[33.3732,-12.5185],[33.3504,-12.5327],[33.3283,-12.5376],[33.3203,-12.535],[33.312,-12.5299],[33.3022,-12.5251],[33.2897,-12.5242],[33.2632,-12.5285],[33.2551,-12.5319],[33.2436,-12.5448],[33.227,-12.5791],[33.213,-12.5886],[33.2029,-12.5918],[33.1873,-12.6023],[33.1813,-12.6082],[33.178,-12.615],[33.1733,-12.62],[33.163,-12.6204],[33.1588,-12.6154],[33.1469,-12.5932],[33.1399,-12.5863],[33.1304,-12.5837],[33.1228,-12.5846],[33.107,-12.5887],[33.099,-12.5932],[33.0899,-12.6008],[33.0813,-12.6048],[33.0742,-12.5983],[33.07,-12.5904],[33.0646,-12.585],[33.0577,-12.5834],[33.0495,-12.5868],[33.0354,-12.5991],[33.0248,-12.6127],[32.9941,-12.6725],[32.9581,-12.7252],[32.9446,-12.7524],[32.9411,-12.7699],[32.947,-12.8432],[32.9535,-12.8541],[32.9805,-12.8707],[33.005,-12.893],[33.0136,-12.9172],[33.0089,-12.945],[32.9815,-13.0061],[32.9659,-13.1168],[32.9671,-13.1342],[32.9713,-13.1509],[32.9791,-13.1679],[32.9951,-13.1909],[32.9982,-13.2024],[32.9928,-13.2164],[32.9627,-13.225],[32.9379,-13.2559],[32.9196,-13.2948],[32.8921,-13.4048],[32.8743,-13.4432],[32.8458,-13.458],[32.8274,-13.4608],[32.8191,-13.4717],[32.8169,-13.4874],[32.8175,-13.5056],[32.8131,-13.5282],[32.8,-13.5371],[32.7632,-13.5425],[32.7498,-13.5509],[32.7228,-13.5734],[32.7102,-13.5753],[32.6916,-13.5691],[32.6773,-13.5678],[32.6676,-13.5756],[32.6633,-13.5963],[32.6751,-13.6281],[32.7067,-13.6351],[32.7434,-13.6354],[32.7699,-13.6469],[32.8078,-13.6992],[32.8134,-13.7112],[32.8049,-13.722],[32.7681,-13.7391],[32.7574,-13.7502],[32.763,-13.7772],[32.7919,-13.7898],[32.8288,-13.797],[32.8594,-13.8081],[32.8741,-13.8206],[32.9239,-13.8804],[32.9279,-13.8956],[32.9301,-13.9105],[32.9362,-13.9262],[32.9444,-13.9329],[32.9625,-13.932],[32.9706,-13.936],[32.9763,-13.9445],[32.9767,-13.9498],[32.9748,-13.9555],[32.9713,-14.0059],[32.9765,-14.0211],[32.9998,-14.0505],[33.0182,-14.0462],[33.0494,-13.9966],[33.063,-13.9817],[33.0769,-13.9745],[33.1116,-13.9646],[33.1206,-13.9559],[33.1303,-13.9306],[33.1403,-13.925],[33.1545,-13.9366],[33.1857,-13.9938],[33.2027,-14.0139],[32.2274,-14.339],[32.1471,-14.3534],[32.1088,-14.3649],[32.0333,-14.3988],[31.6584,-14.5196],[31.4967,-14.6026],[31.4109,-14.6336],[31.0745,-14.7131],[31.0566,-14.7144],[30.8158,-14.7682],[30.4856,-14.886],[30.3184,-14.967],[30.2309,-14.9772],[30.2145,-14.9815],[30.2138,-14.9885],[30.221,-15.0184],[30.221,-15.063],[30.2258,-15.1063],[30.2631,-15.2313],[30.2879,-15.2789],[30.3205,-15.2995],[30.3349,-15.3047],[30.3475,-15.3179],[30.3579,-15.3357],[30.3649,-15.3542],[30.3692,-15.3747],[30.3718,-15.4398],[30.3749,-15.4513],[30.3896,-15.4711],[30.3929,-15.4808],[30.3902,-15.4908],[30.3718,-15.5254],[30.3653,-15.5474],[30.3674,-15.5613],[30.396,-15.5906],[30.4012,-15.5985],[30.4127,-15.6279],[30.4104,-15.6304],[30.3567,-15.6515],[30.3281,-15.6524],[30.2801,-15.6323],[30.2549,-15.6289],[30.2461,-15.6321],[30.231,-15.6447],[30.2231,-15.6497],[30.2072,-15.6532],[30.1956,-15.6491],[30.1699,-15.6322],[30.1301,-15.6237],[30.09,-15.6294],[30.0502,-15.6401],[30.0107,-15.6462],[29.9675,-15.6415],[29.8818,-15.6188],[29.8373,-15.6148],[29.8143,-15.6197],[29.7733,-15.6381],[29.73,-15.6447],[29.6728,-15.6633],[29.6485,-15.6666],[29.628,-15.6636],[29.6086,-15.6584],[29.5872,-15.6557],[29.5634,-15.6621],[29.5262,-15.6928],[29.5085,-15.7036],[29.4221,-15.711],[29.407,-15.7142],[29.1863,-15.8128],[29.151,-15.8488],[29.1419,-15.8545],[29.1217,-15.8593],[29.1022,-15.8709],[29.0862,-15.8846],[29.0763,-15.8954],[29.0551,-15.9344],[29.0423,-15.9463],[29.0181,-15.9506],[28.9728,-15.9514],[28.9513,-15.9553],[28.9324,-15.9637],[28.8989,-15.9955],[28.8772,-16.022],[28.8741,-16.0289],[28.8603,-16.0494],[28.8572,-16.0605],[28.8593,-16.0696],[28.8685,-16.0822],[28.871,-16.0872],[28.8654,-16.1212],[28.8525,-16.1628],[28.8471,-16.2027],[28.8642,-16.2312],[28.8403,-16.2847],[28.8368,-16.3063],[28.8405,-16.3236],[28.857,-16.3655],[28.8572,-16.3882],[28.8331,-16.4264],[28.8291,-16.4346],[28.8225,-16.4708],[28.8089,-16.4863],[28.7693,-16.5152],[28.7611,-16.5323],[28.7328,-16.5581],[28.7188,-16.5603],[28.6907,-16.5603],[28.6433,-16.5688],[28.2801,-16.7065],[28.2125,-16.7486],[28.1139,-16.8276],[27.8686,-16.9297],[27.8169,-16.9596],[27.7773,-17.0012],[27.6412,-17.1985],[27.6249,-17.2333],[27.6045,-17.3128],[27.5773,-17.3631],[27.5243,-17.4151],[27.4221,-17.5048],[27.1571,-17.7693],[27.147,-17.7839],[27.1453,-17.7941],[27.1465,-17.8189],[27.149,-17.8425],[27.1154,-17.8822],[27.0485,-17.9443],[27.0213,-17.9585],[27.0063,-17.9627],[26.9592,-17.9647],[26.9487,-17.9689],[26.912,-17.992],[26.8883,-17.9846],[26.794,-18.0262],[26.7697,-18.029],[26.7536,-18.033],[26.7406,-18.0405],[26.7119,-18.0658],[26.7,-18.0692],[26.6857,-18.0668],[26.6288,-18.0492],[26.6127,-18.0412],[26.5989,-18.03],[26.5834,-18.0132],[26.5702,-18.0029],[26.5536,-17.9965],[26.5271,-17.992],[26.4855,-17.9793],[26.4086,-17.939],[26.3627,-17.9306],[26.3255,-17.936],[26.3183,-17.9344],[26.312,-17.9284],[26.3038,-17.9228],[26.2943,-17.9185],[26.2483,-17.9134],[26.2392,-17.9102],[26.2339,-17.904],[26.2282,-17.8947],[26.2211,-17.8863],[26.2119,-17.8828],[26.203,-17.8872],[26.1675,-17.9136],[26.1586,-17.9183],[26.1354,-17.9226],[26.1186,-17.9316],[26.1012,-17.9358],[26.0952,-17.9381],[26.0942,-17.9419],[26.0962,-17.9546],[26.0952,-17.9585],[26.0812,-17.9624],[26.0625,-17.9629],[26.0466,-17.9663],[26.0406,-17.9785],[26.0337,-17.9716],[25.9785,-17.999],[25.967,-18.0005],[25.9245,-17.999],[25.8636,-17.9716],[25.8535,-17.96],[25.8462,-17.9437],[25.8475,-17.9294],[25.8636,-17.9238],[25.8497,-17.9067],[25.8044,-17.8882],[25.7947,-17.8727],[25.786,-17.8622],[25.766,-17.8498],[25.7438,-17.8394],[25.7064,-17.8299],[25.6942,-17.8194],[25.6814,-17.8115],[25.657,-17.8139],[25.604,-17.8362],[25.5368,-17.8487],[25.5309,-17.851],[25.5221,-17.8601],[25.5165,-17.8623],[25.5102,-17.8612],[25.5007,-17.856],[25.4956,-17.8549],[25.4203,-17.8549],[25.4095,-17.853],[25.3765,-17.8412],[25.3453,-17.8426],[25.3355,-17.8412],[25.3159,-17.8321],[25.2854,-17.8093],[25.2667,-17.8009],[25.2598,-17.7941],[25.2535,-17.7815],[25.2424,-17.7703],[25.2289,-17.7625],[25.2151,-17.7593],[25.1982,-17.7584],[25.1907,-17.7553],[25.1778,-17.7388],[25.1724,-17.7351],[25.1612,-17.7294],[25.1568,-17.7252],[25.1553,-17.7194],[25.1564,-17.7067],[25.1533,-17.701],[25.1385,-17.6861],[25.1314,-17.6865],[25.1226,-17.6979],[25.12,-17.6911],[25.1151,-17.6842],[25.108,-17.6789],[25.0988,-17.6768],[25.0885,-17.6427],[25.0852,-17.6409],[25.067,-17.6253],[25.0642,-17.6215],[25.0526,-17.6214],[25.0453,-17.62],[25.0401,-17.6161],[25.0339,-17.6085],[25.0339,-17.6016],[25.0406,-17.5845],[25.037,-17.5812],[25.0267,-17.5828],[25.008,-17.5885],[24.9985,-17.588],[24.9826,-17.5765],[24.9711,-17.5607],[24.958,-17.5517],[24.9376,-17.5607],[24.9249,-17.543],[24.8983,-17.5311],[24.8295,-17.5177],[24.7974,-17.5191],[24.7868,-17.5169],[24.78,-17.5123],[24.7751,-17.5076],[24.7698,-17.5054],[24.6844,-17.4924],[24.6395,-17.4924],[24.6297,-17.4955],[24.6228,-17.5023],[24.6174,-17.5092],[24.6065,-17.5152],[24.5913,-17.5284],[24.5808,-17.5328],[24.5712,-17.5335],[24.5625,-17.5322],[24.5465,-17.5265],[24.5379,-17.5203],[24.5317,-17.5134],[24.5236,-17.5078],[24.4982,-17.5035],[24.4793,-17.4945],[24.4493,-17.4891],[24.407,-17.4745],[24.3889,-17.4713],[24.3713,-17.4737],[24.3294,-17.4851],[24.3213,-17.4887],[24.3103,-17.4826],[24.2574,-17.4808],[24.2388,-17.4782],[24.2205,-17.4795],[23.4762,-17.6264],[23.4574,-17.6268],[23.3817,-17.6411],[23.376,-17.6282],[23.3751,-17.6154],[23.3823,-17.601],[23.3594,-17.5829],[23.3406,-17.5607],[23.3202,-17.5464],[23.3054,-17.5395],[23.2908,-17.5354],[23.2584,-17.5328],[23.2413,-17.5351],[23.2242,-17.5393],[23.207,-17.5412],[23.1897,-17.5366],[23.1775,-17.524],[23.1769,-17.5098],[23.1791,-17.4942],[23.1762,-17.4782],[23.1657,-17.4674],[23.1215,-17.4509],[23.0976,-17.4322],[23.073,-17.4051],[23.0541,-17.3753],[23.0464,-17.3484],[23.0404,-17.3371],[22.9986,-17.2938],[22.9842,-17.2858],[22.9365,-17.2733],[22.8762,-17.2481],[22.8492,-17.231],[22.8094,-17.1964],[22.7783,-17.1804],[22.7652,-17.1696],[22.7559,-17.1549],[22.7448,-17.1083],[22.7307,-17.0816],[22.7105,-17.0554],[22.6656,-17.0086],[22.6517,-16.9987],[22.592,-16.9754],[22.5793,-16.9753],[22.5734,-16.971],[22.5692,-16.9624],[22.5693,-16.945],[22.5672,-16.9369],[22.5545,-16.9242],[22.5229,-16.9147],[22.5085,-16.9062],[22.4997,-16.8935],[22.4891,-16.8654],[22.4166,-16.7545],[22.4089,-16.7458],[22.3996,-16.7404],[22.3836,-16.7375],[22.378,-16.7348],[22.3726,-16.7288],[22.3658,-16.7169],[22.3501,-16.6963],[22.3435,-16.6832],[22.3337,-16.6737],[22.307,-16.6692],[22.3031,-16.6669],[22.2956,-16.6592],[22.2908,-16.6564],[22.2837,-16.6614],[22.2741,-16.6636],[22.259,-16.6692],[22.2513,-16.67],[22.2377,-16.6655],[22.1517,-16.5977],[22.1451,-16.5841],[22.1425,-16.5671],[22.1381,-16.5526],[22.1273,-16.5464],[22.1081,-16.5439],[22.104,-16.5367],[22.1066,-16.526],[22.1073,-16.5123],[22.1017,-16.498],[22.0846,-16.4702],[22.0799,-16.4578],[22.0807,-16.441],[22.086,-16.4223],[22.0943,-16.4047],[22.1036,-16.3919],[22.1056,-16.3794],[22.0891,-16.372],[22.0558,-16.3646],[22.0542,-16.3586],[22.0537,-16.3365],[22.052,-16.3268],[22.0486,-16.3224],[22.0366,-16.3122],[22.0322,-16.3063],[22.0277,-16.2917],[22.026,-16.279],[22.0224,-16.2663],[22.0117,-16.2523],[22.0199,-16.2531],[22.0452,-16.2523],[22.0104,-16.1981],[21.9838,-16.1659],[21.9815,-16.1443],[21.9815,-16.004],[21.9806,-16.0012],[21.9815,-15.4125],[21.9799,-13.0015],[24.0006,-13.0015],[23.9889,-12.9651],[23.9718,-12.9334],[23.9496,-12.9046],[23.8951,-12.8498],[23.8747,-12.8217],[23.8657,-12.7897],[23.8723,-12.7501],[23.8917,-12.7051],[23.9287,-12.5616],[23.9408,-12.5328],[24.0199,-12.4192],[24.028,-12.4021],[24.0308,-12.3851],[24.021,-12.34],[24.0169,-12.2789],[24.0066,-12.2537],[23.9813,-12.2277],[23.9596,-12.1967],[23.9543,-12.1519],[23.967,-11.8829],[23.9885,-11.8342],[23.9902,-11.8241],[23.9855,-11.7995],[23.9813,-11.7248],[23.9727,-11.7006],[23.9623,-11.6816],[23.9546,-11.6622],[23.9546,-11.6369],[23.9599,-11.6172],[23.9777,-11.5773],[24.0054,-11.5352],[24.0097,-11.5234],[24.0098,-11.5072],[24.0072,-11.4831],[24.0076,-11.4705],[24.0099,-11.4595],[24.0208,-11.4446],[24.0521,-11.4205],[24.0617,-11.407],[24.0611,-11.395],[24.017,-11.2984],[24.0112,-11.2729],[24.0153,-11.1305],[23.9958,-11.1274],[23.9901,-11.1135],[23.9945,-11.075],[23.9937,-11.0196],[23.9973,-11.0017],[24.0037,-10.9825],[24.0,-10.9678],[23.9806,-10.9383],[23.9743,-10.9214],[23.9675,-10.8723],[24.0015,-10.8734],[24.0484,-10.8823],[24.0915,-10.8978],[24.1142,-10.9192],[24.1143,-10.9279],[24.1087,-10.9458],[24.108,-10.955],[24.1105,-10.9659],[24.1175,-10.9861],[24.1194,-10.9976],[24.1177,-11.0308],[24.1242,-11.0433],[24.1444,-11.0404],[24.1645,-11.034],[24.1813,-11.0345],[24.2183,-11.0452],[24.238,-11.048],[24.2751,-11.0479],[24.2938,-11.0503],[24.3164,-11.0601],[24.3453,-11.0783],[24.3705,-11.1002],[24.3818,-11.1206],[24.3783,-11.1321],[24.3699,-11.1409],[24.3625,-11.1505],[24.3617,-11.1647],[24.3674,-11.1763],[24.3844,-11.1913],[24.3913,-11.1998],[24.3966,-11.2174],[24.3978,-11.2383],[24.3961,-11.2597],[24.3922,-11.2791],[24.3845,-11.2952],[24.3524,-11.345],[24.3399,-11.3581],[24.2983,-11.3706],[24.2855,-11.3812],[24.2939,-11.3992],[24.3101,-11.4066],[24.3517,-11.4071],[24.3702,-11.4102],[24.3925,-11.4234],[24.4264,-11.4541],[24.4465,-11.4636],[24.4696,-11.4656],[24.4909,-11.4615],[24.5327,-11.4461],[24.5425,-11.4454],[24.5542,-11.4463],[24.5647,-11.4447],[24.5712,-11.4364],[24.5744,-11.4251],[24.5786,-11.4156],[24.5846,-11.4074],[24.5933,-11.3996],[24.6023,-11.3957],[24.6247,-11.3908],[24.6352,-11.3859],[24.645,-11.376],[24.6633,-11.3517],[24.6741,-11.3416],[24.7125,-11.326],[24.788,-11.3258],[24.8267,-11.3176],[24.901,-11.2813],[24.9429,-11.2686],[24.9812,-11.2719],[25.1243,-11.2592],[25.184,-11.2467],[25.2788,-11.1999],[25.3103,-11.1948],[25.3225,-11.2054],[25.3246,-11.2278],[25.3233,-11.2535],[25.3254,-11.2739],[25.3249,-11.2837],[25.3171,-11.2905],[25.2963,-11.2984],[25.2847,-11.3073],[25.2902,-11.3159],[25.3013,-11.3245],[25.3065,-11.3331],[25.298,-11.3515],[25.2863,-11.3606],[25.278,-11.3718],[25.279,-11.3963],[25.2867,-11.4166],[25.3093,-11.4554],[25.3167,-11.473],[25.3154,-11.4825],[25.3017,-11.4984],[25.2977,-11.5079],[25.2975,-11.5172],[25.3004,-11.535],[25.3274,-11.6167],[25.3368,-11.6335],[25.3449,-11.6422],[25.352,-11.6461],[25.3604,-11.6472],[25.3732,-11.6471],[25.3864,-11.6498],[25.3928,-11.6564],[25.3975,-11.6649],[25.4063,-11.6731],[25.4636,-11.7001],[25.4812,-11.7153],[25.4828,-11.7204],[25.4828,-11.7312],[25.4741,-11.7562],[25.4804,-11.7698],[25.4956,-11.7765],[25.5152,-11.7758],[25.5245,-11.771],[25.5306,-11.7642],[25.5376,-11.7584],[25.5503,-11.7566],[25.561,-11.7533],[25.5649,-11.744],[25.5678,-11.7338],[25.5757,-11.7273],[25.6215,-11.7289],[25.6558,-11.7505],[25.6874,-11.7787],[25.7256,-11.8005],[25.744,-11.8038],[25.8016,-11.8042],[25.8127,-11.803],[25.8325,-11.7938],[25.8398,-11.7919],[25.8507,-11.7938],[25.8558,-11.7972],[25.8596,-11.802],[25.9142,-11.8456],[25.9356,-11.8536],[25.9498,-11.864],[25.9636,-11.8951],[25.9811,-11.903],[25.9941,-11.9048],[26.1667,-11.9024],[26.1891,-11.9109],[26.2093,-11.9236],[26.2296,-11.9331],[26.2656,-11.9308],[26.2862,-11.9406],[26.298,-11.9412],[26.3092,-11.9365],[26.3288,-11.9233],[26.3391,-11.919],[26.3764,-11.9129],[26.4146,-11.9118],[26.4384,-11.9191],[26.4554,-11.932],[26.4707,-11.947],[26.4891,-11.9608],[26.5249,-11.9723],[26.6059,-11.9778],[26.6435,-11.9855],[26.6627,-11.9966],[26.6798,-12.0096],[26.6971,-12.0175],[26.7174,-12.013],[26.7326,-11.9983],[26.7442,-11.9812],[26.7594,-11.9687],[26.785,-11.9684],[26.8317,-11.9733],[26.8742,-11.9643],[26.9128,-11.9425],[26.9477,-11.9091],[26.9673,-11.8704],[26.9714,-11.7885],[26.9811,-11.749],[26.9964,-11.727],[27.0111,-11.7132],[27.0215,-11.6979],[27.0232,-11.6711],[27.0108,-11.6288],[27.0103,-11.6098],[27.0238,-11.5956],[27.0324,-11.5943],[27.0545,-11.5975],[27.0644,-11.5971],[27.1022,-11.5849],[27.145,-11.5813],[27.1736,-11.5706],[27.1801,-11.5696],[27.1972,-11.5937],[27.2076,-11.6394],[27.212,-11.6883],[27.21,-11.722],[27.2342,-11.8091],[27.4207,-11.922],[27.4676,-12.0016],[27.4718,-12.0416],[27.5205,-12.1796],[27.5361,-12.2001],[27.5953,-12.2473],[27.6382,-12.2936],[27.6662,-12.3027],[27.7107,-12.3063],[27.7567,-12.3043],[27.7883,-12.2965],[27.8073,-12.2814],[27.8183,-12.2678],[27.8314,-12.2599],[27.8567,-12.2624],[27.877,-12.2699],[27.9339,-12.3033],[27.9485,-12.3214],[27.9522,-12.3465],[27.9587,-12.3678],[27.981,-12.3745],[27.999,-12.3714],[28.014,-12.3705],[28.0877,-12.3775],[28.0969,-12.383],[28.1004,-12.3915],[28.1025,-12.4012],[28.107,-12.4102],[28.1313,-12.4292],[28.146,-12.4231],[28.1607,-12.4088],[28.1858,-12.4024],[28.205,-12.4108],[28.2201,-12.4254],[28.2375,-12.4371],[28.2639,-12.437],[28.2838,-12.4341],[28.3037,-12.4354],[28.3225,-12.4411],[28.3397,-12.4505],[28.4227,-12.5213],[28.4364,-12.5428],[28.4559,-12.5921],[28.4683,-12.6146],[28.502,-12.6496],[28.5123,-12.6684],[28.5116,-12.6944],[28.5002,-12.711],[28.484,-12.7222],[28.474,-12.7365],[28.4809,-12.7621],[28.5016,-12.7885],[28.5236,-12.8102],[28.5394,-12.8338],[28.5428,-12.8856],[28.5534,-12.8949],[28.5685,-12.8955],[28.584,-12.8887],[28.5937,-12.8767],[28.6082,-12.8479],[28.6212,-12.8394],[28.6679,-12.8493],[28.708,-12.8898],[28.7757,-12.9766],[28.7934,-12.9916],[28.8006,-13.0024],[28.8094,-13.0384],[28.8136,-13.0428],[28.8271,-13.0476],[28.8309,-13.0518],[28.8303,-13.0569],[28.8255,-13.0678],[28.826,-13.0768],[28.8246,-13.0873],[28.8258,-13.0928],[28.8297,-13.0972],[28.8409,-13.1001],[28.8442,-13.1024],[28.8537,-13.1371],[28.8632,-13.1427],[28.8827,-13.1436],[28.8919,-13.1473],[28.9034,-13.1623],[28.9341,-13.3096],[28.9504,-13.351],[28.9808,-13.3802],[28.994,-13.3959],[29.0103,-13.3994],[29.0285,-13.3955],[29.0467,-13.3889],[29.0729,-13.3886],[29.098,-13.3847],[29.1221,-13.3843],[29.1445,-13.3945],[29.1534,-13.407],[29.1602,-13.4221],[29.1689,-13.4339],[29.1841,-13.4369],[29.1948,-13.431],[29.214,-13.4083],[29.2274,-13.4008],[29.2502,-13.3916],[29.3083,-13.3537],[29.4496,-13.3003],[29.47,-13.2878],[29.528,-13.2341],[29.551,-13.2242],[29.5744,-13.2254],[29.5928,-13.2356],[29.6099,-13.2495],[29.6291,-13.2615],[29.6411,-13.2628],[29.6497,-13.2599],[29.6575,-13.2601],[29.6666,-13.2712],[29.6692,-13.2812],[29.6675,-13.292],[29.6636,-13.3019],[29.6589,-13.3095],[29.6515,-13.3146],[29.6336,-13.3189],[29.6266,-13.3264],[29.625,-13.3348],[29.627,-13.3549],[29.6251,-13.3642],[29.6189,-13.3673],[29.6094,-13.3691],[29.6017,-13.3744],[29.6017,-13.3884],[29.6055,-13.4],[29.6107,-13.411],[29.6174,-13.4212],[29.6261,-13.4298],[29.6415,-13.4385],[29.6631,-13.4469],[29.7029,-13.4576],[29.7672,-13.4584],[29.7822,-13.4557],[29.7976,-13.4242],[29.7993,-12.1541],[29.7561,-12.1576],[29.7349,-12.1648],[29.7013,-12.189],[29.6489,-12.2128],[29.6319,-12.216],[29.6211,-12.2102],[29.6032,-12.1928],[29.5903,-12.1881],[29.5767,-12.1881],[29.5676,-12.1917],[29.5531,-12.2051],[29.5335,-12.2167],[29.4895,-12.2315],[29.4743,-12.2427],[29.4679,-12.2553],[29.4559,-12.2943],[29.4518,-12.3178],[29.4482,-12.3268],[29.4466,-12.3351],[29.4504,-12.3429],[29.4805,-12.3805],[29.4961,-12.3863],[29.5115,-12.3874],[29.5234,-12.3925],[29.5282,-12.4105],[29.5247,-12.4292],[29.5147,-12.4439],[29.4997,-12.4531],[29.4805,-12.4549],[29.473,-12.4525],[29.4653,-12.4442],[29.4599,-12.4413],[29.4533,-12.4408],[29.4392,-12.442],[29.4326,-12.4413],[29.4059,-12.4317],[29.3644,-12.4093],[29.3565,-12.4076],[29.3164,-12.4067],[29.3049,-12.4048],[29.2955,-12.401],[29.283,-12.3905],[29.2651,-12.3709],[29.255,-12.3662],[29.1734,-12.3676],[29.1489,-12.3737],[29.1281,-12.3828],[29.1111,-12.3935],[29.1002,-12.374],[29.0844,-12.3764],[29.0672,-12.3848],[29.0528,-12.3838],[29.0427,-12.3788],[29.0351,-12.3789],[29.0304,-12.3762],[29.0286,-12.3631],[29.0261,-12.353],[28.9447,-12.2061],[28.9187,-12.1743],[28.8595,-12.1418],[28.8504,-12.13],[28.846,-12.1113],[28.835,-12.0922],[28.8215,-12.0757],[28.8089,-12.0646],[28.7736,-12.0459],[28.7599,-12.0352],[28.7542,-12.0201],[28.7511,-11.9922],[28.742,-11.9843],[28.7071,-11.9894],[28.686,-11.9841],[28.6369,-11.9576],[28.6239,-11.9478],[28.6062,-11.9103],[28.5927,-11.9005],[28.5692,-11.9137],[28.5661,-11.9045],[28.5542,-11.8851],[28.5495,-11.8796],[28.5406,-11.872],[28.5316,-11.8665],[28.5211,-11.8657],[28.5079,-11.8728],[28.4972,-11.8574],[28.4889,-11.8087],[28.4768,-11.7982],[28.4607,-11.7934],[28.4525,-11.7808],[28.4427,-11.7116],[28.4396,-11.7015],[28.4251,-11.6881],[28.4184,-11.6789],[28.4221,-11.6747],[28.4227,-11.6647],[28.4055,-11.6052],[28.3996,-11.5961],[28.3849,-11.5813],[28.3774,-11.5711],[28.3656,-11.5416],[28.3603,-11.5336],[28.3557,-11.5182],[28.3544,-11.4647],[28.357,-11.4469],[28.4086,-11.3724],[28.412,-11.3684],[28.4342,-11.3512],[28.4396,-11.3482],[28.432,-11.311],[28.4362,-11.2891],[28.4456,-11.2746],[28.4551,-11.2637],[28.4737,-11.2257],[28.4725,-11.192],[28.4737,-11.1812],[28.4762,-11.1754],[28.4848,-11.1628],[28.4873,-11.1534],[28.4869,-11.1409],[28.4762,-11.0877],[28.4768,-11.078],[28.491,-11.0587],[28.5041,-11.0344],[28.5079,-11.0236],[28.5086,-11.0135],[28.5067,-10.9921],[28.5079,-10.9821],[28.5138,-10.9729],[28.5314,-10.9551],[28.5351,-10.9444],[28.5374,-10.9341],[28.5472,-10.9138],[28.5495,-10.9029],[28.5495,-10.8586],[28.5544,-10.835],[28.5635,-10.8119],[28.5765,-10.7907],[28.5935,-10.7729],[28.6009,-10.7632],[28.6081,-10.7414],[28.6232,-10.7169],[28.6276,-10.7117],[28.6335,-10.7089],[28.6462,-10.7098],[28.6519,-10.7084],[28.6659,-10.6974],[28.6815,-10.6819],[28.6944,-10.6633],[28.6996,-10.6432],[28.6942,-10.6368],[28.6709,-10.6191],[28.6655,-10.609],[28.6672,-10.5974],[28.6727,-10.5761],[28.6723,-10.5643],[28.648,-10.5376],[28.6349,-10.5195],[28.6347,-10.5057],[28.6387,-10.4962],[28.6305,-10.481],[28.6347,-10.4716],[28.6406,-10.4626],[28.6445,-10.451],[28.6461,-10.4384],[28.6449,-10.4265],[28.6377,-10.407],[28.6286,-10.3911],[28.6209,-10.3733],[28.6178,-10.3483],[28.6207,-10.3273],[28.6264,-10.3114],[28.6292,-10.2959],[28.6239,-10.2764],[28.6108,-10.2688],[28.6081,-10.2636],[28.606,-10.2529],[28.604,-10.2484],[28.5699,-10.2196],[28.5793,-10.2011],[28.604,-10.1727],[28.6196,-10.1419],[28.6285,-10.1027],[28.6313,-10.0231],[28.6239,-9.951],[28.6279,-9.9294],[28.6587,-9.8648],[28.6685,-9.8216],[28.6781,-9.8038],[28.6965,-9.7965],[28.6985,-9.792],[28.6723,-9.7655],[28.67,-9.7509],[28.6637,-9.745],[28.655,-9.7419],[28.6449,-9.7351],[28.6313,-9.7156],[28.6252,-9.6956],[28.6239,-9.6491],[28.6218,-9.6383],[28.6129,-9.6175],[28.6108,-9.6079],[28.6065,-9.5943],[28.5876,-9.5732],[28.5836,-9.5638],[28.5886,-9.5583],[28.6111,-9.551],[28.6178,-9.5433],[28.5863,-9.544],[28.5741,-9.5392],[28.5692,-9.5259],[28.5687,-9.509],[28.5669,-9.496],[28.5628,-9.4849],[28.5556,-9.4745],[28.5316,-9.4569],[28.5197,-9.4456],[28.5147,-9.43],[28.5181,-9.3975],[28.516,-9.3783],[28.4954,-9.3532],[28.4605,-9.335],[28.4114,-9.3249],[28.3685,-9.3086],[28.3525,-9.272],[28.3723,-9.2351],[28.4151,-9.2071],[28.5062,-9.1644],[28.5991,-9.0964],[28.7654,-8.934],[28.8931,-8.7658],[28.9305,-8.6799],[28.9355,-8.5908],[28.8928,-8.5019],[28.8892,-8.4831],[28.9153,-8.4729],[30.7521,-8.1941],[30.7783,-8.2891],[30.8283,-8.3881],[30.8919,-8.4792],[30.9595,-8.5505],[30.9924,-8.5759],[31.0336,-8.6003],[31.0778,-8.6163],[31.1198,-8.6166],[31.141,-8.6062],[31.1614,-8.5917],[31.1827,-8.5808],[31.2068,-8.5808],[31.2184,-8.5887],[31.2373,-8.6139],[31.248,-8.6219],[31.2609,-8.624],[31.2694,-8.6211],[31.2771,-8.616],[31.3288,-8.5977],[31.3404,-8.5952],[31.3475,-8.5924],[31.3501,-8.5885],[31.3533,-8.5872],[31.3622,-8.5923],[31.3659,-8.5986],[31.3692,-8.6168],[31.3726,-8.6239],[31.386,-8.6325],[31.3988,-8.6338],[31.4124,-8.6323],[31.4275,-8.6335],[31.4432,-8.6415],[31.4647,-8.6661],[31.4806,-8.6762],[31.5191,-8.687],[31.539,-8.7035],[31.546,-8.729],[31.5459,-8.7663],[31.5533,-8.8091],[31.5764,-8.8397],[31.6727,-8.913],[31.6896,-8.9196],[31.7098,-8.9197],[31.7302,-8.9124],[31.7643,-8.8941],[31.7876,-8.8922],[31.9366,-8.9326],[31.9178,-8.9731],[31.9177,-9.0225],[31.9381,-9.0618],[31.9806,-9.0719],[32.0014,-9.0633],[32.0158,-9.0527],[32.0317,-9.046],[32.0572,-9.0496],[32.086,-9.0661],[32.0964,-9.0691],[32.1058,-9.0683],[32.125,-9.0637],[32.1341,-9.0641],[32.1548,-9.0752],[32.1916,-9.1122],[32.2113,-9.1268],[32.2314,-9.1338],[32.2527,-9.1365],[32.383,-9.1339],[32.4234,-9.1438],[32.4597,-9.168],[32.4707,-9.1819],[32.4901,-9.2273],[32.5045,-9.2493],[32.518,-9.2582],[32.5556,-9.2612],[32.6416,-9.2798],[32.7132,-9.2858],[32.7258,-9.2926],[32.7397,-9.3073],[32.7434,-9.315],[32.7465,-9.33],[32.7523,-9.3374],[32.7596,-9.34],[32.777,-9.3382],[32.7843,-9.3397],[32.8307,-9.3702],[32.9055,-9.3982],[32.9209,-9.4079]]]}}