{"type":"Feature","bbox":[-63.4288,18.1691,-62.9257,18.6013],"properties":{"iso":"AI","name":"Anguilla","name_de":"Anguilla","key":"AI"},"geometry":{"type":"MultiPolygon","coordinates":[[[[-63.0382,18.2677],[-62.984,18.2764],[-62.9726,18.2759],[-62.9729,18.2693],[-62.9929,18.2369],[-63.0006,18.2274],[-63.0115,18.2204],[-63.0377,18.213],[-63.0995,18.1762],[-63.1024,18.1804],[-63.1091,18.185],[-63.1138,18.1898],[-63.1368,18.1734],[-63.1505,18.1691],[-63.1678,18.1693],[-63.1421,18.1981],[-63.1343,18.2041],[-63.1228,18.2081],[-63.0972,18.2125],[-63.0858,18.2177],[-63.0678,18.2365],[-63.0551,18.2543],[-63.0382,18.2677]]],[[[-63.428,18.5928],[-63.4288,18.6013],[-63.4236,18.6],[-63.428,18.5928]]],[[[-62.9582,18.2894],[-62.9507,18.2921],[-62.9477,18.2973],[-62.9338,18.2945],[-62.9257,18.2897],[-62.945,18.2837],[-62.9474,18.2804],[-62.9567,18.2744],[-62.96,18.2777],[-62.9561,18.2825],[-62.9582,18.2894]]],[[[-63.252,18.273],[-63.2615,18.2762],[-63.2626,18.282],[-63.2536,18.2868],[-63.2456,18.2832],[-63.236,18.283],[-63.252,18.273]]],[[[-63.1901,18.2692],[-63.1795,18.2665],[-63.1835,18.2652],[-63.187,18.2653],[-63.1922,18.2688],[-63.1901,18.2692]]]]}}