{"type":"Feature","bbox":[15.7161,42.5592,19.6189,45.2845],"properties":{"iso":"BA","name":"Bosnia and Herz.","name_de":"Bosnien und Herzegowina","key":"BA"},"geometry":{"type":"Polygon","coordinates":[[[17.6533,42.8909],[17.5565,42.9348],[17.574,42.9343],[17.6011,42.9252],[17.6179,42.9218],[17.603,42.9326],[17.5807,42.9421],[17.6345,42.9504],[17.6627,42.9657],[17.6593,42.9934],[17.6284,43.0466],[17.5874,43.0821],[17.4421,43.1524],[17.4268,43.1657],[17.4152,43.185],[17.4068,43.2054],[17.4002,43.216],[17.3897,43.2231],[17.3694,43.2326],[17.3287,43.2604],[17.2899,43.3034],[17.2676,43.3533],[17.2864,43.4374],[17.2705,43.4632],[17.2395,43.4784],[17.1428,43.4893],[17.0846,43.5132],[17.0305,43.5485],[16.9819,43.5897],[16.8238,43.7073],[16.7126,43.7715],[16.6982,43.7881],[16.6898,43.8093],[16.6861,43.8261],[16.6786,43.8407],[16.6374,43.8684],[16.6048,43.9011],[16.5558,43.9375],[16.5165,43.9795],[16.501,43.9927],[16.4835,44.0025],[16.4396,44.014],[16.4315,44.0258],[16.4269,44.0405],[16.414,44.0558],[16.404,44.0588],[16.3779,44.0574],[16.3672,44.0581],[16.3574,44.0622],[16.3461,44.0685],[16.3269,44.0824],[16.3122,44.1],[16.29,44.1391],[16.2755,44.1574],[16.2321,44.191],[16.2158,44.2082],[16.1971,44.2512],[16.1876,44.2824],[16.1866,44.2976],[16.1895,44.3085],[16.1997,44.3247],[16.2032,44.3331],[16.2059,44.3498],[16.2029,44.3598],[16.1921,44.3674],[16.1713,44.3771],[16.1532,44.3804],[16.142,44.3808],[16.1383,44.3776],[16.1388,44.3854],[16.1454,44.3896],[16.1539,44.3936],[16.1599,44.4007],[16.1597,44.4161],[16.1529,44.4351],[16.1283,44.4843],[16.1231,44.5039],[16.1165,44.5215],[16.1049,44.5324],[16.0837,44.5349],[16.0473,44.5233],[16.0266,44.5252],[16.0061,44.541],[16.0139,44.557],[16.0305,44.5722],[16.0349,44.5854],[16.0447,44.5894],[16.0411,44.6028],[16.0362,44.6153],[16.0283,44.6247],[16.016,44.629],[15.9916,44.6314],[15.9791,44.6344],[15.969,44.6392],[15.9556,44.6532],[15.9481,44.6781],[15.9374,44.689],[15.9298,44.6895],[15.9215,44.6861],[15.9131,44.6845],[15.9054,44.6901],[15.8956,44.7186],[15.8888,44.7242],[15.8763,44.7248],[15.8692,44.7186],[15.8639,44.71],[15.8564,44.7036],[15.8478,44.7015],[15.83,44.7005],[15.8204,44.6983],[15.8057,44.6967],[15.797,44.7033],[15.7905,44.7134],[15.7828,44.7226],[15.7593,44.7342],[15.7537,44.7393],[15.7285,44.7691],[15.7173,44.7865],[15.7161,44.8032],[15.7306,44.817],[15.7512,44.8216],[15.7687,44.8273],[15.7734,44.845],[15.764,44.864],[15.748,44.882],[15.7343,44.9021],[15.7309,44.9272],[15.7388,44.9449],[15.7636,44.9755],[15.7674,44.9932],[15.7556,45.0236],[15.756,45.0422],[15.7794,45.0854],[15.7838,45.1009],[15.78,45.1603],[15.781,45.168],[15.7923,45.1898],[15.8248,45.211],[15.8789,45.2172],[15.9746,45.2154],[15.9975,45.2185],[16.0085,45.2182],[16.0204,45.2139],[16.0292,45.205],[16.0287,45.1963],[16.025,45.1889],[16.0244,45.1843],[16.0331,45.1797],[16.055,45.1764],[16.0675,45.1696],[16.0828,45.1516],[16.1041,45.1125],[16.1215,45.0962],[16.213,45.0315],[16.2412,45.019],[16.2793,45.0072],[16.3162,45.0012],[16.3406,45.0059],[16.357,45.0486],[16.3773,45.0756],[16.382,45.0837],[16.384,45.0954],[16.382,45.102],[16.3818,45.1076],[16.3892,45.1168],[16.3985,45.1214],[16.4248,45.1273],[16.4355,45.1329],[16.4492,45.1481],[16.4819,45.1995],[16.5289,45.2223],[16.587,45.2209],[16.7863,45.1788],[16.8117,45.1812],[16.8242,45.1891],[16.8258,45.1964],[16.8251,45.205],[16.8307,45.217],[16.8408,45.224],[16.8519,45.2274],[16.8617,45.2322],[16.8673,45.2434],[16.8754,45.247],[16.8858,45.2552],[16.894,45.2635],[16.897,45.2681],[16.9244,45.2845],[16.9326,45.2788],[16.9407,45.2578],[16.9421,45.2498],[16.9415,45.2412],[16.9473,45.2357],[16.968,45.2373],[16.9653,45.2442],[16.9612,45.2509],[16.9759,45.2472],[16.9881,45.2365],[16.9987,45.2314],[17.0083,45.2442],[17.012,45.2365],[17.0136,45.2306],[17.0125,45.2245],[17.0083,45.2162],[17.0363,45.2305],[17.0557,45.2004],[17.0984,45.1777],[17.1871,45.1486],[17.1978,45.153],[17.2455,45.1554],[17.2497,45.1599],[17.269,45.1895],[17.3078,45.1714],[17.3265,45.1659],[17.3594,45.1507],[17.3686,45.1451],[17.3824,45.1396],[17.4008,45.141],[17.4341,45.1486],[17.4388,45.1581],[17.4433,45.1621],[17.4512,45.1585],[17.4569,45.1518],[17.4581,45.1461],[17.455,45.1406],[17.4478,45.1343],[17.4604,45.1313],[17.4723,45.1328],[17.4962,45.1417],[17.487,45.1209],[17.4819,45.1144],[17.4893,45.1163],[17.5395,45.121],[17.5614,45.1194],[17.5724,45.1204],[17.5931,45.1296],[17.63,45.1573],[17.6516,45.1654],[17.6847,45.164],[17.7145,45.152],[17.7414,45.1333],[17.7975,45.082],[17.8156,45.0702],[17.8357,45.0644],[17.8457,45.0653],[17.8752,45.074],[17.9026,45.0778],[17.9112,45.0811],[17.9277,45.092],[17.9885,45.1438],[18.0035,45.1493],[18.0191,45.1494],[18.035,45.1433],[18.0903,45.108],[18.1124,45.1006],[18.1318,45.0979],[18.1537,45.0976],[18.1749,45.1008],[18.1925,45.1085],[18.1993,45.119],[18.2001,45.1316],[18.2023,45.1441],[18.2133,45.1538],[18.2379,45.1575],[18.262,45.1507],[18.3074,45.1275],[18.3223,45.1229],[18.3929,45.1186],[18.412,45.1124],[18.4293,45.1022],[18.4661,45.074],[18.4908,45.0628],[18.517,45.0559],[18.5411,45.0553],[18.5393,45.0693],[18.5344,45.0815],[18.5349,45.0904],[18.5496,45.0948],[18.5577,45.0944],[18.5738,45.0916],[18.5818,45.0914],[18.5886,45.0932],[18.6025,45.0993],[18.6091,45.1001],[18.6167,45.0977],[18.6211,45.0931],[18.6279,45.08],[18.6336,45.072],[18.6405,45.0654],[18.6487,45.0627],[18.6581,45.0663],[18.6612,45.0711],[18.6661,45.083],[18.6713,45.0869],[18.6782,45.0874],[18.6841,45.0848],[18.689,45.0802],[18.7263,45.0261],[18.7383,45.0159],[18.7501,45.0122],[18.778,45.0103],[18.7849,45.0085],[18.789,45.0057],[18.7918,45.0015],[18.7946,44.9954],[18.7958,44.9851],[18.803,44.9773],[18.8046,44.9738],[18.8016,44.964],[18.7799,44.9522],[18.7726,44.9425],[18.7834,44.9137],[18.8178,44.8875],[18.8587,44.8685],[18.8896,44.8612],[19.005,44.8633],[19.0478,44.8727],[19.0684,44.8748],[19.0846,44.879],[19.1743,44.9254],[19.1869,44.9275],[19.1932,44.9215],[19.1969,44.9132],[19.2019,44.9084],[19.2119,44.9084],[19.2296,44.9137],[19.2395,44.9151],[19.2838,44.9084],[19.293,44.9094],[19.3013,44.9124],[19.3102,44.9124],[19.3302,44.8987],[19.3401,44.8962],[19.3503,44.897],[19.353,44.8981],[19.3532,44.899],[19.3687,44.8871],[19.3728,44.8814],[19.3757,44.8731],[19.3766,44.863],[19.3731,44.8603],[19.3678,44.8593],[19.3637,44.8546],[19.3284,44.734],[19.318,44.7155],[19.3084,44.7051],[19.2883,44.693],[19.2776,44.6849],[19.2701,44.6756],[19.2557,44.6456],[19.2087,44.5884],[19.2041,44.5851],[19.1933,44.5806],[19.1883,44.576],[19.1863,44.5693],[19.1873,44.5533],[19.1853,44.5462],[19.1796,44.5383],[19.1731,44.5314],[19.1653,44.5267],[19.1299,44.5183],[19.1273,44.5026],[19.1434,44.4582],[19.1414,44.4308],[19.1296,44.4162],[19.1158,44.4036],[19.1072,44.3827],[19.1089,44.3636],[19.1167,44.3437],[19.1389,44.3093],[19.157,44.2936],[19.1772,44.287],[19.22,44.2802],[19.2407,44.2727],[19.2495,44.2707],[19.2637,44.2702],[19.2959,44.2758],[19.3074,44.2742],[19.3243,44.264],[19.3416,44.2458],[19.354,44.2243],[19.3561,44.204],[19.3624,44.1912],[19.3812,44.1771],[19.4249,44.1538],[19.4355,44.1461],[19.4426,44.1432],[19.4485,44.1444],[19.4597,44.1527],[19.4657,44.1528],[19.4742,44.1449],[19.4764,44.127],[19.4827,44.1207],[19.4982,44.1102],[19.522,44.085],[19.5546,44.0713],[19.5709,44.0569],[19.5802,44.0515],[19.5899,44.0603],[19.5989,44.0626],[19.6114,44.0545],[19.6189,44.0357],[19.6104,44.0193],[19.5934,44.0056],[19.5522,43.9834],[19.5286,43.9772],[19.5041,43.9757],[19.4471,43.9798],[19.394,43.9771],[19.3791,43.9739],[19.3646,43.9733],[19.3517,43.9791],[19.3259,43.9966],[19.3006,44.0095],[19.2873,44.013],[19.2728,44.0124],[19.2521,44.0075],[19.2435,44.002],[19.238,43.9925],[19.2381,43.9854],[19.2429,43.9728],[19.2407,43.9657],[19.2293,43.9577],[19.241,43.9524],[19.2754,43.9333],[19.3059,43.9047],[19.3595,43.8422],[19.4617,43.7621],[19.4817,43.7292],[19.5057,43.6736],[19.5074,43.6472],[19.4817,43.6289],[19.4775,43.617],[19.4756,43.6026],[19.4769,43.5887],[19.4817,43.5781],[19.489,43.5732],[19.4918,43.5686],[19.4896,43.5644],[19.4817,43.5608],[19.4439,43.5719],[19.4318,43.5711],[19.4193,43.5493],[19.4107,43.5408],[19.4029,43.5496],[19.3946,43.5665],[19.3804,43.5856],[19.3634,43.6016],[19.3466,43.6088],[19.3358,43.6065],[19.3127,43.5932],[19.3009,43.5883],[19.2892,43.5879],[19.2637,43.591],[19.2527,43.5886],[19.2389,43.5721],[19.2295,43.5497],[19.2175,43.5328],[19.1953,43.5328],[19.1477,43.5381],[19.1228,43.5359],[19.096,43.5129],[19.0764,43.5072],[19.055,43.5067],[19.0381,43.511],[19.025,43.523],[19.0143,43.5378],[19.0002,43.5479],[18.9775,43.5462],[18.9627,43.5383],[18.9389,43.5189],[18.9205,43.5122],[18.911,43.5073],[18.9051,43.4991],[18.9056,43.4906],[18.9153,43.4854],[18.9307,43.4823],[18.9379,43.4789],[18.9512,43.4638],[18.9507,43.4573],[18.9464,43.4491],[18.9463,43.4439],[18.9683,43.4481],[18.9753,43.4443],[19.0099,43.411],[19.0396,43.3507],[19.0697,43.3088],[19.0625,43.3044],[19.0363,43.3033],[19.0247,43.2987],[19.0172,43.2912],[19.0109,43.2823],[19.0029,43.2739],[18.9925,43.2671],[18.9889,43.2729],[18.9686,43.2922],[18.9595,43.3035],[18.9571,43.3118],[18.9579,43.319],[18.9573,43.3259],[18.9503,43.3331],[18.9234,43.3468],[18.8991,43.3519],[18.8396,43.3478],[18.8212,43.3414],[18.8335,43.3242],[18.8072,43.318],[18.6795,43.2495],[18.6643,43.2332],[18.6884,43.2245],[18.6453,43.1802],[18.6291,43.1549],[18.6206,43.1226],[18.6211,43.0964],[18.639,43.0202],[18.5984,43.0245],[18.539,43.0239],[18.483,43.0146],[18.4528,42.9934],[18.4335,42.9542],[18.434,42.9369],[18.444,42.9169],[18.4676,42.8817],[18.4733,42.8626],[18.466,42.8528],[18.4535,42.8457],[18.4437,42.8345],[18.4446,42.8171],[18.4539,42.7932],[18.4674,42.7692],[18.5022,42.7274],[18.5225,42.7119],[18.5397,42.6955],[18.55,42.6681],[18.5496,42.6389],[18.5384,42.6183],[18.5172,42.603],[18.4867,42.5898],[18.4937,42.5798],[18.4959,42.5709],[18.4921,42.5648],[18.4818,42.5637],[18.4705,42.5691],[18.459,42.5697],[18.4477,42.5662],[18.4374,42.5592],[18.421,42.5636],[18.3853,42.5665],[18.3705,42.5736],[18.3496,42.5963],[18.3387,42.6025],[18.3116,42.6012],[18.2571,42.6149],[18.2241,42.6281],[18.0494,42.7148],[17.9953,42.7404],[17.9719,42.755],[17.9289,42.7908],[17.9045,42.8045],[17.8694,42.8118],[17.8585,42.817],[17.8272,42.8531],[17.8251,42.8645],[17.8262,42.8886],[17.8233,42.8984],[17.8118,42.9099],[17.8027,42.9096],[17.7947,42.9046],[17.7867,42.9014],[17.7655,42.9041],[17.7236,42.9162],[17.7016,42.9195],[17.6795,42.9157],[17.6659,42.9052],[17.6533,42.8909]]]}}