{"type":"Feature","bbox":[-5.5226,9.3919,2.3902,15.0799],"properties":{"iso":"BF","name":"Burkina Faso","name_de":"Burkina Faso","key":"BF"},"geometry":{"type":"Polygon","coordinates":[[[2.3902,11.8965],[2.3541,11.7998],[2.34,11.7739],[2.3016,11.7315],[2.2908,11.7032],[2.2902,11.6857],[2.2911,11.6748],[2.2874,11.6653],[2.2736,11.6521],[2.2201,11.6225],[2.147,11.5637],[2.0108,11.4269],[1.9834,11.414],[1.948,11.4167],[1.9058,11.4328],[1.8798,11.4449],[1.8676,11.4466],[1.858,11.4403],[1.8406,11.4455],[1.8215,11.4416],[1.7822,11.426],[1.7633,11.4247],[1.7191,11.4278],[1.7035,11.4229],[1.6844,11.4139],[1.6382,11.4042],[1.6211,11.3953],[1.6016,11.3887],[1.5806,11.4271],[1.5632,11.426],[1.5673,11.4467],[1.5693,11.4533],[1.4753,11.4608],[1.456,11.4647],[1.4396,11.4738],[1.4338,11.4594],[1.4236,11.4539],[1.4111,11.4498],[1.3981,11.4403],[1.3898,11.4284],[1.3886,11.42],[1.3981,11.3987],[1.3817,11.3887],[1.359,11.3789],[1.3391,11.3661],[1.3304,11.3472],[1.3362,11.33],[1.3459,11.3163],[1.3479,11.3035],[1.3304,11.2888],[1.3235,11.2971],[1.3163,11.2999],[1.3093,11.2971],[1.3025,11.2888],[1.2962,11.2996],[1.2845,11.3127],[1.2733,11.3182],[1.2684,11.3062],[1.2705,11.2983],[1.2804,11.2887],[1.2826,11.2789],[1.2811,11.2711],[1.2684,11.2479],[1.2352,11.2635],[1.219,11.268],[1.2001,11.269],[1.1914,11.267],[1.1809,11.2614],[1.1722,11.2615],[1.1735,11.2666],[1.166,11.278],[1.1563,11.2855],[1.1459,11.2699],[1.1356,11.2601],[1.1306,11.2476],[1.1493,11.2172],[1.1532,11.1832],[1.1584,11.1659],[1.1481,11.1695],[1.1281,11.1789],[1.1175,11.179],[1.113,11.1739],[1.1062,11.1557],[1.1004,11.1516],[1.0675,11.1443],[1.0623,11.1421],[1.0633,11.127],[1.067,11.1283],[1.0734,11.1339],[1.0828,11.1318],[1.0839,11.1277],[1.0821,11.1153],[1.0828,11.1107],[1.0952,11.1044],[1.097,11.1045],[1.0991,11.0926],[1.0993,11.0813],[1.1009,11.0704],[1.1073,11.0598],[1.1186,11.0482],[1.1175,11.0322],[1.1142,11.0277],[1.1068,11.0344],[1.097,11.0493],[1.0869,11.0527],[1.0561,11.0561],[1.0522,11.055],[1.0413,11.0496],[1.035,11.0493],[1.028,11.0613],[1.0251,11.0635],[1.0197,11.0657],[1.0146,11.0704],[1.0079,11.0751],[0.986,11.0785],[0.9814,11.0801],[0.9769,11.0784],[0.9703,11.0695],[0.9644,11.0574],[0.9559,11.0447],[0.9524,11.0424],[0.9513,11.0323],[0.9518,11.0211],[0.9553,11.012],[0.9633,11.0083],[0.9691,11.0029],[0.97,10.9912],[0.9675,10.9795],[0.9633,10.9741],[0.9454,10.9743],[0.932,10.9761],[0.9015,10.9927],[0.6753,10.9885],[0.6126,10.9766],[0.4876,10.9332],[0.4997,10.9757],[0.4836,10.9797],[0.4871,10.9837],[0.4906,10.9964],[0.4901,10.9995],[0.4888,11.0018],[0.4866,11.0032],[-0.3017,11.1629],[-0.3045,11.1468],[-0.3005,11.1374],[-0.2983,11.1284],[-0.3061,11.1135],[-0.3188,11.1014],[-0.3689,11.0652],[-0.3869,11.0864],[-0.4059,11.1015],[-0.4252,11.1015],[-0.4444,11.0774],[-0.449,11.0629],[-0.4513,11.0402],[-0.4567,11.0296],[-0.4685,11.0201],[-0.4948,11.0078],[-0.5067,10.9937],[-0.513,10.9897],[-0.5165,10.9886],[-0.5554,10.99],[-0.5762,10.9878],[-0.5906,10.9824],[-0.5998,10.9658],[-0.6071,10.9412],[-0.6172,10.9186],[-0.6348,10.908],[-0.6828,10.9536],[-0.6798,10.9606],[-0.6723,10.9685],[-0.668,10.9765],[-0.6739,10.9835],[-0.6832,10.9843],[-0.6902,10.9818],[-0.6947,10.9827],[-0.696,10.994],[-0.817,10.9962],[-0.8221,11.0036],[-0.8278,11.0058],[-0.8337,11.0034],[-0.8394,10.9965],[-0.8608,10.9929],[-0.8832,10.9686],[-0.9006,10.9662],[-0.8939,10.9799],[-0.9044,10.9795],[-0.9095,10.9827],[-0.9165,10.9962],[-0.924,11.0014],[-0.9325,11.0031],[-1.0703,11.0139],[-1.0987,11.0096],[-1.1076,10.9943],[-1.3553,10.9967],[-1.3803,11.0013],[-1.4361,11.0227],[-1.5624,11.0266],[-1.5798,11.0212],[-1.587,11.0037],[-1.5987,10.9971],[-2.7507,10.9858],[-2.7511,10.9965],[-2.8373,10.998],[-2.8359,10.9922],[-2.8387,10.9851],[-2.8327,10.966],[-2.8218,10.9483],[-2.8158,10.9292],[-2.8214,10.9063],[-2.8349,10.8916],[-2.8508,10.8795],[-2.8642,10.8643],[-2.8716,10.8434],[-2.8827,10.7971],[-2.8995,10.77],[-2.9031,10.7471],[-2.9086,10.7377],[-2.9193,10.7272],[-2.9223,10.7212],[-2.9189,10.7066],[-2.9126,10.7058],[-2.908,10.7036],[-2.9051,10.6992],[-2.9051,10.6927],[-2.9102,10.6845],[-2.9163,10.6681],[-2.9297,10.6442],[-2.9325,10.6343],[-2.9283,10.6152],[-2.8983,10.5626],[-2.8959,10.5528],[-2.8942,10.5314],[-2.8915,10.5217],[-2.8869,10.5158],[-2.8734,10.5025],[-2.8704,10.4978],[-2.8674,10.4782],[-2.8596,10.4656],[-2.8244,10.435],[-2.8121,10.4288],[-2.7959,10.4261],[-2.7714,10.4255],[-2.7676,10.4212],[-2.7719,10.4118],[-2.781,10.4024],[-2.792,10.3982],[-2.8049,10.3971],[-2.8146,10.3937],[-2.8223,10.3876],[-2.8295,10.3783],[-2.8363,10.3637],[-2.8413,10.3433],[-2.8413,10.3223],[-2.8332,10.306],[-2.8244,10.3022],[-2.8142,10.3011],[-2.8057,10.299],[-2.8021,10.2923],[-2.7997,10.2809],[-2.7932,10.2785],[-2.7845,10.2788],[-2.7748,10.2752],[-2.7649,10.2691],[-2.7584,10.2661],[-2.7549,10.2608],[-2.7544,10.248],[-2.7577,10.2346],[-2.7651,10.2258],[-2.7854,10.2101],[-2.7985,10.1895],[-2.7989,10.1696],[-2.7885,10.1244],[-2.7885,10.0388],[-2.7836,10.0185],[-2.7609,9.9848],[-2.7544,9.9668],[-2.7556,9.9412],[-2.7649,9.8958],[-2.7605,9.8705],[-2.7368,9.8326],[-2.7339,9.8228],[-2.7403,9.8126],[-2.7748,9.7743],[-2.7916,9.7409],[-2.7953,9.72],[-2.7885,9.6993],[-2.7803,9.6902],[-2.7748,9.6893],[-2.7693,9.6899],[-2.7605,9.6856],[-2.7555,9.6775],[-2.7542,9.6684],[-2.751,9.6592],[-2.7402,9.6508],[-2.7529,9.6399],[-2.7615,9.6253],[-2.7665,9.6089],[-2.768,9.5928],[-2.7663,9.5765],[-2.7611,9.5662],[-2.7253,9.5339],[-2.6892,9.4887],[-2.7205,9.4592],[-2.7449,9.4081],[-2.7637,9.3919],[-2.7876,9.3937],[-2.8104,9.4111],[-2.9102,9.5427],[-2.9599,9.6386],[-2.9778,9.6852],[-2.99,9.7084],[-3.0057,9.7242],[-3.0246,9.7286],[-3.0591,9.7186],[-3.0771,9.7194],[-3.0946,9.7339],[-3.1044,9.7571],[-3.1169,9.8053],[-3.1369,9.8295],[-3.1601,9.8347],[-3.1826,9.8352],[-3.2,9.8454],[-3.2044,9.8654],[-3.2022,9.889],[-3.2026,9.9082],[-3.2148,9.9156],[-3.2302,9.9047],[-3.2641,9.8571],[-3.2779,9.8435],[-3.3017,9.8411],[-3.3118,9.8541],[-3.3136,9.8746],[-3.3127,9.8945],[-3.3172,9.9013],[-3.3275,9.8973],[-3.3392,9.8901],[-3.3483,9.887],[-3.359,9.8925],[-3.3766,9.9085],[-3.3892,9.9132],[-3.5465,9.9261],[-3.6063,9.9182],[-3.6233,9.9217],[-3.634,9.9292],[-3.6405,9.9374],[-3.6482,9.9446],[-3.6617,9.9489],[-3.665,9.9466],[-3.6743,9.9353],[-3.6796,9.9322],[-3.6859,9.9335],[-3.699,9.9408],[-3.7065,9.9418],[-3.755,9.9359],[-3.7696,9.9313],[-3.7797,9.9247],[-3.7958,9.9077],[-3.8043,9.9014],[-3.8235,9.8957],[-3.8897,9.8945],[-3.9101,9.8885],[-3.9477,9.8644],[-3.9692,9.859],[-3.984,9.8512],[-3.9883,9.8348],[-3.9946,9.8208],[-4.0267,9.8203],[-4.035,9.8176],[-4.0503,9.8103],[-4.0514,9.8076],[-4.0517,9.8023],[-4.0537,9.7976],[-4.0599,9.7963],[-4.0657,9.7981],[-4.0762,9.8038],[-4.133,9.8204],[-4.1503,9.8183],[-4.1683,9.8048],[-4.197,9.765],[-4.2154,9.7549],[-4.2531,9.7501],[-4.2703,9.7439],[-4.2836,9.732],[-4.2675,9.7273],[-4.2978,9.6958],[-4.3033,9.6867],[-4.3035,9.6779],[-4.3005,9.6543],[-4.303,9.6417],[-4.3159,9.6166],[-4.3225,9.6089],[-4.3497,9.62],[-4.365,9.6242],[-4.368,9.6084],[-4.3678,9.592],[-4.3712,9.583],[-4.3849,9.5894],[-4.3916,9.6003],[-4.4002,9.6331],[-4.4091,9.6477],[-4.4334,9.6535],[-4.4692,9.6518],[-4.5017,9.655],[-4.5159,9.6757],[-4.5136,9.694],[-4.5038,9.7199],[-4.5016,9.7371],[-4.504,9.742],[-4.51,9.7451],[-4.5178,9.7466],[-4.5359,9.7466],[-4.5391,9.7447],[-4.5399,9.7408],[-4.548,9.7203],[-4.5484,9.7068],[-4.5522,9.6965],[-4.5667,9.6924],[-4.5783,9.6965],[-4.5927,9.7178],[-4.604,9.7272],[-4.6169,9.7139],[-4.6287,9.7077],[-4.6411,9.706],[-4.6558,9.7061],[-4.6547,9.7035],[-4.6583,9.6976],[-4.6648,9.6909],[-4.6729,9.6856],[-4.6811,9.6821],[-4.6818,9.6828],[-4.6815,9.6867],[-4.6866,9.6924],[-4.7001,9.6979],[-4.7055,9.7021],[-4.7076,9.7098],[-4.7091,9.7203],[-4.7128,9.7268],[-4.7244,9.7371],[-4.7333,9.7496],[-4.7383,9.7532],[-4.7486,9.7545],[-4.7586,9.7533],[-4.7621,9.7499],[-4.7605,9.7453],[-4.7548,9.7402],[-4.77,9.7374],[-4.7832,9.7584],[-4.7964,9.7545],[-4.8012,9.7665],[-4.8101,9.7743],[-4.8101,9.7818],[-4.8004,9.7811],[-4.7919,9.7823],[-4.7759,9.788],[-4.7854,9.8048],[-4.7903,9.8275],[-4.7985,9.8425],[-4.8176,9.8365],[-4.8243,9.857],[-4.8385,9.8695],[-4.8583,9.8757],[-4.8817,9.8774],[-4.8901,9.8795],[-4.898,9.8889],[-4.9094,9.8911],[-4.9171,9.8865],[-4.9224,9.8775],[-4.928,9.8709],[-4.9367,9.874],[-4.9661,9.901],[-4.9673,9.9124],[-4.9529,9.9534],[-4.9548,9.9597],[-4.9657,9.9831],[-4.9769,9.9976],[-4.9814,10.0077],[-4.9602,10.0085],[-4.9564,10.022],[-4.9633,10.0403],[-4.9745,10.0555],[-4.9866,10.0633],[-4.9998,10.0695],[-5.0105,10.0791],[-5.0156,10.0971],[-5.0255,10.0887],[-5.0372,10.0838],[-5.0483,10.0854],[-5.0565,10.0971],[-5.0429,10.1033],[-5.0617,10.1101],[-5.0701,10.1102],[-5.061,10.1185],[-5.0376,10.1265],[-5.0395,10.1343],[-5.0647,10.1508],[-5.0707,10.161],[-5.064,10.179],[-5.0907,10.1779],[-5.0902,10.1888],[-5.0816,10.2069],[-5.0844,10.2274],[-5.0873,10.2208],[-5.0919,10.2143],[-5.0978,10.2093],[-5.1049,10.2069],[-5.1171,10.208],[-5.1182,10.2125],[-5.1118,10.2237],[-5.1118,10.2787],[-5.1192,10.2935],[-5.1357,10.3043],[-5.1521,10.3056],[-5.1595,10.2923],[-5.1684,10.2913],[-5.2176,10.3199],[-5.2336,10.3157],[-5.2798,10.3224],[-5.2966,10.323],[-5.3041,10.3184],[-5.3092,10.3115],[-5.3155,10.3053],[-5.3271,10.3026],[-5.3385,10.3022],[-5.3438,10.3031],[-5.3533,10.3083],[-5.3571,10.3044],[-5.3608,10.2988],[-5.3655,10.2957],[-5.3857,10.2965],[-5.4025,10.3006],[-5.4162,10.3075],[-5.427,10.3169],[-5.4378,10.34],[-5.4438,10.3435],[-5.453,10.3439],[-5.4599,10.3452],[-5.4742,10.3503],[-5.4753,10.3677],[-5.4875,10.3929],[-5.5051,10.4156],[-5.5226,10.4255],[-5.5171,10.44],[-5.509,10.4909],[-5.5052,10.4992],[-5.4817,10.5353],[-5.4681,10.5878],[-5.4711,10.5974],[-5.4786,10.6042],[-5.4774,10.6196],[-5.4705,10.6356],[-5.4606,10.6446],[-5.4759,10.6504],[-5.4772,10.6588],[-5.4821,10.6752],[-5.4826,10.6842],[-5.4731,10.7379],[-5.468,10.7527],[-5.4612,10.76],[-5.453,10.764],[-5.4465,10.7687],[-5.445,10.7786],[-5.4453,10.787],[-5.4314,10.8447],[-5.4351,10.8569],[-5.447,10.878],[-5.4656,10.9479],[-5.4791,10.9755],[-5.5018,10.9702],[-5.4956,10.9962],[-5.5073,11.0569],[-5.5042,11.0727],[-5.4898,11.0821],[-5.3901,11.0947],[-5.373,11.0998],[-5.3563,11.1069],[-5.3325,11.1216],[-5.3223,11.1355],[-5.3162,11.1763],[-5.3067,11.1994],[-5.2753,11.2307],[-5.2629,11.2516],[-5.2609,11.2677],[-5.2679,11.372],[-5.2635,11.3902],[-5.2482,11.4032],[-5.2264,11.4135],[-5.2183,11.4222],[-5.2192,11.4351],[-5.2246,11.458],[-5.2247,11.5408],[-5.2339,11.576],[-5.2695,11.6041],[-5.2807,11.6058],[-5.291,11.6045],[-5.3,11.6064],[-5.3076,11.6176],[-5.3078,11.629],[-5.3023,11.6399],[-5.2948,11.6503],[-5.2893,11.6604],[-5.2807,11.6995],[-5.2786,11.7215],[-5.2795,11.739],[-5.2871,11.7589],[-5.299,11.7727],[-5.3148,11.7825],[-5.3343,11.7908],[-5.3447,11.7939],[-5.3533,11.7945],[-5.3706,11.7911],[-5.3745,11.7952],[-5.4004,11.8102],[-5.406,11.8123],[-5.4122,11.8236],[-5.4124,11.8285],[-5.4059,11.8304],[-5.3923,11.8324],[-5.3879,11.8308],[-5.3756,11.8222],[-5.3699,11.8202],[-5.3646,11.8218],[-5.3571,11.8296],[-5.3538,11.8317],[-5.319,11.8374],[-5.3148,11.8393],[-5.3065,11.846],[-5.3002,11.8464],[-5.2934,11.8432],[-5.288,11.8391],[-5.2825,11.8364],[-5.2752,11.8374],[-5.2682,11.8431],[-5.2482,11.8704],[-5.2095,11.9015],[-5.1829,11.9309],[-5.1678,11.9437],[-5.137,11.9531],[-5.1039,11.9728],[-5.0893,11.9793],[-5.0738,11.9805],[-5.0343,11.9793],[-5.016,11.9813],[-5.0047,11.9807],[-4.9942,11.9832],[-4.9845,11.9886],[-4.9755,11.9963],[-4.9538,12.0051],[-4.9321,12.0031],[-4.9107,11.9981],[-4.89,11.9979],[-4.8472,12.0131],[-4.8262,12.0127],[-4.8068,11.9963],[-4.7895,12.0018],[-4.7613,12.0066],[-4.7469,12.0151],[-4.739,12.0252],[-4.7251,12.0501],[-4.7146,12.059],[-4.704,12.0615],[-4.6837,12.0591],[-4.6736,12.0597],[-4.6537,12.0691],[-4.6487,12.082],[-4.6467,12.098],[-4.6361,12.1176],[-4.6003,12.1376],[-4.5702,12.1389],[-4.5605,12.1495],[-4.5855,12.1972],[-4.4974,12.2687],[-4.4935,12.2728],[-4.4923,12.2788],[-4.494,12.2901],[-4.4905,12.3058],[-4.4907,12.3138],[-4.4882,12.3207],[-4.4772,12.3273],[-4.4625,12.3282],[-4.4527,12.3203],[-4.4448,12.3094],[-4.4358,12.3017],[-4.4061,12.3075],[-4.4154,12.3503],[-4.4516,12.4353],[-4.4437,12.4594],[-4.4266,12.4797],[-4.4076,12.4979],[-4.3934,12.5164],[-4.3869,12.5302],[-4.3872,12.534],[-4.3926,12.5374],[-4.4014,12.5504],[-4.4225,12.5972],[-4.4391,12.6133],[-4.4825,12.6463],[-4.4913,12.6628],[-4.4853,12.7147],[-4.4817,12.7174],[-4.4749,12.7158],[-4.4644,12.7173],[-4.4353,12.7284],[-4.402,12.7366],[-4.3689,12.739],[-4.3394,12.7328],[-4.3109,12.716],[-4.2972,12.7121],[-4.2763,12.7147],[-4.2576,12.7209],[-4.244,12.7299],[-4.2341,12.7424],[-4.2133,12.8072],[-4.2119,12.8192],[-4.2246,12.8645],[-4.2213,12.9213],[-4.2293,12.949],[-4.2478,12.9719],[-4.2769,12.9962],[-4.2897,13.0135],[-4.3164,13.0709],[-4.3454,13.0971],[-4.3511,13.1061],[-4.3511,13.1183],[-4.3459,13.1271],[-4.3396,13.1353],[-4.327,13.1686],[-4.3102,13.1756],[-4.2462,13.1725],[-4.2348,13.1756],[-4.2278,13.1844],[-4.23,13.1931],[-4.2512,13.2048],[-4.2581,13.2141],[-4.2535,13.2291],[-4.2388,13.2468],[-4.2207,13.2628],[-4.2055,13.273],[-4.1958,13.2747],[-4.1865,13.2728],[-4.1769,13.2724],[-4.166,13.2782],[-4.1471,13.2996],[-4.1316,13.3238],[-4.1147,13.3645],[-4.1043,13.3827],[-4.0875,13.398],[-4.0793,13.4021],[-4.0525,13.409],[-4.0435,13.4145],[-4.0282,13.4315],[-4.0054,13.4395],[-3.9902,13.4491],[-3.9769,13.4606],[-3.9716,13.47],[-3.9795,13.4754],[-3.9922,13.4762],[-3.998,13.4805],[-3.9845,13.4961],[-3.9813,13.499],[-3.9777,13.4999],[-3.9741,13.4989],[-3.9703,13.4962],[-3.9645,13.4878],[-3.9593,13.4679],[-3.9561,13.4617],[-3.9475,13.4582],[-3.9234,13.4538],[-3.918,13.4511],[-3.9186,13.4403],[-3.9255,13.4363],[-3.9349,13.4349],[-3.9427,13.4319],[-3.963,13.4132],[-3.9716,13.4083],[-3.984,13.3965],[-3.9716,13.3868],[-3.9484,13.3808],[-3.9288,13.3803],[-3.9089,13.382],[-3.8926,13.3789],[-3.8581,13.3655],[-3.8171,13.3547],[-3.7986,13.3471],[-3.7244,13.2888],[-3.6787,13.2617],[-3.5969,13.1994],[-3.5898,13.1974],[-3.5766,13.1993],[-3.57,13.1968],[-3.5539,13.1803],[-3.545,13.1745],[-3.5385,13.1734],[-3.5161,13.1739],[-3.4616,13.1658],[-3.4495,13.1688],[-3.4395,13.1849],[-3.4406,13.2028],[-3.4523,13.2375],[-3.4485,13.2658],[-3.4265,13.2742],[-3.2624,13.2839],[-3.2486,13.2928],[-3.284,13.5422],[-3.2692,13.5791],[-3.2639,13.6027],[-3.2597,13.6583],[-3.2663,13.6823],[-3.287,13.6978],[-3.2671,13.717],[-3.2404,13.708],[-3.1958,13.6749],[-3.1679,13.6721],[-3.146,13.6767],[-3.1251,13.6773],[-3.1,13.6627],[-3.0822,13.6462],[-3.0773,13.6368],[-3.0745,13.6221],[-3.0675,13.6068],[-3.056,13.6108],[-3.0386,13.6296],[-3.027,13.6353],[-3.0191,13.6375],[-2.9948,13.635],[-2.9864,13.6321],[-2.9793,13.6276],[-2.9723,13.6245],[-2.965,13.6257],[-2.8952,13.6516],[-2.9234,13.746],[-2.9281,13.7996],[-2.9122,13.8379],[-2.8945,13.8666],[-2.8554,13.9962],[-2.8586,14.0002],[-2.8616,14.0017],[-2.8673,14.0005],[-2.8409,14.043],[-2.6932,14.1232],[-2.6198,14.2036],[-2.5974,14.2223],[-2.5161,14.2679],[-2.4617,14.2809],[-2.3856,14.2647],[-2.1519,14.1561],[-2.1198,14.1488],[-2.1043,14.1512],[-2.0359,14.1812],[-2.0273,14.1881],[-2.0234,14.1986],[-2.005,14.4442],[-1.9971,14.4707],[-1.967,14.4837],[-1.9191,14.4859],[-1.837,14.4796],[-1.7667,14.4832],[-1.6969,14.4961],[-1.3503,14.715],[-1.3077,14.7347],[-1.1167,14.7804],[-1.0786,14.7964],[-1.0433,14.8179],[-0.8362,14.9961],[-0.7828,15.0484],[-0.7529,15.0697],[-0.7197,15.0785],[-0.4679,15.0799],[-0.4586,15.0755],[-0.4356,15.0152],[-0.4257,15.0026],[-0.3977,15.0021],[-0.3615,15.0177],[-0.2992,15.0547],[-0.2367,15.0656],[-0.167,15.0497],[-0.0334,14.9959],[0.2185,14.911],[0.2208,14.8882],[0.2119,14.8748],[0.198,14.8638],[0.1858,14.8482],[0.1841,14.8196],[0.2131,14.7616],[0.2197,14.7312],[0.1529,14.5467],[0.1588,14.4961],[0.1887,14.4477],[0.3464,14.3076],[0.3888,14.2516],[0.3916,14.2459],[0.3906,14.2376],[0.3811,14.2257],[0.3774,14.2166],[0.3722,14.1856],[0.3674,14.1738],[0.3435,14.1375],[0.3392,14.1258],[0.3436,14.1143],[0.3563,14.0957],[0.3625,14.0889],[0.3742,14.0789],[0.3785,14.0704],[0.3773,14.0639],[0.3691,14.0479],[0.3692,14.0391],[0.3784,14.0288],[0.3914,14.0226],[0.4019,14.0138],[0.4039,13.9961],[0.4119,13.9784],[0.4284,13.9675],[0.4459,13.9586],[0.4567,13.9468],[0.4563,13.9381],[0.4481,13.9201],[0.4486,13.9096],[0.4548,13.9024],[0.4757,13.8889],[0.4835,13.8803],[0.492,13.8618],[0.5041,13.8454],[0.5193,13.8316],[0.553,13.81],[0.5632,13.7968],[0.5745,13.785],[0.5937,13.7781],[0.6005,13.7687],[0.5945,13.7499],[0.5848,13.729],[0.5805,13.7138],[0.5943,13.6889],[0.6207,13.68],[0.7534,13.6841],[0.7635,13.682],[0.7664,13.6751],[0.7662,13.667],[0.767,13.6609],[0.7663,13.6572],[0.7629,13.653],[0.7637,13.6464],[0.7757,13.6353],[0.7953,13.626],[0.8131,13.625],[0.8507,13.6286],[0.8969,13.6149],[0.951,13.5832],[0.9914,13.5411],[0.9966,13.4961],[1.0153,13.4657],[1.0482,13.4419],[1.1572,13.3926],[1.175,13.3869],[1.2174,13.3818],[1.2343,13.3776],[1.2496,13.3671],[1.2687,13.3461],[1.2415,13.3355],[1.2221,13.3446],[1.2057,13.3589],[1.1877,13.3641],[1.1824,13.3587],[1.1776,13.3476],[1.1676,13.3134],[1.1607,13.3113],[1.1385,13.3204],[1.0847,13.3336],[1.0047,13.3648],[0.9835,13.3684],[0.9704,13.3283],[0.9718,13.0673],[0.9746,13.0483],[0.9835,13.0324],[1.0123,13.0169],[1.0838,13.011],[1.114,12.9962],[1.5359,12.6475],[1.5639,12.6321],[1.597,12.6237],[1.8261,12.6042],[1.8437,12.6061],[1.8607,12.6171],[1.8727,12.6342],[1.8832,12.654],[1.9002,12.6785],[1.907,12.6918],[1.9114,12.6966],[1.9196,12.6983],[1.9266,12.695],[1.9345,12.6935],[1.9455,12.7008],[1.9625,12.7191],[1.9717,12.7242],[2.0689,12.7163],[2.109,12.7056],[2.1352,12.6756],[2.141,12.6561],[2.1448,12.6508],[2.1555,12.64],[2.166,12.6317],[2.1843,12.6206],[2.1933,12.6095],[2.2,12.5959],[2.2032,12.5833],[2.2109,12.5231],[2.2157,12.5103],[2.2239,12.4948],[2.2296,12.4871],[2.2423,12.4735],[2.2463,12.4659],[2.2463,12.4617],[2.2431,12.4512],[2.245,12.4242],[2.2379,12.4135],[2.2233,12.4097],[2.1638,12.4048],[2.1588,12.4057],[2.145,12.4117],[2.1387,12.4083],[2.1315,12.3985],[2.1269,12.3951],[2.0693,12.3833],[2.0542,12.3709],[2.0518,12.3419],[2.0709,12.3069],[2.3381,11.9401],[2.3902,11.8965]]]}}