{"type":"Feature","bbox":[-74.0185,-33.7423,-29.3169,5.2672],"properties":{"iso":"BR","name":"Brazil","name_de":"Brasilien","key":"BR"},"geometry":{"type":"MultiPolygon","coordinates":[[[[-57.5062,-30.1443],[-57.4115,-30.0396],[-57.3252,-29.981],[-57.3085,-29.8485],[-57.2915,-29.8151],[-57.2626,-29.7926],[-57.2196,-29.7783],[-57.1334,-29.7721],[-57.0942,-29.752],[-57.0209,-29.6834],[-56.9794,-29.635],[-56.9516,-29.5863],[-56.819,-29.475],[-56.7998,-29.434],[-56.7834,-29.4258],[-56.7808,-29.3953],[-56.7699,-29.3791],[-56.6887,-29.3296],[-56.6505,-29.2513],[-56.6573,-29.2379],[-56.6507,-29.2091],[-56.6173,-29.1609],[-56.5483,-29.11],[-56.428,-29.0699],[-56.4158,-29.0514],[-56.4109,-28.9913],[-56.3916,-28.9522],[-56.3231,-28.9165],[-56.301,-28.8814],[-56.2948,-28.7958],[-56.2861,-28.7802],[-56.2184,-28.7641],[-56.1847,-28.7442],[-56.103,-28.6481],[-56.0408,-28.609],[-56.0219,-28.5857],[-56.0214,-28.5104],[-56.0116,-28.4966],[-55.902,-28.4651],[-55.8967,-28.4068],[-55.9056,-28.378],[-55.8423,-28.3464],[-55.7346,-28.3659],[-55.715,-28.4045],[-55.6942,-28.4001],[-55.6636,-28.3265],[-55.6872,-28.2901],[-55.7666,-28.2576],[-55.7725,-28.232],[-55.7479,-28.2157],[-55.6841,-28.1962],[-55.6238,-28.1462],[-55.6047,-28.1169],[-55.5816,-28.1211],[-55.5771,-28.1443],[-55.5535,-28.1456],[-55.5059,-28.0789],[-55.493,-28.0739],[-55.4755,-28.0863],[-55.4407,-28.0789],[-55.3834,-28.0142],[-55.3809,-27.9782],[-55.3379,-27.9631],[-55.3299,-27.9281],[-55.3141,-27.915],[-55.2602,-27.9192],[-55.224,-27.8938],[-55.1977,-27.8606],[-55.1776,-27.8536],[-55.1192,-27.8809],[-55.1087,-27.8468],[-55.0999,-27.8438],[-55.0677,-27.8393],[-55.0296,-27.8507],[-55.0258,-27.8402],[-55.0404,-27.8195],[-55.0812,-27.7783],[-55.0643,-27.771],[-55.0091,-27.7884],[-54.9852,-27.7853],[-54.9132,-27.7369],[-54.9016,-27.7045],[-54.8983,-27.6236],[-54.8451,-27.6119],[-54.8275,-27.5451],[-54.805,-27.5264],[-54.7922,-27.5232],[-54.7865,-27.5342],[-54.7937,-27.5492],[-54.7739,-27.5638],[-54.7319,-27.5513],[-54.6903,-27.5513],[-54.6772,-27.5418],[-54.6665,-27.5038],[-54.6562,-27.5073],[-54.6512,-27.5259],[-54.6259,-27.5153],[-54.6053,-27.468],[-54.5895,-27.4526],[-54.5705,-27.4557],[-54.5433,-27.487],[-54.4484,-27.4589],[-54.4477,-27.4458],[-54.4646,-27.4233],[-54.4608,-27.4126],[-54.4446,-27.409],[-54.3889,-27.4111],[-54.3716,-27.4544],[-54.3477,-27.4358],[-54.3477,-27.3943],[-54.3069,-27.4289],[-54.2869,-27.4284],[-54.2613,-27.3887],[-54.2316,-27.3805],[-54.2318,-27.3515],[-54.177,-27.2434],[-54.1559,-27.2577],[-54.1581,-27.2795],[-54.1282,-27.2889],[-54.0918,-27.2852],[-54.0181,-27.2123],[-54.0051,-27.1882],[-53.9618,-27.1914],[-53.9641,-27.154],[-53.9509,-27.1478],[-53.9095,-27.1683],[-53.8822,-27.1199],[-53.8688,-27.1259],[-53.842,-27.1635],[-53.83,-27.1568],[-53.8188,-27.1315],[-53.8287,-27.1144],[-53.8049,-27.0944],[-53.8009,-27.0391],[-53.7685,-27.0241],[-53.7125,-26.9045],[-53.7107,-26.8738],[-53.734,-26.7774],[-53.7529,-26.7732],[-53.7479,-26.7391],[-53.7697,-26.7266],[-53.7743,-26.7143],[-53.7717,-26.7037],[-53.746,-26.6939],[-53.7395,-26.6756],[-53.7424,-26.6005],[-53.7268,-26.5486],[-53.7375,-26.5253],[-53.7129,-26.5005],[-53.7244,-26.3761],[-53.7159,-26.3467],[-53.6732,-26.2926],[-53.6616,-26.2598],[-53.6667,-26.2192],[-53.7334,-26.1264],[-53.765,-26.0281],[-53.8334,-25.9622],[-53.8404,-25.7914],[-53.8835,-25.7356],[-53.8765,-25.6979],[-53.8981,-25.6395],[-53.91,-25.6292],[-53.9677,-25.6532],[-53.9783,-25.607],[-53.9974,-25.575],[-54.0302,-25.5622],[-54.0554,-25.5707],[-54.0827,-25.5501],[-54.0893,-25.5589],[-54.0858,-25.5906],[-54.0989,-25.5972],[-54.1231,-25.5718],[-54.126,-25.552],[-54.1072,-25.5006],[-54.1164,-25.4946],[-54.1651,-25.5344],[-54.2148,-25.5315],[-54.1903,-25.5808],[-54.2437,-25.5776],[-54.2556,-25.5987],[-54.2844,-25.5568],[-54.2992,-25.5527],[-54.3217,-25.5551],[-54.3497,-25.5824],[-54.3954,-25.5811],[-54.4051,-25.6198],[-54.4374,-25.645],[-54.4331,-25.6766],[-54.4473,-25.6892],[-54.473,-25.6258],[-54.5114,-25.6062],[-54.5323,-25.6106],[-54.5456,-25.5748],[-54.6002,-25.5749],[-54.5915,-25.5247],[-54.6125,-25.4655],[-54.598,-25.3975],[-54.5036,-25.2787],[-54.4815,-25.2132],[-54.4266,-25.1495],[-54.4633,-25.0728],[-54.4623,-25.0372],[-54.4073,-24.8212],[-54.3711,-24.7667],[-54.3213,-24.6284],[-54.3345,-24.4967],[-54.3229,-24.4643],[-54.2717,-24.3894],[-54.2622,-24.3585],[-54.261,-24.3295],[-54.2827,-24.2753],[-54.3141,-24.2342],[-54.3346,-24.1489],[-54.3248,-24.1182],[-54.301,-24.0899],[-54.2453,-24.0506],[-54.3676,-23.9847],[-54.4229,-23.9138],[-54.4432,-23.8999],[-54.6392,-23.8044],[-54.6968,-23.8452],[-54.8274,-23.887],[-54.8919,-23.9206],[-54.9436,-23.9692],[-54.9946,-23.9731],[-55.0423,-23.989],[-55.1056,-23.9885],[-55.1654,-24.0168],[-55.2009,-24.0195],[-55.3043,-23.9941],[-55.3672,-23.9896],[-55.398,-23.9768],[-55.4207,-23.9545],[-55.4302,-23.9286],[-55.4453,-23.7354],[-55.467,-23.6732],[-55.5305,-23.6035],[-55.5425,-23.4658],[-55.5155,-23.4102],[-55.5139,-23.3794],[-55.5556,-23.3303],[-55.5622,-23.3079],[-55.5352,-23.2291],[-55.5609,-23.1459],[-55.5994,-23.1171],[-55.6007,-23.0445],[-55.6378,-23.0007],[-55.6343,-22.9328],[-55.659,-22.8183],[-55.6183,-22.7257],[-55.6278,-22.6921],[-55.6237,-22.6387],[-55.6312,-22.6268],[-55.6979,-22.5956],[-55.7239,-22.5696],[-55.7413,-22.5372],[-55.7602,-22.392],[-55.8108,-22.3531],[-55.861,-22.2895],[-55.8744,-22.3173],[-55.8929,-22.3068],[-55.9553,-22.3013],[-55.9986,-22.2772],[-56.0247,-22.2874],[-56.2143,-22.2754],[-56.3473,-22.1804],[-56.4076,-22.0758],[-56.5113,-22.0914],[-56.585,-22.1905],[-56.6547,-22.2373],[-56.6441,-22.2554],[-56.6488,-22.2635],[-56.6646,-22.26],[-56.7154,-22.2154],[-56.7435,-22.2504],[-56.7544,-22.2426],[-56.787,-22.2518],[-56.8083,-22.248],[-56.8429,-22.289],[-56.8561,-22.2932],[-56.8795,-22.29],[-56.9037,-22.2369],[-56.9148,-22.2629],[-56.9605,-22.2548],[-56.9646,-22.2349],[-56.9757,-22.2417],[-57.0112,-22.2338],[-57.0851,-22.2381],[-57.1542,-22.208],[-57.1995,-22.2129],[-57.2138,-22.1882],[-57.2717,-22.2138],[-57.3318,-22.2024],[-57.3399,-22.217],[-57.375,-22.2073],[-57.385,-22.2133],[-57.464,-22.1804],[-57.5112,-22.1888],[-57.5423,-22.1715],[-57.6141,-22.177],[-57.6637,-22.1006],[-57.6896,-22.1093],[-57.7737,-22.1077],[-57.7754,-22.124],[-57.8158,-22.1283],[-57.8439,-22.1437],[-57.8714,-22.1212],[-57.9063,-22.1289],[-57.94,-22.1184],[-57.9614,-22.0901],[-57.9862,-22.0745],[-57.9868,-22.0353],[-57.9626,-21.967],[-57.9254,-21.905],[-57.9559,-21.8511],[-57.9357,-21.8121],[-57.939,-21.7553],[-57.8956,-21.6884],[-57.9348,-21.6407],[-57.939,-21.6237],[-57.9121,-21.564],[-57.9398,-21.5482],[-57.9491,-21.5083],[-57.9299,-21.4531],[-57.8633,-21.3569],[-57.8556,-21.3307],[-57.8823,-21.3164],[-57.9049,-21.2874],[-57.9043,-21.2749],[-57.8479,-21.2162],[-57.834,-21.1738],[-57.8299,-21.127],[-57.8525,-21.0378],[-57.8254,-20.9986],[-57.8176,-20.9536],[-57.836,-20.9385],[-57.847,-20.956],[-57.9148,-20.9056],[-57.9179,-20.8944],[-57.9087,-20.8816],[-57.8571,-20.8497],[-57.8596,-20.8316],[-57.8877,-20.8059],[-57.9404,-20.7936],[-57.8988,-20.7566],[-57.8653,-20.7474],[-57.8602,-20.7303],[-57.9181,-20.6698],[-57.9472,-20.6751],[-57.9564,-20.7099],[-57.965,-20.711],[-57.9806,-20.6927],[-57.9731,-20.6512],[-57.991,-20.6206],[-58.01,-20.5001],[-57.9894,-20.4331],[-58.0456,-20.4093],[-58.083,-20.3762],[-58.0977,-20.3346],[-58.0951,-20.2722],[-58.1098,-20.2607],[-58.137,-20.2744],[-58.1563,-20.2617],[-58.1627,-20.2432],[-58.1553,-20.2264],[-58.1185,-20.2144],[-58.137,-20.1856],[-58.1583,-20.1811],[-58.1588,-20.1651],[-58.1036,-20.144],[-58.0862,-20.1209],[-58.0535,-20.1077],[-58.0224,-20.065],[-57.9758,-20.0475],[-57.9592,-20.0262],[-57.9179,-20.0342],[-57.8956,-20.0242],[-57.8597,-19.9801],[-58.1169,-19.758],[-58.1246,-19.7299],[-57.789,-19.0592],[-57.7719,-19.0487],[-57.7158,-19.0446],[-57.7318,-18.922],[-57.7422,-18.9136],[-57.7823,-18.9104],[-57.5667,-18.2561],[-57.5357,-18.2405],[-57.4668,-18.2396],[-57.4657,-18.2177],[-57.4745,-18.208],[-57.5112,-18.2056],[-57.5511,-18.1836],[-57.6369,-18.0011],[-57.7301,-17.8461],[-57.6988,-17.8431],[-57.6968,-17.8251],[-57.733,-17.7685],[-57.7245,-17.7366],[-57.7676,-17.7087],[-57.7859,-17.6775],[-57.7908,-17.5558],[-57.8007,-17.5335],[-57.8367,-17.511],[-57.9436,-17.5178],[-58.0102,-17.4968],[-58.0537,-17.4623],[-58.1011,-17.4413],[-58.1522,-17.3964],[-58.2041,-17.3774],[-58.2316,-17.3297],[-58.2645,-17.32],[-58.3021,-17.2938],[-58.3437,-17.287],[-58.3812,-17.2672],[-58.3991,-17.2374],[-58.4063,-17.1101],[-58.4268,-17.0552],[-58.4325,-16.9854],[-58.4564,-16.937],[-58.4663,-16.8873],[-58.4529,-16.8413],[-58.4803,-16.6837],[-58.4559,-16.6191],[-58.3561,-16.5095],[-58.3427,-16.4732],[-58.3636,-16.4367],[-58.3623,-16.4193],[-58.3388,-16.4005],[-58.3345,-16.3866],[-58.3396,-16.2893],[-58.3497,-16.2804],[-58.3929,-16.2794],[-58.4216,-16.3184],[-58.4647,-16.3313],[-60.1298,-16.2731],[-60.1607,-16.2648],[-60.1798,-16.222],[-60.238,-15.5027],[-60.2464,-15.4783],[-60.5295,-15.1437],[-60.5822,-15.0989],[-60.275,-15.0952],[-60.2698,-15.0834],[-60.2917,-14.6301],[-60.304,-14.6082],[-60.3527,-14.5754],[-60.3692,-14.5428],[-60.3384,-14.5326],[-60.3438,-14.4909],[-60.3767,-14.4199],[-60.3913,-14.3571],[-60.4643,-14.2784],[-60.4624,-14.1985],[-60.4789,-14.1627],[-60.4735,-14.1172],[-60.4683,-14.1037],[-60.4194,-14.0769],[-60.3872,-13.9833],[-60.4116,-13.9605],[-60.4086,-13.9445],[-60.4386,-13.9184],[-60.4488,-13.8968],[-60.4726,-13.7979],[-60.5751,-13.7656],[-60.5886,-13.7445],[-60.6527,-13.7188],[-60.802,-13.6042],[-60.8707,-13.5754],[-60.8967,-13.5529],[-61.022,-13.5352],[-61.0413,-13.5152],[-61.0472,-13.4646],[-61.1187,-13.4845],[-61.1491,-13.5198],[-61.2486,-13.5244],[-61.2812,-13.5072],[-61.3477,-13.4937],[-61.4588,-13.5437],[-61.5034,-13.5482],[-61.5508,-13.538],[-61.5971,-13.5061],[-61.6929,-13.518],[-61.7351,-13.538],[-61.7543,-13.5303],[-61.814,-13.5442],[-61.8364,-13.5406],[-61.848,-13.5308],[-61.8723,-13.4561],[-61.9584,-13.3855],[-62.0033,-13.3605],[-62.0197,-13.3326],[-62.1094,-13.249],[-62.1147,-13.1502],[-62.1398,-13.147],[-62.1725,-13.1179],[-62.174,-13.1408],[-62.2115,-13.1203],[-62.2903,-13.142],[-62.3105,-13.134],[-62.335,-13.1451],[-62.4241,-13.1265],[-62.4721,-13.0685],[-62.5546,-13.0668],[-62.6417,-13.03],[-62.6513,-12.9925],[-62.6866,-12.965],[-62.722,-12.9826],[-62.7686,-12.9906],[-62.7705,-13.0105],[-62.7898,-13.0007],[-62.8202,-12.9749],[-62.8314,-12.9449],[-62.8651,-12.9355],[-62.9289,-12.846],[-62.9551,-12.8575],[-62.988,-12.8439],[-63.0147,-12.7777],[-63.0511,-12.7422],[-63.0435,-12.7191],[-63.075,-12.6527],[-63.1367,-12.6337],[-63.1671,-12.6474],[-63.1807,-12.6679],[-63.2018,-12.6679],[-63.236,-12.6986],[-63.3179,-12.702],[-63.4314,-12.637],[-63.4382,-12.6192],[-63.4625,-12.6051],[-63.4688,-12.5758],[-63.4858,-12.5575],[-63.5422,-12.548],[-63.6577,-12.4754],[-63.8014,-12.4549],[-63.8629,-12.4692],[-63.9212,-12.5443],[-63.9391,-12.5441],[-63.9724,-12.5239],[-64.0228,-12.5378],[-64.0445,-12.5091],[-64.1045,-12.5071],[-64.1198,-12.4897],[-64.1448,-12.5204],[-64.1831,-12.4879],[-64.2152,-12.4738],[-64.2366,-12.4754],[-64.2687,-12.4972],[-64.2875,-12.4971],[-64.2977,-12.4657],[-64.3532,-12.4692],[-64.3957,-12.4573],[-64.4525,-12.3904],[-64.4898,-12.3736],[-64.4924,-12.3566],[-64.4744,-12.3165],[-64.4682,-12.2726],[-64.473,-12.2532],[-64.4894,-12.2395],[-64.5088,-12.236],[-64.5115,-12.2427],[-64.5484,-12.2191],[-64.5934,-12.216],[-64.6649,-12.181],[-64.689,-12.1539],[-64.6816,-12.1266],[-64.6899,-12.1044],[-64.7103,-12.1119],[-64.7163,-12.1465],[-64.7395,-12.1446],[-64.7442,-12.1336],[-64.7368,-12.1198],[-64.7686,-12.0865],[-64.7925,-12.0325],[-64.8398,-12.0167],[-64.8621,-12.0248],[-64.9974,-11.9963],[-65.0163,-11.9685],[-64.9981,-11.9089],[-65.0337,-11.8798],[-65.0385,-11.8187],[-65.0656,-11.7531],[-65.1136,-11.7226],[-65.1134,-11.6906],[-65.134,-11.7026],[-65.1515,-11.7731],[-65.1962,-11.7418],[-65.2023,-11.6915],[-65.1893,-11.6571],[-65.1934,-11.6324],[-65.1909,-11.6232],[-65.1674,-11.6155],[-65.2192,-11.5845],[-65.2236,-11.5579],[-65.216,-11.5301],[-65.2227,-11.5174],[-65.2576,-11.4953],[-65.2925,-11.5047],[-65.3195,-11.4764],[-65.3548,-11.3824],[-65.3264,-11.3278],[-65.3745,-11.2958],[-65.3873,-11.2776],[-65.3886,-11.2532],[-65.36,-11.2188],[-65.3981,-11.178],[-65.3947,-11.1534],[-65.341,-11.1066],[-65.3333,-11.0885],[-65.342,-11.0328],[-65.303,-10.9907],[-65.2996,-10.9697],[-65.3128,-10.951],[-65.319,-10.8654],[-65.3271,-10.8505],[-65.3603,-10.8226],[-65.3997,-10.8123],[-65.4047,-10.7992],[-65.3811,-10.6981],[-65.3868,-10.6695],[-65.4357,-10.6258],[-65.4292,-10.5614],[-65.4416,-10.5278],[-65.4357,-10.4992],[-65.45,-10.4681],[-65.4254,-10.4631],[-65.4109,-10.4492],[-65.3873,-10.4067],[-65.3947,-10.3924],[-65.3792,-10.3514],[-65.365,-10.3322],[-65.3278,-10.3144],[-65.3054,-10.2422],[-65.2848,-10.2068],[-65.3368,-9.9672],[-65.3333,-9.9268],[-65.2991,-9.8413],[-65.3401,-9.7897],[-65.3705,-9.7106],[-65.398,-9.6867],[-65.4518,-9.6814],[-65.5108,-9.7341],[-65.5353,-9.7825],[-65.568,-9.8021],[-65.584,-9.8372],[-65.6289,-9.8269],[-65.679,-9.7894],[-65.7131,-9.7942],[-65.71,-9.756],[-65.7724,-9.7688],[-65.7886,-9.733],[-65.8064,-9.7844],[-65.8221,-9.7818],[-65.8341,-9.7583],[-65.8625,-9.7818],[-65.947,-9.7714],[-66.0295,-9.8083],[-66.087,-9.7845],[-66.102,-9.7874],[-66.1182,-9.806],[-66.1355,-9.7952],[-66.1907,-9.8008],[-66.2573,-9.8349],[-66.3553,-9.8496],[-66.4327,-9.8861],[-66.5138,-9.8839],[-66.6426,-9.9079],[-66.6601,-9.9453],[-66.7706,-9.9926],[-66.9027,-10.0931],[-67.0643,-10.2569],[-67.11,-10.2826],[-67.1517,-10.289],[-67.1847,-10.3267],[-67.2592,-10.3137],[-67.3235,-10.3189],[-67.3378,-10.3261],[-67.3337,-10.3567],[-67.3428,-10.3725],[-67.4183,-10.3815],[-67.4293,-10.3904],[-67.4366,-10.4175],[-67.468,-10.4523],[-67.5846,-10.5018],[-67.6435,-10.5745],[-67.6847,-10.6105],[-67.7217,-10.7055],[-67.7558,-10.7142],[-67.8333,-10.665],[-67.8626,-10.6588],[-68.0102,-10.6597],[-68.0438,-10.6669],[-68.1121,-10.7141],[-68.1473,-10.7796],[-68.2036,-10.8389],[-68.2575,-10.9388],[-68.2933,-10.979],[-68.3311,-11.0005],[-68.3783,-11.005],[-68.4282,-11.0437],[-68.4933,-11.0474],[-68.5361,-11.0615],[-68.6157,-11.1125],[-68.7759,-11.1406],[-68.787,-11.126],[-68.7912,-11.0851],[-68.7856,-11.0593],[-68.7576,-11.0119],[-68.8047,-10.9947],[-68.884,-11.0164],[-68.9554,-11.0005],[-68.997,-11.0017],[-69.0869,-10.9672],[-69.2935,-10.955],[-69.3959,-10.935],[-69.5029,-10.9553],[-69.5962,-10.952],[-69.7202,-10.9649],[-69.7534,-10.9583],[-69.8083,-10.9272],[-69.9561,-10.9193],[-70.1987,-11.0412],[-70.2894,-11.0648],[-70.3913,-11.0591],[-70.4373,-11.0367],[-70.5341,-10.9381],[-70.5556,-10.9428],[-70.6413,-11.0108],[-70.6384,-9.8518],[-70.629,-9.8116],[-70.6151,-9.7923],[-70.5952,-9.779],[-70.5796,-9.7857],[-70.5691,-9.7791],[-70.5419,-9.7082],[-70.5602,-9.6733],[-70.6008,-9.6353],[-70.6244,-9.5658],[-70.5645,-9.5654],[-70.5781,-9.5418],[-70.5762,-9.5291],[-70.5551,-9.516],[-70.5619,-9.5017],[-70.5433,-9.4935],[-70.525,-9.4309],[-70.6064,-9.4488],[-70.6808,-9.5277],[-70.7473,-9.5646],[-70.8252,-9.6336],[-70.8755,-9.6605],[-70.9203,-9.7201],[-70.969,-9.7549],[-70.9972,-9.8035],[-71.0154,-9.8175],[-71.1443,-9.8631],[-71.1611,-9.8756],[-71.1965,-9.9399],[-71.2451,-9.9561],[-71.2997,-9.9934],[-71.3396,-9.9798],[-71.3914,-10.0068],[-72.1957,-10.0056],[-72.1846,-9.9846],[-72.1839,-9.929],[-72.1627,-9.9001],[-72.1629,-9.8772],[-72.1947,-9.8058],[-72.2652,-9.7622],[-72.277,-9.7243],[-72.2617,-9.6674],[-72.3041,-9.6009],[-72.3127,-9.5325],[-72.3445,-9.5329],[-72.4095,-9.4863],[-72.5356,-9.4816],[-72.6365,-9.4429],[-72.6559,-9.439],[-72.6723,-9.4467],[-72.6917,-9.4351],[-72.8133,-9.4109],[-73.215,-9.409],[-73.1408,-9.3228],[-73.0902,-9.2442],[-73.0344,-9.2226],[-73.0279,-9.1831],[-72.972,-9.1344],[-72.9594,-9.0856],[-72.9761,-8.9854],[-73.0167,-8.9304],[-73.0686,-8.8937],[-73.1458,-8.7822],[-73.1746,-8.7207],[-73.211,-8.6939],[-73.2899,-8.6705],[-73.3506,-8.5983],[-73.3577,-8.563],[-73.3483,-8.5183],[-73.3564,-8.4798],[-73.3705,-8.4652],[-73.4102,-8.4555],[-73.4473,-8.4161],[-73.5408,-8.3591],[-73.5617,-8.2727],[-73.6033,-8.2116],[-73.6011,-8.1361],[-73.6447,-8.0683],[-73.668,-8.0138],[-73.7485,-7.977],[-73.7849,-7.9404],[-73.7946,-7.8741],[-73.7461,-7.8864],[-73.7137,-7.8663],[-73.7026,-7.8278],[-73.7122,-7.7882],[-73.7422,-7.7641],[-73.8111,-7.7393],[-73.8388,-7.7206],[-73.9694,-7.5847],[-74.0097,-7.5611],[-74.0185,-7.5435],[-73.9714,-7.524],[-73.9443,-7.4487],[-73.9829,-7.3564],[-73.902,-7.3734],[-73.8259,-7.3374],[-73.7413,-7.3344],[-73.7131,-7.3047],[-73.7345,-7.2251],[-73.8123,-7.1029],[-73.7677,-6.9593],[-73.7594,-6.8874],[-73.7068,-6.8496],[-73.672,-6.8007],[-73.5132,-6.6978],[-73.3707,-6.5839],[-73.2336,-6.564],[-73.199,-6.5456],[-73.1478,-6.4762],[-73.1318,-6.4353],[-73.127,-6.3913],[-73.1557,-6.3227],[-73.1777,-6.2024],[-73.226,-6.1479],[-73.2353,-6.1237],[-73.2348,-6.0776],[-73.14,-5.8785],[-73.1056,-5.847],[-73.0014,-5.7088],[-72.9769,-5.6517],[-72.9605,-5.5592],[-72.9735,-5.4661],[-72.9348,-5.3722],[-72.924,-5.3136],[-72.8967,-5.2716],[-72.9003,-5.1946],[-72.922,-5.1469],[-72.9179,-5.1321],[-72.8589,-5.1161],[-72.854,-5.0925],[-72.8311,-5.0966],[-72.7729,-5.0811],[-72.7476,-5.0551],[-72.708,-5.0632],[-72.6448,-5.0606],[-72.6143,-5.0097],[-72.5866,-4.9967],[-72.5464,-4.9582],[-72.4951,-4.947],[-72.4765,-4.9025],[-72.4526,-4.8992],[-72.4147,-4.8763],[-72.4041,-4.8602],[-72.3968,-4.8056],[-72.3861,-4.794],[-72.3447,-4.7826],[-72.3319,-4.7633],[-72.2511,-4.7588],[-72.108,-4.6643],[-72.0711,-4.6051],[-72.0355,-4.6119],[-72.0098,-4.5916],[-71.9803,-4.5823],[-71.9072,-4.5184],[-71.8007,-4.5024],[-71.7848,-4.4805],[-71.7402,-4.4956],[-71.6993,-4.4816],[-71.6652,-4.5076],[-71.6134,-4.4793],[-71.6171,-4.5003],[-71.5716,-4.4807],[-71.5246,-4.4852],[-71.5061,-4.4486],[-71.4774,-4.4406],[-71.387,-4.4349],[-71.3633,-4.4592],[-71.3308,-4.4351],[-71.3152,-4.44],[-71.3054,-4.4271],[-71.3046,-4.3949],[-71.2648,-4.3755],[-71.2417,-4.38],[-71.2141,-4.4108],[-71.1862,-4.3722],[-71.1697,-4.3628],[-71.1525,-4.3917],[-71.1285,-4.4018],[-71.106,-4.3738],[-71.0816,-4.3641],[-71.0293,-4.3858],[-71.01,-4.3698],[-71.0055,-4.3476],[-70.9687,-4.3853],[-70.8964,-4.2998],[-70.8737,-4.2507],[-70.8428,-4.2381],[-70.8483,-4.2044],[-70.8322,-4.1794],[-70.7743,-4.155],[-70.6941,-4.1723],[-70.6629,-4.1222],[-70.6468,-4.1157],[-70.6311,-4.119],[-70.6325,-4.1668],[-70.5853,-4.1945],[-70.5656,-4.1488],[-70.5497,-4.1407],[-70.5341,-4.1468],[-70.5264,-4.176],[-70.516,-4.1823],[-70.4299,-4.1342],[-70.3987,-4.1423],[-70.3614,-4.1682],[-70.3431,-4.1394],[-70.3306,-4.1432],[-70.3111,-4.1709],[-70.3167,-4.247],[-70.2576,-4.2992],[-70.2313,-4.3037],[-70.2056,-4.3429],[-70.1866,-4.3263],[-70.1573,-4.2702],[-70.1389,-4.2605],[-70.0966,-4.2657],[-70.0756,-4.3162],[-70.037,-4.3409],[-69.9894,-4.3146],[-69.9718,-4.291],[-69.9626,-4.2643],[-69.965,-4.2365],[-69.9472,-4.2011],[-69.4664,-1.5611],[-69.4339,-1.4222],[-69.4347,-1.3764],[-69.4183,-1.2841],[-69.4211,-1.2386],[-69.3995,-1.1827],[-69.4482,-1.0921],[-69.4429,-1.0084],[-69.4712,-0.988],[-69.4931,-0.9562],[-69.5326,-0.9341],[-69.5373,-0.8895],[-69.5732,-0.8492],[-69.5727,-0.8135],[-69.6284,-0.7334],[-69.5842,-0.6446],[-69.6045,-0.6063],[-69.6198,-0.5246],[-69.6495,-0.492],[-69.7465,-0.453],[-69.7914,-0.4082],[-69.8348,-0.3832],[-69.8581,-0.3414],[-69.9336,-0.3143],[-70.068,-0.1601],[-70.0738,-0.1249],[-70.0542,0.5881],[-70.0394,0.5746],[-69.9992,0.5898],[-69.9529,0.5858],[-69.8053,0.6069],[-69.7329,0.639],[-69.6947,0.6687],[-69.6192,0.6507],[-69.5941,0.6893],[-69.5556,0.7002],[-69.5037,0.7296],[-69.4781,0.7328],[-69.4397,0.7158],[-69.3626,0.6409],[-69.3021,0.6565],[-69.2928,0.6456],[-69.2971,0.6181],[-69.2262,0.6148],[-69.2006,0.6395],[-69.1623,0.6314],[-69.1437,0.6375],[-69.1375,0.6501],[-69.1521,0.6906],[-69.1893,0.7152],[-69.1923,0.7289],[-69.1678,0.756],[-69.1754,0.8444],[-69.1523,0.8543],[-69.1524,0.8678],[-69.21,0.9075],[-69.2043,0.9437],[-69.2262,0.9572],[-69.2328,0.9884],[-69.2888,1.0384],[-69.355,1.0671],[-69.4182,1.0286],[-69.4783,1.0607],[-69.543,1.0556],[-69.6199,1.0728],[-69.716,1.0586],[-69.7265,1.061],[-69.7281,1.083],[-69.7626,1.0911],[-69.8294,1.0572],[-69.8522,1.0594],[-69.8488,1.6689],[-69.8562,1.7077],[-69.8075,1.7074],[-69.7292,1.739],[-69.6491,1.7389],[-69.5803,1.7702],[-69.542,1.7727],[-69.4692,1.7574],[-69.3934,1.7253],[-69.3524,1.7202],[-68.1633,1.7213],[-68.1888,1.7358],[-68.1935,1.7637],[-68.239,1.7703],[-68.239,1.8103],[-68.2483,1.8221],[-68.2802,1.8294],[-68.1922,2.0149],[-68.1771,1.9732],[-68.1261,1.9562],[-68.1111,1.9424],[-68.0587,1.8164],[-68.0318,1.7775],[-67.9982,1.75],[-67.9288,1.7413],[-67.8605,1.7615],[-67.8208,1.784],[-67.7905,1.8126],[-67.6697,1.9733],[-67.593,2.0548],[-67.5103,2.1074],[-67.4753,2.1119],[-67.4397,2.1396],[-67.4246,2.1381],[-67.3658,2.115],[-67.3406,2.0901],[-67.2648,1.9325],[-67.1557,1.7881],[-67.1172,1.7098],[-67.083,1.6046],[-67.0736,1.5412],[-67.0982,1.2534],[-67.0861,1.176],[-67.0652,1.1727],[-66.8751,1.2225],[-66.4071,0.8021],[-66.3462,0.7594],[-66.2851,0.7458],[-66.2087,0.7631],[-66.1563,0.733],[-66.1344,0.7311],[-66.1111,0.7418],[-66.0792,0.7776],[-65.9942,0.7947],[-65.9741,0.807],[-65.8918,0.8956],[-65.7454,0.9742],[-65.701,0.9844],[-65.596,0.9836],[-65.5709,0.9686],[-65.5358,0.9285],[-65.517,0.8628],[-65.5332,0.8163],[-65.5873,0.7391],[-65.5852,0.6915],[-65.5605,0.656],[-65.5427,0.6493],[-65.4978,0.6587],[-65.4512,0.6901],[-65.4139,0.7416],[-65.4,0.8165],[-65.3272,0.9103],[-65.3103,0.9187],[-65.2231,0.9144],[-65.203,0.9238],[-65.179,0.9554],[-65.1602,1.0802],[-65.1368,1.1269],[-65.0225,1.14],[-65.0174,1.163],[-64.9665,1.2006],[-64.8974,1.2197],[-64.8393,1.2708],[-64.8214,1.2706],[-64.7713,1.2467],[-64.7309,1.2476],[-64.6042,1.3313],[-64.5512,1.4195],[-64.409,1.5075],[-64.3864,1.5102],[-64.3646,1.4971],[-64.3638,1.4774],[-64.385,1.4364],[-64.3948,1.3922],[-64.3896,1.3693],[-64.3701,1.3587],[-64.3529,1.3658],[-64.3015,1.4467],[-64.2321,1.4971],[-64.1771,1.5511],[-64.1297,1.5781],[-64.093,1.6226],[-64.0725,1.6846],[-64.076,1.7454],[-64.0603,1.8075],[-64.0536,1.8937],[-64.0366,1.9273],[-63.995,1.958],[-63.9583,1.9707],[-63.7832,1.975],[-63.6175,2.1012],[-63.562,2.1264],[-63.5107,2.1246],[-63.4118,2.1494],[-63.4006,2.2046],[-63.3726,2.2668],[-63.3728,2.3491],[-63.3611,2.4],[-63.3649,2.4131],[-63.3848,2.4206],[-63.7041,2.4376],[-63.8313,2.4286],[-63.9518,2.4615],[-64.0325,2.463],[-64.048,2.4713],[-64.0578,2.5104],[-64.0122,2.6038],[-63.9976,2.7149],[-64.0291,2.798],[-64.106,2.9472],[-64.2229,3.124],[-64.2163,3.2514],[-64.2456,3.4189],[-64.2421,3.443],[-64.1979,3.5151],[-64.203,3.5947],[-64.2656,3.6522],[-64.3242,3.7241],[-64.4345,3.7785],[-64.5314,3.8535],[-64.575,3.9142],[-64.6429,3.973],[-64.7074,4.083],[-64.7271,4.1408],[-64.7419,4.1572],[-64.8013,4.1885],[-64.813,4.2106],[-64.8129,4.2528],[-64.7916,4.2844],[-64.7459,4.2876],[-64.6999,4.2642],[-64.661,4.2275],[-64.6082,4.1265],[-64.5897,4.1189],[-64.365,4.1519],[-64.2406,4.142],[-64.1467,4.1106],[-64.1081,4.0581],[-64.0638,3.9116],[-64.0377,3.8825],[-63.9964,3.8808],[-63.8751,3.9498],[-63.8311,3.9495],[-63.771,3.9288],[-63.6716,3.9462],[-63.6228,3.9352],[-63.5542,3.8754],[-63.5107,3.8545],[-63.4689,3.8672],[-63.4482,3.9394],[-63.4254,3.9684],[-63.3914,3.9716],[-63.3517,3.9587],[-63.286,3.9208],[-63.2512,3.8866],[-63.1932,3.8067],[-63.1308,3.7621],[-62.9971,3.5991],[-62.9511,3.5702],[-62.8894,3.5608],[-62.8223,3.5988],[-62.7863,3.6044],[-62.7496,3.6604],[-62.7404,3.7419],[-62.7888,3.8994],[-62.7663,3.9647],[-62.7662,4.0207],[-62.7275,4.0385],[-62.6707,4.0437],[-62.5887,4.0307],[-62.561,4.0378],[-62.5464,4.1139],[-62.537,4.1254],[-62.4837,4.1392],[-62.4699,4.1516],[-62.463,4.1747],[-62.4281,4.1832],[-62.3842,4.1735],[-62.1927,4.0947],[-62.1536,4.0903],[-62.1111,4.1048],[-62.035,4.1599],[-61.9902,4.1664],[-61.9315,4.1464],[-61.8881,4.1502],[-61.831,4.1769],[-61.7564,4.2464],[-61.7189,4.2547],[-61.6405,4.2419],[-61.5991,4.2544],[-61.5673,4.2485],[-61.5522,4.255],[-61.5224,4.2978],[-61.5164,4.3748],[-61.5019,4.4019],[-61.4582,4.4191],[-61.3332,4.4239],[-61.2931,4.4481],[-61.2958,4.469],[-61.3229,4.5088],[-61.3156,4.5208],[-61.2381,4.5159],[-61.1686,4.4902],[-61.012,4.5183],[-60.9773,4.535],[-60.9478,4.5736],[-60.9311,4.6374],[-60.8958,4.7085],[-60.86,4.7124],[-60.7182,4.7843],[-60.6126,4.9006],[-60.5919,4.9497],[-60.5987,4.9969],[-60.6643,5.1703],[-60.6849,5.1883],[-60.7399,5.2021],[-60.6952,5.2119],[-60.6136,5.2089],[-60.5683,5.1897],[-60.4775,5.1919],[-60.449,5.1742],[-60.4198,5.2072],[-60.3331,5.1938],[-60.2737,5.2474],[-60.2134,5.2672],[-60.2003,5.2635],[-60.1766,5.2271],[-60.1317,5.2434],[-60.0757,5.1408],[-59.9831,5.0859],[-59.9815,5.0574],[-59.9993,4.9969],[-60.0205,4.8323],[-60.0345,4.7878],[-60.0325,4.7254],[-60.0756,4.6503],[-60.0877,4.6075],[-60.1061,4.5954],[-60.1348,4.5935],[-60.1615,4.5652],[-60.16,4.5278],[-60.1488,4.513],[-60.1209,4.5024],[-60.1062,4.5066],[-60.0986,4.526],[-60.0878,4.5255],[-60.0715,4.5125],[-60.0663,4.4943],[-60.0556,4.4916],[-60.0207,4.4989],[-59.9846,4.4888],[-59.9746,4.5037],[-59.9531,4.5059],[-59.9343,4.4983],[-59.9146,4.4744],[-59.8729,4.4847],[-59.8632,4.4607],[-59.8262,4.4546],[-59.8096,4.4657],[-59.7135,4.3894],[-59.6867,4.3812],[-59.6936,4.3407],[-59.7385,4.2866],[-59.7245,4.2641],[-59.738,4.24],[-59.7385,4.2028],[-59.7267,4.1765],[-59.6462,4.134],[-59.6633,4.0797],[-59.5954,3.9964],[-59.5963,3.9706],[-59.5368,3.9577],[-59.5277,3.9395],[-59.5347,3.9271],[-59.5632,3.9182],[-59.5818,3.8992],[-59.6025,3.8557],[-59.5986,3.8024],[-59.6718,3.7562],[-59.6862,3.6902],[-59.7555,3.6381],[-59.8377,3.6093],[-59.8629,3.5817],[-59.863,3.5524],[-59.8295,3.5098],[-59.8214,3.4844],[-59.8414,3.4254],[-59.824,3.4317],[-59.8285,3.3834],[-59.8218,3.3566],[-59.8432,3.349],[-59.8976,3.2174],[-59.9167,3.1942],[-59.9032,3.1587],[-59.9216,3.1501],[-59.9116,3.1264],[-59.9327,3.11],[-59.9692,3.0427],[-59.973,2.9393],[-59.9937,2.8573],[-60.0001,2.694],[-59.965,2.6134],[-59.971,2.5926],[-59.9531,2.5839],[-59.9407,2.563],[-59.9358,2.5239],[-59.9068,2.4588],[-59.9015,2.4045],[-59.9134,2.3787],[-59.8841,2.346],[-59.8012,2.2927],[-59.7632,2.288],[-59.7417,2.2638],[-59.745,2.1535],[-59.7354,2.1135],[-59.753,2.0755],[-59.7371,2.0304],[-59.7438,1.9618],[-59.7645,1.9205],[-59.7588,1.8621],[-59.7497,1.8513],[-59.7056,1.8574],[-59.6465,1.84],[-59.6808,1.7574],[-59.6397,1.7218],[-59.5727,1.7272],[-59.5307,1.7031],[-59.4168,1.5553],[-59.3946,1.5494],[-59.3802,1.5233],[-59.3386,1.5246],[-59.3269,1.5095],[-59.3203,1.4735],[-59.2938,1.4521],[-59.2599,1.3874],[-59.178,1.3571],[-59.0111,1.3276],[-58.9665,1.3102],[-58.9275,1.2842],[-58.8979,1.2178],[-58.8721,1.1972],[-58.834,1.1858],[-58.7719,1.2013],[-58.6977,1.2811],[-58.5805,1.2727],[-58.557,1.2869],[-58.5189,1.2673],[-58.4811,1.3339],[-58.4881,1.3789],[-58.5137,1.4389],[-58.4989,1.4574],[-58.4135,1.472],[-58.3864,1.4902],[-58.3903,1.5308],[-58.3514,1.5533],[-58.3205,1.6012],[-58.2992,1.5752],[-58.2605,1.5603],[-58.2197,1.5561],[-58.1873,1.5676],[-58.1629,1.5492],[-58.1486,1.5191],[-58.0691,1.509],[-58.0272,1.5169],[-57.987,1.5868],[-57.991,1.6504],[-57.985,1.6577],[-57.9222,1.6425],[-57.7588,1.7135],[-57.6386,1.6962],[-57.5612,1.709],[-57.5313,1.7315],[-57.4648,1.8157],[-57.4295,1.9003],[-57.3845,1.9252],[-57.3415,1.9688],[-57.3194,1.9771],[-57.2948,1.9748],[-57.2384,1.9485],[-57.1529,2.0022],[-57.1045,2.0215],[-57.0741,1.9972],[-57.056,1.9481],[-57.0112,1.9186],[-56.9219,1.9181],[-56.8907,1.8902],[-56.8065,1.8736],[-56.7806,1.8791],[-56.7376,1.913],[-56.684,1.9121],[-56.6396,1.9369],[-56.6202,1.9346],[-56.5749,1.9055],[-56.4818,1.9416],[-56.4152,1.9197],[-56.348,1.9266],[-56.2738,1.8875],[-56.2098,1.8885],[-56.0197,1.8335],[-55.9538,1.8533],[-55.922,1.8862],[-55.9183,2.0504],[-55.9958,2.1374],[-56.0313,2.1635],[-56.054,2.2241],[-56.0729,2.2415],[-56.1468,2.2562],[-56.132,2.3044],[-56.1038,2.3491],[-56.0622,2.3416],[-56.0502,2.347],[-56.0133,2.3988],[-55.9969,2.5033],[-55.9892,2.5208],[-55.971,2.5303],[-55.925,2.5157],[-55.8538,2.4626],[-55.7736,2.4401],[-55.7546,2.4094],[-55.7243,2.3969],[-55.6083,2.434],[-55.3996,2.4302],[-55.3711,2.4425],[-55.3545,2.4949],[-55.3205,2.5183],[-55.3028,2.5197],[-55.2753,2.4993],[-55.2519,2.4979],[-55.172,2.5593],[-55.1378,2.5622],[-55.1366,2.5338],[-55.1209,2.5248],[-55.0763,2.5452],[-55.0177,2.5906],[-54.9591,2.609],[-54.9537,2.5991],[-54.9796,2.5661],[-54.9786,2.5431],[-54.8803,2.4473],[-54.8419,2.4335],[-54.743,2.4665],[-54.7032,2.4458],[-54.6956,2.4035],[-54.71,2.3948],[-54.7157,2.3759],[-54.7041,2.3248],[-54.6729,2.316],[-54.5882,2.3244],[-54.5264,2.2827],[-54.5491,2.2794],[-54.5458,2.2686],[-54.4766,2.2141],[-54.3739,2.1965],[-54.314,2.1549],[-54.2638,2.1482],[-54.1885,2.1613],[-54.1574,2.1217],[-54.1349,2.1107],[-54.1114,2.1143],[-54.0984,2.128],[-54.0767,2.1837],[-54.0485,2.1888],[-54.028,2.1786],[-53.9639,2.2093],[-53.9461,2.222],[-53.9329,2.2696],[-53.9012,2.2645],[-53.8668,2.3049],[-53.8309,2.3101],[-53.801,2.3538],[-53.7648,2.3687],[-53.7483,2.3647],[-53.7374,2.3491],[-53.7482,2.3193],[-53.7422,2.3085],[-53.7132,2.3074],[-53.646,2.2785],[-53.579,2.2704],[-53.5318,2.247],[-53.4621,2.259],[-53.3785,2.3076],[-53.3441,2.3496],[-53.3226,2.3386],[-53.2974,2.3037],[-53.2342,2.251],[-53.2347,2.2413],[-53.2722,2.22],[-53.2797,2.205],[-53.2685,2.1957],[-53.1134,2.2193],[-53.0612,2.1863],[-52.9597,2.1752],[-52.9391,2.1957],[-52.9231,2.1937],[-52.9067,2.205],[-52.8802,2.2604],[-52.8627,2.2742],[-52.8197,2.2915],[-52.6906,2.373],[-52.6561,2.4309],[-52.6192,2.4635],[-52.5904,2.5047],[-52.5519,2.5866],[-52.5758,2.6337],[-52.543,2.6515],[-52.4553,2.865],[-52.4093,2.8973],[-52.4222,2.9275],[-52.3516,3.066],[-52.3611,3.1093],[-52.3553,3.1516],[-52.3194,3.1776],[-52.2991,3.2253],[-52.2795,3.2425],[-52.2512,3.2431],[-52.2279,3.2601],[-52.0928,3.4814],[-52.0936,3.5069],[-52.0742,3.5166],[-52.0128,3.6191],[-51.9884,3.7046],[-51.9728,3.7217],[-51.9401,3.734],[-51.9387,3.7736],[-51.8997,3.7967],[-51.8354,3.8675],[-51.7832,3.9809],[-51.7579,4.0025],[-51.6516,4.0477],[-51.6317,4.0678],[-51.5958,4.1579],[-51.5969,4.2155],[-51.5853,4.2338],[-51.5716,4.2354],[-51.5597,4.2237],[-51.5119,4.0803],[-51.4368,3.9295],[-51.4282,3.9577],[-51.4354,3.9859],[-51.4982,4.1054],[-51.5467,4.255],[-51.56,4.3694],[-51.5477,4.4218],[-51.5165,4.4411],[-51.3892,4.3589],[-51.2244,4.165],[-51.1869,4.0788],[-51.1794,4.0252],[-51.1802,3.8044],[-51.1975,3.6995],[-51.1761,3.6483],[-51.1364,3.8677],[-51.1164,3.9062],[-51.0932,3.9072],[-51.0799,3.8823],[-51.09,3.725],[-51.0794,3.4921],[-51.0965,3.449],[-51.0927,3.3763],[-51.036,3.2292],[-51.0278,3.1816],[-51.0406,3.1509],[-51.014,3.0724],[-51.0168,3.0356],[-51.004,3.0227],[-50.9797,2.9386],[-50.9442,2.8752],[-50.9445,2.8222],[-50.9028,2.7938],[-50.8658,2.6842],[-50.8522,2.6661],[-50.819,2.5524],[-50.8395,2.4975],[-50.8236,2.4897],[-50.8055,2.5044],[-50.7916,2.4946],[-50.763,2.4436],[-50.7126,2.2368],[-50.686,2.1985],[-50.6793,2.1717],[-50.7032,2.1413],[-50.7373,2.1345],[-50.7926,2.1618],[-50.7857,2.1413],[-50.7646,2.124],[-50.7797,2.0709],[-50.7615,2.0438],[-50.7516,2.0451],[-50.7347,2.1038],[-50.7021,2.1303],[-50.66,2.1307],[-50.6196,2.1052],[-50.6001,2.0752],[-50.5899,2.0172],[-50.5222,1.9125],[-50.5092,1.8572],[-50.4665,1.8154],[-50.3934,1.7978],[-50.3306,1.8181],[-50.2579,1.8078],[-50.1646,1.8156],[-50.0041,1.7516],[-49.9506,1.7213],[-49.9102,1.6643],[-49.9008,1.6117],[-49.8736,1.3923],[-49.883,1.3077],[-49.9129,1.2723],[-49.9753,1.245],[-50.1022,1.2147],[-50.1497,1.2212],[-50.1382,1.1937],[-50.1202,1.1852],[-50.098,1.1947],[-50.0674,1.1872],[-50.0262,1.1976],[-49.9755,1.1975],[-49.9448,1.2185],[-49.9215,1.2185],[-49.9049,1.2068],[-49.8876,1.1749],[-49.9081,1.1333],[-49.9389,1.0972],[-49.9788,1.0722],[-50.0143,1.0709],[-50.0316,1.1059],[-50.0609,1.0189],[-50.1061,0.9953],[-50.1414,0.9415],[-50.1704,0.9165],[-50.2616,0.8698],[-50.3125,0.8172],[-50.3534,0.7267],[-50.4534,0.664],[-50.4997,0.556],[-50.609,0.3739],[-50.7906,0.1695],[-50.854,0.1737],[-50.9289,0.1554],[-50.9798,0.1204],[-51.0814,-0.0325],[-51.2016,-0.0491],[-51.2152,-0.0687],[-51.2655,-0.0834],[-51.327,-0.0795],[-51.2822,-0.1031],[-51.2663,-0.1271],[-51.2512,-0.1274],[-51.3225,-0.2153],[-51.3884,-0.3737],[-51.443,-0.4284],[-51.4536,-0.4867],[-51.5218,-0.5383],[-51.5802,-0.5252],[-51.5802,-0.532],[-51.5528,-0.5383],[-51.5528,-0.5456],[-51.5876,-0.5519],[-51.5876,-0.5587],[-51.5611,-0.5587],[-51.5467,-0.5456],[-51.5324,-0.5519],[-51.6286,-0.676],[-51.6565,-0.6959],[-51.6975,-0.7472],[-51.7137,-0.7932],[-51.7242,-0.8777],[-51.7108,-0.9786],[-51.7155,-1.0275],[-51.8006,-1.0927],[-51.8341,-1.1347],[-51.9083,-1.158],[-51.9294,-1.1783],[-51.916,-1.3092],[-51.9346,-1.3395],[-51.9954,-1.3964],[-52.0658,-1.405],[-52.1514,-1.381],[-52.1954,-1.345],[-52.2381,-1.3464],[-52.2855,-1.3901],[-52.422,-1.4304],[-52.4578,-1.4583],[-52.4751,-1.4841],[-52.5581,-1.5187],[-52.6183,-1.5256],[-52.6974,-1.5524],[-52.71,-1.5678],[-52.7081,-1.6],[-52.595,-1.5735],[-52.4231,-1.5661],[-52.3439,-1.5524],[-52.2791,-1.5182],[-52.2504,-1.5422],[-52.2311,-1.6027],[-52.2586,-1.6555],[-52.2602,-1.6952],[-52.2488,-1.7031],[-52.204,-1.6902],[-52.1971,-1.6697],[-52.142,-1.6227],[-52.0774,-1.6213],[-52.0463,-1.6076],[-52.0048,-1.6076],[-51.9586,-1.5934],[-51.6695,-1.4016],[-51.595,-1.3869],[-51.462,-1.3294],[-51.4177,-1.2917],[-51.3996,-1.2511],[-51.327,-1.2309],[-51.3474,-1.2576],[-51.2834,-1.2314],[-51.1875,-1.1217],[-51.0329,-1.038],[-51.0034,-1.0138],[-50.9911,-0.9872],[-51.0098,-0.936],[-50.9973,-0.9225],[-50.9767,-0.9202],[-50.9574,-0.9499],[-50.9359,-0.9566],[-50.9533,-0.9313],[-50.9427,-0.9088],[-50.8396,-0.9128],[-50.8217,-0.9353],[-50.8267,-1.0453],[-50.9018,-1.121],[-50.9564,-1.1285],[-50.8475,-1.1978],[-50.8199,-1.2317],[-50.8267,-1.3709],[-50.8055,-1.4016],[-50.8192,-1.4363],[-50.7787,-1.4986],[-50.7667,-1.5408],[-50.6796,-1.629],[-50.6705,-1.6965],[-50.6547,-1.738],[-50.6739,-1.7647],[-50.691,-1.7654],[-50.7373,-1.738],[-50.7095,-1.7909],[-50.7173,-1.8225],[-50.7583,-1.8454],[-50.767,-1.8821],[-50.7876,-1.8974],[-50.8149,-1.8965],[-50.8798,-1.852],[-50.8927,-1.8792],[-50.8534,-1.9083],[-50.8544,-1.9331],[-50.8442,-1.9553],[-50.8186,-1.969],[-50.8262,-1.9306],[-50.8184,-1.9246],[-50.7372,-1.9213],[-50.7021,-1.9095],[-50.6986,-1.8541],[-50.66,-1.803],[-50.6106,-1.8142],[-50.5653,-1.8907],[-50.5472,-1.9069],[-50.5045,-1.9291],[-50.4667,-1.9278],[-50.463,-1.9397],[-50.484,-1.9776],[-50.443,-1.936],[-50.4432,-1.9566],[-50.4575,-1.9838],[-50.4286,-2.0629],[-50.4158,-2.0732],[-50.4039,-2.0358],[-50.3825,-2.0172],[-50.3728,-1.9737],[-50.3125,-1.9088],[-50.2808,-1.8938],[-50.2513,-1.9018],[-50.2316,-1.8958],[-50.1619,-1.9156],[-50.1548,-1.8827],[-50.1104,-1.8492],[-50.0249,-1.8261],[-49.9769,-1.8261],[-49.9322,-1.843],[-49.8693,-1.8888],[-49.8705,-1.919],[-49.8944,-1.9633],[-49.8603,-1.9225],[-49.8502,-1.9827],[-49.8876,-2.0875],[-49.8534,-2.0458],[-49.8375,-2.0812],[-49.8125,-2.108],[-49.8392,-2.005],[-49.8379,-1.9267],[-49.8466,-1.9018],[-49.8309,-1.9181],[-49.8323,-1.9496],[-49.8105,-1.9006],[-49.7605,-1.8967],[-49.7237,-1.9291],[-49.7279,-1.9108],[-49.7213,-1.9041],[-49.7026,-1.9225],[-49.694,-1.9073],[-49.6761,-1.9086],[-49.6046,-1.9679],[-49.5928,-2.0117],[-49.5794,-1.9943],[-49.5929,-1.964],[-49.6343,-1.9094],[-49.6474,-1.9156],[-49.6548,-1.8951],[-49.598,-1.8427],[-49.5633,-1.8352],[-49.5375,-1.8609],[-49.5224,-1.796],[-49.4852,-1.7639],[-49.4665,-1.7643],[-49.458,-1.7787],[-49.463,-1.8058],[-49.422,-1.779],[-49.4512,-1.8246],[-49.4542,-1.8561],[-49.4348,-1.88],[-49.3704,-1.905],[-49.3697,-1.9402],[-49.3941,-1.9838],[-49.3941,-1.9913],[-49.3811,-1.9913],[-49.422,-2.039],[-49.4305,-2.1412],[-49.4455,-2.1838],[-49.4698,-2.2035],[-49.503,-2.2584],[-49.5065,-2.3196],[-49.5244,-2.3412],[-49.5313,-2.3805],[-49.5489,-2.4031],[-49.5458,-2.5165],[-49.6173,-2.615],[-49.6405,-2.6197],[-49.6769,-2.6491],[-49.689,-2.669],[-49.6637,-2.6777],[-49.6199,-2.6702],[-49.5274,-2.6284],[-49.5183,-2.5803],[-49.4825,-2.5568],[-49.4773,-2.5325],[-49.4426,-2.4924],[-49.4268,-2.3673],[-49.3316,-2.2048],[-49.3005,-2.0909],[-49.232,-1.9482],[-49.2041,-1.9073],[-49.1456,-1.8568],[-49.123,-1.768],[-49.0496,-1.7218],[-49.0089,-1.6811],[-48.9915,-1.6355],[-48.9656,-1.5997],[-48.9261,-1.5936],[-48.8564,-1.559],[-48.8929,-1.5983],[-48.9116,-1.673],[-48.9462,-1.7047],[-48.9434,-1.743],[-48.9556,-1.7663],[-48.9687,-1.7859],[-49.0117,-1.8074],[-49.0333,-1.8466],[-49.0024,-1.8429],[-48.9828,-1.8139],[-48.9295,-1.7878],[-48.9107,-1.7421],[-48.8814,-1.7135],[-48.8907,-1.6865],[-48.8563,-1.6659],[-48.8451,-1.6414],[-48.8153,-1.6384],[-48.7331,-1.4943],[-48.7157,-1.491],[-48.6993,-1.4729],[-48.6569,-1.3834],[-48.6421,-1.3857],[-48.535,-1.5815],[-48.5239,-1.5803],[-48.4902,-1.6191],[-48.4526,-1.6257],[-48.4283,-1.6623],[-48.4215,-1.6451],[-48.4346,-1.5903],[-48.443,-1.57],[-48.4784,-1.5351],[-48.4829,-1.5114],[-48.4648,-1.5221],[-48.428,-1.5242],[-48.3558,-1.5004],[-48.3253,-1.4705],[-48.3776,-1.4692],[-48.4072,-1.4562],[-48.4556,-1.4729],[-48.4966,-1.4614],[-48.5033,-1.4485],[-48.4828,-1.2813],[-48.4359,-1.2187],[-48.4232,-1.2325],[-48.4254,-1.2973],[-48.3346,-1.3137],[-48.305,-1.1882],[-48.2814,-1.1671],[-48.2502,-1.1894],[-48.277,-1.15],[-48.2707,-1.1347],[-48.2781,-1.1285],[-48.2229,-1.1135],[-48.2744,-1.1135],[-48.2911,-1.0795],[-48.2917,-1.0436],[-48.2125,-1.0366],[-48.1875,-1.0187],[-48.1829,-0.9882],[-48.1608,-0.9601],[-48.154,-0.915],[-48.1403,-0.9013],[-48.1466,-0.8808],[-48.1403,-0.8429],[-48.1608,-0.816],[-48.154,-0.7818],[-48.1116,-0.7245],[-48.0379,-0.6617],[-48.0174,-0.6959],[-48.0236,-0.7232],[-47.9621,-0.7818],[-47.9461,-0.7405],[-47.8779,-0.6969],[-47.8662,-0.6735],[-47.8501,-0.671],[-47.8024,-0.6903],[-47.8222,-0.6649],[-47.8253,-0.6395],[-47.8246,-0.6067],[-47.8091,-0.5652],[-47.775,-0.5993],[-47.7703,-0.6371],[-47.7468,-0.6339],[-47.7252,-0.6441],[-47.7157,-0.713],[-47.7434,-0.7463],[-47.7287,-0.7565],[-47.6528,-0.7239],[-47.6106,-0.6939],[-47.5973,-0.6773],[-47.5883,-0.6417],[-47.5781,-0.6354],[-47.5872,-0.614],[-47.5845,-0.5782],[-47.5384,-0.6108],[-47.543,-0.627],[-47.4874,-0.7283],[-47.4967,-0.7647],[-47.4086,-0.7711],[-47.4064,-0.8014],[-47.3931,-0.8126],[-47.3794,-0.7709],[-47.3931,-0.7472],[-47.4141,-0.7369],[-47.4483,-0.6959],[-47.4687,-0.7306],[-47.47,-0.6218],[-47.4644,-0.6091],[-47.4483,-0.6071],[-47.4619,-0.5929],[-47.4302,-0.58],[-47.3998,-0.5929],[-47.4141,-0.6139],[-47.4147,-0.6613],[-47.4073,-0.6816],[-47.4073,-0.6603],[-47.3931,-0.6481],[-47.3857,-0.6728],[-47.3657,-0.6816],[-47.3802,-0.6589],[-47.3732,-0.6339],[-47.3594,-0.631],[-47.3247,-0.6549],[-47.3452,-0.6071],[-47.3288,-0.6135],[-47.294,-0.5929],[-47.2791,-0.5992],[-47.2764,-0.6481],[-47.2579,-0.6409],[-47.2508,-0.6471],[-47.2558,-0.676],[-47.2345,-0.6511],[-47.2428,-0.6202],[-47.1981,-0.6515],[-47.1999,-0.6769],[-47.2086,-0.6818],[-47.2223,-0.6691],[-47.2306,-0.6873],[-47.249,-0.6959],[-47.236,-0.7164],[-47.2082,-0.6992],[-47.1739,-0.7096],[-47.1609,-0.6816],[-47.1584,-0.7288],[-47.1944,-0.761],[-47.1908,-0.7702],[-47.1671,-0.7573],[-47.1558,-0.7641],[-47.1398,-0.7989],[-47.1396,-0.7414],[-47.1261,-0.7306],[-47.1193,-0.7506],[-47.1178,-0.7131],[-47.099,-0.6656],[-47.0775,-0.6657],[-47.0715,-0.7027],[-47.0797,-0.7096],[-47.0845,-0.7506],[-47.0784,-0.7573],[-47.0715,-0.7437],[-47.0599,-0.7896],[-47.0436,-0.7914],[-47.0784,-0.8263],[-47.0572,-0.8671],[-47.0478,-0.8107],[-47.0299,-0.7853],[-47.0162,-0.7914],[-47.0152,-0.76],[-46.9846,-0.7492],[-46.9691,-0.6959],[-46.9569,-0.7101],[-46.9691,-0.7853],[-46.9548,-0.7709],[-46.9463,-0.7761],[-46.9474,-0.7989],[-46.9281,-0.7989],[-46.9412,-0.8263],[-46.9281,-0.8194],[-46.9222,-0.8346],[-46.963,-0.865],[-46.965,-0.8933],[-46.9474,-0.9013],[-46.9491,-0.8615],[-46.9343,-0.8536],[-46.9008,-0.8574],[-46.9002,-0.8393],[-46.8927,-0.8468],[-46.8927,-0.7853],[-46.8777,-0.7957],[-46.8729,-0.8126],[-46.8456,-0.7989],[-46.8729,-0.7784],[-46.8182,-0.7232],[-46.8313,-0.7096],[-46.8192,-0.7117],[-46.7965,-0.7369],[-46.8109,-0.7467],[-46.7965,-0.7647],[-46.8182,-0.7709],[-46.8133,-0.7908],[-46.8313,-0.8051],[-46.8179,-0.8141],[-46.8245,-0.8331],[-46.8044,-0.8251],[-46.7904,-0.8051],[-46.7997,-0.8652],[-46.7829,-0.9013],[-46.7864,-0.8627],[-46.7767,-0.8468],[-46.7699,-0.8468],[-46.7699,-0.8671],[-46.7596,-0.8615],[-46.7555,-0.8194],[-46.7146,-0.8777],[-46.7494,-0.943],[-46.6979,-0.8808],[-46.6976,-0.8438],[-46.6887,-0.8258],[-46.6674,-0.8331],[-46.657,-0.8639],[-46.6327,-0.8632],[-46.6559,-0.8018],[-46.6138,-0.8132],[-46.5985,-0.8671],[-46.6265,-0.9088],[-46.6114,-0.9039],[-46.6088,-0.9111],[-46.619,-0.9355],[-46.6462,-0.9454],[-46.6674,-0.9225],[-46.6823,-0.9467],[-46.7375,-0.9843],[-46.7494,-1.0187],[-46.7207,-0.984],[-46.6811,-0.9635],[-46.6537,-0.967],[-46.6051,-0.9566],[-46.5816,-0.9704],[-46.5646,-0.9509],[-46.5613,-0.9283],[-46.5029,-0.8838],[-46.4276,-0.8686],[-46.4163,-0.8807],[-46.4212,-0.8945],[-46.4803,-0.9195],[-46.4731,-0.9365],[-46.4885,-0.9761],[-46.4715,-0.9859],[-46.4801,-1.0222],[-46.4627,-1.0317],[-46.475,-1.0453],[-46.4532,-1.0436],[-46.4357,-1.0239],[-46.4067,-1.0392],[-46.3845,-1.0099],[-46.3649,-1.0084],[-46.3565,-1.0753],[-46.3462,-1.0339],[-46.3227,-1.0203],[-46.3174,-1.0733],[-46.3248,-1.1074],[-46.3013,-1.0792],[-46.2969,-1.0317],[-46.2484,-1.0937],[-46.2833,-1.0294],[-46.2833,-1.0221],[-46.2642,-1.0167],[-46.2815,-0.9974],[-46.279,-0.9863],[-46.2503,-0.931],[-46.2342,-0.9171],[-46.2003,-0.9076],[-46.1718,-0.921],[-46.1739,-0.9566],[-46.19,-0.9592],[-46.2212,-1.0112],[-46.1986,-1.0105],[-46.215,-1.0248],[-46.2075,-1.0392],[-46.2212,-1.059],[-46.2115,-1.0748],[-46.2621,-1.1832],[-46.2212,-1.1415],[-46.1821,-1.1533],[-46.1665,-1.1484],[-46.1471,-1.1142],[-46.1392,-1.1135],[-46.1461,-1.1764],[-46.1268,-1.1461],[-46.1226,-1.0953],[-46.1017,-1.0733],[-46.0905,-1.0825],[-46.0647,-1.1476],[-46.0856,-1.162],[-46.0953,-1.1965],[-46.0846,-1.2104],[-46.0724,-1.2016],[-46.0504,-1.1627],[-46.0397,-1.1871],[-46.0504,-1.2104],[-46.0322,-1.2008],[-46.0362,-1.1484],[-46.0167,-1.1132],[-46.0157,-1.0937],[-46.0027,-1.1074],[-45.9908,-1.1043],[-45.9926,-1.0676],[-45.9795,-1.0551],[-45.9641,-1.0639],[-45.9611,-1.0862],[-45.9744,-1.0912],[-45.9611,-1.1074],[-45.9719,-1.1111],[-45.9816,-1.1415],[-45.9628,-1.1354],[-45.9481,-1.1415],[-45.9989,-1.1518],[-46.0027,-1.1928],[-45.998,-1.2014],[-45.9611,-1.2104],[-45.9481,-1.2514],[-45.9345,-1.24],[-45.9407,-1.2234],[-45.9264,-1.2172],[-45.9233,-1.173],[-45.8899,-1.0907],[-45.8675,-1.0635],[-45.8538,-1.0679],[-45.8539,-1.1012],[-45.9059,-1.1725],[-45.9059,-1.2104],[-45.898,-1.183],[-45.8792,-1.1627],[-45.8854,-1.1832],[-45.8728,-1.2022],[-45.8996,-1.2576],[-45.8649,-1.2309],[-45.8649,-1.2576],[-45.8854,-1.2848],[-45.8625,-1.2731],[-45.8384,-1.2343],[-45.8382,-1.2029],[-45.8274,-1.2185],[-45.8205,-1.2628],[-45.8406,-1.2796],[-45.8109,-1.3264],[-45.8195,-1.2962],[-45.8098,-1.2751],[-45.7937,-1.2677],[-45.7829,-1.278],[-45.7624,-1.2104],[-45.7479,-1.204],[-45.7216,-1.1349],[-45.701,-1.1347],[-45.696,-1.1606],[-45.7345,-1.2514],[-45.6886,-1.2022],[-45.6797,-1.21],[-45.675,-1.2592],[-45.6541,-1.2744],[-45.6596,-1.293],[-45.6511,-1.3174],[-45.6755,-1.3663],[-45.6407,-1.3705],[-45.6216,-1.3572],[-45.6105,-1.3201],[-45.623,-1.296],[-45.6103,-1.2756],[-45.5832,-1.2743],[-45.5792,-1.2815],[-45.598,-1.2924],[-45.5837,-1.2985],[-45.5895,-1.3142],[-45.5837,-1.3264],[-45.5439,-1.2703],[-45.5297,-1.2848],[-45.5494,-1.2897],[-45.5502,-1.3122],[-45.5297,-1.3059],[-45.551,-1.3375],[-45.5502,-1.3538],[-45.5365,-1.3464],[-45.5229,-1.3122],[-45.5155,-1.3122],[-45.5123,-1.3606],[-45.5297,-1.4158],[-45.4713,-1.3502],[-45.4608,-1.3122],[-45.4198,-1.2924],[-45.4471,-1.2924],[-45.4157,-1.2877],[-45.4062,-1.316],[-45.413,-1.3502],[-45.4683,-1.3674],[-45.4845,-1.4301],[-45.4813,-1.4636],[-45.5042,-1.4587],[-45.5183,-1.4645],[-45.5427,-1.491],[-45.5222,-1.4841],[-45.5155,-1.4636],[-45.5018,-1.47],[-45.4986,-1.4933],[-45.5093,-1.5046],[-45.4913,-1.5034],[-45.4813,-1.491],[-45.4645,-1.5006],[-45.4608,-1.5462],[-45.4491,-1.5281],[-45.451,-1.4537],[-45.4233,-1.4289],[-45.4203,-1.445],[-45.4329,-1.4636],[-45.4027,-1.4426],[-45.3556,-1.3495],[-45.3602,-1.3202],[-45.3262,-1.3129],[-45.31,-1.3264],[-45.2963,-1.4158],[-45.31,-1.4084],[-45.3224,-1.4368],[-45.392,-1.4841],[-45.3857,-1.491],[-45.3693,-1.4728],[-45.3509,-1.4767],[-45.3714,-1.5353],[-45.3926,-1.548],[-45.401,-1.5602],[-45.392,-1.5803],[-45.3857,-1.5462],[-45.3511,-1.56],[-45.3402,-1.5832],[-45.3646,-1.7039],[-45.3502,-1.7301],[-45.3236,-1.7448],[-45.2844,-1.7322],[-45.2712,-1.7216],[-45.2765,-1.7039],[-45.2213,-1.6728],[-45.2554,-1.6076],[-45.2475,-1.5793],[-45.2042,-1.5252],[-45.1797,-1.5256],[-45.1632,-1.4828],[-45.1487,-1.4815],[-45.1387,-1.5046],[-45.1318,-1.5046],[-45.1277,-1.487],[-45.0914,-1.4641],[-45.0812,-1.4811],[-45.1046,-1.4841],[-45.0789,-1.4836],[-45.063,-1.4289],[-45.0568,-1.4767],[-45.0067,-1.4907],[-44.998,-1.524],[-45.022,-1.5182],[-45.0097,-1.5333],[-44.9805,-1.5361],[-44.9674,-1.5462],[-45.0204,-1.5787],[-45.022,-1.6008],[-45.0089,-1.5827],[-44.9674,-1.594],[-44.9718,-1.5794],[-44.9537,-1.5319],[-44.9538,-1.5017],[-44.9471,-1.4928],[-44.9264,-1.491],[-44.9338,-1.4767],[-44.8951,-1.4562],[-44.868,-1.4213],[-44.8513,-1.4462],[-44.8513,-1.4841],[-44.8854,-1.5046],[-44.9131,-1.5479],[-44.9198,-1.5803],[-44.9121,-1.6008],[-44.9537,-1.6008],[-44.9217,-1.6296],[-44.9153,-1.6472],[-44.9338,-1.6555],[-44.9119,-1.6536],[-44.9003,-1.6098],[-44.8854,-1.6008],[-44.8474,-1.6413],[-44.8302,-1.6349],[-44.8474,-1.629],[-44.8507,-1.6161],[-44.837,-1.5661],[-44.8141,-1.5912],[-44.8104,-1.6281],[-44.8029,-1.6008],[-44.7918,-1.6184],[-44.8104,-1.652],[-44.7824,-1.6828],[-44.8029,-1.7039],[-44.7732,-1.7243],[-44.8029,-1.7516],[-44.824,-1.7516],[-44.8219,-1.7592],[-44.8165,-1.7653],[-44.774,-1.7407],[-44.7678,-1.727],[-44.7755,-1.7039],[-44.725,-1.7234],[-44.7079,-1.7175],[-44.7206,-1.7496],[-44.8104,-1.8058],[-44.8104,-1.8132],[-44.7568,-1.8019],[-44.7305,-1.7858],[-44.7079,-1.8132],[-44.6794,-1.8111],[-44.6626,-1.7854],[-44.6527,-1.7175],[-44.598,-1.7448],[-44.6252,-1.7634],[-44.6448,-1.8312],[-44.6595,-1.8398],[-44.621,-1.8261],[-44.598,-1.8473],[-44.5848,-1.818],[-44.5732,-1.8132],[-44.565,-1.8185],[-44.5763,-1.8541],[-44.5701,-1.8609],[-44.5428,-1.8261],[-44.5302,-1.8338],[-44.5217,-1.8473],[-44.5906,-1.9018],[-44.5217,-1.8951],[-44.4881,-1.9875],[-44.5096,-2.0156],[-44.5633,-2.0117],[-44.5746,-2.024],[-44.6173,-2.039],[-44.598,-2.0458],[-44.581,-2.0348],[-44.541,-2.0292],[-44.5045,-2.032],[-44.4944,-2.0458],[-44.5541,-2.0872],[-44.6079,-2.1537],[-44.639,-2.1489],[-44.6453,-2.1557],[-44.598,-2.1557],[-44.5886,-2.1655],[-44.6554,-2.2311],[-44.6763,-2.2398],[-44.7079,-2.2376],[-44.6936,-2.2656],[-44.7514,-2.252],[-44.8012,-2.2857],[-44.824,-2.2792],[-44.8043,-2.2914],[-44.7178,-2.2656],[-44.7079,-2.2997],[-44.7005,-2.2997],[-44.6793,-2.2739],[-44.6656,-2.2709],[-44.6619,-2.2965],[-44.7108,-2.3683],[-44.7209,-2.4021],[-44.7141,-2.4089],[-44.7014,-2.3818],[-44.664,-2.3567],[-44.6635,-2.4206],[-44.6527,-2.4295],[-44.6562,-2.4075],[-44.644,-2.3748],[-44.6527,-2.3513],[-44.6498,-2.3088],[-44.6316,-2.2717],[-44.5848,-2.2302],[-44.554,-2.2164],[-44.5398,-2.1857],[-44.4973,-2.1479],[-44.4617,-2.1446],[-44.4271,-2.1624],[-44.3988,-2.1974],[-44.3845,-2.2756],[-44.3647,-2.2997],[-44.3636,-2.3339],[-44.3734,-2.3774],[-44.3954,-2.4021],[-44.4739,-2.4021],[-44.5106,-2.3671],[-44.5514,-2.391],[-44.5701,-2.4164],[-44.5233,-2.3871],[-44.5074,-2.3898],[-44.5012,-2.4195],[-44.5216,-2.5001],[-44.5354,-2.5182],[-44.5652,-2.5212],[-44.5943,-2.5666],[-44.656,-2.5932],[-44.6595,-2.6082],[-44.6448,-2.593],[-44.5801,-2.5636],[-44.5614,-2.5353],[-44.5404,-2.5383],[-44.6075,-2.6697],[-44.6316,-2.697],[-44.6252,-2.7066],[-44.6462,-2.7682],[-44.6501,-2.8547],[-44.6861,-2.9167],[-44.6936,-2.9949],[-44.6843,-3.0126],[-44.6247,-3.026],[-44.6222,-3.051],[-44.7079,-3.1358],[-44.7209,-3.1769],[-44.7816,-3.197],[-44.7871,-3.2333],[-44.7613,-3.2861],[-44.796,-3.3002],[-44.7616,-3.3056],[-44.7537,-3.2898],[-44.7613,-3.2382],[-44.7428,-3.2075],[-44.66,-3.1847],[-44.6136,-3.112],[-44.5732,-3.1017],[-44.5292,-3.0322],[-44.4739,-3.0017],[-44.433,-2.9503],[-44.4088,-2.8922],[-44.4081,-2.8263],[-44.4043,-2.8049],[-44.392,-2.7931],[-44.4062,-2.7789],[-44.3647,-2.6287],[-44.3578,-2.6628],[-44.351,-2.6628],[-44.3681,-2.5496],[-44.3527,-2.5291],[-44.3265,-2.5251],[-44.3122,-2.5319],[-44.2889,-2.5803],[-44.2882,-2.5514],[-44.3026,-2.5325],[-44.2926,-2.4811],[-44.2201,-2.4704],[-44.1115,-2.4158],[-44.0829,-2.4164],[-44.073,-2.3995],[-44.053,-2.4],[-44.0344,-2.4152],[-44.0289,-2.443],[-44.0922,-2.4435],[-44.0972,-2.4567],[-44.0636,-2.463],[-44.0562,-2.5051],[-44.0494,-2.4704],[-44.0419,-2.4704],[-44.0327,-2.5133],[-44.0494,-2.5529],[-44.0829,-2.5603],[-44.0972,-2.5803],[-44.1244,-2.5945],[-44.1066,-2.6023],[-44.1372,-2.6702],[-44.1797,-2.6901],[-44.2139,-2.669],[-44.2002,-2.697],[-44.3131,-2.7621],[-44.3385,-2.7849],[-44.3485,-2.8102],[-44.3299,-2.8273],[-44.3227,-2.7851],[-44.3125,-2.7787],[-44.2964,-2.7931],[-44.31,-2.8142],[-44.2964,-2.8342],[-44.2889,-2.8068],[-44.2685,-2.8034],[-44.2554,-2.7653],[-44.2201,-2.7931],[-44.2261,-2.777],[-44.2184,-2.7678],[-44.1865,-2.759],[-44.1885,-2.7781],[-44.1747,-2.8071],[-44.1831,-2.8239],[-44.2189,-2.8482],[-44.207,-2.8484],[-44.2002,-2.8689],[-44.1593,-2.8273],[-44.1518,-2.8342],[-44.1327,-2.8036],[-44.1244,-2.769],[-44.106,-2.7496],[-44.0981,-2.7487],[-44.1046,-2.7653],[-44.0829,-2.7522],[-44.0767,-2.7789],[-44.0698,-2.7653],[-44.0829,-2.8068],[-44.0681,-2.7952],[-44.0604,-2.7177],[-44.0229,-2.6489],[-43.9759,-2.6103],[-43.9464,-2.6287],[-43.9584,-2.6007],[-43.9232,-2.5468],[-43.878,-2.6349],[-43.8795,-2.5712],[-43.8049,-2.5492],[-43.767,-2.5263],[-43.7464,-2.5292],[-43.7386,-2.5172],[-43.7401,-2.4869],[-43.7241,-2.4772],[-43.7065,-2.5138],[-43.7086,-2.5397],[-43.7211,-2.5603],[-43.7136,-2.5529],[-43.6993,-2.5603],[-43.6931,-2.5393],[-43.6583,-2.5462],[-43.681,-2.5296],[-43.6824,-2.5047],[-43.6684,-2.4833],[-43.6446,-2.4772],[-43.6658,-2.512],[-43.6357,-2.4983],[-43.622,-2.5053],[-43.6173,-2.5251],[-43.5975,-2.5162],[-43.5582,-2.5309],[-43.5422,-2.5251],[-43.5605,-2.5193],[-43.5631,-2.5095],[-43.5485,-2.4846],[-43.5485,-2.5051],[-43.5391,-2.4911],[-43.5421,-2.4666],[-43.5559,-2.4567],[-43.5373,-2.436],[-43.5237,-2.4426],[-43.5218,-2.4915],[-43.5084,-2.4916],[-43.4998,-2.5248],[-43.4871,-2.5325],[-43.4945,-2.5462],[-43.477,-2.5377],[-43.4665,-2.5182],[-43.4529,-2.5529],[-43.4442,-2.5309],[-43.4654,-2.486],[-43.4188,-2.4915],[-43.4188,-2.4846],[-43.4473,-2.4716],[-43.4598,-2.443],[-43.4386,-2.4567],[-43.4119,-2.4567],[-43.474,-2.4177],[-43.4871,-2.3953],[-43.4674,-2.3458],[-43.4263,-2.3378],[-43.3118,-2.3465],[-43.1994,-2.3795],[-42.9163,-2.4924],[-42.8192,-2.5462],[-42.7751,-2.5603],[-42.7,-2.5636],[-42.6305,-2.6423],[-42.5809,-2.6721],[-42.5275,-2.6833],[-42.4871,-2.669],[-42.4895,-2.6996],[-42.5144,-2.697],[-42.5076,-2.7219],[-42.453,-2.7522],[-42.4181,-2.7311],[-42.4073,-2.7502],[-42.3784,-2.7563],[-42.2643,-2.759],[-42.2545,-2.7665],[-42.254,-2.7835],[-42.2674,-2.8142],[-42.2386,-2.8048],[-42.2394,-2.8342],[-42.2059,-2.8],[-42.1761,-2.8118],[-42.0824,-2.8],[-42.0898,-2.8068],[-42.0824,-2.8273],[-42.0677,-2.82],[-42.0209,-2.8239],[-42.0159,-2.8113],[-41.9439,-2.8377],[-41.9404,-2.7737],[-41.9589,-2.7789],[-42.0153,-2.7411],[-42.0104,-2.7272],[-41.9956,-2.7214],[-41.8386,-2.7295],[-41.8213,-2.7336],[-41.8428,-2.7653],[-41.8087,-2.7448],[-41.7787,-2.7822],[-41.6941,-2.8329],[-41.6578,-2.8689],[-41.6852,-2.8547],[-41.6783,-2.8689],[-41.6988,-2.8621],[-41.6861,-2.8759],[-41.6639,-2.8779],[-41.651,-2.8689],[-41.6233,-2.8956],[-41.517,-2.907],[-41.4896,-2.9036],[-41.4654,-2.8888],[-41.4486,-2.9059],[-41.4586,-2.9298],[-41.4455,-2.9298],[-41.4518,-2.9435],[-41.4319,-2.9366],[-41.4401,-2.9142],[-41.4221,-2.9088],[-41.3431,-2.9203],[-41.329,-2.9322],[-41.3375,-2.9545],[-41.3107,-2.9635],[-41.3009,-2.9776],[-41.2947,-2.9638],[-41.2445,-3.0152],[-41.2433,-2.9728],[-41.264,-2.9284],[-41.2873,-2.903],[-41.3153,-2.903],[-41.2569,-2.8752],[-41.1378,-2.8858],[-41.0825,-2.9167],[-41.103,-2.8752],[-41.0893,-2.8825],[-40.9385,-2.8689],[-40.9,-2.8752],[-40.8879,-2.864],[-40.849,-2.8593],[-40.8286,-2.8825],[-40.7529,-2.841],[-40.5816,-2.8273],[-40.5099,-2.8],[-40.4996,-2.7863],[-40.4031,-2.8059],[-40.2738,-2.8068],[-40.1881,-2.8205],[-40.1434,-2.8484],[-40.1209,-2.8284],[-40.0506,-2.8484],[-39.9857,-2.8484],[-39.9031,-2.9018],[-39.8609,-2.9157],[-39.8075,-2.9675],[-39.743,-3.0037],[-39.7259,-3.0224],[-39.7318,-3.0322],[-39.7046,-3.0396],[-39.712,-3.026],[-39.6979,-3.0172],[-39.6431,-3.0396],[-39.6189,-3.0396],[-39.6083,-3.0602],[-39.5711,-3.0909],[-39.4971,-3.1311],[-39.4855,-3.1458],[-39.3967,-3.1835],[-39.3583,-3.1835],[-39.2869,-3.232],[-39.2726,-3.232],[-39.2589,-3.2519],[-39.1653,-3.3228],[-39.1155,-3.3344],[-39.0806,-3.377],[-39.0155,-3.384],[-38.9852,-3.3959],[-38.9427,-3.4446],[-38.9163,-3.5051],[-38.8972,-3.5003],[-38.8555,-3.533],[-38.8075,-3.5473],[-38.7631,-3.5982],[-38.6944,-3.6367],[-38.6597,-3.6764],[-38.5947,-3.6907],[-38.5262,-3.718],[-38.4944,-3.7213],[-38.4774,-3.6974],[-38.4098,-3.7931],[-38.378,-3.8697],[-38.3208,-3.9228],[-38.2513,-3.9618],[-38.1067,-4.1579],[-38.0296,-4.2374],[-37.9194,-4.3145],[-37.8542,-4.3759],[-37.7686,-4.3964],[-37.7108,-4.5154],[-37.6837,-4.5484],[-37.6072,-4.6081],[-37.5373,-4.6381],[-37.5138,-4.6238],[-37.488,-4.63],[-37.4271,-4.6611],[-37.3248,-4.6965],[-37.2926,-4.718],[-37.2311,-4.8421],[-37.1829,-4.9109],[-37.1349,-4.9314],[-37.0981,-4.9206],[-37.0494,-4.9379],[-36.983,-4.9298],[-36.8988,-4.9382],[-36.8207,-5.0077],[-36.7909,-5.0512],[-36.7566,-5.0668],[-36.6961,-5.0755],[-36.6957,-5.0896],[-36.6069,-5.0964],[-36.5444,-5.1276],[-36.5309,-5.1227],[-36.5254,-5.1056],[-36.5705,-5.0917],[-36.58,-5.081],[-36.5451,-5.0896],[-36.4224,-5.081],[-36.2814,-5.1046],[-36.2572,-5.1021],[-36.2572,-5.0959],[-36.292,-5.0959],[-36.292,-5.089],[-36.1312,-5.0959],[-35.9972,-5.0475],[-35.5819,-5.1189],[-35.5106,-5.1437],[-35.4549,-5.197],[-35.4205,-5.2115],[-35.39,-5.2446],[-35.3624,-5.3009],[-35.3535,-5.3458],[-35.3188,-5.3832],[-35.2623,-5.4833],[-35.2453,-5.5462],[-35.2231,-5.5826],[-35.2306,-5.5888],[-35.2058,-5.6788],[-35.1957,-5.6895],[-35.1952,-5.76],[-35.1711,-5.7963],[-35.1715,-5.8443],[-35.1474,-5.8767],[-35.1453,-5.9321],[-35.1051,-5.9955],[-35.1112,-6.0578],[-35.0994,-6.0666],[-35.0928,-6.1858],[-35.1207,-6.1647],[-35.1509,-6.216],[-35.1343,-6.2243],[-35.0959,-6.1921],[-35.0779,-6.2209],[-35.0382,-6.2365],[-35.0242,-6.3429],[-34.9892,-6.3776],[-34.9723,-6.4334],[-34.959,-6.5369],[-34.9585,-6.5826],[-34.97,-6.6173],[-34.9352,-6.706],[-34.9427,-6.7662],[-34.9042,-6.8873],[-34.8601,-6.9146],[-34.8601,-6.9627],[-34.8806,-6.9933],[-34.8782,-7.028],[-34.8942,-7.0828],[-34.9076,-7.0932],[-34.9215,-7.0828],[-34.9078,-7.1042],[-34.9147,-7.1305],[-34.8594,-7.0715],[-34.8362,-6.9918],[-34.8396,-6.9729],[-34.8258,-6.9845],[-34.8242,-7.0034],[-34.8328,-7.0412],[-34.828,-7.1301],[-34.7974,-7.1585],[-34.7936,-7.1762],[-34.8048,-7.2233],[-34.8048,-7.3708],[-34.8144,-7.4445],[-34.8048,-7.5141],[-34.8192,-7.5483],[-34.8806,-7.5416],[-34.9289,-7.5558],[-34.8655,-7.5534],[-34.8354,-7.5627],[-34.8053,-7.6227],[-34.8303,-7.6809],[-34.8373,-7.6798],[-34.8396,-7.6438],[-34.8458,-7.6718],[-34.8738,-7.6178],[-34.876,-7.6373],[-34.8602,-7.686],[-34.8644,-7.7052],[-34.8873,-7.7084],[-34.9072,-7.7338],[-34.8775,-7.7145],[-34.8659,-7.7175],[-34.8921,-7.7626],[-34.8935,-7.8049],[-34.8849,-7.8157],[-34.848,-7.8228],[-34.8458,-7.8847],[-34.8328,-7.8574],[-34.8116,-7.9059],[-34.8188,-7.919],[-34.8116,-7.9325],[-34.8512,-8.0686],[-34.8637,-8.0704],[-34.9127,-8.0354],[-34.9289,-8.0349],[-34.9068,-8.0527],[-34.8874,-8.1038],[-34.8806,-8.0895],[-34.9004,-8.1796],[-34.9389,-8.2721],[-34.9386,-8.3471],[-34.9525,-8.3647],[-35.0262,-8.5759],[-35.069,-8.6723],[-35.0802,-8.6811],[-35.086,-8.7407],[-35.1273,-8.8062],[-35.1474,-8.9119],[-35.1889,-8.9907],[-35.2322,-9.0478],[-35.3051,-9.193],[-35.3922,-9.3058],[-35.4149,-9.3234],[-35.4149,-9.3166],[-35.4378,-9.3284],[-35.482,-9.3679],[-35.4932,-9.4041],[-35.5826,-9.5329],[-35.6575,-9.5771],[-35.6962,-9.6729],[-35.7523,-9.6827],[-35.7781,-9.7001],[-35.7491,-9.6598],[-35.7462,-9.6418],[-35.7734,-9.6004],[-35.7999,-9.5847],[-35.8122,-9.5978],[-35.7917,-9.6422],[-35.7949,-9.6791],[-35.8581,-9.7346],[-35.9084,-9.6388],[-35.9054,-9.6248],[-35.9196,-9.6081],[-35.9419,-9.5998],[-35.963,-9.6108],[-35.9084,-9.6593],[-35.8736,-9.7555],[-35.8609,-9.76],[-35.8532,-9.7411],[-35.8056,-9.7311],[-35.7986,-9.7206],[-35.8106,-9.7448],[-35.8621,-9.794],[-35.8827,-9.8556],[-35.9494,-9.9132],[-36.0363,-10.0641],[-36.0501,-10.0785],[-36.0903,-10.0934],[-36.1412,-10.1594],[-36.2805,-10.28],[-36.292,-10.352],[-36.4081,-10.5021],[-36.5766,-10.5505],[-36.5968,-10.571],[-36.7684,-10.6726],[-36.9031,-10.7729],[-36.9527,-10.8364],[-36.9789,-10.8865],[-37.0397,-10.9492],[-37.0504,-10.9996],[-37.1383,-11.1259],[-37.1476,-11.1218],[-37.1417,-11.0917],[-37.1622,-11.0714],[-37.1757,-11.0857],[-37.2001,-11.0434],[-37.2615,-11.0152],[-37.2751,-11.0227],[-37.2761,-11.0418],[-37.2584,-11.0714],[-37.2369,-11.0696],[-37.1964,-11.0917],[-37.1964,-11.0986],[-37.2142,-11.0917],[-37.2168,-11.1061],[-37.1944,-11.1105],[-37.1827,-11.0986],[-37.1656,-11.1088],[-37.1641,-11.1703],[-37.1492,-11.1874],[-37.2218,-11.2296],[-37.2354,-11.2608],[-37.2646,-11.2774],[-37.316,-11.4064],[-37.3301,-11.4207],[-37.3881,-11.4269],[-37.3844,-11.402],[-37.4025,-11.3997],[-37.3683,-11.3513],[-37.3583,-11.3159],[-37.2905,-11.2543],[-37.2721,-11.2494],[-37.2859,-11.237],[-37.2884,-11.2082],[-37.2994,-11.1948],[-37.2994,-11.2426],[-37.3056,-11.2426],[-37.3441,-11.1843],[-37.3479,-11.2042],[-37.32,-11.2498],[-37.3192,-11.27],[-37.3472,-11.2494],[-37.3363,-11.2901],[-37.3608,-11.2966],[-37.3798,-11.3172],[-37.4154,-11.4064],[-37.4296,-11.405],[-37.4433,-11.3513],[-37.4518,-11.3705],[-37.4701,-11.3587],[-37.4537,-11.4036],[-37.3956,-11.4374],[-37.406,-11.4705],[-37.4314,-11.4929],[-37.4919,-11.5163],[-37.4538,-11.5177],[-37.4154,-11.5032],[-37.3768,-11.4602],[-37.3608,-11.4548],[-37.4347,-11.5693],[-37.5092,-11.7238],[-37.5134,-11.7607],[-37.5458,-11.8044],[-37.6547,-12.0497],[-37.7176,-12.1364],[-37.7867,-12.2646],[-38.0509,-12.641],[-38.074,-12.6539],[-38.3204,-12.9352],[-38.3614,-12.9618],[-38.4162,-12.9731],[-38.437,-12.9924],[-38.4864,-13.0138],[-38.5097,-13.0214],[-38.5327,-13.0165],[-38.5383,-13.004],[-38.5079,-12.9318],[-38.4862,-12.9159],[-38.4774,-12.9352],[-38.4912,-12.882],[-38.4757,-12.8517],[-38.5041,-12.8041],[-38.5089,-12.7229],[-38.5424,-12.7216],[-38.5743,-12.7018],[-38.6059,-12.7136],[-38.6262,-12.7024],[-38.6486,-12.6384],[-38.6835,-12.6267],[-38.6946,-12.614],[-38.691,-12.5715],[-38.7158,-12.6051],[-38.7263,-12.6789],[-38.751,-12.7128],[-38.7381,-12.7366],[-38.7772,-12.8076],[-38.8066,-12.8351],[-38.8245,-12.8381],[-38.8449,-12.8259],[-38.864,-12.7951],[-38.8827,-12.7221],[-38.8812,-12.7053],[-38.848,-12.6745],[-38.8617,-12.6541],[-38.8685,-12.6541],[-38.8634,-12.6699],[-38.8958,-12.695],[-38.9105,-12.7311],[-38.9237,-12.7366],[-38.8958,-12.7844],[-38.8685,-12.8049],[-38.867,-12.8346],[-38.854,-12.8513],[-38.8275,-12.867],[-38.7971,-12.8493],[-38.7837,-12.873],[-38.7523,-12.8644],[-38.7245,-12.8732],[-38.7508,-12.9128],[-38.7558,-12.9654],[-38.7869,-13.0081],[-38.8351,-13.0501],[-38.8893,-13.0698],[-38.895,-13.081],[-38.8898,-13.1184],[-38.807,-13.1438],[-38.8107,-13.1535],[-38.8418,-13.1612],[-38.9476,-13.2468],[-38.9709,-13.3256],[-38.9546,-13.3725],[-38.9647,-13.3803],[-38.9988,-13.3604],[-39.0398,-13.3666],[-39.0398,-13.3325],[-39.0625,-13.4],[-39.0682,-13.4406],[-39.0603,-13.4703],[-39.086,-13.5141],[-39.0842,-13.5788],[-39.0914,-13.5937],[-39.1155,-13.5994],[-39.1155,-13.6061],[-39.0867,-13.6039],[-39.0774,-13.59],[-39.0808,-13.5411],[-39.0597,-13.4948],[-39.0377,-13.4846],[-39.0118,-13.497],[-38.993,-13.5411],[-39.0057,-13.5618],[-39.0019,-13.5881],[-38.9709,-13.6477],[-38.9678,-13.674],[-38.992,-13.7331],[-38.9942,-13.7946],[-38.98,-13.8359],[-39.0017,-13.8377],[-39.0299,-13.8154],[-39.0536,-13.7609],[-39.087,-13.7411],[-39.0916,-13.7127],[-39.1326,-13.7092],[-39.1488,-13.7369],[-39.144,-13.7443],[-39.1155,-13.7236],[-39.1083,-13.7404],[-39.1155,-13.7576],[-39.0716,-13.7796],[-39.0321,-13.8406],[-38.9977,-13.8517],[-38.9945,-13.8635],[-39.0088,-13.8805],[-39.0671,-13.8674],[-39.0745,-13.8942],[-39.0637,-13.9358],[-39.0216,-13.9557],[-38.9967,-13.9856],[-38.9957,-14.0292],[-38.9796,-14.0611],[-38.9886,-14.0729],[-39.0279,-14.0783],[-39.0541,-14.0593],[-39.071,-14.0763],[-39.0603,-14.0997],[-39.0729,-14.1152],[-39.0745,-14.1406],[-39.0456,-14.1614],[-39.0398,-14.1754],[-39.0336,-14.1754],[-39.0634,-14.11],[-38.9573,-14.0661],[-38.9597,-14.0362],[-38.9723,-14.0266],[-38.9647,-13.9972],[-38.9714,-13.9863],[-38.953,-13.977],[-38.9529,-13.9626],[-38.9783,-13.9494],[-38.9709,-13.9358],[-38.9875,-13.9399],[-38.99,-13.9308],[-38.9639,-13.8971],[-38.9357,-13.8889],[-38.9299,-13.8976],[-38.9237,-14.0041],[-38.9467,-14.1023],[-38.9647,-14.1337],[-38.9709,-14.1816],[-38.9892,-14.2123],[-38.9852,-14.3126],[-39.005,-14.3469],[-38.9988,-14.3603],[-39.0069,-14.3703],[-39.0057,-14.415],[-39.0261,-14.4633],[-39.0336,-14.5392],[-39.0671,-14.675],[-39.0509,-14.7658],[-39.0336,-14.7922],[-39.053,-14.8014],[-39.0541,-14.8122],[-39.0482,-14.8186],[-39.0227,-14.8159],[-39.0229,-14.9003],[-39.0089,-14.9709],[-39.0018,-15.232],[-38.9796,-15.3237],[-38.9733,-15.4094],[-38.9239,-15.7156],[-38.8617,-15.8543],[-38.8905,-15.9044],[-38.9442,-16.0666],[-38.9573,-16.1833],[-39.0054,-16.2751],[-39.0069,-16.3593],[-39.0541,-16.4365],[-39.0506,-16.4567],[-39.0923,-16.6578],[-39.136,-16.8002],[-39.136,-16.8447],[-39.1216,-16.892],[-39.1496,-16.9505],[-39.1688,-17.0759],[-39.2086,-17.1622],[-39.2174,-17.2951],[-39.2091,-17.3821],[-39.1863,-17.4521],[-39.1884,-17.5784],[-39.1837,-17.6008],[-39.1371,-17.6796],[-39.1496,-17.7107],[-39.2589,-17.8207],[-39.2751,-17.8669],[-39.3142,-17.8903],[-39.3824,-17.9033],[-39.4502,-17.948],[-39.4991,-18.0056],[-39.625,-18.1926],[-39.6594,-18.2736],[-39.7247,-18.5187],[-39.7449,-18.6817],[-39.7411,-18.9021],[-39.6981,-19.2399],[-39.7014,-19.3762],[-39.7098,-19.4161],[-39.7862,-19.602],[-39.807,-19.6362],[-39.8349,-19.6572],[-39.951,-19.7052],[-40.0268,-19.7644],[-40.0974,-19.9306],[-40.1571,-19.9589],[-40.1344,-19.9589],[-40.132,-19.9719],[-40.1465,-20.023],[-40.1786,-20.0434],[-40.1659,-20.1059],[-40.191,-20.1899],[-40.2328,-20.2668],[-40.2444,-20.2775],[-40.2662,-20.2605],[-40.2867,-20.281],[-40.2981,-20.2737],[-40.2932,-20.245],[-40.3004,-20.2327],[-40.3693,-20.2327],[-40.3509,-20.2565],[-40.3566,-20.2664],[-40.3761,-20.2668],[-40.3619,-20.281],[-40.3705,-20.301],[-40.366,-20.3232],[-40.3239,-20.3248],[-40.3254,-20.3375],[-40.2825,-20.3142],[-40.2595,-20.3215],[-40.3025,-20.3709],[-40.3127,-20.4172],[-40.3365,-20.4557],[-40.3487,-20.5001],[-40.4183,-20.6153],[-40.4332,-20.6287],[-40.4513,-20.6169],[-40.4753,-20.6378],[-40.5245,-20.7158],[-40.5652,-20.753],[-40.5834,-20.802],[-40.6094,-20.8073],[-40.6284,-20.8392],[-40.6416,-20.8082],[-40.6521,-20.808],[-40.7585,-20.8642],[-40.7609,-20.8823],[-40.8011,-20.931],[-40.8146,-21.0366],[-40.8307,-21.0492],[-40.8465,-21.0945],[-40.9518,-21.2381],[-40.9652,-21.2748],[-40.9635,-21.3645],[-41.0572,-21.4838],[-41.0719,-21.5233],[-41.0593,-21.561],[-41.0185,-21.6081],[-41.0135,-21.6515],[-41.0247,-21.7192],[-41.0067,-21.8234],[-40.9673,-21.9475],[-40.9726,-21.9867],[-40.9953,-22.0143],[-41.2437,-22.1452],[-41.4657,-22.2026],[-41.6665,-22.2818],[-41.7708,-22.3542],[-41.7845,-22.3886],[-41.8497,-22.433],[-41.8685,-22.4685],[-41.9009,-22.4858],[-41.912,-22.508],[-41.9663,-22.5354],[-41.9861,-22.5649],[-41.9962,-22.6093],[-41.993,-22.6999],[-41.9346,-22.7687],[-41.911,-22.7472],[-41.8701,-22.7341],[-41.8698,-22.7521],[-41.8906,-22.7824],[-41.9096,-22.7766],[-41.9452,-22.8097],[-41.9896,-22.8263],[-41.9969,-22.8753],[-42.0199,-22.8813],[-42.0331,-22.9125],[-42.0227,-22.9445],[-42.0073,-22.9333],[-42.0029,-22.9477],[-42.0135,-22.9817],[-42.0582,-22.9538],[-42.5317,-22.9342],[-42.6686,-22.947],[-42.6957,-22.9669],[-42.8627,-22.9772],[-43.0314,-22.9743],[-43.074,-22.9449],[-43.0898,-22.9538],[-43.1308,-22.9196],[-43.1034,-22.9264],[-43.0919,-22.9171],[-43.0994,-22.9016],[-43.1295,-22.8941],[-43.1265,-22.8824],[-43.1017,-22.8365],[-43.0345,-22.7756],[-43.053,-22.7778],[-43.0614,-22.7658],[-43.0251,-22.7355],[-43.0284,-22.6725],[-43.0756,-22.6657],[-43.1034,-22.6936],[-43.1518,-22.696],[-43.2167,-22.7341],[-43.2556,-22.7371],[-43.2702,-22.747],[-43.2711,-22.789],[-43.2406,-22.8439],[-43.2201,-22.8297],[-43.2154,-22.8469],[-43.1996,-22.857],[-43.2133,-22.8644],[-43.1621,-22.8957],[-43.1625,-22.9397],[-43.1512,-22.9333],[-43.1522,-22.9511],[-43.1708,-22.9698],[-43.2201,-22.9953],[-43.4476,-23.0182],[-43.5422,-23.0494],[-43.5604,-23.0675],[-43.5801,-23.0494],[-43.6208,-23.0426],[-43.9141,-23.0698],[-43.9888,-23.0974],[-44.0037,-23.0911],[-44.0084,-23.0698],[-44.0015,-23.0492],[-43.9501,-23.0426],[-43.9054,-23.0556],[-43.8917,-23.0214],[-43.869,-23.0396],[-43.832,-23.0476],[-43.7511,-23.0494],[-43.6693,-23.0372],[-43.6255,-23.024],[-43.6037,-23.0077],[-43.6461,-22.9986],[-43.672,-22.978],[-43.7067,-22.9743],[-43.734,-22.9395],[-43.803,-22.9299],[-43.809,-22.9098],[-43.8644,-22.9059],[-43.8502,-22.8923],[-44.0047,-22.9395],[-44.0308,-22.9714],[-44.0494,-22.9743],[-44.0392,-22.9441],[-44.0423,-22.9358],[-44.0562,-22.9395],[-44.0797,-22.9872],[-44.1151,-23.0224],[-44.1518,-23.0289],[-44.1864,-23.049],[-44.1969,-23.0336],[-44.2201,-23.0494],[-44.243,-23.0426],[-44.2418,-22.9999],[-44.2505,-22.9962],[-44.2716,-22.9953],[-44.2987,-23.0129],[-44.3026,-22.9953],[-44.3299,-23.0152],[-44.3527,-22.9993],[-44.3545,-22.9864],[-44.3118,-22.9701],[-44.329,-22.9348],[-44.3169,-22.9264],[-44.3259,-22.9216],[-44.3578,-22.9196],[-44.3516,-22.9353],[-44.3715,-22.9612],[-44.3845,-22.9395],[-44.3988,-22.947],[-44.4114,-22.9374],[-44.4398,-22.9817],[-44.4357,-22.9968],[-44.6042,-23.0556],[-44.598,-23.0357],[-44.6551,-23.0431],[-44.7005,-23.1077],[-44.6932,-23.1274],[-44.7121,-23.175],[-44.708,-23.2146],[-44.6453,-23.1866],[-44.6268,-23.1952],[-44.6732,-23.2296],[-44.68,-23.2486],[-44.656,-23.2304],[-44.6247,-23.235],[-44.6488,-23.2621],[-44.6514,-23.2848],[-44.6006,-23.2343],[-44.5565,-23.2275],[-44.5763,-23.2486],[-44.5583,-23.2634],[-44.5106,-23.2734],[-44.5012,-23.2965],[-44.5238,-23.2907],[-44.5838,-23.3532],[-44.6744,-23.3381],[-44.7272,-23.351],[-44.7329,-23.3658],[-44.7478,-23.3709],[-44.7824,-23.379],[-44.7998,-23.3713],[-44.827,-23.3854],[-44.8445,-23.3852],[-44.868,-23.3578],[-44.8985,-23.3647],[-44.892,-23.341],[-44.9193,-23.3488],[-44.9692,-23.3814],[-44.981,-23.3993],[-45.0283,-23.4161],[-45.0431,-23.4055],[-45.0508,-23.4282],[-45.0084,-23.4609],[-45.0347,-23.4621],[-45.0502,-23.4733],[-45.0704,-23.5154],[-45.0918,-23.4919],[-45.0976,-23.4978],[-45.0902,-23.5154],[-45.1478,-23.4874],[-45.1455,-23.5291],[-45.1642,-23.5331],[-45.2003,-23.5237],[-45.2137,-23.5427],[-45.2007,-23.572],[-45.2519,-23.5906],[-45.2895,-23.5701],[-45.3678,-23.6166],[-45.3883,-23.6244],[-45.413,-23.6179],[-45.4335,-23.6647],[-45.4231,-23.7106],[-45.3994,-23.7209],[-45.4061,-23.7561],[-45.3931,-23.7835],[-45.4066,-23.8204],[-45.4267,-23.8307],[-45.4645,-23.8239],[-45.5093,-23.8376],[-45.5289,-23.8295],[-45.552,-23.8024],[-45.5741,-23.7966],[-45.6185,-23.8029],[-45.6322,-23.7898],[-45.7175,-23.7708],[-45.8644,-23.7564],[-45.989,-23.7898],[-46.018,-23.8102],[-46.0269,-23.8285],[-46.0607,-23.8239],[-46.1363,-23.8517],[-46.1461,-23.8444],[-46.1796,-23.8903],[-46.2354,-23.9127],[-46.2354,-23.9202],[-46.1974,-23.9157],[-46.1455,-23.8708],[-46.1119,-23.8649],[-46.1597,-23.9202],[-46.1665,-23.9816],[-46.1866,-23.9954],[-46.2075,-23.9799],[-46.2211,-23.9817],[-46.2877,-24.0212],[-46.3174,-24.0164],[-46.3099,-24.0016],[-46.2848,-23.9929],[-46.2764,-23.9816],[-46.2995,-23.9251],[-46.3188,-23.9089],[-46.3578,-23.9008],[-46.3638,-23.8942],[-46.3583,-23.8786],[-46.3854,-23.8735],[-46.3874,-23.904],[-46.4093,-23.9159],[-46.4098,-23.9339],[-46.4539,-23.9264],[-46.4496,-23.9384],[-46.4272,-23.9509],[-46.413,-23.9816],[-46.3768,-23.9851],[-46.376,-24.0245],[-46.3863,-24.03],[-46.3918,-24.0162],[-46.4067,-24.009],[-46.5934,-24.0895],[-46.7431,-24.1769],[-46.9366,-24.2734],[-46.9889,-24.3312],[-47.01,-24.3769],[-46.9995,-24.4098],[-47.0154,-24.4229],[-47.0498,-24.4278],[-47.051,-24.4062],[-47.0721,-24.4485],[-47.1363,-24.4887],[-47.1814,-24.5334],[-47.442,-24.6804],[-47.4548,-24.6767],[-47.4967,-24.6935],[-47.5313,-24.6882],[-47.5408,-24.7034],[-47.6339,-24.7556],[-47.8256,-24.8941],[-47.8933,-24.9611],[-47.9337,-25.0335],[-47.9606,-25.0499],[-48.01,-25.0442],[-48.0017,-25.0279],[-47.9621,-25.0231],[-47.9612,-25.0131],[-47.9727,-25.0094],[-48.0169,-25.0108],[-48.0349,-25.0488],[-48.0516,-25.0368],[-48.0516,-25.0528],[-48.0325,-25.0632],[-47.9497,-25.08],[-47.9154,-25.0595],[-47.8871,-25.0573],[-47.922,-25.1586],[-47.9518,-25.2013],[-48.02,-25.2263],[-48.0683,-25.28],[-48.0915,-25.3253],[-48.1683,-25.3692],[-48.2091,-25.4576],[-48.2251,-25.4597],[-48.2416,-25.4482],[-48.2502,-25.4278],[-48.2222,-25.3391],[-48.2015,-25.3183],[-48.1273,-25.28],[-48.1403,-25.2696],[-48.1742,-25.2906],[-48.2296,-25.3004],[-48.2502,-25.318],[-48.2843,-25.29],[-48.2837,-25.316],[-48.2974,-25.3412],[-48.3328,-25.3583],[-48.3191,-25.3242],[-48.3337,-25.3297],[-48.3355,-25.3186],[-48.3253,-25.2286],[-48.3726,-25.2716],[-48.3526,-25.2934],[-48.3674,-25.3048],[-48.4072,-25.2839],[-48.4346,-25.2423],[-48.4346,-25.2628],[-48.4557,-25.2485],[-48.4283,-25.3242],[-48.4966,-25.3316],[-48.4966,-25.3385],[-48.4457,-25.3474],[-48.4346,-25.3583],[-48.4574,-25.3797],[-48.4513,-25.3857],[-48.4346,-25.3795],[-48.4141,-25.4101],[-48.4178,-25.4283],[-48.4481,-25.434],[-48.4602,-25.4709],[-48.4727,-25.4757],[-48.4979,-25.4687],[-48.5171,-25.447],[-48.5374,-25.4545],[-48.558,-25.447],[-48.5627,-25.4596],[-48.5751,-25.462],[-48.6354,-25.4446],[-48.6838,-25.4128],[-48.743,-25.3521],[-48.7188,-25.4226],[-48.6836,-25.4627],[-48.6887,-25.4733],[-48.7294,-25.4682],[-48.7108,-25.4964],[-48.6201,-25.4962],[-48.6269,-25.5097],[-48.6431,-25.5024],[-48.6543,-25.5165],[-48.6154,-25.53],[-48.6064,-25.5439],[-48.5954,-25.5278],[-48.5587,-25.5273],[-48.524,-25.5148],[-48.4693,-25.5439],[-48.5034,-25.5719],[-48.4825,-25.5798],[-48.4557,-25.5507],[-48.4063,-25.5551],[-48.3867,-25.5439],[-48.3612,-25.571],[-48.4327,-25.6225],[-48.5176,-25.7702],[-48.5171,-25.7971],[-48.541,-25.8455],[-48.586,-25.8176],[-48.5785,-25.7971],[-48.6035,-25.8022],[-48.6201,-25.8176],[-48.5922,-25.8293],[-48.5832,-25.8547],[-48.6512,-25.8445],[-48.743,-25.8517],[-48.7694,-25.8674],[-48.7658,-25.8867],[-48.743,-25.8728],[-48.5785,-25.8728],[-48.5635,-25.8658],[-48.5586,-25.9018],[-48.586,-25.9958],[-48.6127,-26.0406],[-48.5826,-26.1572],[-48.5925,-26.1839],[-48.6349,-26.1945],[-48.6679,-26.236],[-48.7338,-26.2247],[-48.7642,-26.1471],[-48.7725,-26.1007],[-48.7886,-26.0634],[-48.7965,-26.0685],[-48.798,-26.0881],[-48.784,-26.1131],[-48.7911,-26.1353],[-48.784,-26.154],[-48.767,-26.164],[-48.7561,-26.2035],[-48.7642,-26.2282],[-48.7562,-26.2494],[-48.7777,-26.2633],[-48.7573,-26.2912],[-48.7821,-26.2909],[-48.7982,-26.3049],[-48.7377,-26.3191],[-48.7218,-26.3448],[-48.6508,-26.3766],[-48.6359,-26.4186],[-48.6079,-26.4367],[-48.6645,-26.5561],[-48.6833,-26.6624],[-48.6789,-26.7311],[-48.6269,-26.7709],[-48.5922,-26.7639],[-48.578,-26.7765],[-48.5837,-26.7949],[-48.6205,-26.8372],[-48.6288,-26.8648],[-48.6269,-26.8971],[-48.6133,-26.9177],[-48.6201,-26.9826],[-48.6112,-26.9939],[-48.5922,-26.9963],[-48.5752,-27.0162],[-48.6072,-27.1044],[-48.5795,-27.1585],[-48.5514,-27.1581],[-48.5344,-27.1305],[-48.5162,-27.1208],[-48.4968,-27.1491],[-48.4761,-27.154],[-48.4966,-27.1751],[-48.487,-27.1985],[-48.4929,-27.216],[-48.5246,-27.2213],[-48.5314,-27.2092],[-48.5126,-27.1982],[-48.5419,-27.1824],[-48.6064,-27.2234],[-48.62,-27.2467],[-48.6099,-27.3054],[-48.5723,-27.3122],[-48.5609,-27.325],[-48.5519,-27.3873],[-48.5655,-27.3674],[-48.5819,-27.4167],[-48.637,-27.447],[-48.6474,-27.4796],[-48.6099,-27.5587],[-48.5791,-27.5763],[-48.586,-27.6132],[-48.5946,-27.6012],[-48.6474,-27.6474],[-48.6317,-27.6798],[-48.6269,-27.7197],[-48.6064,-27.7504],[-48.6292,-27.7675],[-48.5723,-27.8255],[-48.5922,-27.8429],[-48.5882,-27.8536],[-48.5655,-27.8603],[-48.6064,-27.9323],[-48.6166,-27.9908],[-48.599,-28.0416],[-48.6201,-28.0685],[-48.6537,-28.1902],[-48.6553,-28.2128],[-48.6359,-28.2302],[-48.6884,-28.278],[-48.6964,-28.3421],[-48.7311,-28.3845],[-48.7631,-28.457],[-48.7612,-28.4874],[-48.7809,-28.4875],[-48.8035,-28.4523],[-48.8075,-28.4317],[-48.7909,-28.3815],[-48.7948,-28.3705],[-48.8506,-28.3237],[-48.8646,-28.3209],[-48.874,-28.3463],[-48.8597,-28.3913],[-48.874,-28.4189],[-48.8693,-28.4267],[-48.8392,-28.4289],[-48.8549,-28.4753],[-48.7892,-28.5214],[-48.7777,-28.5251],[-48.7499,-28.5114],[-48.7561,-28.5284],[-48.8153,-28.6104],[-48.8841,-28.6232],[-48.9406,-28.6454],[-48.9764,-28.6752],[-49.057,-28.7185],[-49.3428,-28.9235],[-49.5523,-29.1274],[-49.8107,-29.4431],[-49.9336,-29.6344],[-49.9974,-29.7646],[-50.0453,-29.8145],[-50.2514,-30.3228],[-50.3157,-30.4615],[-50.5876,-30.851],[-50.5995,-30.8814],[-50.7214,-31.0445],[-50.8284,-31.1427],[-50.8837,-31.2199],[-51.0346,-31.378],[-51.1518,-31.4815],[-51.5633,-31.7774],[-51.8635,-31.9317],[-52.0326,-32.109],[-52.0774,-32.1673],[-52.0845,-32.1469],[-52.0467,-32.0743],[-52.0358,-32.0279],[-52.0566,-31.9884],[-52.0122,-31.9506],[-52.0259,-31.9197],[-52.088,-31.8586],[-52.0873,-31.8278],[-52.0485,-31.8083],[-52.0018,-31.8215],[-51.9228,-31.8687],[-51.88,-31.8713],[-51.8363,-31.8549],[-51.8137,-31.8284],[-51.8341,-31.8005],[-51.7045,-31.7927],[-51.6662,-31.7697],[-51.5602,-31.6676],[-51.5454,-31.6397],[-51.5126,-31.616],[-51.4987,-31.5749],[-51.4573,-31.6155],[-51.4476,-31.6127],[-51.4635,-31.5572],[-51.4484,-31.5169],[-51.4225,-31.4851],[-51.4135,-31.5178],[-51.3778,-31.527],[-51.3345,-31.5192],[-51.245,-31.464],[-51.1796,-31.359],[-51.1586,-31.2864],[-51.1548,-31.2121],[-51.1761,-31.1493],[-51.1619,-31.0777],[-51.1534,-31.0672],[-51.0973,-31.081],[-51.0328,-31.0606],[-51.014,-31.0628],[-51.0064,-31.0705],[-51.0032,-31.1329],[-50.9759,-31.131],[-50.9647,-31.1013],[-50.9359,-31.0878],[-50.9399,-31.0764],[-50.97,-31.0743],[-50.9877,-31.0456],[-50.9601,-30.967],[-50.9564,-30.9228],[-50.9784,-30.8933],[-50.9139,-30.8933],[-50.8196,-30.8313],[-50.7601,-30.8151],[-50.7311,-30.7924],[-50.6926,-30.7265],[-50.6794,-30.6417],[-50.6895,-30.464],[-50.7257,-30.3631],[-50.6899,-30.3532],[-50.6451,-30.3922],[-50.6547,-30.4194],[-50.6499,-30.4386],[-50.6075,-30.4851],[-50.565,-30.4501],[-50.5728,-30.4094],[-50.5373,-30.3204],[-50.5399,-30.2675],[-50.5455,-30.2512],[-50.5834,-30.232],[-50.6148,-30.1862],[-50.6485,-30.1904],[-50.6759,-30.2177],[-50.6762,-30.2316],[-50.6534,-30.2516],[-50.672,-30.289],[-50.7791,-30.2932],[-50.7935,-30.3025],[-50.7994,-30.3235],[-50.8744,-30.3201],[-50.8975,-30.3105],[-50.913,-30.3167],[-50.9329,-30.3806],[-50.9154,-30.4362],[-50.9364,-30.4316],[-50.9844,-30.3952],[-51.0341,-30.3757],[-51.0403,-30.3435],[-51.0116,-30.2962],[-51.0231,-30.2638],[-51.0342,-30.2574],[-51.0526,-30.2654],[-51.0576,-30.2419],[-51.0795,-30.2379],[-51.1225,-30.256],[-51.1761,-30.2245],[-51.1715,-30.2094],[-51.1805,-30.2004],[-51.233,-30.1899],[-51.2356,-30.1782],[-51.2171,-30.1563],[-51.2204,-30.1364],[-51.2512,-30.1078],[-51.2375,-30.0396],[-51.2593,-30.0468],[-51.2621,-30.0138],[-51.2717,-30.0048],[-51.2835,-30.0074],[-51.286,-30.0322],[-51.3065,-30.0702],[-51.2921,-30.0839],[-51.314,-30.1546],[-51.3065,-30.1869],[-51.327,-30.2245],[-51.2825,-30.2214],[-51.2649,-30.2449],[-51.2921,-30.2717],[-51.2806,-30.2874],[-51.2472,-30.2975],[-51.2375,-30.3132],[-51.2041,-30.2853],[-51.1877,-30.3601],[-51.1661,-30.363],[-51.0934,-30.345],[-51.0906,-30.352],[-51.1004,-30.3853],[-51.1148,-30.4011],[-51.1351,-30.4094],[-51.1619,-30.3952],[-51.2004,-30.3998],[-51.2295,-30.4259],[-51.2505,-30.4623],[-51.2779,-30.5401],[-51.2902,-30.6244],[-51.2649,-30.7555],[-51.2697,-30.7818],[-51.2817,-30.7966],[-51.2977,-30.7953],[-51.314,-30.7732],[-51.2895,-30.7673],[-51.2912,-30.7399],[-51.3225,-30.6422],[-51.358,-30.6354],[-51.3771,-30.6423],[-51.3816,-30.7763],[-51.3619,-30.8792],[-51.3707,-30.8865],[-51.4554,-30.8894],[-51.4778,-30.9228],[-51.4857,-30.9671],[-51.4842,-31.013],[-51.4708,-31.0533],[-51.443,-31.081],[-51.6236,-31.1353],[-51.643,-31.1671],[-51.6509,-31.2055],[-51.649,-31.2387],[-51.6375,-31.2565],[-51.6847,-31.2521],[-51.7126,-31.2659],[-51.819,-31.2722],[-51.8395,-31.2822],[-51.8569,-31.3112],[-51.9228,-31.3069],[-51.94,-31.3251],[-51.9635,-31.3323],[-51.9573,-31.3512],[-51.9429,-31.3593],[-51.9985,-31.4094],[-52.0048,-31.5397],[-51.9849,-31.5739],[-52.0079,-31.6462],[-52.0402,-31.5702],[-52.0732,-31.5543],[-52.0833,-31.5587],[-52.0941,-31.5776],[-52.09,-31.6061],[-52.0463,-31.6081],[-52.0412,-31.6227],[-52.0633,-31.6655],[-52.0958,-31.6911],[-52.2037,-31.7273],[-52.2186,-31.7407],[-52.2245,-31.7625],[-52.2102,-31.8005],[-52.2245,-31.8414],[-52.2456,-31.841],[-52.2484,-31.862],[-52.2357,-31.8797],[-52.2102,-31.8687],[-52.1835,-31.9001],[-52.1493,-31.9098],[-52.1339,-31.9308],[-52.1391,-31.9405],[-52.1698,-31.9365],[-52.2377,-31.9664],[-52.2586,-32.0536],[-52.2112,-32.0567],[-52.2117,-32.068],[-52.2381,-32.081],[-52.214,-32.0861],[-52.1544,-32.0651],[-52.1241,-32.0295],[-52.0814,-32.032],[-52.1689,-32.1007],[-52.1562,-32.1227],[-52.1397,-32.1191],[-52.0873,-32.0673],[-52.1016,-32.1227],[-52.0912,-32.1661],[-52.1274,-32.1775],[-52.2286,-32.2511],[-52.2534,-32.2825],[-52.3753,-32.4987],[-52.4432,-32.686],[-52.4709,-32.801],[-52.6449,-33.137],[-52.8195,-33.3225],[-53.0917,-33.5273],[-53.2663,-33.6767],[-53.3791,-33.7407],[-53.4113,-33.7423],[-53.4404,-33.6971],[-53.4567,-33.6875],[-53.5115,-33.6903],[-53.5396,-33.6493],[-53.5368,-33.5599],[-53.514,-33.3949],[-53.5361,-33.2446],[-53.5369,-33.1708],[-53.5115,-33.0992],[-53.4833,-33.0673],[-53.3273,-32.9736],[-53.3096,-32.9444],[-53.2988,-32.8891],[-53.2039,-32.8224],[-53.1631,-32.7787],[-53.1269,-32.7548],[-53.1108,-32.7224],[-53.2015,-32.6372],[-53.2669,-32.6074],[-53.316,-32.6027],[-53.4156,-32.5642],[-53.4746,-32.5082],[-53.5613,-32.4495],[-53.6439,-32.3556],[-53.6586,-32.2543],[-53.6706,-32.2264],[-53.7214,-32.1624],[-53.75,-32.104],[-53.7573,-32.055],[-53.8581,-32.0212],[-53.8814,-32.0012],[-53.9058,-31.9593],[-53.9488,-31.937],[-54.0087,-31.9265],[-54.0497,-31.8871],[-54.0885,-31.8782],[-54.1463,-31.9099],[-54.2742,-31.8234],[-54.4637,-31.6719],[-54.4774,-31.6421],[-54.4832,-31.5839],[-54.495,-31.5656],[-54.5624,-31.5159],[-54.6045,-31.4598],[-54.8198,-31.4353],[-54.8499,-31.4251],[-54.9003,-31.3821],[-54.9408,-31.3656],[-54.9696,-31.3408],[-55.0294,-31.2688],[-55.0423,-31.2726],[-55.0611,-31.3049],[-55.0873,-31.3268],[-55.1222,-31.3135],[-55.1883,-31.2665],[-55.2443,-31.2446],[-55.26,-31.2287],[-55.2937,-31.1537],[-55.338,-31.1256],[-55.3539,-31.0563],[-55.3686,-31.0374],[-55.5113,-30.9061],[-55.5639,-30.8765],[-55.5919,-30.8483],[-55.634,-30.8476],[-55.6497,-30.861],[-55.6527,-30.939],[-55.6658,-30.9493],[-55.7319,-30.9454],[-55.7636,-31.0084],[-55.8546,-31.0746],[-56.0114,-31.0821],[-56.0222,-31.0671],[-56.0155,-30.9343],[-55.989,-30.8558],[-56.0114,-30.7982],[-56.0769,-30.7523],[-56.1317,-30.6719],[-56.1708,-30.6458],[-56.1835,-30.6146],[-56.2151,-30.5819],[-56.386,-30.4758],[-56.4246,-30.4236],[-56.5238,-30.3573],[-56.575,-30.3024],[-56.6313,-30.2847],[-56.6326,-30.2475],[-56.6418,-30.2339],[-56.767,-30.1614],[-56.7952,-30.1238],[-56.8313,-30.102],[-56.9064,-30.1085],[-56.9746,-30.0975],[-57.0379,-30.1146],[-57.0771,-30.1061],[-57.1296,-30.15],[-57.1508,-30.1823],[-57.1638,-30.2393],[-57.1837,-30.2675],[-57.2126,-30.2873],[-57.2451,-30.2933],[-57.2704,-30.2752],[-57.2965,-30.2933],[-57.3343,-30.2727],[-57.3538,-30.272],[-57.3993,-30.2991],[-57.4148,-30.2957],[-57.4431,-30.2695],[-57.536,-30.2744],[-57.5675,-30.2563],[-57.5868,-30.204],[-57.6028,-30.1905],[-57.6425,-30.1931],[-57.634,-30.1836],[-57.5486,-30.17],[-57.5062,-30.1443]]],[[[-51.2176,-0.8019],[-51.2711,-1.0177],[-51.286,-1.0317],[-51.3103,-1.0021],[-51.3315,-1.0099],[-51.4348,-1.1867],[-51.5563,-1.2887],[-51.6695,-1.3538],[-51.6758,-1.3743],[-51.7856,-1.45],[-51.852,-1.464],[-51.8925,-1.4837],[-51.9127,-1.4814],[-51.9439,-1.4562],[-51.9541,-1.4225],[-51.9419,-1.3914],[-51.9029,-1.3401],[-51.8843,-1.2563],[-51.7965,-1.1894],[-51.7816,-1.1539],[-51.7179,-1.1297],[-51.6839,-1.0969],[-51.6684,-1.0575],[-51.6901,-1.0187],[-51.6861,-0.8844],[-51.6758,-0.8468],[-51.6236,-0.7902],[-51.5598,-0.665],[-51.5051,-0.6071],[-51.4248,-0.5538],[-51.3474,-0.532],[-51.363,-0.5623],[-51.3651,-0.6106],[-51.3884,-0.6549],[-51.3816,-0.6549],[-51.3474,-0.6139],[-51.3537,-0.5802],[-51.3406,-0.5729],[-51.3406,-0.5929],[-51.3331,-0.5929],[-51.3331,-0.5729],[-51.2996,-0.5929],[-51.327,-0.5519],[-51.3201,-0.5214],[-51.2375,-0.5383],[-51.2033,-0.6047],[-51.1629,-0.6205],[-51.1516,-0.6371],[-51.1556,-0.6816],[-51.2176,-0.8019]]],[[[-50.8431,-0.716],[-50.9343,-0.7317],[-50.9762,-0.7698],[-51.054,-0.7966],[-51.0941,-0.8263],[-51.1097,-0.8067],[-51.1004,-0.7306],[-51.0663,-0.676],[-51.0389,-0.6816],[-50.9564,-0.6071],[-50.8608,-0.5656],[-50.8791,-0.6003],[-50.8813,-0.6139],[-50.8744,-0.6139],[-50.8409,-0.5587],[-50.8129,-0.655],[-50.8223,-0.6999],[-50.8431,-0.716]]],[[[-51.1339,-0.1608],[-51.1317,-0.2031],[-51.1442,-0.2114],[-51.1488,-0.2638],[-51.1667,-0.3056],[-51.2013,-0.3437],[-51.3756,-0.4605],[-51.3938,-0.4665],[-51.4051,-0.4596],[-51.402,-0.4357],[-51.3612,-0.4075],[-51.3304,-0.3661],[-51.2643,-0.2195],[-51.2327,-0.1795],[-51.1898,-0.1682],[-51.1653,-0.1403],[-51.1208,-0.1403],[-51.1339,-0.1608]]],[[[-51.0048,-0.1825],[-51.0328,-0.1682],[-50.9826,-0.0855],[-50.9724,-0.0428],[-50.9473,-0.012],[-50.8898,0.0011],[-50.8175,0.0347],[-50.766,0.0464],[-50.7396,0.0345],[-50.7249,0.008],[-50.6553,-0.0238],[-50.6274,-0.0857],[-50.6388,-0.121],[-50.6759,-0.1546],[-50.7812,-0.2101],[-50.8372,-0.2677],[-50.9234,-0.3305],[-50.965,-0.3142],[-50.9737,-0.2912],[-51.0128,-0.2736],[-51.038,-0.2359],[-51.0387,-0.2003],[-51.0048,-0.1825]]],[[[-50.6343,0.1061],[-50.6485,0.1505],[-50.6369,0.1653],[-50.6106,0.1834],[-50.583,0.184],[-50.4902,0.1594],[-50.4696,0.1452],[-50.4465,0.1259],[-50.4325,0.0359],[-50.4475,-0.0152],[-50.4957,-0.0166],[-50.5231,-0.0038],[-50.5597,-0.0038],[-50.5881,0.0121],[-50.6075,0.0338],[-50.6097,0.0534],[-50.6343,0.0713],[-50.6343,0.1061]]],[[[-49.8596,0.3012],[-49.6502,0.3864],[-49.5602,0.3858],[-49.5304,0.3538],[-49.529,0.3008],[-49.6016,0.266],[-49.6924,0.205],[-49.764,0.1334],[-49.8297,0.0113],[-49.8671,-0.0107],[-49.9631,-0.0328],[-50.0045,-0.0528],[-50.0451,-0.0029],[-50.0973,0.0309],[-50.1278,0.0372],[-50.1747,0.0293],[-50.1901,0.0413],[-50.2976,0.012],[-50.3516,0.0589],[-50.3401,0.1334],[-50.3667,0.0918],[-50.38,0.1107],[-50.381,0.1946],[-50.3668,0.2145],[-50.3049,0.2168],[-50.2544,0.2298],[-50.1073,0.2222],[-50.0622,0.2624],[-50.0369,0.2997],[-50.0038,0.3101],[-49.9595,0.3083],[-49.9216,0.2928],[-49.8596,0.3012]]],[[[-50.1994,0.2885],[-50.1133,0.3382],[-50.0933,0.339],[-50.0864,0.3207],[-50.1073,0.2929],[-50.1656,0.2617],[-50.2205,0.2462],[-50.1994,0.2885]]],[[[-50.419,0.1679],[-50.5015,0.1917],[-50.5168,0.2086],[-50.5163,0.2434],[-50.506,0.2662],[-50.4704,0.2699],[-50.4325,0.414],[-50.4083,0.4207],[-50.4281,0.4655],[-50.4308,0.548],[-50.3667,0.6199],[-50.3473,0.5713],[-50.3531,0.4002],[-50.3231,0.3406],[-50.317,0.3088],[-50.3499,0.2527],[-50.3952,0.2403],[-50.414,0.2263],[-50.419,0.1679]]],[[[-50.2516,0.5758],[-50.2582,0.5852],[-50.2421,0.593],[-50.1869,0.5922],[-50.1676,0.6054],[-50.1204,0.5716],[-50.1151,0.5862],[-50.1348,0.5976],[-50.134,0.6125],[-50.1029,0.6398],[-50.0657,0.6473],[-50.0333,0.5936],[-50.0248,0.5412],[-50.0427,0.5103],[-50.1661,0.4138],[-50.2496,0.361],[-50.2814,0.3566],[-50.3007,0.3755],[-50.3121,0.414],[-50.3151,0.4973],[-50.3029,0.531],[-50.2516,0.5758]]],[[[-50.2255,0.8592],[-50.1588,0.8867],[-50.1321,0.9142],[-50.1117,0.9183],[-50.0586,0.9018],[-50.0269,0.9038],[-50.0157,0.8925],[-50.0497,0.8211],[-50.0763,0.7986],[-50.1034,0.7557],[-50.2753,0.7456],[-50.2834,0.7692],[-50.275,0.8091],[-50.2255,0.8592]]],[[[-50.0492,0.9856],[-50.0319,1.015],[-49.967,1.0431],[-49.9468,1.0628],[-49.9264,1.0699],[-49.9162,1.0566],[-49.964,0.9738],[-50.0083,0.941],[-50.0626,0.9233],[-50.0993,0.9386],[-50.1003,0.9591],[-50.0492,0.9856]]],[[[-50.3996,2.1151],[-50.3569,2.0594],[-50.3532,2.0343],[-50.314,1.9683],[-50.3125,1.9471],[-50.3766,1.8783],[-50.4191,1.863],[-50.4586,1.881],[-50.4976,1.9846],[-50.5238,2.0015],[-50.5208,2.0317],[-50.5042,2.0957],[-50.4701,2.0977],[-50.4544,2.1109],[-50.3996,2.1151]]],[[[-50.4633,2.1869],[-50.4305,2.165],[-50.4178,2.1448],[-50.4152,2.1269],[-50.4247,2.1197],[-50.4576,2.1205],[-50.4733,2.1078],[-50.5097,2.1097],[-50.5202,2.1154],[-50.5257,2.1377],[-50.553,2.1513],[-50.5136,2.1873],[-50.4633,2.1869]]],[[[-48.3852,-27.4773],[-48.412,-27.5237],[-48.4072,-27.5792],[-48.4145,-27.5951],[-48.452,-27.6337],[-48.4966,-27.7027],[-48.4975,-27.7239],[-48.4822,-27.7595],[-48.4861,-27.7743],[-48.5205,-27.7883],[-48.5426,-27.8167],[-48.5638,-27.8173],[-48.5635,-27.7398],[-48.5444,-27.6816],[-48.5591,-27.6745],[-48.5239,-27.6337],[-48.526,-27.6114],[-48.5471,-27.5772],[-48.5158,-27.57],[-48.5043,-27.5564],[-48.5067,-27.54],[-48.5239,-27.5307],[-48.5171,-27.5071],[-48.5375,-27.4762],[-48.5121,-27.4448],[-48.5171,-27.4283],[-48.4458,-27.4124],[-48.4266,-27.3889],[-48.3799,-27.4357],[-48.3852,-27.4773]]],[[[-48.5785,-26.421],[-48.6113,-26.4128],[-48.6431,-26.3591],[-48.7033,-26.3119],[-48.6753,-26.2739],[-48.6465,-26.2683],[-48.63,-26.2397],[-48.5581,-26.2055],[-48.5655,-26.1813],[-48.5476,-26.1672],[-48.5163,-26.184],[-48.4891,-26.236],[-48.5076,-26.2566],[-48.5479,-26.3518],[-48.5754,-26.3762],[-48.5785,-26.421]]],[[[-48.2682,-25.4269],[-48.2559,-25.4657],[-48.2911,-25.4891],[-48.3092,-25.486],[-48.3239,-25.4675],[-48.3215,-25.442],[-48.3395,-25.4255],[-48.3383,-25.4082],[-48.2985,-25.3664],[-48.2554,-25.3482],[-48.2509,-25.3646],[-48.2682,-25.4269]]],[[[-47.4483,-24.6867],[-47.4952,-24.7239],[-47.55,-24.7424],[-47.7854,-24.9238],[-47.8227,-24.9417],[-47.8883,-25.0412],[-47.9001,-25.0368],[-47.8796,-24.9648],[-47.8319,-24.9133],[-47.7174,-24.8303],[-47.6736,-24.8115],[-47.6129,-24.7545],[-47.5617,-24.736],[-47.5172,-24.7009],[-47.483,-24.7009],[-47.4483,-24.6867]]],[[[-46.3195,-23.9277],[-46.2919,-23.9909],[-46.3414,-23.9699],[-46.3658,-23.9816],[-46.3999,-23.9748],[-46.4204,-23.9474],[-46.3937,-23.9474],[-46.3937,-23.9202],[-46.3815,-23.9203],[-46.3195,-23.9277]]],[[[-45.2183,-23.9495],[-45.2417,-23.9679],[-45.2622,-23.9611],[-45.2904,-23.9119],[-45.3857,-23.9381],[-45.4219,-23.9352],[-45.4471,-23.9127],[-45.4474,-23.8772],[-45.3554,-23.8001],[-45.3168,-23.7209],[-45.287,-23.7282],[-45.2281,-23.7724],[-45.2349,-23.8444],[-45.2657,-23.8393],[-45.2711,-23.8689],[-45.255,-23.8982],[-45.2213,-23.8923],[-45.2164,-23.8991],[-45.2137,-23.9065],[-45.2269,-23.9168],[-45.2183,-23.9495]]],[[[-49.2933,-1.8046],[-49.3674,-1.8951],[-49.4263,-1.8776],[-49.453,-1.8502],[-49.422,-1.8132],[-49.4115,-1.7756],[-49.3736,-1.7516],[-49.3381,-1.7127],[-49.319,-1.7175],[-49.3098,-1.7444],[-49.277,-1.767],[-49.2933,-1.8046]]],[[[-49.4228,-1.6742],[-49.432,-1.7087],[-49.4683,-1.7194],[-49.4961,-1.7426],[-49.5228,-1.7352],[-49.5295,-1.7171],[-49.5255,-1.6729],[-49.5016,-1.6582],[-49.4648,-1.6543],[-49.4364,-1.6645],[-49.4228,-1.6742]]],[[[-44.8854,-1.3264],[-44.9195,-1.3059],[-44.8985,-1.3327],[-44.9347,-1.3666],[-44.9612,-1.3674],[-44.9639,-1.3906],[-44.9803,-1.3961],[-45.0189,-1.3777],[-45.027,-1.3605],[-45.0157,-1.3122],[-44.9962,-1.3263],[-44.9953,-1.3538],[-44.9779,-1.301],[-44.9919,-1.2924],[-44.9744,-1.2603],[-44.9474,-1.2729],[-44.923,-1.2576],[-44.8922,-1.2719],[-44.8765,-1.2962],[-44.8854,-1.3264]]],[[[-48.3194,-1.1594],[-48.3191,-1.1894],[-48.3341,-1.205],[-48.3799,-1.2172],[-48.3924,-1.2048],[-48.3935,-1.1894],[-48.4023,-1.2029],[-48.4143,-1.198],[-48.4654,-1.1576],[-48.4283,-1.1173],[-48.4215,-1.0795],[-48.3835,-1.0654],[-48.339,-1.0665],[-48.3242,-1.0759],[-48.2974,-1.1285],[-48.3194,-1.1594]]],[[[-48.4858,-0.6847],[-48.4966,-0.7437],[-48.5375,-0.7189],[-48.5723,-0.6816],[-48.5235,-0.7734],[-48.5375,-0.7989],[-48.5262,-0.8202],[-48.5277,-0.8727],[-48.5601,-0.9143],[-48.6129,-0.9329],[-48.6332,-0.9492],[-48.6307,-0.9689],[-48.6648,-1.0012],[-48.6543,-1.0112],[-48.6288,-1.0097],[-48.6269,-1.0248],[-48.6543,-1.0453],[-48.6543,-1.0528],[-48.6283,-1.0478],[-48.6428,-1.0836],[-48.7177,-1.134],[-48.7583,-1.1506],[-48.7961,-1.1921],[-48.8187,-1.2029],[-48.8496,-1.198],[-48.8759,-1.1812],[-48.9149,-1.1347],[-48.9211,-1.1415],[-48.8948,-1.1812],[-48.842,-1.2133],[-48.8371,-1.234],[-48.8446,-1.2493],[-48.8672,-1.2439],[-48.8672,-1.2514],[-48.8119,-1.2576],[-48.7963,-1.2685],[-48.8024,-1.3398],[-48.8392,-1.4158],[-48.9422,-1.2958],[-48.9638,-1.283],[-48.9901,-1.2924],[-48.9574,-1.2955],[-48.946,-1.309],[-48.955,-1.3242],[-48.9833,-1.3327],[-48.9766,-1.3561],[-48.9901,-1.3743],[-48.9451,-1.3464],[-48.935,-1.3515],[-48.9211,-1.3879],[-48.8924,-1.398],[-48.8872,-1.4127],[-48.8392,-1.4426],[-48.8392,-1.45],[-48.8876,-1.4667],[-48.9181,-1.5046],[-48.9444,-1.491],[-48.9562,-1.5087],[-49.0658,-1.5319],[-49.0735,-1.5139],[-49.1068,-1.5046],[-49.1514,-1.4016],[-49.1819,-1.4016],[-49.1977,-1.3884],[-49.2091,-1.3947],[-49.1916,-1.4086],[-49.1844,-1.4534],[-49.2041,-1.5291],[-49.2015,-1.5532],[-49.1819,-1.5661],[-49.1955,-1.5735],[-49.203,-1.5598],[-49.2296,-1.5735],[-49.2016,-1.5866],[-49.1955,-1.6008],[-49.1682,-1.5866],[-49.1877,-1.6076],[-49.2228,-1.6212],[-49.2937,-1.6175],[-49.389,-1.5388],[-49.3873,-1.4841],[-49.4146,-1.5417],[-49.4096,-1.5639],[-49.3754,-1.5861],[-49.3542,-1.6144],[-49.3583,-1.6376],[-49.3724,-1.6466],[-49.4249,-1.6324],[-49.443,-1.6354],[-49.4682,-1.6233],[-49.4833,-1.6021],[-49.4966,-1.4977],[-49.5313,-1.4977],[-49.5076,-1.5226],[-49.504,-1.5866],[-49.5244,-1.5803],[-49.5141,-1.6081],[-49.522,-1.6222],[-49.5513,-1.6331],[-49.5565,-1.6454],[-49.5449,-1.676],[-49.5592,-1.676],[-49.5454,-1.6867],[-49.5517,-1.7209],[-49.6033,-1.7175],[-49.6236,-1.7249],[-49.6691,-1.7721],[-49.6883,-1.7693],[-49.7059,-1.7506],[-49.7275,-1.6777],[-49.751,-1.6418],[-49.74,-1.5951],[-49.7442,-1.5803],[-49.764,-1.6452],[-49.7299,-1.7306],[-49.7296,-1.7526],[-49.7438,-1.78],[-49.8003,-1.8173],[-49.8236,-1.8166],[-49.8534,-1.7927],[-49.8944,-1.7858],[-49.9254,-1.7617],[-50.0023,-1.7455],[-50.0323,-1.7156],[-50.0282,-1.6555],[-50.0548,-1.6647],[-50.0521,-1.7039],[-50.0599,-1.7179],[-50.093,-1.7482],[-50.155,-1.779],[-50.187,-1.7491],[-50.2245,-1.739],[-50.2372,-1.7053],[-50.2377,-1.6213],[-50.2736,-1.6105],[-50.2786,-1.5974],[-50.2496,-1.5631],[-50.265,-1.5182],[-50.2582,-1.4841],[-50.276,-1.497],[-50.2768,-1.5146],[-50.2582,-1.5598],[-50.2852,-1.5807],[-50.2922,-1.5974],[-50.2426,-1.6415],[-50.265,-1.7448],[-50.2718,-1.7448],[-50.2991,-1.6555],[-50.3065,-1.6555],[-50.2848,-1.7551],[-50.2942,-1.7727],[-50.3166,-1.7785],[-50.3667,-1.7721],[-50.297,-1.8035],[-50.3196,-1.8193],[-50.3768,-1.8322],[-50.5597,-1.7995],[-50.6067,-1.7648],[-50.586,-1.7346],[-50.5666,-1.7306],[-50.5879,-1.6845],[-50.7423,-1.5312],[-50.7686,-1.4784],[-50.8032,-1.435],[-50.7994,-1.4016],[-50.7857,-1.3947],[-50.7994,-1.3811],[-50.8131,-1.3364],[-50.7782,-1.1725],[-50.8058,-1.1023],[-50.7926,-1.0862],[-50.6759,-1.1415],[-50.6138,-1.1552],[-50.5597,-1.1832],[-50.5718,-1.1586],[-50.6167,-1.1199],[-50.5697,-1.1005],[-50.5393,-1.1074],[-50.5221,-1.0964],[-50.5222,-1.0866],[-50.5524,-1.0733],[-50.5455,-1.0528],[-50.53,-1.0388],[-50.4766,-1.0392],[-50.5285,-1.0253],[-50.5768,-1.0632],[-50.6638,-1.0949],[-50.7558,-1.0822],[-50.7926,-1.0187],[-50.7982,-0.9113],[-50.7742,-0.8298],[-50.7782,-0.8194],[-50.7576,-0.8068],[-50.7373,-0.8263],[-50.7406,-0.802],[-50.7707,-0.7857],[-50.7873,-0.7633],[-50.7857,-0.7337],[-50.772,-0.7164],[-50.7857,-0.7027],[-50.7799,-0.6606],[-50.7373,-0.5519],[-50.7113,-0.5865],[-50.6964,-0.6306],[-50.6841,-0.6398],[-50.6075,-0.676],[-50.5485,-0.6778],[-50.5604,-0.6593],[-50.6827,-0.6238],[-50.7236,-0.4799],[-50.6964,-0.36],[-50.6759,-0.3359],[-50.6547,-0.2638],[-50.5989,-0.2193],[-50.5834,-0.1922],[-50.5393,-0.1887],[-50.4913,-0.1589],[-50.4667,-0.1546],[-50.4115,-0.1645],[-50.3946,-0.1546],[-50.3682,-0.1056],[-50.35,-0.0994],[-50.0958,-0.1323],[-50.0384,-0.1546],[-50.0081,-0.153],[-49.7945,-0.1988],[-49.6535,-0.2411],[-49.5198,-0.2356],[-49.4596,-0.2234],[-49.4252,-0.2304],[-49.3873,-0.2576],[-49.4084,-0.2175],[-49.405,-0.1993],[-49.3868,-0.1847],[-49.3265,-0.1546],[-49.3129,-0.1601],[-49.206,-0.1403],[-49.1682,-0.1546],[-49.1316,-0.152],[-49.1204,-0.162],[-49.0914,-0.1539],[-49.0106,-0.1599],[-48.9796,-0.1862],[-48.927,-0.1588],[-48.8936,-0.1529],[-48.8805,-0.1636],[-48.892,-0.2159],[-48.8165,-0.2076],[-48.702,-0.2372],[-48.6235,-0.2234],[-48.5444,-0.2441],[-48.4272,-0.2599],[-48.3935,-0.2713],[-48.3689,-0.2979],[-48.3698,-0.3606],[-48.3884,-0.3956],[-48.4206,-0.415],[-48.4547,-0.4856],[-48.4653,-0.5904],[-48.4966,-0.676],[-48.4858,-0.6847]]],[[[-48.1625,-0.9208],[-48.2074,-1.0178],[-48.2377,-1.0279],[-48.2877,-1.0248],[-48.3163,-1.0095],[-48.3127,-0.9533],[-48.2845,-0.9215],[-48.2436,-0.8417],[-48.1949,-0.8194],[-48.1628,-0.8502],[-48.1559,-0.8663],[-48.1813,-0.8671],[-48.1813,-0.8746],[-48.1567,-0.8878],[-48.1625,-0.9208]]],[[[-47.8956,-0.6911],[-47.9621,-0.7306],[-47.9827,-0.676],[-47.9669,-0.6583],[-47.9779,-0.6518],[-47.9721,-0.6375],[-47.9353,-0.6367],[-47.8956,-0.6535],[-47.8871,-0.6691],[-47.8956,-0.6911]]],[[[-47.6469,-0.6481],[-47.6469,-0.7027],[-47.7015,-0.7096],[-47.7156,-0.6366],[-47.7515,-0.6222],[-47.7614,-0.5758],[-47.7452,-0.5628],[-47.7434,-0.5473],[-47.7155,-0.5473],[-47.7038,-0.5777],[-47.6876,-0.5846],[-47.6605,-0.5792],[-47.6492,-0.5916],[-47.639,-0.6279],[-47.6469,-0.6481]]],[[[-49.6281,0.0576],[-49.4966,0.0856],[-49.4829,0.0638],[-49.456,0.0746],[-49.4282,0.0713],[-49.3811,0.0439],[-49.3699,0.0282],[-49.3705,-0.0003],[-49.3475,-0.0097],[-49.36,-0.0584],[-49.3811,-0.0522],[-49.3859,-0.0696],[-49.4387,-0.1205],[-49.492,-0.1326],[-49.6869,-0.1354],[-49.7162,-0.1477],[-49.8323,-0.1031],[-49.8235,-0.0704],[-49.7405,-0.0003],[-49.6281,0.0576]]],[[[-44.1077,-23.1796],[-44.1183,-23.1655],[-44.1456,-23.1728],[-44.1593,-23.1658],[-44.1897,-23.1866],[-44.2412,-23.1935],[-44.2926,-23.1728],[-44.3277,-23.2213],[-44.3417,-23.1987],[-44.3374,-23.1796],[-44.3607,-23.1782],[-44.3671,-23.1652],[-44.3231,-23.1456],[-44.2964,-23.1176],[-44.2842,-23.1232],[-44.2709,-23.1152],[-44.2351,-23.0688],[-44.1865,-23.091],[-44.207,-23.1046],[-44.1865,-23.1176],[-44.1708,-23.1101],[-44.1418,-23.1313],[-44.1244,-23.1108],[-44.113,-23.1147],[-44.1183,-23.1313],[-44.0823,-23.1695],[-44.1077,-23.1796]]],[[[-29.3169,-20.5688],[-29.3382,-20.5842],[-29.3483,-20.5613],[-29.3443,-20.551],[-29.3169,-20.5688]]],[[[-38.9163,-13.484],[-38.9095,-13.4952],[-38.9344,-13.5562],[-38.905,-13.5999],[-38.9067,-13.6214],[-38.8933,-13.6393],[-38.902,-13.6718],[-38.9187,-13.667],[-38.9203,-13.6555],[-38.9495,-13.658],[-38.9791,-13.5997],[-38.9838,-13.5582],[-38.9678,-13.4983],[-39.0459,-13.4582],[-39.0336,-13.4423],[-39.0426,-13.4239],[-39.0326,-13.3925],[-39.0155,-13.3871],[-38.9656,-13.3979],[-38.9156,-13.3835],[-38.9062,-13.3888],[-38.8964,-13.4535],[-38.8994,-13.4714],[-38.9163,-13.484]]],[[[-38.6424,-13.0138],[-38.7185,-13.0728],[-38.7524,-13.1127],[-38.7865,-13.1339],[-38.7912,-13.0584],[-38.6693,-12.9618],[-38.6833,-12.95],[-38.6767,-12.9352],[-38.6693,-12.9421],[-38.6706,-12.925],[-38.6971,-12.8805],[-38.6835,-12.8732],[-38.6223,-12.9054],[-38.5929,-12.9646],[-38.5875,-12.9869],[-38.6424,-13.0138]]],[[[-34.8361,-7.6969],[-34.8223,-7.7492],[-34.838,-7.8108],[-34.8842,-7.804],[-34.8805,-7.7536],[-34.86,-7.7278],[-34.8528,-7.6974],[-34.8361,-7.6969]]],[[[-32.4415,-3.8808],[-32.4628,-3.8784],[-32.4369,-3.8499],[-32.3922,-3.8342],[-32.3886,-3.8528],[-32.4415,-3.8808]]],[[[-44.4808,-2.7931],[-44.4881,-2.872],[-44.5057,-2.9151],[-44.4973,-2.9493],[-44.5382,-2.97],[-44.5854,-3.0356],[-44.5906,-3.0602],[-44.598,-3.0602],[-44.6034,-3.0221],[-44.5785,-2.9811],[-44.5633,-2.9199],[-44.5857,-2.8459],[-44.5763,-2.8],[-44.5477,-2.7441],[-44.4808,-2.7044],[-44.484,-2.7612],[-44.4978,-2.8068],[-44.5137,-2.8146],[-44.5149,-2.8342],[-44.4808,-2.7931]]],[[[-42.1663,-2.7258],[-42.1058,-2.7727],[-42.1701,-2.768],[-42.2498,-2.7364],[-42.2584,-2.6962],[-42.2508,-2.6818],[-42.2393,-2.6809],[-42.1989,-2.7201],[-42.1663,-2.7258]]],[[[-42.0278,-2.7448],[-42.0852,-2.7587],[-42.1029,-2.7448],[-42.0824,-2.7385],[-42.0824,-2.7311],[-42.1053,-2.7243],[-42.1029,-2.7044],[-42.1442,-2.7009],[-42.186,-2.6764],[-42.0735,-2.6845],[-42.0482,-2.7106],[-42.0353,-2.7044],[-42.0278,-2.7448]]],[[[-43.8235,-2.4077],[-43.8082,-2.421],[-43.8136,-2.4546],[-43.8033,-2.4565],[-43.7751,-2.4289],[-43.7642,-2.4289],[-43.7568,-2.4477],[-43.7707,-2.496],[-43.7815,-2.5054],[-43.826,-2.5138],[-43.8383,-2.5074],[-43.8443,-2.4802],[-43.8339,-2.4422],[-43.8487,-2.424],[-43.8235,-2.4077]]],[[[-43.545,-2.3899],[-43.5737,-2.4235],[-43.6018,-2.4116],[-43.6117,-2.385],[-43.6077,-2.3732],[-43.546,-2.3603],[-43.545,-2.3899]]],[[[-43.6263,-2.3163],[-43.6392,-2.4043],[-43.6866,-2.401],[-43.7125,-2.4265],[-43.7425,-2.4117],[-43.7303,-2.3748],[-43.7366,-2.3341],[-43.7016,-2.2747],[-43.6689,-2.2587],[-43.607,-2.2563],[-43.6,-2.2837],[-43.6263,-2.3163]]],[[[-29.3694,0.8336],[-29.4103,0.8349],[-29.4264,0.8585],[-29.4234,0.8716],[-29.3815,0.8913],[-29.3562,0.8828],[-29.3453,0.8666],[-29.349,0.8526],[-29.3694,0.8336]]]]}}