{"type":"Feature","bbox":[8.5051,1.6546,16.2077,13.0811],"properties":{"iso":"CM","name":"Cameroon","name_de":"Kamerun","key":"CM"},"geometry":{"type":"Polygon","coordinates":[[[11.3221,2.1658],[9.991,2.1656],[9.9707,2.1689],[9.9075,2.2005],[9.8901,2.2046],[9.8721,2.2112],[9.8468,2.2285],[9.8237,2.249],[9.8109,2.2649],[9.8087,2.2855],[9.8119,2.3062],[9.8111,2.3249],[9.7996,2.3417],[9.8122,2.3536],[9.8122,2.3598],[9.8192,2.3769],[9.8229,2.5629],[9.8532,2.697],[9.8705,2.7381],[9.8743,2.7545],[9.8778,2.8814],[9.888,2.9269],[9.9033,2.9683],[9.922,2.9973],[9.9434,3.0231],[9.9557,3.0505],[9.958,3.0822],[9.9197,3.2281],[9.9021,3.2517],[9.9021,3.258],[9.9116,3.2577],[9.918,3.2595],[9.9295,3.2648],[9.9295,3.2716],[9.9139,3.2703],[9.9031,3.2729],[9.895,3.2783],[9.888,3.2852],[9.8815,3.2943],[9.8553,3.3436],[9.7809,3.4368],[9.739,3.4731],[9.6421,3.539],[9.6642,3.5439],[9.6887,3.5561],[9.7708,3.6187],[9.7928,3.6272],[9.8196,3.6279],[9.7876,3.6371],[9.7596,3.6262],[9.7337,3.6093],[9.7069,3.6005],[9.6384,3.5944],[9.6262,3.6],[9.6213,3.6128],[9.626,3.6265],[9.6421,3.6347],[9.6126,3.705],[9.5651,3.7709],[9.5515,3.7962],[9.5459,3.8196],[9.571,3.7955],[9.5767,3.7923],[9.5816,3.7878],[9.5896,3.7661],[9.5942,3.7582],[9.6069,3.7523],[9.6243,3.7502],[9.6626,3.7507],[9.6525,3.756],[9.6211,3.765],[9.611,3.7706],[9.6071,3.7747],[9.6043,3.78],[9.5974,3.7889],[9.5892,3.8096],[9.5921,3.8352],[9.6038,3.859],[9.6211,3.8748],[9.659,3.841],[9.6797,3.8361],[9.6898,3.8606],[9.7235,3.8438],[9.7363,3.8342],[9.7445,3.8196],[9.7503,3.8303],[9.7505,3.8408],[9.7459,3.8509],[9.7383,3.8606],[9.752,3.8606],[9.7049,3.8775],[9.6829,3.8904],[9.6763,3.909],[9.6892,3.9224],[9.715,3.9313],[9.7433,3.9359],[9.7644,3.9363],[9.7643,3.9407],[9.763,3.9438],[9.7581,3.95],[9.7608,3.9514],[9.763,3.9512],[9.7644,3.9523],[9.7644,3.9575],[9.6648,3.9404],[9.6346,3.9432],[9.6189,3.9604],[9.6237,3.9858],[9.6399,4.0088],[9.6592,4.0189],[9.6756,4.0338],[9.7189,4.0996],[9.7483,4.1144],[9.7525,4.1198],[9.7568,4.1298],[9.7546,4.1357],[9.7383,4.1287],[9.7195,4.1149],[9.7109,4.1057],[9.7035,4.0939],[9.6966,4.0939],[9.6966,4.1144],[9.6789,4.101],[9.6463,4.0515],[9.6284,4.0319],[9.6066,4.0207],[9.5794,4.013],[9.5593,4.0168],[9.5596,4.0394],[9.5459,4.0257],[9.5266,4.0358],[9.5086,4.0542],[9.4985,4.0772],[9.5042,4.1008],[9.4901,4.1159],[9.4785,4.1114],[9.4504,4.0803],[9.4573,4.0711],[9.4652,4.0681],[9.4743,4.0661],[9.4844,4.0599],[9.4854,4.0553],[9.4956,4.0315],[9.507,4.0195],[9.5236,4.0061],[9.5325,3.9894],[9.5186,3.9704],[9.5042,3.9761],[9.4971,3.9777],[9.4901,3.9807],[9.4769,3.9909],[9.464,4.012],[9.4539,4.0186],[9.4512,4.0228],[9.4504,4.0319],[9.438,4.0305],[9.4292,4.0266],[9.4241,4.0195],[9.4224,4.0084],[9.4494,3.9921],[9.4566,3.9841],[9.4588,3.9724],[9.4564,3.9635],[9.4524,3.9539],[9.4504,3.9398],[9.4533,3.9321],[9.4691,3.9234],[9.4769,3.9158],[9.464,3.91],[9.4483,3.9057],[9.4121,3.9022],[9.3934,3.9043],[9.3592,3.9137],[9.3435,3.9158],[9.3137,3.9309],[9.3026,3.965],[9.3076,4.0019],[9.3262,4.0257],[9.3262,4.0319],[9.3014,4.0264],[9.2903,4.0097],[9.2844,3.9923],[9.2503,3.9608],[9.2207,3.966],[9.2107,3.9643],[9.2111,3.9826],[9.2132,3.9966],[9.2106,4.0081],[9.1965,4.0189],[9.1847,4.0209],[9.1665,4.0209],[9.1488,4.019],[9.1387,4.0154],[9.1234,4.0179],[9.0702,4.0514],[8.9834,4.0924],[8.9712,4.1008],[8.9694,4.129],[8.9885,4.1889],[8.991,4.2175],[8.9603,4.2459],[8.9363,4.2795],[8.919,4.3181],[8.8948,4.4605],[8.9001,4.4851],[8.926,4.5296],[8.9357,4.5533],[8.9136,4.5286],[8.9006,4.5216],[8.8948,4.5359],[8.8972,4.548],[8.9015,4.5602],[8.9043,4.5732],[8.9016,4.5874],[8.8938,4.5946],[8.8719,4.6025],[8.8641,4.6187],[8.8563,4.63],[8.847,4.6397],[8.8396,4.6426],[8.8357,4.6296],[8.8667,4.5827],[8.8737,4.56],[8.8678,4.5446],[8.8587,4.5408],[8.8506,4.5474],[8.847,4.5632],[8.7986,4.6011],[8.798,4.5883],[8.7995,4.5778],[8.8042,4.5701],[8.8128,4.5664],[8.7996,4.5422],[8.7952,4.539],[8.7884,4.5414],[8.7686,4.5531],[8.7644,4.5566],[8.757,4.5651],[8.7406,4.5712],[8.7241,4.5805],[8.7166,4.5977],[8.7059,4.6347],[8.6613,4.6988],[8.6551,4.7383],[8.6387,4.7131],[8.6454,4.6841],[8.6605,4.654],[8.6857,4.5612],[8.6948,4.5533],[8.7063,4.5477],[8.7166,4.539],[8.7227,4.5131],[8.7017,4.5013],[8.5767,4.4919],[8.5654,4.4973],[8.5703,4.5097],[8.5827,4.5233],[8.5938,4.5328],[8.5817,4.5385],[8.5706,4.5386],[8.5627,4.5332],[8.5564,4.5117],[8.5483,4.5078],[8.5374,4.5085],[8.5256,4.5117],[8.5103,4.527],[8.5051,4.5509],[8.5099,4.5688],[8.5256,4.5664],[8.5308,4.5793],[8.5521,4.6147],[8.5383,4.6046],[8.5257,4.6044],[8.5161,4.613],[8.5112,4.6291],[8.5137,4.6423],[8.5212,4.656],[8.5386,4.6762],[8.5676,4.696],[8.5733,4.7041],[8.5736,4.7164],[8.5697,4.7283],[8.5676,4.7402],[8.5733,4.7525],[8.5801,4.7451],[8.5765,4.7847],[8.5784,4.8047],[8.59,4.8134],[8.5951,4.8153],[8.6122,4.8319],[8.6054,4.86],[8.6022,4.8813],[8.611,4.8967],[8.6383,4.9168],[8.6444,4.9349],[8.6837,4.997],[8.6986,5.0178],[8.7079,5.0375],[8.7227,5.0812],[8.7289,5.0945],[8.7483,5.1242],[8.7583,5.1349],[8.7695,5.1399],[8.7813,5.142],[8.7917,5.1467],[8.7989,5.1596],[8.8257,5.2955],[8.8247,5.3061],[8.8164,5.3303],[8.8153,5.3435],[8.8217,5.3677],[8.8432,5.41],[8.8498,5.4324],[8.8493,5.4535],[8.8457,5.4728],[8.8443,5.4924],[8.8505,5.514],[8.8655,5.5335],[8.8843,5.5514],[8.8995,5.571],[8.9039,5.5951],[8.8937,5.6218],[8.8749,5.6414],[8.8526,5.6587],[8.8324,5.6782],[8.8193,5.7035],[8.8269,5.7178],[8.8446,5.7309],[8.8622,5.7523],[8.8666,5.7775],[8.8578,5.7949],[8.8471,5.8108],[8.8452,5.831],[8.8559,5.8475],[8.8912,5.8711],[8.9047,5.8881],[8.9217,5.9045],[8.9432,5.9014],[8.965,5.8936],[8.9827,5.8958],[8.9863,5.9088],[8.9885,5.9373],[8.9938,5.9441],[9.0099,5.9524],[9.0225,5.9658],[9.0439,5.9968],[9.1362,6.0925],[9.2733,6.2028],[9.2988,6.2384],[9.3274,6.2985],[9.341,6.314],[9.3548,6.3215],[9.3665,6.3227],[9.3791,6.3216],[9.395,6.3225],[9.4229,6.3394],[9.4531,6.3977],[9.4826,6.416],[9.5286,6.433],[9.549,6.4432],[9.5648,6.4586],[9.5881,6.5027],[9.603,6.5152],[9.6327,6.5212],[9.6805,6.5214],[9.693,6.5313],[9.7698,6.7737],[9.7885,6.7948],[9.8123,6.793],[9.8317,6.7836],[9.8512,6.7779],[9.8746,6.7877],[10.1195,6.9944],[10.1429,7.0077],[10.1569,7.0047],[10.165,6.9885],[10.1794,6.9149],[10.1898,6.8954],[10.2108,6.8792],[10.2384,6.871],[10.496,6.8747],[10.4966,6.8972],[10.5007,6.9128],[10.5089,6.9263],[10.5212,6.9428],[10.5275,6.9475],[10.5332,6.9488],[10.5374,6.9521],[10.5433,7.0287],[10.5518,7.0663],[10.5642,7.1027],[10.5787,7.1308],[10.5972,7.1073],[10.6025,7.0581],[10.6206,7.0438],[10.647,7.0351],[10.7169,6.9981],[10.7991,6.9673],[10.8319,6.9452],[10.8482,6.9053],[10.8574,6.8598],[10.8775,6.8161],[10.9094,6.7843],[11.0026,6.7673],[11.0367,6.7405],[11.0559,6.7004],[11.059,6.6527],[11.0574,6.613],[11.0606,6.574],[11.0774,6.4967],[11.0971,6.4491],[11.1135,6.434],[11.1404,6.4303],[11.2317,6.4398],[11.2371,6.4381],[11.2483,6.431],[11.2555,6.43],[11.2615,6.4326],[11.2722,6.442],[11.2759,6.4442],[11.2868,6.4432],[11.3085,6.4379],[11.3195,6.4373],[11.3442,6.4431],[11.3698,6.4558],[11.3894,6.4739],[11.3957,6.4967],[11.4018,6.5382],[11.4168,6.572],[11.4431,6.5933],[11.4826,6.5972],[11.5098,6.6123],[11.5334,6.6451],[11.5624,6.7125],[11.5689,6.7391],[11.5715,6.7662],[11.5666,6.7842],[11.5446,6.8089],[11.5381,6.8239],[11.5437,6.8507],[11.5618,6.8761],[11.6232,6.9323],[11.6811,6.9686],[11.6848,6.9738],[11.6885,6.9869],[11.6925,6.9916],[11.6972,6.9929],[11.7075,6.9918],[11.7186,6.9945],[11.7342,6.9951],[11.7411,6.9975],[11.7469,7.0054],[11.7486,7.015],[11.7515,7.024],[11.7664,7.0335],[11.8089,7.0719],[11.8203,7.0788],[11.834,7.083],[11.8451,7.0819],[11.8541,7.0778],[11.8626,7.0754],[11.8722,7.0794],[11.8813,7.102],[11.8689,7.1271],[11.83,7.1694],[11.7802,7.2411],[11.7662,7.2529],[11.7424,7.2574],[11.7366,7.2633],[11.7446,7.2722],[11.7625,7.2856],[11.7827,7.3045],[11.8447,7.3964],[11.9662,7.5144],[11.9928,7.554],[12.0085,7.5649],[12.0211,7.5762],[12.025,7.5966],[12.0107,7.6552],[12.0091,7.6763],[12.0122,7.6983],[12.019,7.7189],[12.055,7.7839],[12.1543,7.9213],[12.1921,7.9607],[12.1978,7.9752],[12.1951,7.9917],[12.1882,8.0163],[12.1827,8.0547],[12.1826,8.0935],[12.1883,8.1178],[12.2291,8.1755],[12.2368,8.197],[12.2377,8.2169],[12.2218,8.2977],[12.2193,8.3432],[12.227,8.3863],[12.25,8.4188],[12.2718,8.4278],[12.3102,8.4213],[12.3313,8.4243],[12.3432,8.4327],[12.3512,8.4442],[12.3576,8.4564],[12.3651,8.4666],[12.3952,8.4873],[12.4039,8.4965],[12.4033,8.5242],[12.4005,8.5384],[12.377,8.5951],[12.3688,8.6096],[12.3963,8.6008],[12.4106,8.5985],[12.4244,8.5998],[12.4403,8.6066],[12.4518,8.6147],[12.4643,8.6212],[12.4825,8.6232],[12.4955,8.6196],[12.5278,8.6049],[12.5426,8.602],[12.558,8.6057],[12.6604,8.6593],[12.6782,8.6787],[12.6928,8.7109],[12.7016,8.7392],[12.7089,8.7509],[12.7202,8.7565],[12.7345,8.7559],[12.7472,8.7536],[12.7596,8.7534],[12.7729,8.7591],[12.7945,8.7886],[12.8057,8.8315],[12.8282,9.02],[12.821,9.0564],[12.8221,9.0968],[12.8422,9.1444],[12.8884,9.2267],[12.8946,9.244],[12.8984,9.2624],[12.8993,9.302],[12.8913,9.332],[12.8816,9.3522],[12.8531,9.3566],[12.8484,9.3599],[12.8554,9.3781],[12.862,9.3829],[12.9207,9.4105],[12.929,9.4161],[12.9401,9.4271],[12.969,9.4641],[12.9824,9.4746],[13.0517,9.5045],[13.1303,9.5165],[13.1955,9.5422],[13.2235,9.6131],[13.2284,9.6779],[13.2413,9.7453],[13.2511,9.7692],[13.2605,9.7857],[13.2629,9.8017],[13.252,9.8242],[13.2229,9.8541],[13.2127,9.8701],[13.2111,9.8928],[13.2187,9.913],[13.2423,9.9498],[13.2464,9.9735],[13.2425,9.9927],[13.2305,10.0254],[13.2302,10.0453],[13.248,10.0794],[13.2813,10.0921],[13.3598,10.1005],[13.3784,10.1086],[13.402,10.1224],[13.4232,10.1385],[13.4349,10.1534],[13.4508,10.1872],[13.453,10.2005],[13.4514,10.2121],[13.4445,10.2325],[13.4448,10.2455],[13.4672,10.3076],[13.5013,10.4963],[13.5388,10.6214],[13.5663,10.679],[13.7444,10.9305],[13.757,10.9582],[13.7504,10.9962],[13.7548,11.0167],[13.7659,11.0339],[13.782,11.0475],[13.8201,11.0693],[13.8321,11.0848],[13.8492,11.1246],[13.8732,11.1665],[13.9063,11.208],[13.9439,11.2457],[13.9823,11.2763],[14.0131,11.2764],[14.0525,11.2652],[14.1226,11.2357],[14.1433,11.2327],[14.1655,11.2383],[14.1868,11.2492],[14.2046,11.2621],[14.2321,11.2903],[14.2443,11.2954],[14.2713,11.2986],[14.2792,11.3018],[14.3682,11.383],[14.3871,11.3934],[14.4463,11.4117],[14.4673,11.4239],[14.504,11.4563],[14.5249,11.4688],[14.5766,11.4873],[14.5938,11.4964],[14.6058,11.5147],[14.6162,11.5387],[14.6238,11.5635],[14.6276,11.5844],[14.6271,11.6097],[14.6214,11.6298],[14.6102,11.6468],[14.5939,11.663],[14.5886,11.6697],[14.5809,11.6833],[14.5735,11.6877],[14.5565,11.6875],[14.5524,11.689],[14.5433,11.7011],[14.5419,11.7098],[14.5465,11.7186],[14.5832,11.7664],[14.5907,11.7832],[14.6121,11.885],[14.6234,11.9165],[14.6271,11.9501],[14.6269,11.9572],[14.6252,11.9681],[14.6063,12.0113],[14.6043,12.0304],[14.6222,12.042],[14.6199,12.0525],[14.6372,12.1242],[14.6432,12.1358],[14.6481,12.1418],[14.6506,12.1481],[14.6699,12.1674],[14.6683,12.1781],[14.6634,12.1876],[14.6515,12.1938],[14.6432,12.1906],[14.6293,12.1835],[14.6163,12.1789],[14.6106,12.1835],[14.6041,12.2043],[14.5883,12.2172],[14.5681,12.2277],[14.5485,12.2416],[14.5621,12.2484],[14.5621,12.2558],[14.5512,12.2604],[14.5215,12.2824],[14.5144,12.2894],[14.5124,12.2986],[14.5176,12.3134],[14.5144,12.3235],[14.4871,12.3378],[14.4231,12.3531],[14.2176,12.3593],[14.2022,12.3625],[14.1889,12.3704],[14.1798,12.3856],[14.1791,12.3973],[14.1851,12.4279],[14.1854,12.447],[14.1787,12.4683],[14.1774,12.5456],[14.0649,13.078],[14.4182,13.0811],[14.4354,13.0703],[14.4821,12.9988],[14.4963,12.9838],[14.5047,12.969],[14.5077,12.9524],[14.5061,12.9321],[14.4906,12.8863],[14.4901,12.8736],[14.5004,12.8591],[14.531,12.8362],[14.549,12.8182],[14.549,12.7805],[14.5511,12.7716],[14.5548,12.7669],[14.5607,12.7662],[14.5694,12.7694],[14.5694,12.7596],[14.5707,12.7504],[14.5753,12.7449],[14.5849,12.7464],[14.604,12.7608],[14.6106,12.7623],[14.6184,12.7592],[14.6203,12.7541],[14.6207,12.7479],[14.6243,12.7419],[14.6417,12.7309],[14.6481,12.7251],[14.6645,12.716],[14.694,12.7237],[14.7099,12.7182],[14.7168,12.7018],[14.7021,12.669],[14.7137,12.6525],[14.7288,12.6772],[14.7341,12.6804],[14.7433,12.6772],[14.7521,12.6689],[14.7587,12.6588],[14.7614,12.6494],[14.7688,12.6332],[14.7862,12.6312],[14.8192,12.6388],[14.8308,12.6182],[14.8638,12.4955],[14.8601,12.4901],[14.852,12.4747],[14.8502,12.4681],[14.8496,12.457],[14.851,12.4552],[14.8555,12.4545],[14.8638,12.447],[14.8619,12.452],[14.8659,12.4526],[14.8724,12.4504],[14.8775,12.447],[14.8785,12.4431],[14.8768,12.4316],[14.8775,12.4272],[14.8912,12.4027],[14.9083,12.3269],[14.9063,12.318],[14.9049,12.2484],[14.9031,12.2363],[14.898,12.2195],[14.898,12.2075],[14.9009,12.2],[14.9059,12.1956],[14.9101,12.1904],[14.9116,12.1801],[14.9074,12.1735],[14.8999,12.1718],[14.8948,12.1674],[14.898,12.1528],[14.9031,12.1459],[14.9287,12.1286],[14.9507,12.1033],[14.9648,12.0924],[14.9768,12.0941],[14.9938,12.1067],[15.0118,12.1086],[15.0304,12.1009],[15.0494,12.0846],[15.0446,12.0784],[15.0409,12.0676],[15.0406,12.0556],[15.0457,12.0461],[15.0531,12.038],[15.0537,12.0319],[15.0512,12.0242],[15.0494,12.0119],[15.0597,11.9973],[15.0768,11.9828],[15.0812,11.9717],[15.0525,11.9672],[15.0483,11.9628],[15.0506,11.9529],[15.0555,11.9425],[15.0594,11.9368],[15.0634,11.9273],[15.0566,11.9184],[15.047,11.9102],[15.042,11.9024],[15.0442,11.8773],[15.051,11.8616],[15.0628,11.8535],[15.0798,11.8512],[15.0863,11.8405],[15.1109,11.7829],[15.1054,11.7727],[15.0891,11.7576],[15.0836,11.7482],[15.0853,11.744],[15.096,11.7341],[15.0972,11.7277],[15.0931,11.7229],[15.0863,11.7222],[15.0798,11.7226],[15.0761,11.7215],[15.0683,11.7001],[15.0665,11.6806],[15.0694,11.6608],[15.0852,11.6159],[15.0958,11.5982],[15.1239,11.5632],[15.1356,11.5308],[15.1223,11.5032],[15.0761,11.4533],[15.067,11.4356],[15.0606,11.4161],[15.0543,11.3641],[15.0494,11.3487],[15.0494,11.3373],[15.0525,11.3298],[15.0578,11.3254],[15.0623,11.32],[15.0631,11.3099],[15.0564,11.2934],[15.0333,11.2603],[15.0283,11.2445],[15.0212,11.1825],[15.0352,10.9946],[15.0625,10.9307],[15.0727,10.9158],[15.079,10.8981],[15.0756,10.8735],[15.0631,10.8308],[15.0659,10.7931],[15.1423,10.6472],[15.1499,10.6231],[15.1485,10.6073],[15.1384,10.5897],[15.1323,10.5654],[15.1317,10.5407],[15.1382,10.5217],[15.1444,10.5163],[15.1536,10.512],[15.1647,10.5091],[15.1761,10.508],[15.1866,10.5059],[15.1933,10.5012],[15.1982,10.4965],[15.2183,10.4872],[15.2272,10.4701],[15.2412,10.4329],[15.2556,10.417],[15.2688,10.4063],[15.2784,10.3943],[15.2822,10.3746],[15.2843,10.3493],[15.2906,10.329],[15.3014,10.3117],[15.4392,10.1852],[15.4764,10.1327],[15.4907,10.1244],[15.4901,10.1201],[15.5361,10.0805],[15.6028,10.041],[15.6379,10.03],[15.6812,9.9913],[15.6638,9.9861],[15.4394,9.9317],[15.383,9.9302],[15.2149,9.9841],[15.1555,9.9865],[15.1096,9.9815],[15.1007,9.9789],[15.0894,9.9722],[15.0717,9.956],[15.0612,9.9492],[15.033,9.9429],[15.0024,9.9451],[14.9441,9.9588],[14.8981,9.9605],[14.7726,9.9217],[14.7325,9.9238],[14.4405,9.9953],[14.1817,9.9782],[14.1735,9.975],[14.1712,9.9676],[14.1706,9.9578],[14.1684,9.9477],[14.1198,9.852],[14.0885,9.8096],[14.0067,9.7393],[13.9459,9.6526],[13.9476,9.6378],[14.0365,9.5688],[14.3213,9.2432],[14.3311,9.2002],[14.3495,9.1684],[14.7939,8.8136],[14.8099,8.8086],[14.8192,8.8116],[14.828,8.8132],[14.8367,8.813],[14.846,8.811],[14.8599,8.8033],[14.8994,8.7743],[14.9083,8.7648],[14.9133,8.7524],[14.9199,8.7477],[14.9273,8.7451],[14.9344,8.739],[14.9401,8.7296],[14.9491,8.7043],[14.9515,8.6921],[14.9515,8.6828],[14.9551,8.6762],[14.9685,8.6722],[15.0058,8.6666],[15.0313,8.6587],[15.0519,8.6438],[15.0686,8.6239],[15.1107,8.5551],[15.1685,8.4986],[15.1837,8.4791],[15.3453,8.136],[15.4065,7.9216],[15.4407,7.8394],[15.4879,7.805],[15.5094,7.804],[15.5629,7.7924],[15.5622,7.6902],[15.549,7.6308],[15.522,7.5761],[15.481,7.5233],[15.4733,7.5091],[15.4195,7.4366],[15.4155,7.4208],[15.435,7.4029],[15.4328,7.3897],[15.4284,7.3888],[15.4096,7.3877],[15.4032,7.3864],[15.3974,7.3807],[15.3892,7.3642],[15.3853,7.3584],[15.3382,7.3222],[15.2613,7.2792],[15.2239,7.2475],[15.2051,7.2002],[15.1912,7.1773],[15.1866,7.1663],[15.1854,7.1569],[15.1902,7.0988],[15.1875,7.0886],[15.1791,7.0784],[15.1561,7.0678],[15.147,7.0618],[15.1362,7.0453],[15.1289,7.0265],[15.1132,6.9647],[15.0802,6.8781],[15.0591,6.8363],[15.0422,6.7908],[15.0346,6.7768],[15.0224,6.7665],[14.9623,6.7367],[14.9461,6.7257],[14.9325,6.7103],[14.8073,6.4278],[14.7822,6.3936],[14.78,6.3822],[14.7843,6.3587],[14.7847,6.3478],[14.7824,6.3368],[14.7723,6.3183],[14.7348,6.2704],[14.719,6.2579],[14.5764,6.1898],[14.535,6.1901],[14.526,6.1741],[14.511,6.1553],[14.4821,6.1271],[14.4671,6.1226],[14.4306,6.0881],[14.4336,6.0739],[14.4291,6.0642],[14.426,6.0599],[14.4225,6.0514],[14.4182,6.0471],[14.4129,6.047],[14.4025,6.0549],[14.3977,6.0539],[14.3903,6.0458],[14.3873,6.039],[14.3894,6.0311],[14.3977,6.0192],[14.4061,6.011],[14.4175,5.9973],[14.4323,5.9855],[14.4469,5.97],[14.4538,5.9539],[14.4582,5.9364],[14.4657,5.9207],[14.4821,5.9096],[14.4992,5.9095],[14.5306,5.9059],[14.5454,5.9076],[14.5725,5.9242],[14.5848,5.9234],[14.598,5.9035],[14.603,5.8834],[14.6174,5.865],[14.624,5.7583],[14.6311,5.738],[14.6244,5.7236],[14.6106,5.6691],[14.5928,5.6239],[14.5901,5.6083],[14.5915,5.591],[14.5966,5.5772],[14.6106,5.5537],[14.6172,5.5379],[14.6189,5.5255],[14.6174,5.4953],[14.6141,5.4849],[14.5996,5.4566],[14.5962,5.4401],[14.5973,5.4115],[14.5928,5.4],[14.5796,5.3954],[14.5793,5.3876],[14.5708,5.3709],[14.5608,5.3555],[14.5559,5.3513],[14.554,5.3382],[14.5484,5.3205],[14.5396,5.3036],[14.528,5.293],[14.5199,5.2906],[14.5239,5.2797],[14.5397,5.2618],[14.5605,5.2486],[14.6036,5.2343],[14.6245,5.224],[14.6405,5.2082],[14.6515,5.1875],[14.6589,5.1645],[14.6632,5.1418],[14.663,5.0914],[14.6675,5.0528],[14.6603,5.0158],[14.6595,4.997],[14.6634,4.9857],[14.6698,4.9771],[14.6745,4.9676],[14.6721,4.9408],[14.6758,4.9308],[14.6816,4.9209],[14.687,4.9089],[14.7015,4.8144],[14.7006,4.8043],[14.6961,4.7797],[14.6918,4.7687],[14.6907,4.7621],[14.6973,4.7452],[14.7042,4.6694],[14.7173,4.622],[14.7437,4.58],[14.7797,4.545],[14.9383,4.4359],[14.9821,4.4205],[14.9939,4.4133],[15.0006,4.4032],[15.0074,4.3778],[15.0139,4.3643],[15.0485,4.3216],[15.0638,4.2934],[15.0728,4.2659],[15.0829,4.2055],[15.0845,4.1486],[15.0912,4.1218],[15.1026,4.1124],[15.1178,4.1143],[15.1329,4.1085],[15.1393,4.0946],[15.1426,4.0804],[15.1485,4.0739],[15.1624,4.0739],[15.1777,4.0715],[15.1898,4.0631],[15.1921,4.0522],[15.1724,4.0438],[15.1504,4.0385],[15.1113,4.0199],[15.0917,4.0159],[15.0752,4.018],[15.0431,4.0261],[15.026,4.0261],[15.0849,3.8858],[15.1713,3.759],[15.7856,3.108],[15.7932,3.1033],[15.801,3.1009],[15.8135,3.099],[15.8176,3.1001],[15.8291,3.1066],[15.8342,3.1085],[15.8402,3.1074],[15.8509,3.1004],[15.8548,3.099],[15.8978,3.1035],[15.914,3.098],[15.9334,3.0818],[15.9501,3.061],[15.9582,3.0415],[15.9716,2.9912],[15.9742,2.9858],[15.9778,2.981],[15.982,2.9767],[15.9954,2.9815],[16.0061,2.984],[16.0158,2.9835],[16.0262,2.979],[16.0342,2.9706],[16.0554,2.9398],[16.0702,2.9066],[16.0825,2.8857],[16.0924,2.8633],[16.0952,2.8368],[16.0869,2.8132],[16.0599,2.7862],[16.0562,2.7598],[16.06,2.7258],[16.0593,2.7118],[16.0626,2.7032],[16.0728,2.7028],[16.0863,2.705],[16.0991,2.704],[16.1105,2.7014],[16.1014,2.6878],[16.0937,2.6731],[16.0903,2.6619],[16.0931,2.6415],[16.1085,2.6066],[16.1115,2.5862],[16.1069,2.567],[16.0912,2.5328],[16.0903,2.5105],[16.0943,2.4975],[16.1071,2.4742],[16.1115,2.4559],[16.1115,2.4186],[16.1129,2.4104],[16.1209,2.3896],[16.1334,2.3648],[16.1523,2.3433],[16.1593,2.3329],[16.1629,2.3238],[16.1647,2.3148],[16.166,2.2948],[16.1691,2.2899],[16.1829,2.2812],[16.1865,2.2777],[16.1869,2.2693],[16.1813,2.2566],[16.1797,2.247],[16.1928,2.2395],[16.2023,2.232],[16.2077,2.2231],[16.1995,2.2122],[16.1593,2.1821],[16.1406,2.1998],[16.1204,2.2033],[16.1044,2.1936],[16.0978,2.1715],[16.0858,2.1492],[16.0835,2.1378],[16.0856,2.1249],[16.0898,2.1162],[16.0925,2.1069],[16.0903,2.0927],[16.0797,2.0903],[16.0767,2.0859],[16.0755,2.08],[16.0755,2.0755],[16.0781,2.0634],[16.0815,2.0556],[16.0817,2.0468],[16.0664,2.0255],[16.0638,2.0159],[16.0649,1.9789],[16.0687,1.9736],[16.0749,1.9706],[16.0835,1.963],[16.1014,1.9328],[16.1351,1.8453],[16.159,1.7348],[16.1558,1.7191],[16.1451,1.7143],[16.1236,1.7216],[16.1148,1.7191],[16.0699,1.6546],[16.0305,1.7054],[16.022,1.7228],[16.022,1.733],[16.0249,1.7425],[16.0263,1.7523],[16.022,1.7638],[16.0138,1.7713],[16.0028,1.7759],[15.9908,1.7762],[15.9804,1.7706],[15.9632,1.7774],[15.9438,1.7816],[15.929,1.789],[15.9259,1.8047],[15.9152,1.799],[15.9018,1.7937],[15.8899,1.7933],[15.885,1.8016],[15.8824,1.8167],[15.8757,1.8238],[15.8659,1.8285],[15.8421,1.8442],[15.8154,1.8534],[15.8029,1.86],[15.7646,1.9087],[15.7574,1.913],[15.7341,1.9167],[15.7216,1.9216],[15.7111,1.9274],[15.7068,1.932],[15.6118,1.9425],[15.5266,1.9678],[15.4829,1.9759],[15.4392,1.9698],[15.3881,1.9395],[15.368,1.9329],[15.3492,1.9233],[15.3374,1.9215],[15.3378,1.9238],[15.3143,1.9343],[15.3095,1.9351],[15.3016,1.9436],[15.3002,1.9477],[15.3019,1.9533],[15.3033,1.9664],[15.3011,1.9738],[15.2954,1.9815],[15.2876,1.9878],[15.2536,2.0003],[15.2481,2.0033],[15.2442,2.0101],[15.2387,2.0253],[15.2337,2.0313],[15.2126,2.0396],[15.197,2.035],[15.1836,2.0293],[15.1517,2.041],[15.1385,2.0115],[15.1239,2.017],[15.1178,2.017],[15.1076,2.0008],[15.0916,1.9844],[15.0749,1.9794],[15.0631,1.9972],[15.0437,1.9909],[15.0283,1.9953],[14.9807,2.0331],[14.971,2.0345],[14.963,2.0104],[14.9538,2.0058],[14.9321,2.0033],[14.8925,2.0064],[14.8966,2.0309],[14.9073,2.0589],[14.8878,2.0723],[14.8846,2.0821],[14.8715,2.1017],[14.857,2.1159],[14.8502,2.1098],[14.8502,2.0974],[14.8482,2.0852],[14.8412,2.0759],[14.8263,2.0723],[14.7648,2.0655],[14.7616,2.0702],[14.7625,2.0925],[14.7614,2.0996],[14.7563,2.0996],[14.7476,2.0972],[14.7371,2.0961],[14.7273,2.0996],[14.7335,2.102],[14.7479,2.1132],[14.7209,2.1276],[14.7137,2.124],[14.7205,2.0996],[14.7057,2.1055],[14.686,2.1259],[14.672,2.1343],[14.6461,2.1334],[14.6363,2.1383],[14.6448,2.1542],[14.6209,2.1648],[14.5879,2.2017],[14.5621,2.2088],[14.5571,2.2024],[14.5478,2.1937],[14.548,2.1844],[14.5503,2.1752],[14.5471,2.1665],[14.5381,2.1634],[14.4592,2.1465],[14.4387,2.134],[14.4329,2.1321],[14.4187,2.1353],[14.3994,2.1532],[14.3836,2.1621],[14.3203,2.1707],[14.2763,2.1536],[14.267,2.1524],[13.2946,2.1611],[13.2943,2.1858],[13.2984,2.2158],[13.2942,2.2305],[13.2846,2.2422],[13.2697,2.2557],[13.2542,2.2669],[13.2429,2.2715],[13.236,2.2699],[13.2216,2.2639],[13.2123,2.264],[13.2057,2.2669],[13.1917,2.2777],[13.1638,2.2832],[13.1333,2.2845],[13.1247,2.2811],[13.1131,2.2727],[13.093,2.2535],[13.0835,2.2495],[13.0409,2.2442],[13.0129,2.2563],[12.9969,2.26],[12.9832,2.2535],[12.9722,2.2504],[12.9548,2.2532],[12.9248,2.264],[12.9145,2.2545],[12.9032,2.2504],[12.8905,2.2514],[12.8764,2.2572],[12.8678,2.245],[12.8481,2.2493],[12.8252,2.2592],[12.8082,2.264],[12.7956,2.2588],[12.7841,2.2495],[12.7702,2.2407],[12.7499,2.2367],[12.6146,2.2569],[12.5907,2.2657],[12.5748,2.2777],[12.5515,2.2723],[12.4784,2.2959],[12.4399,2.2985],[12.3849,2.2859],[12.3668,2.2896],[12.334,2.3096],[12.3216,2.3141],[12.3121,2.3129],[12.2912,2.3018],[12.2808,2.299],[12.261,2.2962],[12.2226,2.2833],[12.2026,2.2796],[12.1592,2.2814],[12.1188,2.2878],[12.1007,2.2885],[12.0419,2.284],[11.9662,2.2887],[11.8898,2.2821],[11.8022,2.2848],[11.7681,2.2802],[11.7528,2.2819],[11.7014,2.2987],[11.681,2.3154],[11.6712,2.321],[11.6573,2.3225],[11.6446,2.3197],[11.6186,2.3104],[11.3516,2.3006],[11.3498,2.2915],[11.3543,2.2785],[11.356,2.2652],[11.35,2.2511],[11.3422,2.2406],[11.3359,2.2292],[11.3342,2.2128],[11.3342,2.2003],[11.3324,2.188],[11.3285,2.1763],[11.3221,2.1658]]]}}