{"type":"Feature","bbox":[-61.4889,15.2018,-61.2493,15.6339],"properties":{"iso":"DM","name":"Dominica","name_de":"Dominica","key":"DM"},"geometry":{"type":"Polygon","coordinates":[[[-61.3629,15.2018],[-61.3741,15.2048],[-61.3761,15.2128],[-61.3728,15.2372],[-61.3728,15.2707],[-61.3783,15.282],[-61.3909,15.2963],[-61.3932,15.3083],[-61.395,15.3331],[-61.3996,15.3511],[-61.4137,15.3806],[-61.4157,15.3876],[-61.4181,15.406],[-61.4212,15.4147],[-61.4442,15.4368],[-61.4479,15.4451],[-61.4498,15.4547],[-61.4543,15.4648],[-61.46,15.4729],[-61.4656,15.4761],[-61.4721,15.4814],[-61.4743,15.4935],[-61.4752,15.5178],[-61.4794,15.5255],[-61.4849,15.5303],[-61.4889,15.5357],[-61.4889,15.5451],[-61.484,15.5516],[-61.4673,15.563],[-61.4621,15.573],[-61.4691,15.5743],[-61.4812,15.5786],[-61.4889,15.5793],[-61.4806,15.591],[-61.469,15.6339],[-61.4372,15.6326],[-61.4259,15.6285],[-61.4137,15.6196],[-61.3976,15.5966],[-61.3846,15.5884],[-61.3697,15.5959],[-61.3573,15.5983],[-61.3077,15.5793],[-61.3059,15.5725],[-61.2996,15.5572],[-61.284,15.5314],[-61.2672,15.5078],[-61.2577,15.4726],[-61.256,15.4359],[-61.2629,15.4079],[-61.2584,15.4063],[-61.2542,15.403],[-61.2493,15.4011],[-61.2555,15.3646],[-61.2537,15.3247],[-61.2567,15.2853],[-61.2772,15.2502],[-61.2844,15.2448],[-61.2893,15.2436],[-61.2932,15.2439],[-61.3034,15.2426],[-61.3119,15.2445],[-61.3182,15.2434],[-61.3236,15.2386],[-61.3287,15.2256],[-61.3427,15.2197],[-61.3459,15.2123],[-61.3507,15.2051],[-61.3629,15.2018]]]}}