{"type":"Feature","bbox":[-18.1672,27.6422,4.3371,43.7934],"properties":{"iso":"ES","name":"Spain","name_de":"Spanien","key":"ES"},"geometry":{"type":"MultiPolygon","coordinates":[[[[-5.3407,35.8474],[-5.3629,35.8638],[-5.3784,35.8817],[-5.3897,35.902],[-5.3989,35.9245],[-5.3852,35.9262],[-5.3662,35.9248],[-5.3441,35.9147],[-5.3274,35.9042],[-5.3093,35.9008],[-5.2831,35.9117],[-5.2919,35.8905],[-5.3356,35.8624],[-5.3407,35.8474]]],[[[-2.9478,35.3298],[-2.922,35.288],[-2.9129,35.2769],[-2.943,35.2679],[-2.9638,35.2862],[-2.9669,35.3139],[-2.9478,35.3298]]],[[[-1.7941,43.386],[-1.7964,43.3744],[-1.7969,43.3411],[-1.7682,43.3309],[-1.7558,43.3185],[-1.7524,43.2991],[-1.7474,43.291],[-1.7366,43.2923],[-1.7248,43.2965],[-1.7033,43.2986],[-1.683,43.3049],[-1.6739,43.3042],[-1.6549,43.2975],[-1.645,43.2924],[-1.6452,43.2876],[-1.648,43.2815],[-1.6463,43.2728],[-1.639,43.2557],[-1.6341,43.2511],[-1.6219,43.247],[-1.6111,43.2458],[-1.5985,43.247],[-1.5876,43.2516],[-1.5819,43.2604],[-1.574,43.2774],[-1.559,43.2841],[-1.5392,43.2836],[-1.5081,43.2768],[-1.4664,43.2608],[-1.4553,43.2622],[-1.4442,43.2651],[-1.4322,43.265],[-1.4035,43.2433],[-1.3997,43.2067],[-1.4105,43.1669],[-1.4258,43.1353],[-1.4384,43.1228],[-1.4796,43.0903],[-1.4878,43.0818],[-1.4753,43.0601],[-1.4571,43.0451],[-1.435,43.0357],[-1.4105,43.0309],[-1.3831,43.0292],[-1.3661,43.0333],[-1.3576,43.0468],[-1.3552,43.073],[-1.3483,43.0931],[-1.3311,43.1073],[-1.3086,43.1136],[-1.286,43.1092],[-1.307,43.096],[-1.3151,43.0829],[-1.3106,43.0695],[-1.2937,43.0552],[-1.2749,43.0468],[-1.2169,43.0393],[-1.1825,43.0253],[-1.1499,43.0057],[-1.1124,43.0083],[-1.1037,43.0057],[-1.0872,42.998],[-1.0797,42.9934],[-1.0451,42.9902],[-1.0285,42.9867],[-1.0163,42.9762],[-0.9815,42.957],[-0.9432,42.9479],[-0.8635,42.9431],[-0.7864,42.9533],[-0.7597,42.9465],[-0.7409,42.9109],[-0.7414,42.9039],[-0.7448,42.8993],[-0.7459,42.8939],[-0.7403,42.8848],[-0.7301,42.8775],[-0.7203,42.8766],[-0.7105,42.8777],[-0.7004,42.8764],[-0.6661,42.8607],[-0.6483,42.8498],[-0.6095,42.8114],[-0.608,42.8072],[-0.61,42.8028],[-0.6102,42.7991],[-0.6036,42.7968],[-0.5873,42.7968],[-0.5829,42.7958],[-0.5771,42.7898],[-0.5785,42.7833],[-0.5787,42.7773],[-0.569,42.7726],[-0.5612,42.7735],[-0.5444,42.782],[-0.5356,42.7842],[-0.5339,42.808],[-0.5084,42.8075],[-0.4545,42.7889],[-0.4239,42.7907],[-0.3997,42.8013],[-0.3517,42.8292],[-0.343,42.8227],[-0.3352,42.825],[-0.3282,42.8326],[-0.3228,42.8425],[-0.3074,42.8318],[-0.247,42.8048],[-0.2351,42.7862],[-0.2084,42.7839],[-0.1794,42.7897],[-0.1614,42.7953],[-0.1636,42.778],[-0.1578,42.7607],[-0.1457,42.7459],[-0.1292,42.7359],[-0.1231,42.7304],[-0.1218,42.7233],[-0.119,42.7169],[-0.1085,42.7134],[-0.0958,42.7107],[-0.0889,42.7061],[-0.0842,42.7011],[-0.0784,42.6967],[-0.0389,42.6851],[-0.0043,42.6875],[0.0728,42.7085],[0.1342,42.7152],[0.1529,42.7246],[0.1692,42.7265],[0.2224,42.7162],[0.2384,42.7104],[0.2598,42.6824],[0.2754,42.6687],[0.2902,42.6703],[0.3183,42.6995],[0.336,42.7127],[0.3542,42.7175],[0.3818,42.7001],[0.384,42.6969],[0.3837,42.6927],[0.3844,42.6886],[0.3893,42.6851],[0.4093,42.6823],[0.4288,42.683],[0.4669,42.6904],[0.4835,42.6853],[0.6082,42.688],[0.6436,42.6845],[0.6567,42.688],[0.6654,42.6987],[0.6664,42.7148],[0.6596,42.7299],[0.6476,42.741],[0.6335,42.7448],[0.6396,42.7548],[0.6433,42.7591],[0.6507,42.7634],[0.6397,42.7747],[0.6537,42.8027],[0.6516,42.8241],[0.6563,42.8384],[0.6794,42.8451],[0.7068,42.8466],[0.7243,42.8453],[0.7588,42.8353],[0.7763,42.8325],[0.7957,42.8338],[0.8129,42.8316],[0.8561,42.8128],[0.8858,42.8042],[0.8944,42.7993],[0.9104,42.7877],[0.9211,42.7844],[0.9306,42.788],[0.94,42.7937],[0.9503,42.7961],[0.9587,42.7937],[0.9753,42.7837],[0.9829,42.7804],[1.0682,42.7761],[1.0891,42.7713],[1.1067,42.7596],[1.1166,42.7452],[1.1241,42.7297],[1.1343,42.716],[1.1515,42.7067],[1.1625,42.7057],[1.1959,42.7136],[1.3191,42.7134],[1.3426,42.7087],[1.3382,42.6944],[1.3433,42.6904],[1.3527,42.6901],[1.3611,42.6867],[1.3788,42.6632],[1.398,42.6436],[1.4148,42.6093],[1.4293,42.5954],[1.4249,42.5894],[1.4193,42.5793],[1.418,42.5698],[1.4264,42.5656],[1.4263,42.5618],[1.4098,42.5406],[1.4065,42.5292],[1.429,42.5315],[1.4466,42.5199],[1.45,42.5041],[1.4302,42.4936],[1.4245,42.4925],[1.4076,42.4868],[1.4364,42.4535],[1.4364,42.441],[1.4479,42.4346],[1.5085,42.4287],[1.5166,42.4295],[1.5282,42.4342],[1.5345,42.4399],[1.5389,42.4457],[1.5444,42.4504],[1.6075,42.4564],[1.6395,42.4664],[1.6504,42.4934],[1.654,42.4965],[1.657,42.4976],[1.6598,42.4968],[1.6624,42.4937],[1.6742,42.4905],[1.6863,42.4906],[1.6975,42.4945],[1.707,42.5028],[1.71,42.5013],[1.712,42.4993],[1.7127,42.4968],[1.7122,42.4937],[1.7306,42.4881],[1.7927,42.4817],[1.8137,42.4752],[1.8698,42.4468],[1.8932,42.4427],[1.912,42.442],[1.9275,42.4369],[1.9411,42.4201],[1.9542,42.3827],[1.9637,42.3672],[1.9834,42.3545],[1.9957,42.3487],[2.0092,42.3471],[2.0353,42.3493],[2.0517,42.3524],[2.0633,42.3579],[2.0801,42.3713],[2.104,42.3848],[2.1087,42.3906],[2.1163,42.4054],[2.121,42.4106],[2.137,42.4162],[2.1842,42.4118],[2.246,42.4261],[2.2774,42.4286],[2.3053,42.417],[2.3173,42.4096],[2.3755,42.3893],[2.4066,42.3843],[2.4225,42.3837],[2.4299,42.3675],[2.4456,42.352],[2.4649,42.3406],[2.4834,42.337],[2.5036,42.3285],[2.5148,42.3257],[2.5253,42.3259],[2.532,42.3308],[2.5403,42.347],[2.5481,42.3522],[2.5674,42.3526],[2.6134,42.341],[2.6354,42.3379],[2.6622,42.339],[2.6618,42.3434],[2.6494,42.3537],[2.6403,42.3728],[2.6482,42.3815],[2.6904,42.4062],[2.7081,42.4129],[2.7285,42.414],[2.7677,42.4096],[2.7886,42.412],[2.8046,42.4196],[2.8348,42.4413],[2.8508,42.4484],[2.8669,42.4496],[2.8841,42.4492],[2.9008,42.4513],[2.9337,42.4702],[2.9661,42.461],[2.9831,42.4693],[2.9937,42.4676],[3.023,42.467],[3.0296,42.4657],[3.036,42.4546],[3.0439,42.4453],[3.0536,42.4376],[3.0656,42.432],[3.0861,42.4272],[3.1117,42.425],[3.1378,42.4259],[3.181,42.4315],[3.1787,42.418],[3.1702,42.3966],[3.1745,42.3809],[3.1745,42.3638],[3.1873,42.3495],[3.2042,42.3396],[3.2265,42.3425],[3.2498,42.3432],[3.263,42.3292],[3.2699,42.3292],[3.2806,42.3369],[3.2937,42.335],[3.3177,42.323],[3.294,42.288],[3.2904,42.2781],[3.287,42.2629],[3.2794,42.2556],[3.2704,42.2501],[3.263,42.2399],[3.2472,42.2457],[3.2101,42.2397],[3.1787,42.2497],[3.1702,42.2597],[3.1516,42.2568],[3.1303,42.2397],[3.1188,42.2183],[3.1165,42.1584],[3.1225,42.1405],[3.1386,42.1276],[3.1731,42.112],[3.1923,42.0929],[3.2145,42.0683],[3.213,42.056],[3.1999,42.0462],[3.1959,42.0331],[3.2016,42.0174],[3.207,41.9967],[3.2079,41.99],[3.2118,41.9846],[3.2306,41.973],[3.2357,41.9655],[3.2322,41.946],[3.2074,41.9139],[3.1949,41.8883],[3.1786,41.8752],[3.1502,41.8454],[3.1168,41.8476],[3.0786,41.8266],[3.0691,41.7991],[3.0403,41.7869],[2.9509,41.7343],[2.933,41.7125],[2.8402,41.6946],[2.8355,41.6926],[2.8202,41.682],[2.8132,41.6703],[2.8037,41.6686],[2.792,41.669],[2.7785,41.6456],[2.6519,41.6053],[2.4495,41.5352],[2.429,41.5189],[2.3713,41.4892],[2.2967,41.4653],[2.2673,41.4486],[2.2404,41.421],[2.1919,41.3568],[2.1633,41.3266],[2.1305,41.3037],[2.0603,41.2746],[2.0197,41.2659],[1.9513,41.2607],[1.8841,41.2475],[1.8638,41.2381],[1.854,41.236],[1.8198,41.2371],[1.6244,41.1922],[1.5392,41.1874],[1.2881,41.1163],[1.2178,41.1047],[1.2101,41.0999],[1.1925,41.076],[1.1886,41.0683],[1.1836,41.0626],[1.1729,41.0587],[1.1491,41.0696],[1.1417,41.0717],[1.0977,41.0709],[1.0557,41.0649],[1.0174,41.0518],[0.9904,41.0397],[0.8775,40.9548],[0.8228,40.8996],[0.7142,40.8152],[0.6948,40.786],[0.7215,40.7743],[0.7502,40.7656],[0.7624,40.7661],[0.7673,40.771],[0.7635,40.7784],[0.7502,40.786],[0.7669,40.785],[0.7805,40.7795],[0.792,40.7712],[0.8159,40.7484],[0.8418,40.7321],[0.8542,40.7331],[0.8737,40.7279],[0.8724,40.7071],[0.8581,40.6863],[0.8483,40.6754],[0.784,40.661],[0.7564,40.6422],[0.707,40.5834],[0.6771,40.5652],[0.648,40.5569],[0.6159,40.5535],[0.5925,40.5821],[0.6406,40.5869],[0.6632,40.5747],[0.6962,40.5904],[0.7327,40.6337],[0.7125,40.6362],[0.6822,40.6342],[0.5998,40.6137],[0.5802,40.6037],[0.5635,40.59],[0.5485,40.5723],[0.5013,40.4842],[0.4834,40.465],[0.4662,40.4507],[0.4526,40.4341],[0.4461,40.4084],[0.4203,40.3883],[0.3506,40.2849],[0.339,40.2744],[0.3121,40.2575],[0.2988,40.2468],[0.2647,40.2098],[0.2053,40.1715],[0.1445,40.0788],[0.117,40.0563],[0.0662,40.0319],[0.0405,40.0029],[-0.0029,39.932],[-0.0287,39.9018],[-0.0913,39.8479],[-0.1945,39.7154],[-0.1998,39.7049],[-0.2021,39.6809],[-0.2089,39.6641],[-0.2198,39.6514],[-0.2437,39.631],[-0.2574,39.6162],[-0.2696,39.5987],[-0.2749,39.5818],[-0.2815,39.5694],[-0.3127,39.534],[-0.3234,39.5162],[-0.3306,39.4804],[-0.3275,39.4307],[-0.3207,39.3881],[-0.3013,39.322],[-0.2387,39.2154],[-0.2155,39.1818],[-0.2279,39.1752],[-0.2422,39.1663],[-0.2267,39.1118],[-0.21,39.0787],[-0.184,39.0423],[-0.158,39.0021],[-0.1207,38.9511],[-0.1059,38.9365],[-0.0686,38.9134],[-0.031,38.8828],[-0.0098,38.8697],[0.0174,38.8643],[0.0631,38.8608],[0.111,38.8499],[0.154,38.831],[0.1853,38.8035],[0.181,38.8019],[0.1709,38.7961],[0.1829,38.7918],[0.1908,38.7852],[0.2179,38.7681],[0.2277,38.7702],[0.2341,38.7579],[0.2345,38.7423],[0.2277,38.7346],[0.209,38.7337],[0.1921,38.7304],[0.1768,38.724],[0.1626,38.7135],[0.1509,38.6925],[0.145,38.6863],[0.1257,38.6855],[0.1186,38.6828],[0.1053,38.6726],[0.0937,38.6676],[0.083,38.661],[0.0731,38.6452],[0.0806,38.631],[0.0604,38.6348],[0.0466,38.6322],[0.0334,38.6274],[0.015,38.6247],[-0.0148,38.6244],[-0.0288,38.6207],[-0.043,38.6117],[-0.0548,38.5953],[-0.0551,38.5808],[-0.0536,38.567],[-0.06,38.5527],[-0.0754,38.5399],[-0.0902,38.5353],[-0.1317,38.5353],[-0.177,38.5272],[-0.2021,38.5196],[-0.234,38.5017],[-0.3294,38.47],[-0.3446,38.4616],[-0.3508,38.45],[-0.3587,38.446],[-0.3952,38.4138],[-0.4061,38.3989],[-0.4101,38.3793],[-0.41,38.369],[-0.4137,38.3648],[-0.4459,38.3634],[-0.4602,38.3601],[-0.4706,38.3519],[-0.4744,38.3367],[-0.5098,38.3384],[-0.5188,38.2987],[-0.504,38.2072],[-0.5155,38.1955],[-0.5329,38.1922],[-0.5688,38.1942],[-0.5914,38.1896],[-0.6095,38.178],[-0.6237,38.1624],[-0.6344,38.1458],[-0.6407,38.1317],[-0.645,38.116],[-0.6525,38.0078],[-0.6545,37.9893],[-0.6634,37.9803],[-0.6899,37.9722],[-0.7089,37.9563],[-0.7184,37.943],[-0.7586,37.8633],[-0.7607,37.8471],[-0.7561,37.8061],[-0.7607,37.7961],[-0.788,37.8228],[-0.8124,37.7701],[-0.8256,37.7614],[-0.8478,37.7561],[-0.8561,37.7425],[-0.8526,37.7238],[-0.8198,37.6767],[-0.8099,37.6669],[-0.7777,37.6501],[-0.7548,37.6413],[-0.7349,37.6394],[-0.7265,37.6515],[-0.708,37.643],[-0.7012,37.6313],[-0.7053,37.6195],[-0.7197,37.6105],[-0.7279,37.6034],[-0.7366,37.5994],[-0.7457,37.5994],[-0.7545,37.6043],[-0.764,37.5996],[-0.7915,37.5915],[-0.808,37.5884],[-0.8364,37.5764],[-0.8739,37.5764],[-0.8867,37.5743],[-0.9006,37.569],[-0.9252,37.5559],[-0.9337,37.561],[-0.9735,37.5764],[-1.0064,37.5814],[-1.0699,37.5826],[-1.0878,37.5809],[-1.1034,37.5764],[-1.1147,37.5687],[-1.12,37.559],[-1.1169,37.5494],[-1.1058,37.5321],[-1.1671,37.5438],[-1.1786,37.5639],[-1.1997,37.5666],[-1.229,37.5761],[-1.2427,37.5792],[-1.2577,37.567],[-1.2617,37.5577],[-1.2898,37.5584],[-1.3237,37.562],[-1.3533,37.5499],[-1.3692,37.5414],[-1.4137,37.5065],[-1.4304,37.4981],[-1.4502,37.4947],[-1.4556,37.4927],[-1.4635,37.488],[-1.4709,37.4822],[-1.4767,37.4727],[-1.4873,37.4398],[-1.4884,37.4332],[-1.4969,37.4278],[-1.5028,37.4293],[-1.5082,37.4327],[-1.515,37.4332],[-1.5239,37.4287],[-1.5437,37.415],[-1.553,37.4122],[-1.5677,37.4099],[-1.6187,37.3923],[-1.6416,37.381],[-1.6459,37.3692],[-1.6528,37.3613],[-1.6709,37.3633],[-1.6802,37.3544],[-1.6858,37.337],[-1.699,37.3164],[-1.7285,37.2824],[-1.7872,37.2352],[-1.8127,37.2071],[-1.8304,37.1664],[-1.8378,37.1316],[-1.8498,37.1044],[-1.8552,37.0766],[-1.885,37.0155],[-1.9061,36.9876],[-1.907,36.9753],[-1.9042,36.9664],[-1.9005,36.9588],[-1.8987,36.9501],[-1.9003,36.9412],[-1.9052,36.936],[-1.9129,36.9335],[-1.9353,36.9322],[-1.9414,36.9299],[-1.9538,36.9199],[-1.9889,36.9005],[-2.0028,36.887],[-2.0131,36.8458],[-2.0248,36.8338],[-2.0405,36.8243],[-2.0569,36.8101],[-2.0607,36.8024],[-2.0659,36.7836],[-2.0712,36.7753],[-2.0803,36.7706],[-2.0914,36.7683],[-2.1008,36.7652],[-2.1111,36.7461],[-2.1267,36.7364],[-2.1467,36.7299],[-2.1661,36.7276],[-2.2036,36.7371],[-2.2317,36.7601],[-2.2561,36.7874],[-2.2828,36.8101],[-2.3183,36.8279],[-2.3391,36.8343],[-2.3617,36.8368],[-2.3802,36.8338],[-2.4127,36.82],[-2.4331,36.8163],[-2.4423,36.8183],[-2.4694,36.8277],[-2.4814,36.8299],[-2.5608,36.8188],[-2.5769,36.8113],[-2.5967,36.7731],[-2.6172,36.7284],[-2.6427,36.707],[-2.6476,36.7042],[-2.6589,36.6948],[-2.6844,36.686],[-2.7183,36.682],[-2.7362,36.6874],[-2.7567,36.6804],[-2.7829,36.6946],[-2.8026,36.7073],[-2.821,36.7139],[-2.83,36.7117],[-2.8391,36.7024],[-2.8483,36.7002],[-2.8588,36.7049],[-2.8861,36.7344],[-2.914,36.7503],[-2.9333,36.7517],[-2.9877,36.7371],[-3.0765,36.7498],[-3.1567,36.7445],[-3.2279,36.7548],[-3.3296,36.7449],[-3.3444,36.7369],[-3.3583,36.7259],[-3.3788,36.7139],[-3.4152,36.6955],[-3.4776,36.6961],[-3.516,36.721],[-3.5361,36.7184],[-3.5498,36.7124],[-3.5864,36.7266],[-3.6011,36.7426],[-3.6657,36.7394],[-3.6798,36.7288],[-3.7313,36.7241],[-3.8385,36.752],[-3.8894,36.7434],[-3.961,36.7268],[-4.0567,36.748],[-4.08,36.7436],[-4.1102,36.7257],[-4.2247,36.7124],[-4.4032,36.7239],[-4.4203,36.7199],[-4.4333,36.7107],[-4.4669,36.663],[-4.4805,36.6512],[-4.4911,36.6367],[-4.4954,36.6206],[-4.5248,36.5807],[-4.5878,36.5738],[-4.615,36.5306],[-4.6593,36.5076],[-4.6803,36.5008],[-4.7228,36.493],[-4.7642,36.494],[-4.8803,36.5057],[-4.9027,36.5065],[-4.9122,36.504],[-4.9235,36.4969],[-4.9942,36.4571],[-5.0625,36.4522],[-5.1087,36.429],[-5.121,36.4256],[-5.1576,36.4219],[-5.1737,36.4174],[-5.1866,36.4112],[-5.1997,36.3972],[-5.2271,36.3579],[-5.2279,36.3485],[-5.2447,36.3121],[-5.2537,36.2971],[-5.2659,36.2871],[-5.2741,36.2825],[-5.2906,36.2774],[-5.2895,36.2698],[-5.2853,36.2608],[-5.2966,36.2474],[-5.3293,36.1981],[-5.3341,36.1878],[-5.3388,36.1411],[-5.3584,36.1411],[-5.3666,36.1632],[-5.3825,36.1723],[-5.4061,36.1792],[-5.4254,36.1798],[-5.4287,36.17],[-5.4379,36.1615],[-5.4423,36.1488],[-5.4415,36.1345],[-5.4349,36.1215],[-5.4399,36.1142],[-5.4372,36.0987],[-5.4316,36.0889],[-5.4287,36.0808],[-5.4318,36.0696],[-5.4386,36.0628],[-5.4455,36.0574],[-5.5666,36.0216],[-5.581,36.014],[-5.6118,36.0065],[-5.6297,36.0368],[-5.6717,36.056],[-5.6894,36.0671],[-5.7131,36.06],[-5.7339,36.0657],[-5.7537,36.0756],[-5.7961,36.0855],[-5.8113,36.0968],[-5.8328,36.1224],[-5.8979,36.1739],[-5.9172,36.1841],[-5.939,36.1838],[-5.9836,36.177],[-6.0368,36.1895],[-6.0625,36.2172],[-6.0822,36.2507],[-6.1047,36.2807],[-6.1595,36.3043],[-6.166,36.3187],[-6.1685,36.3353],[-6.1752,36.3536],[-6.1842,36.3707],[-6.2184,36.4025],[-6.2421,36.4465],[-6.2571,36.4764],[-6.2796,36.5113],[-6.3014,36.526],[-6.31,36.5341],[-6.2977,36.5388],[-6.2894,36.5373],[-6.2575,36.5138],[-6.249,36.5047],[-6.2541,36.4963],[-6.2467,36.4866],[-6.2315,36.4727],[-6.2191,36.475],[-6.2115,36.4805],[-6.2008,36.4938],[-6.1794,36.5135],[-6.1865,36.5142],[-6.2068,36.5089],[-6.2244,36.5108],[-6.2325,36.5262],[-6.226,36.5567],[-6.2349,36.5758],[-6.2832,36.6124],[-6.2939,36.6168],[-6.3617,36.6206],[-6.3798,36.6243],[-6.3947,36.6369],[-6.407,36.6767],[-6.4176,36.696],[-6.4315,36.7146],[-6.4379,36.7333],[-6.4333,36.7512],[-6.4145,36.7676],[-6.3963,36.7751],[-6.3589,36.7858],[-6.3456,36.795],[-6.3352,36.8183],[-6.3437,36.8599],[-6.3382,36.8837],[-6.3044,36.9072],[-6.2233,36.9023],[-6.1948,36.9321],[-6.214,36.9217],[-6.2397,36.9134],[-6.265,36.9129],[-6.2836,36.9259],[-6.3259,36.9127],[-6.3447,36.9013],[-6.3524,36.8803],[-6.3467,36.8199],[-6.3524,36.8086],[-6.388,36.8082],[-6.4162,36.8378],[-6.4486,36.9042],[-6.4711,36.9356],[-6.4996,36.9597],[-6.7449,37.1014],[-6.7715,37.1128],[-6.7947,37.1177],[-6.8118,37.1237],[-6.853,37.1511],[-6.8929,37.1666],[-6.9109,37.189],[-6.9176,37.2151],[-6.9108,37.2276],[-6.8988,37.2358],[-6.8641,37.2775],[-6.8527,37.2952],[-6.9035,37.2496],[-6.9311,37.2339],[-6.9626,37.2338],[-6.9626,37.2276],[-6.9407,37.2007],[-6.9301,37.1832],[-6.9285,37.1723],[-6.9416,37.1711],[-7.0294,37.2055],[-7.101,37.2243],[-7.1273,37.2147],[-7.099,37.2119],[-7.0856,37.2065],[-7.3279,37.2016],[-7.3431,37.1962],[-7.3629,37.1817],[-7.3814,37.1799],[-7.3985,37.1855],[-7.4144,37.1928],[-7.4294,37.2367],[-7.4342,37.2593],[-7.4276,37.2745],[-7.4374,37.3073],[-7.445,37.3868],[-7.4623,37.4179],[-7.46,37.4291],[-7.4629,37.4511],[-7.4689,37.4756],[-7.4759,37.4943],[-7.4815,37.5004],[-7.4986,37.5117],[-7.5063,37.5181],[-7.5154,37.5293],[-7.5175,37.5352],[-7.5184,37.5419],[-7.5237,37.5557],[-7.5276,37.5555],[-7.5291,37.5567],[-7.5297,37.5672],[-7.5265,37.5712],[-7.5158,37.5809],[-7.5147,37.5859],[-7.5125,37.5904],[-7.5118,37.5953],[-7.5143,37.6014],[-7.5049,37.6064],[-7.4785,37.6289],[-7.4716,37.6369],[-7.4663,37.652],[-7.4576,37.7001],[-7.444,37.7302],[-7.4263,37.7506],[-7.3344,37.8119],[-7.3069,37.8508],[-7.2958,37.8849],[-7.2739,37.9315],[-7.2686,37.9492],[-7.2691,37.9594],[-7.2721,37.9689],[-7.2727,37.977],[-7.2658,37.983],[-7.234,37.9881],[-7.2233,37.9938],[-7.2103,37.993],[-7.1976,37.9899],[-7.1853,37.9887],[-7.1729,37.9938],[-7.1597,37.9968],[-7.1522,38.0007],[-7.1419,38.0116],[-7.132,38.0324],[-7.1233,38.04],[-7.1059,38.0387],[-7.0494,38.0202],[-7.024,38.0226],[-7.0158,38.0468],[-7.0064,38.0593],[-6.9976,38.0896],[-6.979,38.1199],[-6.9655,38.1533],[-6.9576,38.1682],[-6.9475,38.1966],[-6.9642,38.2061],[-6.9921,38.2043],[-7.0181,38.198],[-7.0264,38.1996],[-7.0387,38.1862],[-7.0631,38.1775],[-7.0883,38.1734],[-7.1035,38.1736],[-7.1269,38.1909],[-7.1672,38.2721],[-7.1724,38.2765],[-7.1895,38.2865],[-7.1963,38.2922],[-7.2007,38.2984],[-7.2071,38.3117],[-7.2114,38.3175],[-7.3171,38.4246],[-7.3455,38.441],[-7.3592,38.4464],[-7.3448,38.4583],[-7.3352,38.4694],[-7.3341,38.481],[-7.3456,38.4941],[-7.3358,38.5059],[-7.3177,38.5563],[-7.2759,38.6038],[-7.2704,38.6177],[-7.2735,38.6254],[-7.286,38.6319],[-7.2909,38.6382],[-7.2925,38.6461],[-7.293,38.6563],[-7.2909,38.6791],[-7.2841,38.7132],[-7.2807,38.7204],[-7.2704,38.7375],[-7.2115,38.7754],[-7.1964,38.78],[-7.1797,38.7909],[-7.1662,38.8034],[-7.1606,38.8129],[-7.151,38.8193],[-7.1049,38.8272],[-7.0887,38.8334],[-7.0765,38.8432],[-7.0643,38.8511],[-7.0561,38.8551],[-7.0573,38.8694],[-7.0522,38.885],[-7.066,38.9046],[-7.0445,38.9186],[-7.0221,38.9429],[-6.9886,38.9938],[-6.9788,39.0038],[-6.9733,39.014],[-6.9749,39.023],[-6.9863,39.0301],[-6.9794,39.0472],[-6.9857,39.0668],[-6.9997,39.0847],[-7.0158,39.0968],[-7.0388,39.1091],[-7.0649,39.1148],[-7.0913,39.1124],[-7.1152,39.1011],[-7.1273,39.0975],[-7.1425,39.0995],[-7.1572,39.1054],[-7.1675,39.1135],[-7.1689,39.1219],[-7.1579,39.1414],[-7.1558,39.1515],[-7.1681,39.1706],[-7.1916,39.1792],[-7.2193,39.1848],[-7.2441,39.1956],[-7.2581,39.2113],[-7.2658,39.2314],[-7.2643,39.2523],[-7.2508,39.2706],[-7.3005,39.3179],[-7.3193,39.3295],[-7.3267,39.3413],[-7.3314,39.3626],[-7.3319,39.3847],[-7.3267,39.3988],[-7.3189,39.4133],[-7.3136,39.4361],[-7.3135,39.4574],[-7.3209,39.4674],[-7.3629,39.4761],[-7.3842,39.484],[-7.3994,39.4937],[-7.4089,39.5156],[-7.4176,39.5242],[-7.4513,39.5378],[-7.4681,39.5502],[-7.4979,39.581],[-7.5158,39.5938],[-7.5482,39.6632],[-7.5573,39.6798],[-7.3414,39.6718],[-7.3278,39.6748],[-7.3114,39.6803],[-7.2928,39.6833],[-7.2529,39.6823],[-7.2358,39.6865],[-7.2141,39.6762],[-7.1829,39.6751],[-7.0358,39.6893],[-7.0211,39.694],[-7.0096,39.7155],[-7.0107,39.7228],[-7.0137,39.7296],[-7.0133,39.7389],[-7.0087,39.7483],[-6.9968,39.7647],[-6.993,39.7742],[-6.9946,39.7826],[-6.9989,39.7918],[-7.0003,39.8025],[-6.993,39.8161],[-6.9852,39.8211],[-6.9623,39.8285],[-6.9528,39.8329],[-6.9277,39.8619],[-6.9242,39.8716],[-6.9235,39.8883],[-6.9218,39.8972],[-6.9216,39.9022],[-6.9251,39.9122],[-6.9252,39.9179],[-6.9223,39.9224],[-6.9126,39.9281],[-6.9095,39.932],[-6.9037,39.9567],[-6.8998,39.9656],[-6.9016,39.9765],[-6.8969,39.9871],[-6.8797,40.0092],[-6.9199,40.0649],[-6.9421,40.0863],[-6.9557,40.1029],[-6.9664,40.1103],[-6.9772,40.1134],[-7.0037,40.1163],[-7.0158,40.1191],[-7.0277,40.1326],[-7.0348,40.1667],[-7.0431,40.1814],[-7.0346,40.1931],[-7.0248,40.2162],[-7.0158,40.2255],[-6.9978,40.2317],[-6.9547,40.2534],[-6.9354,40.2558],[-6.9158,40.2544],[-6.8964,40.2555],[-6.8781,40.2652],[-6.8751,40.2712],[-6.8739,40.2878],[-6.8702,40.2955],[-6.8639,40.301],[-6.8208,40.3253],[-6.812,40.3323],[-6.7944,40.3564],[-6.8281,40.3806],[-6.8513,40.4095],[-6.8571,40.4421],[-6.8387,40.4772],[-6.8153,40.5025],[-6.8125,40.5146],[-6.8181,40.5319],[-6.8285,40.5455],[-6.8398,40.5546],[-6.8484,40.5648],[-6.8505,40.5822],[-6.8445,40.5978],[-6.8213,40.6302],[-6.8143,40.6472],[-6.8142,40.6593],[-6.8162,40.6772],[-6.8243,40.7107],[-6.837,40.7433],[-6.8391,40.7575],[-6.8391,40.7769],[-6.8373,40.7868],[-6.8345,40.7922],[-6.8335,40.7978],[-6.8368,40.8083],[-6.8381,40.8149],[-6.8367,40.8402],[-6.8203,40.8442],[-6.8162,40.8568],[-6.8212,40.8701],[-6.8321,40.8759],[-6.847,40.8789],[-6.8553,40.8872],[-6.8636,40.9083],[-6.8852,40.9489],[-6.8992,40.9668],[-6.9306,40.9921],[-6.9404,41.0034],[-6.9425,41.016],[-6.9318,41.0291],[-6.9279,41.0479],[-6.9068,41.0561],[-6.8453,41.0519],[-6.818,41.0541],[-6.8044,41.0644],[-6.7648,41.1089],[-6.7565,41.1271],[-6.759,41.1518],[-6.7552,41.1588],[-6.7422,41.1714],[-6.7069,41.1943],[-6.7013,41.2024],[-6.6938,41.2174],[-6.6582,41.2578],[-6.6466,41.2676],[-6.6289,41.2699],[-6.5635,41.2707],[-6.5545,41.2756],[-6.4959,41.2949],[-6.4631,41.3141],[-6.431,41.339],[-6.3996,41.3775],[-6.3955,41.3784],[-6.3832,41.3765],[-6.3792,41.3775],[-6.3767,41.383],[-6.3755,41.3908],[-6.3762,41.3969],[-6.3792,41.3973],[-6.3662,41.4052],[-6.3523,41.4093],[-6.3211,41.411],[-6.321,41.4196],[-6.2829,41.4656],[-6.2825,41.4723],[-6.2852,41.479],[-6.2859,41.4869],[-6.2795,41.497],[-6.2536,41.5175],[-6.2059,41.5703],[-6.2301,41.5949],[-6.2722,41.6282],[-6.3171,41.6501],[-6.3659,41.6636],[-6.4471,41.6762],[-6.4608,41.6766],[-6.4677,41.6721],[-6.4744,41.6659],[-6.488,41.6588],[-6.503,41.6531],[-6.5134,41.6509],[-6.5415,41.6589],[-6.5553,41.6749],[-6.5605,41.6945],[-6.5631,41.713],[-6.5677,41.7224],[-6.5743,41.731],[-6.5774,41.7397],[-6.5715,41.7492],[-6.5644,41.7575],[-6.5601,41.7669],[-6.5357,41.8486],[-6.5242,41.8674],[-6.5501,41.8739],[-6.5679,41.8759],[-6.5758,41.8829],[-6.5676,41.9261],[-6.5717,41.9426],[-6.5851,41.9547],[-6.6095,41.9623],[-6.6228,41.941],[-6.6568,41.9331],[-6.728,41.9309],[-6.7579,41.9376],[-6.7944,41.9797],[-6.8249,41.9838],[-6.8312,41.954],[-6.855,41.9429],[-6.9171,41.9391],[-6.9451,41.9434],[-6.9695,41.9577],[-6.9924,41.9664],[-7.0158,41.9537],[-7.0513,41.942],[-7.0827,41.9528],[-7.1132,41.9724],[-7.1454,41.9875],[-7.1597,41.9857],[-7.1773,41.9784],[-7.1926,41.9696],[-7.1999,41.9637],[-7.2021,41.9497],[-7.1957,41.9174],[-7.1979,41.9015],[-7.2187,41.879],[-7.2515,41.8637],[-7.3225,41.8454],[-7.3405,41.8432],[-7.3768,41.844],[-7.3919,41.842],[-7.4054,41.8352],[-7.4295,41.8145],[-7.4427,41.806],[-7.447,41.8218],[-7.4566,41.8392],[-7.4694,41.8525],[-7.4833,41.8562],[-7.493,41.8569],[-7.5081,41.8649],[-7.5158,41.865],[-7.5233,41.8602],[-7.5252,41.8542],[-7.5263,41.8474],[-7.5316,41.8402],[-7.5467,41.832],[-7.5671,41.8266],[-7.5884,41.8242],[-7.6061,41.8255],[-7.6222,41.8323],[-7.6228,41.8417],[-7.6074,41.8732],[-7.6612,41.8749],[-7.6787,41.8813],[-7.7064,41.8963],[-7.722,41.8993],[-7.7501,41.8884],[-7.8122,41.8771],[-7.8392,41.8784],[-7.8497,41.8758],[-7.8544,41.8703],[-7.8579,41.8638],[-7.8648,41.8579],[-7.8966,41.8579],[-7.9034,41.8868],[-7.9061,41.9139],[-7.9258,41.9082],[-7.9305,41.8967],[-7.9354,41.88],[-7.9448,41.867],[-7.9634,41.8666],[-7.9794,41.8686],[-7.9936,41.8637],[-8.0059,41.854],[-8.0157,41.8419],[-8.0486,41.8164],[-8.0935,41.8067],[-8.1796,41.8107],[-8.1754,41.8366],[-8.177,41.8499],[-8.1846,41.8577],[-8.2204,41.8682],[-8.2317,41.886],[-8.2302,41.9047],[-8.2207,41.9227],[-8.1821,41.9654],[-8.153,41.9868],[-8.1239,42.0009],[-8.108,42.0109],[-8.0974,42.0235],[-8.0951,42.0409],[-8.1032,42.0558],[-8.1184,42.0669],[-8.1376,42.0729],[-8.1584,42.0714],[-8.1762,42.0653],[-8.1913,42.0621],[-8.204,42.0696],[-8.2074,42.0858],[-8.2043,42.1288],[-8.2134,42.144],[-8.2224,42.1536],[-8.2523,42.1376],[-8.2707,42.132],[-8.2878,42.1314],[-8.2954,42.1301],[-8.3043,42.1258],[-8.33,42.1084],[-8.3467,42.1017],[-8.5012,42.0831],[-8.52,42.0777],[-8.5544,42.0601],[-8.5728,42.0544],[-8.6094,42.0537],[-8.6269,42.051],[-8.6439,42.0415],[-8.6526,42.0314],[-8.6632,42.0099],[-8.6708,41.9998],[-8.6913,41.9896],[-8.717,41.9838],[-8.7396,41.9751],[-8.7508,41.969],[-8.762,41.9526],[-8.7771,41.9372],[-8.7954,41.9257],[-8.816,41.9212],[-8.8328,41.914],[-8.8488,41.8995],[-8.8647,41.8889],[-8.8813,41.8933],[-8.8787,41.9071],[-8.8986,42.1018],[-8.8955,42.1191],[-8.8846,42.126],[-8.845,42.1266],[-8.8265,42.1305],[-8.8191,42.1397],[-8.8237,42.1476],[-8.8428,42.1544],[-8.847,42.1608],[-8.842,42.1643],[-8.816,42.1745],[-8.8135,42.1787],[-8.811,42.1881],[-8.8058,42.1975],[-8.7952,42.2017],[-8.7906,42.2045],[-8.772,42.2222],[-8.7196,42.2523],[-8.7019,42.2585],[-8.6699,42.2809],[-8.652,42.2863],[-8.6317,42.2968],[-8.6252,42.3019],[-8.6217,42.3102],[-8.6217,42.3408],[-8.6227,42.3475],[-8.6265,42.3483],[-8.6348,42.3464],[-8.6499,42.3356],[-8.6608,42.3168],[-8.6748,42.299],[-8.6996,42.2912],[-8.7198,42.2876],[-8.7739,42.269],[-8.785,42.2601],[-8.7958,42.2582],[-8.8483,42.261],[-8.8675,42.2564],[-8.8636,42.269],[-8.8534,42.2911],[-8.8533,42.3048],[-8.847,42.3048],[-8.833,42.2891],[-8.8272,42.2967],[-8.8265,42.329],[-8.8285,42.3372],[-8.8307,42.3416],[-8.8273,42.3441],[-8.8129,42.3464],[-8.7769,42.3402],[-8.772,42.3427],[-8.7646,42.3557],[-8.7269,42.3887],[-8.7098,42.4004],[-8.6769,42.4164],[-8.6625,42.4269],[-8.6553,42.4414],[-8.6644,42.438],[-8.6725,42.4384],[-8.6825,42.4414],[-8.6913,42.4406],[-8.6945,42.4396],[-8.6968,42.438],[-8.7188,42.428],[-8.7436,42.4132],[-8.7576,42.4072],[-8.7794,42.4029],[-8.811,42.4007],[-8.8436,42.4037],[-8.8675,42.4147],[-8.8757,42.426],[-8.8802,42.445],[-8.888,42.4556],[-8.9009,42.461],[-8.9355,42.4654],[-8.9426,42.4693],[-8.935,42.4791],[-8.9167,42.4876],[-8.896,42.4939],[-8.8813,42.4966],[-8.869,42.4934],[-8.8608,42.485],[-8.8612,42.4756],[-8.8743,42.4693],[-8.8655,42.465],[-8.8516,42.4608],[-8.837,42.4589],[-8.8265,42.4619],[-8.8225,42.4724],[-8.8252,42.4841],[-8.8251,42.4949],[-8.8129,42.5028],[-8.8252,42.5374],[-8.8265,42.5546],[-8.823,42.5695],[-8.8138,42.5814],[-8.8016,42.5893],[-8.7884,42.5922],[-8.7755,42.6047],[-8.7388,42.6661],[-8.7309,42.6884],[-8.7372,42.6884],[-8.744,42.6724],[-8.7539,42.6569],[-8.7673,42.6452],[-8.785,42.6406],[-8.8038,42.6459],[-8.816,42.6585],[-8.8262,42.6741],[-8.8395,42.6824],[-8.8546,42.6616],[-8.857,42.6491],[-8.847,42.6406],[-8.8688,42.6175],[-8.8805,42.6118],[-8.8948,42.6201],[-8.8895,42.6306],[-8.9034,42.6255],[-8.9364,42.6064],[-8.9222,42.5937],[-8.934,42.5868],[-8.9699,42.5792],[-8.9728,42.5739],[-8.9808,42.5512],[-8.9892,42.5489],[-8.9971,42.5434],[-9.0115,42.5307],[-9.0264,42.5431],[-9.0286,42.5615],[-9.0334,42.5781],[-9.0558,42.5854],[-9.0709,42.5961],[-9.0657,42.6203],[-9.0514,42.6459],[-9.0388,42.6611],[-9.0395,42.673],[-9.0363,42.6879],[-9.0301,42.7077],[-9.0188,42.7198],[-9.014,42.7268],[-9.0063,42.7338],[-8.9945,42.737],[-8.992,42.7391],[-8.9631,42.7513],[-8.9374,42.7778],[-8.9222,42.7881],[-8.8983,42.7923],[-8.8913,42.7993],[-8.8849,42.815],[-8.8877,42.8311],[-8.9084,42.8395],[-8.9126,42.8166],[-8.9281,42.8025],[-8.951,42.7951],[-8.9774,42.7923],[-9.0282,42.7979],[-9.0489,42.7947],[-9.0456,42.778],[-9.0687,42.7597],[-9.0813,42.7548],[-9.1003,42.7575],[-9.1134,42.7661],[-9.1201,42.779],[-9.1255,42.795],[-9.135,42.8128],[-9.1225,42.8126],[-9.1132,42.8164],[-9.1062,42.8233],[-9.1003,42.8333],[-9.1084,42.8448],[-9.1222,42.8518],[-9.1412,42.8574],[-9.1423,42.8653],[-9.1475,42.8786],[-9.1487,42.8845],[-9.1466,42.8884],[-9.1375,42.8961],[-9.135,42.9022],[-9.1337,42.9112],[-9.1345,42.9175],[-9.1414,42.9214],[-9.1586,42.9226],[-9.1679,42.9268],[-9.1835,42.9453],[-9.1959,42.9493],[-9.1959,42.9431],[-9.19,42.9324],[-9.1958,42.9266],[-9.2052,42.9248],[-9.2101,42.9257],[-9.2143,42.939],[-9.2242,42.9402],[-9.2356,42.9349],[-9.2443,42.9288],[-9.2517,42.9202],[-9.2617,42.9002],[-9.2684,42.8913],[-9.2731,42.8933],[-9.2829,42.9166],[-9.292,42.9226],[-9.292,42.9288],[-9.2854,42.9383],[-9.2648,42.9803],[-9.2618,42.9945],[-9.2587,43.0024],[-9.2548,43.008],[-9.251,43.0168],[-9.2573,43.0233],[-9.2721,43.0313],[-9.2795,43.055],[-9.2711,43.0605],[-9.2579,43.0609],[-9.2511,43.0698],[-9.2457,43.088],[-9.234,43.0965],[-9.2223,43.1027],[-9.2176,43.1144],[-9.203,43.105],[-9.1898,43.1023],[-9.1768,43.1056],[-9.1623,43.1144],[-9.1569,43.1197],[-9.1542,43.1247],[-9.1503,43.1296],[-9.1412,43.1349],[-9.1331,43.138],[-9.1258,43.1396],[-9.1077,43.1411],[-9.1077,43.1485],[-9.1247,43.1425],[-9.1471,43.1387],[-9.1633,43.1398],[-9.1623,43.1485],[-9.1942,43.1365],[-9.2084,43.1379],[-9.2176,43.1553],[-9.1701,43.1887],[-9.1379,43.2015],[-9.1004,43.1895],[-9.0832,43.1898],[-9.0652,43.1923],[-9.0524,43.1964],[-9.0398,43.2045],[-9.027,43.2101],[-9.0168,43.2239],[-9.0115,43.2388],[-9.0041,43.2388],[-8.9857,43.2269],[-8.959,43.2275],[-8.9325,43.2353],[-8.9153,43.245],[-8.9364,43.2441],[-8.9482,43.2499],[-8.9631,43.2723],[-8.9675,43.272],[-8.9798,43.2769],[-8.988,43.283],[-8.9808,43.286],[-8.9709,43.2866],[-8.9305,43.2998],[-8.888,43.3207],[-8.8566,43.3269],[-8.8491,43.3341],[-8.8412,43.3389],[-8.83,43.3412],[-8.817,43.3358],[-8.7856,43.3124],[-8.7685,43.3071],[-8.7505,43.3049],[-8.7117,43.2956],[-8.6931,43.2934],[-8.6654,43.3012],[-8.63,43.3159],[-8.5925,43.3242],[-8.5584,43.3132],[-8.506,43.3315],[-8.4975,43.3378],[-8.4943,43.3466],[-8.4861,43.3543],[-8.476,43.3597],[-8.4557,43.3633],[-8.4514,43.3674],[-8.449,43.372],[-8.443,43.3753],[-8.3883,43.3859],[-8.3847,43.3727],[-8.3757,43.363],[-8.3536,43.3486],[-8.3408,43.3599],[-8.3373,43.369],[-8.3399,43.3927],[-8.3307,43.4057],[-8.3106,43.4031],[-8.2816,43.3896],[-8.2672,43.3859],[-8.2608,43.377],[-8.2571,43.3657],[-8.2506,43.3549],[-8.2275,43.3381],[-8.2173,43.3283],[-8.2102,43.3132],[-8.2025,43.3293],[-8.203,43.3447],[-8.2102,43.3753],[-8.2096,43.3907],[-8.2048,43.3997],[-8.194,43.4068],[-8.1754,43.4163],[-8.1951,43.4232],[-8.2133,43.425],[-8.2471,43.4231],[-8.2648,43.4273],[-8.2887,43.4462],[-8.3052,43.4511],[-8.2865,43.462],[-8.1856,43.4715],[-8.1788,43.4733],[-8.1715,43.478],[-8.167,43.4846],[-8.1686,43.492],[-8.1735,43.4927],[-8.1965,43.4852],[-8.2573,43.4777],[-8.2509,43.4829],[-8.2437,43.4852],[-8.2475,43.4877],[-8.2573,43.492],[-8.2692,43.4789],[-8.289,43.473],[-8.3331,43.4715],[-8.3253,43.4868],[-8.3217,43.5079],[-8.3166,43.5229],[-8.3052,43.5194],[-8.2921,43.5329],[-8.3002,43.5382],[-8.3082,43.5463],[-8.3132,43.5563],[-8.3127,43.5671],[-8.2913,43.5648],[-8.2847,43.5671],[-8.261,43.5645],[-8.2322,43.5755],[-8.0867,43.6565],[-8.083,43.6455],[-8.0746,43.6396],[-8.0635,43.6389],[-8.0519,43.6428],[-8.0655,43.6428],[-8.0655,43.6491],[-8.0519,43.6565],[-8.0712,43.6679],[-8.074,43.6785],[-8.0692,43.6893],[-8.0655,43.7009],[-8.0593,43.7094],[-8.0445,43.7121],[-8.011,43.7117],[-7.9812,43.7178],[-7.953,43.7301],[-7.9281,43.7468],[-7.9086,43.7663],[-7.8808,43.7633],[-7.869,43.7488],[-7.8615,43.7312],[-7.8465,43.718],[-7.8465,43.7117],[-7.8523,43.7142],[-7.8676,43.718],[-7.8746,43.7094],[-7.8793,43.7005],[-7.8798,43.692],[-7.8738,43.6845],[-7.8841,43.6786],[-7.8873,43.6797],[-7.8949,43.6845],[-7.9039,43.6783],[-7.9086,43.677],[-7.9086,43.6702],[-7.8584,43.6682],[-7.8492,43.6756],[-7.8676,43.6975],[-7.856,43.7034],[-7.8439,43.7038],[-7.8192,43.6975],[-7.8214,43.7008],[-7.826,43.7117],[-7.812,43.7231],[-7.7939,43.7341],[-7.7738,43.7426],[-7.734,43.7501],[-7.7128,43.7607],[-7.6957,43.7749],[-7.6888,43.79],[-7.6855,43.7934],[-7.6783,43.7905],[-7.6713,43.7829],[-7.6683,43.7725],[-7.6726,43.7667],[-7.6956,43.7459],[-7.6962,43.7315],[-7.6916,43.7272],[-7.684,43.7287],[-7.6752,43.7316],[-7.6736,43.7344],[-7.6741,43.7392],[-7.6725,43.7438],[-7.6646,43.7459],[-7.658,43.7465],[-7.641,43.7527],[-7.6376,43.7391],[-7.613,43.7043],[-7.616,43.6885],[-7.6072,43.6911],[-7.5946,43.7037],[-7.5864,43.718],[-7.5743,43.7145],[-7.5654,43.7198],[-7.5558,43.7276],[-7.5414,43.7316],[-7.502,43.7283],[-7.4901,43.7253],[-7.4076,43.6912],[-7.3671,43.6801],[-7.3041,43.5986],[-7.2567,43.5816],[-7.2651,43.5715],[-7.2711,43.5686],[-7.2711,43.5611],[-7.2577,43.5567],[-7.2496,43.5594],[-7.242,43.5648],[-7.2301,43.5686],[-7.2154,43.5687],[-7.1949,43.5635],[-7.157,43.5593],[-7.0959,43.561],[-7.0793,43.5686],[-7.0616,43.5616],[-7.0443,43.5594],[-7.0323,43.553],[-7.0309,43.5332],[-7.0377,43.5222],[-7.0484,43.5104],[-7.0536,43.4965],[-7.0446,43.4792],[-7.0383,43.4792],[-7.0327,43.4955],[-7.0295,43.5122],[-7.0238,43.5258],[-7.0104,43.5332],[-7.0014,43.5567],[-6.944,43.566],[-6.8459,43.5686],[-6.8307,43.5651],[-6.7708,43.5686],[-6.7296,43.5598],[-6.7037,43.5576],[-6.6487,43.579],[-6.5977,43.5752],[-6.5466,43.5618],[-6.5101,43.5475],[-6.4997,43.5531],[-6.4883,43.5551],[-6.463,43.555],[-6.4691,43.5754],[-6.4553,43.5733],[-6.4318,43.5634],[-6.4176,43.5611],[-6.3661,43.5686],[-6.3146,43.5686],[-6.3,43.5706],[-6.2739,43.5796],[-6.25,43.5841],[-6.2439,43.5893],[-6.2364,43.5943],[-6.2228,43.5959],[-6.191,43.5786],[-6.178,43.5754],[-6.1004,43.5692],[-6.085,43.5754],[-6.0692,43.5697],[-6.0542,43.5746],[-6.0392,43.5831],[-6.0235,43.5884],[-5.9074,43.5884],[-5.9022,43.5975],[-5.9088,43.6049],[-5.9131,43.6129],[-5.9006,43.6232],[-5.9074,43.6368],[-5.8752,43.6368],[-5.8635,43.6414],[-5.859,43.6536],[-5.8522,43.663],[-5.8363,43.6622],[-5.8038,43.6505],[-5.7823,43.637],[-5.7274,43.5895],[-5.7089,43.5686],[-5.702,43.5686],[-5.6968,43.5828],[-5.6892,43.5786],[-5.6775,43.5611],[-5.6256,43.555],[-5.4242,43.5611],[-5.3939,43.5552],[-5.3907,43.5413],[-5.4036,43.5254],[-5.4208,43.5134],[-5.4139,43.5065],[-5.4037,43.5111],[-5.3826,43.5164],[-5.3724,43.5202],[-5.3651,43.5267],[-5.3622,43.5334],[-5.3568,43.5386],[-5.3419,43.5406],[-5.2999,43.5377],[-5.284,43.5335],[-5.2119,43.4984],[-5.1779,43.4894],[-5.0917,43.4863],[-5.0677,43.4814],[-5.057,43.4686],[-5.045,43.4743],[-4.9752,43.4588],[-4.9671,43.4609],[-4.9525,43.4701],[-4.941,43.4717],[-4.9302,43.4695],[-4.9076,43.4606],[-4.8365,43.4498],[-4.755,43.4217],[-4.7349,43.4171],[-4.5082,43.4025],[-4.4817,43.3836],[-4.4608,43.3987],[-4.4325,43.4026],[-4.4049,43.397],[-4.3856,43.3836],[-4.3793,43.3836],[-4.3688,43.3962],[-4.3594,43.3997],[-4.3128,43.3958],[-4.1886,43.4054],[-4.161,43.4212],[-4.0977,43.4356],[-4.074,43.4383],[-4.0292,43.4383],[-4.0234,43.4409],[-4.0209,43.4504],[-4.0128,43.4525],[-4.0057,43.4508],[-3.9814,43.4383],[-3.9765,43.4429],[-3.972,43.4442],[-3.961,43.4451],[-3.9654,43.4468],[-3.9746,43.4525],[-3.9746,43.4588],[-3.9401,43.4771],[-3.9227,43.4826],[-3.9063,43.4792],[-3.8938,43.4849],[-3.8909,43.4837],[-3.8859,43.4792],[-3.8568,43.4924],[-3.8267,43.497],[-3.797,43.4927],[-3.7692,43.4792],[-3.8127,43.4649],[-3.831,43.456],[-3.8443,43.4451],[-3.8339,43.4359],[-3.8238,43.4308],[-3.83,43.4301],[-3.8315,43.4291],[-3.8313,43.4246],[-3.8202,43.4243],[-3.8112,43.4255],[-3.7965,43.4308],[-3.7895,43.4359],[-3.7762,43.4497],[-3.7723,43.4525],[-3.7635,43.4503],[-3.7541,43.4405],[-3.745,43.4383],[-3.7407,43.4423],[-3.743,43.4514],[-3.7489,43.4607],[-3.7555,43.4655],[-3.7555,43.4717],[-3.7415,43.4702],[-3.7357,43.4688],[-3.7289,43.4655],[-3.7272,43.4705],[-3.7214,43.4717],[-3.7289,43.4792],[-3.7179,43.4827],[-3.6884,43.4842],[-3.677,43.4894],[-3.6671,43.4966],[-3.6561,43.5007],[-3.5794,43.5183],[-3.5544,43.5169],[-3.5563,43.4997],[-3.5391,43.499],[-3.5256,43.4916],[-3.5147,43.4832],[-3.5054,43.4792],[-3.4366,43.4705],[-3.4315,43.4669],[-3.4283,43.4617],[-3.4272,43.4556],[-3.4286,43.4468],[-3.4326,43.4454],[-3.4389,43.4466],[-3.447,43.4451],[-3.4606,43.4522],[-3.47,43.4542],[-3.4778,43.4431],[-3.4858,43.4376],[-3.5017,43.4308],[-3.4818,43.428],[-3.4704,43.4168],[-3.4611,43.4125],[-3.447,43.4308],[-3.4362,43.419],[-3.4222,43.4181],[-3.3925,43.4246],[-3.378,43.4226],[-3.3303,43.4103],[-3.269,43.4041],[-3.2235,43.3916],[-3.2105,43.3898],[-3.2,43.3855],[-3.1769,43.3662],[-3.1315,43.3558],[-3.1124,43.3541],[-3.0895,43.3669],[-3.0579,43.3524],[-3.0082,43.3209],[-3.0082,43.3284],[-3.02,43.3526],[-3.0234,43.3649],[-3.0293,43.3721],[-3.0293,43.3762],[-3.0243,43.3809],[-3.011,43.3841],[-2.9994,43.3944],[-2.9559,43.4138],[-2.9399,43.4171],[-2.9399,43.4246],[-2.9467,43.4246],[-2.9467,43.4308],[-2.9301,43.4379],[-2.9053,43.4399],[-2.8542,43.4383],[-2.807,43.4417],[-2.7686,43.4525],[-2.7558,43.4503],[-2.7349,43.4388],[-2.7152,43.4245],[-2.7065,43.4137],[-2.6949,43.3886],[-2.691,43.3675],[-2.687,43.3714],[-2.6793,43.3898],[-2.6778,43.4062],[-2.673,43.4103],[-2.6612,43.4119],[-2.6493,43.4095],[-2.6381,43.406],[-2.6069,43.4019],[-2.5489,43.3836],[-2.506,43.3771],[-2.4835,43.3706],[-2.4644,43.3492],[-2.3674,43.3157],[-2.3271,43.3068],[-2.2847,43.3035],[-2.2411,43.3072],[-2.2079,43.314],[-2.1963,43.3148],[-2.1904,43.3116],[-2.1835,43.3045],[-2.1745,43.2974],[-2.1622,43.2943],[-2.1515,43.3],[-2.1448,43.3011],[-2.14,43.2989],[-2.1348,43.2896],[-2.1278,43.2874],[-2.0989,43.3041],[-2.0864,43.3072],[-2.0655,43.3096],[-1.9946,43.3284],[-1.9718,43.3392],[-1.9604,43.3431],[-1.9456,43.3426],[-1.9337,43.3356],[-1.9266,43.3259],[-1.9187,43.321],[-1.9047,43.3284],[-1.9102,43.3314],[-1.9189,43.3386],[-1.9257,43.3426],[-1.8849,43.356],[-1.8474,43.3809],[-1.8113,43.3951],[-1.7941,43.386]]],[[[1.9834,42.4413],[1.9606,42.4437],[1.9475,42.4512],[1.9456,42.4638],[1.9566,42.4818],[1.968,42.4857],[1.9783,42.475],[1.9884,42.4582],[1.9995,42.4439],[1.9834,42.4413]]],[[[-17.9339,27.852],[-17.9141,27.8496],[-17.8965,27.8403],[-17.884,27.8276],[-17.8793,27.8145],[-17.8851,27.7979],[-17.9264,27.7428],[-17.9276,27.7365],[-17.9269,27.7244],[-17.9302,27.7187],[-17.9351,27.7156],[-17.9407,27.7137],[-17.9451,27.7108],[-17.9469,27.7047],[-17.9503,27.6995],[-17.9578,27.694],[-17.9652,27.687],[-17.9686,27.6777],[-17.9713,27.6544],[-17.9795,27.6425],[-17.9941,27.6422],[-18.0158,27.6535],[-18.0307,27.6679],[-18.0398,27.6813],[-18.0531,27.6912],[-18.1269,27.7003],[-18.1466,27.7086],[-18.1604,27.7224],[-18.1672,27.7576],[-18.1405,27.7688],[-18.0978,27.7654],[-18.0568,27.7565],[-18.042,27.7652],[-18.0032,27.7988],[-17.9954,27.8081],[-17.9941,27.8188],[-17.9899,27.8237],[-17.9686,27.8322],[-17.9339,27.852]]],[[[-15.3916,28.0302],[-15.3835,28.0243],[-15.3676,28.0158],[-15.3636,28.0097],[-15.3663,27.9935],[-15.3741,27.9755],[-15.3767,27.9575],[-15.3636,27.9415],[-15.3636,27.9346],[-15.3746,27.9299],[-15.3819,27.9212],[-15.3916,27.8998],[-15.3827,27.8855],[-15.376,27.8676],[-15.3778,27.8523],[-15.3947,27.8459],[-15.407,27.8383],[-15.4392,27.8027],[-15.453,27.7912],[-15.5234,27.7717],[-15.5349,27.7664],[-15.5397,27.7656],[-15.566,27.7394],[-15.578,27.7344],[-15.5882,27.7389],[-15.5977,27.7463],[-15.6072,27.7503],[-15.6505,27.7531],[-15.6695,27.7571],[-15.6857,27.7633],[-15.7397,27.8043],[-15.7479,27.8145],[-15.7519,27.8214],[-15.7728,27.832],[-15.782,27.8384],[-15.786,27.8442],[-15.8151,27.9013],[-15.8212,27.9218],[-15.8161,27.9415],[-15.8201,27.9529],[-15.8218,27.9683],[-15.8206,27.9841],[-15.8161,27.996],[-15.807,28.005],[-15.7677,28.024],[-15.7498,28.036],[-15.7252,28.0569],[-15.7084,28.0819],[-15.7137,28.1059],[-15.7021,28.1151],[-15.6981,28.133],[-15.7001,28.1529],[-15.7062,28.1674],[-15.6951,28.1682],[-15.6844,28.1676],[-15.6744,28.1653],[-15.6653,28.1605],[-15.6508,28.1639],[-15.597,28.1475],[-15.5213,28.1475],[-15.4587,28.1342],[-15.435,28.1409],[-15.4387,28.1749],[-15.4093,28.1798],[-15.4053,28.1779],[-15.3999,28.165],[-15.4001,28.1572],[-15.4086,28.1538],[-15.4156,28.1415],[-15.4149,28.1145],[-15.4086,28.0749],[-15.4062,28.0681],[-15.4039,28.0563],[-15.3996,28.0427],[-15.3916,28.0302]]],[[[-17.3097,28.2071],[-17.2592,28.2177],[-17.2127,28.2054],[-17.1704,28.1811],[-17.1161,28.1462],[-17.1043,28.123],[-17.0984,28.1008],[-17.1139,28.081],[-17.1335,28.0698],[-17.1632,28.045],[-17.185,28.0316],[-17.2071,28.0267],[-17.2327,28.0191],[-17.2579,28.0246],[-17.3101,28.0535],[-17.3432,28.0977],[-17.3434,28.1334],[-17.3388,28.171],[-17.3097,28.2071]]],[[[-16.4277,28.1497],[-16.441,28.1328],[-16.4568,28.1155],[-16.5215,28.0576],[-16.5458,28.024],[-16.5797,28.0303],[-16.6763,27.9971],[-16.6927,27.9998],[-16.7036,28.0137],[-16.7058,28.023],[-16.7041,28.035],[-16.7132,28.0383],[-16.7211,28.0445],[-16.7241,28.0527],[-16.7259,28.0715],[-16.7279,28.0786],[-16.7416,28.0938],[-16.7806,28.1279],[-16.7887,28.1438],[-16.7954,28.1653],[-16.8105,28.1819],[-16.8268,28.1957],[-16.8371,28.209],[-16.844,28.2531],[-16.8472,28.2625],[-16.8612,28.2819],[-16.8734,28.3052],[-16.9066,28.3351],[-16.9161,28.355],[-16.8919,28.3687],[-16.8374,28.3911],[-16.8178,28.3836],[-16.7942,28.3691],[-16.7825,28.366],[-16.7701,28.3663],[-16.7416,28.3735],[-16.7196,28.3833],[-16.6872,28.3928],[-16.6642,28.4007],[-16.6444,28.3964],[-16.5846,28.4011],[-16.5645,28.4153],[-16.5389,28.4179],[-16.5282,28.4221],[-16.5071,28.4241],[-16.4869,28.4383],[-16.4204,28.4906],[-16.4143,28.4992],[-16.412,28.5137],[-16.4083,28.5198],[-16.3894,28.5288],[-16.3812,28.5342],[-16.3634,28.543],[-16.3411,28.5466],[-16.3227,28.5535],[-16.3164,28.5721],[-16.3002,28.5666],[-16.2027,28.564],[-16.1413,28.5834],[-16.1177,28.5721],[-16.1271,28.5438],[-16.1574,28.5245],[-16.2314,28.4884],[-16.248,28.4611],[-16.2687,28.4433],[-16.2961,28.4178],[-16.3239,28.3975],[-16.3416,28.3913],[-16.3555,28.3812],[-16.3658,28.3625],[-16.3661,28.3414],[-16.3581,28.3146],[-16.3613,28.3044],[-16.371,28.2971],[-16.38,28.2883],[-16.3868,28.265],[-16.4192,28.2114],[-16.428,28.1677],[-16.4277,28.1497]]],[[[-13.9726,28.7359],[-13.9354,28.7495],[-13.8987,28.7539],[-13.8646,28.7442],[-13.8355,28.7155],[-13.8244,28.6818],[-13.8212,28.6367],[-13.8287,28.5516],[-13.8352,28.5307],[-13.8529,28.4927],[-13.8566,28.479],[-13.8577,28.4455],[-13.8566,28.4349],[-13.8536,28.4284],[-13.8444,28.4143],[-13.8429,28.4069],[-13.8478,28.3974],[-13.8657,28.3829],[-13.8696,28.3769],[-13.8701,28.3677],[-13.8718,28.358],[-13.8752,28.3491],[-13.8921,28.3282],[-13.9002,28.3111],[-13.9113,28.2772],[-13.9337,28.2442],[-13.9668,28.228],[-14.0726,28.2128],[-14.1186,28.2005],[-14.152,28.18],[-14.1916,28.1708],[-14.2122,28.1605],[-14.2445,28.1292],[-14.2714,28.0961],[-14.3013,28.0679],[-14.3432,28.0507],[-14.369,28.0508],[-14.4083,28.067],[-14.4286,28.0712],[-14.4949,28.0678],[-14.5071,28.0712],[-14.5034,28.0748],[-14.4993,28.0866],[-14.4964,28.0985],[-14.4969,28.1025],[-14.4897,28.1043],[-14.4556,28.0991],[-14.436,28.1005],[-14.3989,28.1112],[-14.3412,28.1345],[-14.2701,28.176],[-14.2401,28.2016],[-14.2244,28.2186],[-14.2135,28.2349],[-14.2074,28.2544],[-14.2019,28.3039],[-14.1932,28.3218],[-14.1713,28.3524],[-14.1464,28.4233],[-14.1409,28.4349],[-14.1279,28.4436],[-14.0983,28.4866],[-14.0756,28.5361],[-14.0361,28.5874],[-14.0246,28.6371],[-14.0101,28.6675],[-14.0053,28.7036],[-13.9999,28.7167],[-13.9895,28.7269],[-13.9726,28.7359]]],[[[-17.7558,28.8185],[-17.7578,28.7987],[-17.7506,28.7748],[-17.7414,28.7579],[-17.7219,28.749],[-17.721,28.7306],[-17.7511,28.7],[-17.7653,28.6775],[-17.7575,28.6577],[-17.7456,28.6219],[-17.7537,28.603],[-17.7599,28.5768],[-17.7833,28.5486],[-17.8033,28.5095],[-17.8217,28.4758],[-17.8309,28.4554],[-17.8371,28.4554],[-17.8429,28.465],[-17.8651,28.4754],[-17.8722,28.4944],[-17.8797,28.5437],[-17.8912,28.5557],[-17.8986,28.5716],[-17.9193,28.5963],[-17.9248,28.6183],[-17.9631,28.6715],[-17.9671,28.6967],[-17.9761,28.7282],[-17.9923,28.7386],[-18.0022,28.7496],[-17.9968,28.7801],[-17.9707,28.8132],[-17.9364,28.8403],[-17.9111,28.8556],[-17.8905,28.8439],[-17.8658,28.8406],[-17.8417,28.8354],[-17.8014,28.8493],[-17.7815,28.8423],[-17.765,28.8294],[-17.7558,28.8185]]],[[[-13.483,29.2399],[-13.4654,29.2433],[-13.4466,29.233],[-13.4178,29.2089],[-13.4276,29.1887],[-13.4315,29.1724],[-13.4388,29.159],[-13.4587,29.1474],[-13.4624,29.1321],[-13.4591,29.1186],[-13.454,29.1041],[-13.4519,29.086],[-13.4538,29.0789],[-13.4623,29.0657],[-13.4656,29.0581],[-13.4662,29.0497],[-13.4646,29.0322],[-13.4656,29.0239],[-13.482,28.9995],[-13.5105,28.9775],[-13.543,28.9617],[-13.59,28.9514],[-13.5997,28.942],[-13.6076,28.9326],[-13.6198,28.9284],[-13.6355,28.9272],[-13.6584,28.9226],[-13.6744,28.9215],[-13.7093,28.9147],[-13.7361,28.8965],[-13.7572,28.8703],[-13.7746,28.8396],[-13.7809,28.8396],[-13.7915,28.8535],[-13.8121,28.8591],[-13.8597,28.8594],[-13.8673,28.8649],[-13.8736,28.8769],[-13.8763,28.8888],[-13.873,28.8942],[-13.8619,28.8974],[-13.8534,28.905],[-13.8429,28.9215],[-13.8391,28.9379],[-13.8351,28.9872],[-13.8321,29.0004],[-13.7985,29.0481],[-13.7809,29.0649],[-13.7668,29.074],[-13.7506,29.0806],[-13.7314,29.0847],[-13.7089,29.086],[-13.6902,29.0909],[-13.6565,29.116],[-13.6368,29.1269],[-13.6183,29.1324],[-13.6024,29.1343],[-13.5512,29.1342],[-13.5372,29.1383],[-13.5261,29.1503],[-13.514,29.1747],[-13.5032,29.2082],[-13.4955,29.2251],[-13.483,29.2399]]],[[[-13.4867,29.2846],[-13.4779,29.2663],[-13.492,29.2427],[-13.5171,29.2263],[-13.5412,29.2294],[-13.5412,29.2368],[-13.5257,29.2512],[-13.5179,29.2735],[-13.5082,29.2895],[-13.4867,29.2846]]],[[[-0.7327,37.7477],[-0.7419,37.7255],[-0.7401,37.7025],[-0.7265,37.6652],[-0.7469,37.6838],[-0.7512,37.7133],[-0.7503,37.746],[-0.7545,37.7744],[-0.7494,37.7749],[-0.7482,37.7732],[-0.7482,37.7705],[-0.747,37.7682],[-0.7375,37.7536],[-0.7327,37.7477]]],[[[1.5264,38.6778],[1.5657,38.6915],[1.5824,38.6749],[1.5814,38.6531],[1.5575,38.6488],[1.5234,38.6494],[1.4742,38.6746],[1.4581,38.6813],[1.429,38.6649],[1.4128,38.6464],[1.397,38.6386],[1.3829,38.6421],[1.3876,38.6624],[1.3835,38.67],[1.3835,38.6804],[1.3887,38.6871],[1.3933,38.6963],[1.3937,38.7042],[1.3865,38.7077],[1.3828,38.7116],[1.3886,38.7191],[1.401,38.7303],[1.408,38.7245],[1.4181,38.7279],[1.4279,38.7394],[1.4313,38.7549],[1.4354,38.7554],[1.4365,38.754],[1.4375,38.7493],[1.4861,38.6946],[1.5264,38.6778]]],[[[1.606,39.0913],[1.6008,39.0824],[1.6069,39.0624],[1.6231,39.0292],[1.6065,39.0284],[1.5933,39.0202],[1.5846,39.0074],[1.5814,38.9919],[1.5762,38.9858],[1.5412,38.9678],[1.5098,38.9302],[1.4972,38.9219],[1.4695,38.9103],[1.4587,38.9001],[1.4549,38.904],[1.4484,38.9088],[1.445,38.9132],[1.4286,38.8966],[1.4147,38.8906],[1.4041,38.8568],[1.4031,38.8323],[1.3706,38.8318],[1.3608,38.8519],[1.3435,38.8624],[1.3289,38.8579],[1.322,38.8579],[1.3177,38.8598],[1.3078,38.8579],[1.3003,38.8705],[1.2835,38.8746],[1.2666,38.8703],[1.2599,38.8579],[1.2282,38.8746],[1.2166,38.8851],[1.2122,38.9032],[1.2243,38.9274],[1.2275,38.942],[1.2184,38.9541],[1.2267,38.9602],[1.2368,38.9652],[1.2482,38.9664],[1.2599,38.9609],[1.2673,38.9661],[1.2769,38.968],[1.301,38.9678],[1.2922,39.0099],[1.2928,39.0333],[1.3045,39.0434],[1.3176,39.0476],[1.3325,39.0572],[1.3568,39.0776],[1.363,39.0776],[1.3722,39.0714],[1.3919,39.0833],[1.4033,39.0776],[1.4232,39.0906],[1.4507,39.1018],[1.4787,39.1077],[1.4995,39.1049],[1.5086,39.1144],[1.5227,39.1189],[1.5371,39.118],[1.5536,39.1077],[1.5604,39.1058],[1.5784,39.1049],[1.5897,39.1028],[1.5979,39.0981],[1.606,39.0913]]],[[[3.3545,39.7844],[3.3831,39.7779],[3.4398,39.752],[3.4744,39.7497],[3.4685,39.7393],[3.4694,39.7311],[3.4727,39.7236],[3.4744,39.7155],[3.4706,39.7103],[3.4644,39.7064],[3.4614,39.7001],[3.4675,39.6876],[3.4539,39.6597],[3.4432,39.6458],[3.4299,39.6398],[3.4131,39.6351],[3.4019,39.6232],[3.3987,39.6077],[3.406,39.592],[3.3654,39.5631],[3.3233,39.5239],[3.2918,39.4758],[3.2825,39.4201],[3.2727,39.4248],[3.2688,39.4276],[3.2526,39.3862],[3.221,39.3599],[3.1294,39.3157],[3.091,39.2901],[3.0833,39.2801],[3.0791,39.2769],[3.07,39.2718],[3.0608,39.2691],[3.0567,39.273],[3.0293,39.3046],[3.023,39.3082],[3.0073,39.3137],[3.0013,39.3177],[2.9968,39.327],[2.9946,39.338],[2.9914,39.3473],[2.9842,39.3511],[2.9745,39.3535],[2.9588,39.3632],[2.95,39.3655],[2.9382,39.3644],[2.9224,39.3597],[2.9126,39.3587],[2.8255,39.3636],[2.7866,39.3759],[2.7617,39.4002],[2.7512,39.4548],[2.7366,39.4621],[2.7395,39.4783],[2.7549,39.5026],[2.7435,39.5234],[2.7151,39.5435],[2.6817,39.5587],[2.6553,39.5647],[2.6335,39.5593],[2.5691,39.5315],[2.5557,39.52],[2.5449,39.493],[2.5202,39.4728],[2.4927,39.4702],[2.4717,39.4979],[2.469,39.5059],[2.4722,39.5122],[2.4806,39.5162],[2.4539,39.5374],[2.4458,39.5289],[2.4382,39.5252],[2.4312,39.5277],[2.426,39.5374],[2.3983,39.525],[2.3919,39.5237],[2.3821,39.5292],[2.3737,39.5472],[2.3556,39.5587],[2.3508,39.5765],[2.3517,39.5967],[2.3577,39.6119],[2.4294,39.6467],[2.4505,39.6503],[2.4683,39.6594],[2.5176,39.7001],[2.5324,39.7064],[2.5524,39.7087],[2.5697,39.7131],[2.5866,39.7238],[2.6177,39.7497],[2.6219,39.7545],[2.6314,39.7701],[2.636,39.771],[2.6475,39.7692],[2.6519,39.7701],[2.676,39.7891],[2.6792,39.794],[2.6836,39.7962],[2.7039,39.8142],[2.7106,39.8185],[2.7179,39.8201],[2.7474,39.8316],[2.7617,39.8405],[2.7732,39.8496],[2.7848,39.8567],[2.7997,39.8596],[2.8032,39.8616],[2.8096,39.8706],[2.8132,39.8726],[2.8342,39.8712],[2.8436,39.8726],[2.8731,39.8835],[2.9333,39.9145],[2.9641,39.921],[3.0203,39.9252],[3.0757,39.9361],[3.1795,39.9688],[3.1931,39.9551],[3.1984,39.9593],[3.2013,39.9605],[3.2142,39.9551],[3.2036,39.9492],[3.1685,39.9364],[3.1556,39.934],[3.1409,39.9281],[3.1275,39.9167],[3.1155,39.9088],[3.1043,39.9135],[3.0969,39.9135],[3.0947,39.8812],[3.1302,39.8764],[3.2068,39.893],[3.2068,39.8868],[3.1968,39.8812],[3.1956,39.8745],[3.1965,39.8671],[3.1931,39.8596],[3.1872,39.8544],[3.1815,39.8514],[3.1652,39.8459],[3.1336,39.8395],[3.1263,39.8319],[3.1248,39.8111],[3.1365,39.7888],[3.1626,39.7691],[3.1948,39.755],[3.2239,39.7497],[3.2925,39.7497],[3.3099,39.7551],[3.3403,39.779],[3.3545,39.7844]]],[[[4.298,39.942],[4.3073,39.9105],[4.3288,39.8835],[4.3371,39.8672],[4.3303,39.8672],[4.3263,39.8734],[4.3198,39.8792],[4.3118,39.8842],[4.3029,39.8876],[4.3001,39.8218],[4.2481,39.8165],[4.1772,39.8433],[4.0151,39.9258],[3.9814,39.9361],[3.9413,39.9368],[3.8693,39.9255],[3.8307,39.9361],[3.8349,39.948],[3.8357,39.9624],[3.8391,39.9756],[3.8505,39.9839],[3.8424,39.9894],[3.822,39.9951],[3.8129,40.0012],[3.8034,40.0132],[3.8032,40.0181],[3.8071,40.0233],[3.8095,40.0354],[3.8219,40.0476],[3.8915,40.0596],[3.9155,40.052],[4.0119,40.0596],[4.052,40.0582],[4.0634,40.0596],[4.0776,40.0643],[4.0943,40.0747],[4.1051,40.0794],[4.1078,40.0676],[4.1168,40.0596],[4.1391,40.0459],[4.137,40.043],[4.1349,40.0357],[4.1354,40.0282],[4.1423,40.0248],[4.1485,40.0278],[4.1559,40.0347],[4.1658,40.0459],[4.1638,40.0606],[4.1705,40.0646],[4.1765,40.0592],[4.1726,40.0459],[4.1786,40.0388],[4.2067,40.0248],[4.2169,40.0126],[4.2272,40.0049],[4.2327,40.0027],[4.2475,40.0004],[4.2546,39.9975],[4.2649,39.9864],[4.2734,39.97],[4.2724,39.9553],[4.2546,39.9497],[4.2701,39.9438],[4.2859,39.9446],[4.298,39.942]]],[[[2.9854,39.1662],[2.9823,39.1392],[2.9622,39.1161],[2.9309,39.1182],[2.9136,39.152],[2.9404,39.1719],[2.9806,39.1856],[2.9854,39.1662]]],[[[-2.4342,35.1852],[-2.4294,35.186],[-2.4265,35.1821],[-2.4314,35.1788],[-2.4359,35.1812],[-2.4342,35.1852]]]]}}