{"type":"Feature","bbox":[-61.7905,12.0028,-61.4216,12.5297],"properties":{"iso":"GD","name":"Grenada","name_de":"Grenada","key":"GD"},"geometry":{"type":"MultiPolygon","coordinates":[[[[-61.6129,12.2144],[-61.6046,12.1975],[-61.6028,12.1829],[-61.6063,12.1338],[-61.6087,12.1268],[-61.6131,12.1199],[-61.6198,12.1046],[-61.6195,12.0967],[-61.6138,12.0804],[-61.6164,12.0773],[-61.6216,12.0749],[-61.6245,12.069],[-61.626,12.053],[-61.6316,12.0441],[-61.6744,12.022],[-61.6744,12.0295],[-61.683,12.0254],[-61.6894,12.0198],[-61.6934,12.0123],[-61.6949,12.0028],[-61.7043,12.0045],[-61.7132,12.0073],[-61.7218,12.0111],[-61.7296,12.0158],[-61.74,12.0069],[-61.7569,12.0034],[-61.7755,12.0043],[-61.7905,12.0084],[-61.7558,12.0303],[-61.7495,12.0363],[-61.746,12.0509],[-61.7488,12.0626],[-61.7538,12.0742],[-61.7564,12.0878],[-61.751,12.1101],[-61.7303,12.1493],[-61.7296,12.1667],[-61.6715,12.2361],[-61.6505,12.2397],[-61.6277,12.2367],[-61.606,12.2234],[-61.6067,12.2203],[-61.6129,12.2144]]],[[[-61.428,12.4547],[-61.4457,12.4598],[-61.4626,12.4551],[-61.4792,12.4467],[-61.4962,12.4404],[-61.4827,12.4683],[-61.4962,12.4683],[-61.4948,12.4723],[-61.4889,12.482],[-61.4673,12.4756],[-61.4543,12.4928],[-61.4435,12.5165],[-61.428,12.5297],[-61.4216,12.5134],[-61.4233,12.4952],[-61.4274,12.4754],[-61.428,12.4547]]]]}}