{"type":"Feature","bbox":[-15.0811,7.1902,-7.6624,12.6734],"properties":{"iso":"GN","name":"Guinea","name_de":"Guinea","key":"GN"},"geometry":{"type":"Polygon","coordinates":[[[-13.3011,9.0415],[-13.3124,9.0483],[-13.3216,9.0566],[-13.3258,9.0678],[-13.3222,9.0831],[-13.3045,9.0831],[-13.3006,9.0846],[-13.3022,9.0925],[-13.3011,9.0961],[-13.2738,9.124],[-13.2549,9.1549],[-13.2431,9.1697],[-13.2259,9.1793],[-13.2082,9.1801],[-13.1761,9.1737],[-13.1577,9.1793],[-13.1577,9.1855],[-13.2185,9.1833],[-13.2473,9.186],[-13.2595,9.1964],[-13.2577,9.2003],[-13.2489,9.2083],[-13.2458,9.2134],[-13.2458,9.2265],[-13.2379,9.2466],[-13.2328,9.2674],[-13.2549,9.2448],[-13.2646,9.2204],[-13.2704,9.194],[-13.2806,9.165],[-13.3049,9.1755],[-13.3153,9.1821],[-13.3222,9.1929],[-13.3136,9.1979],[-13.3116,9.2072],[-13.3147,9.2333],[-13.3136,9.2331],[-13.3112,9.238],[-13.3079,9.2503],[-13.31,9.2538],[-13.3222,9.2612],[-13.3251,9.2813],[-13.3253,9.311],[-13.3187,9.3295],[-13.3011,9.3159],[-13.3038,9.3378],[-13.3034,9.3471],[-13.3011,9.3568],[-13.3079,9.3568],[-13.314,9.3496],[-13.3222,9.3454],[-13.3328,9.3436],[-13.3458,9.3432],[-13.3529,9.3388],[-13.3578,9.3284],[-13.3679,9.2822],[-13.3745,9.2728],[-13.3975,9.2838],[-13.4078,9.287],[-13.412,9.2934],[-13.4041,9.3084],[-13.4141,9.3172],[-13.4238,9.3329],[-13.4308,9.352],[-13.432,9.3711],[-13.4252,9.3899],[-13.4033,9.4182],[-13.3966,9.4394],[-13.4041,9.4394],[-13.4284,9.4207],[-13.4654,9.4182],[-13.4992,9.4288],[-13.514,9.4496],[-13.5209,9.4795],[-13.5207,9.4951],[-13.5102,9.5111],[-13.5006,9.5218],[-13.4932,9.5349],[-13.4884,9.5506],[-13.4867,9.5691],[-13.4935,9.5691],[-13.5156,9.5245],[-13.529,9.5057],[-13.5475,9.5002],[-13.5614,9.509],[-13.5753,9.5272],[-13.5855,9.5491],[-13.5884,9.5691],[-13.619,9.5564],[-13.678,9.5227],[-13.7058,9.5145],[-13.7071,9.5122],[-13.7143,9.5076],[-13.7224,9.5058],[-13.7262,9.5111],[-13.7241,9.5195],[-13.7189,9.5223],[-13.7123,9.5237],[-13.7058,9.5281],[-13.6733,9.5738],[-13.6527,9.5972],[-13.6408,9.6237],[-13.6258,9.6473],[-13.623,9.6629],[-13.6244,9.7203],[-13.6232,9.7274],[-13.6186,9.7321],[-13.6049,9.7374],[-13.6022,9.7438],[-13.5954,9.755],[-13.5807,9.762],[-13.5665,9.7711],[-13.5611,9.7882],[-13.5818,9.7772],[-13.5943,9.7742],[-13.6041,9.7802],[-13.6478,9.8315],[-13.6512,9.8428],[-13.6581,9.8405],[-13.6648,9.8366],[-13.6538,9.8052],[-13.6505,9.777],[-13.6613,9.7545],[-13.6921,9.7404],[-13.7289,9.7441],[-13.7472,9.7678],[-13.7498,9.7999],[-13.7399,9.8292],[-13.6983,9.8808],[-13.682,9.9135],[-13.6853,9.9465],[-13.694,9.9538],[-13.6975,9.9404],[-13.6992,9.9213],[-13.702,9.9117],[-13.7128,9.9052],[-13.7325,9.8768],[-13.7467,9.8708],[-13.7454,9.8665],[-13.7497,9.8635],[-13.7847,9.8502],[-13.7887,9.85],[-13.8097,9.8516],[-13.8277,9.8554],[-13.8428,9.8608],[-13.8492,9.8676],[-13.8551,9.8789],[-13.8691,9.8962],[-13.8861,9.9122],[-13.9006,9.9191],[-13.9276,9.9359],[-13.9332,9.9433],[-13.9454,9.9669],[-13.9543,9.9709],[-13.9711,9.9718],[-13.9795,9.9744],[-13.987,9.9804],[-14.0067,10.001],[-14.0217,10.0073],[-14.0323,10.009],[-14.043,10.0128],[-14.0583,10.0253],[-14.0619,10.0501],[-14.0461,10.0795],[-14.0203,10.0944],[-13.9938,10.0762],[-14.0011,10.0882],[-14.0148,10.1048],[-14.0282,10.1166],[-14.0341,10.114],[-14.0416,10.1013],[-14.0568,10.1066],[-14.0683,10.1181],[-14.0655,10.1246],[-14.0438,10.1332],[-14.027,10.154],[-13.9999,10.1997],[-14.0145,10.1928],[-14.0249,10.1837],[-14.0447,10.1622],[-14.0555,10.1553],[-14.0828,10.1429],[-14.0893,10.1383],[-14.0912,10.126],[-14.0893,10.0799],[-14.0923,10.0686],[-14.1006,10.0583],[-14.1134,10.051],[-14.1303,10.0489],[-14.1532,10.0556],[-14.1705,10.0708],[-14.1798,10.0903],[-14.1788,10.1103],[-14.1628,10.1266],[-14.1382,10.1445],[-14.1236,10.1626],[-14.1378,10.1792],[-14.1417,10.1645],[-14.1531,10.1563],[-14.1686,10.1527],[-14.1849,10.1519],[-14.1825,10.1295],[-14.2002,10.1127],[-14.2224,10.1061],[-14.2334,10.114],[-14.2366,10.1209],[-14.2436,10.1294],[-14.2506,10.1405],[-14.2538,10.1553],[-14.2505,10.1626],[-14.244,10.1689],[-14.2401,10.1751],[-14.2439,10.1823],[-14.2493,10.1843],[-14.2547,10.1828],[-14.259,10.1796],[-14.2701,10.1597],[-14.2921,10.1718],[-14.3524,10.2262],[-14.3627,10.2312],[-14.3767,10.2344],[-14.3918,10.2334],[-14.4055,10.2294],[-14.4186,10.228],[-14.432,10.2344],[-14.4525,10.2146],[-14.4626,10.2252],[-14.4659,10.2497],[-14.4661,10.272],[-14.4582,10.3043],[-14.4586,10.317],[-14.463,10.33],[-14.4686,10.3362],[-14.4753,10.3403],[-14.5373,10.4036],[-14.548,10.4256],[-14.5509,10.4466],[-14.5505,10.4721],[-14.5455,10.495],[-14.535,10.5082],[-14.5514,10.5068],[-14.5624,10.4993],[-14.5716,10.4894],[-14.5828,10.4809],[-14.5964,10.476],[-14.6135,10.4734],[-14.629,10.4763],[-14.6374,10.4877],[-14.6443,10.4877],[-14.6512,10.4751],[-14.6578,10.4796],[-14.6627,10.4941],[-14.6647,10.5116],[-14.6638,10.5292],[-14.6611,10.5426],[-14.6505,10.5703],[-14.6394,10.5666],[-14.626,10.5774],[-14.6114,10.593],[-14.5964,10.6037],[-14.6206,10.6043],[-14.6287,10.6173],[-14.6274,10.6355],[-14.6152,10.6913],[-14.6073,10.7054],[-14.5964,10.6994],[-14.5902,10.6994],[-14.5883,10.7143],[-14.5807,10.7221],[-14.5724,10.7263],[-14.5685,10.731],[-14.5555,10.7757],[-14.5313,10.8235],[-14.5174,10.829],[-14.5097,10.8425],[-14.5084,10.8585],[-14.5139,10.8719],[-14.51,10.8765],[-14.5002,10.8911],[-14.5199,10.8854],[-14.5226,10.8776],[-14.5192,10.8665],[-14.5214,10.8508],[-14.5549,10.8276],[-14.5589,10.8235],[-14.5735,10.8124],[-14.5904,10.7873],[-14.6044,10.7604],[-14.616,10.728],[-14.6297,10.7064],[-14.6579,10.6727],[-14.6861,10.6482],[-14.6998,10.6431],[-14.7057,10.6553],[-14.7037,10.6708],[-14.6981,10.6818],[-14.6894,10.689],[-14.6783,10.6931],[-14.6858,10.6947],[-14.6918,10.6945],[-14.6979,10.6918],[-14.7057,10.6863],[-14.7194,10.6994],[-14.7069,10.7392],[-14.6991,10.7563],[-14.6884,10.772],[-14.6822,10.7778],[-14.6681,10.7871],[-14.6613,10.7928],[-14.656,10.8006],[-14.6533,10.8076],[-14.6514,10.81],[-14.6566,10.812],[-14.6647,10.8166],[-14.678,10.7996],[-14.7231,10.7651],[-14.7348,10.7481],[-14.7464,10.7108],[-14.7603,10.6994],[-14.77,10.7188],[-14.7827,10.7313],[-14.7928,10.745],[-14.7951,10.7683],[-14.7816,10.7678],[-14.77,10.7769],[-14.7608,10.7904],[-14.7541,10.803],[-14.7493,10.8161],[-14.7461,10.8312],[-14.745,10.8441],[-14.7467,10.8508],[-14.7424,10.861],[-14.7405,10.8719],[-14.7589,10.8585],[-14.7653,10.8503],[-14.7677,10.8409],[-14.7726,10.8365],[-14.8013,10.8235],[-14.8087,10.8235],[-14.8097,10.8348],[-14.8091,10.8456],[-14.8065,10.8555],[-14.8013,10.8644],[-14.8073,10.8736],[-14.808,10.8825],[-14.8038,10.8908],[-14.7951,10.8986],[-14.8139,10.9003],[-14.8197,10.912],[-14.8168,10.9272],[-14.8087,10.9396],[-14.7961,10.9476],[-14.7786,10.9541],[-14.7599,10.9584],[-14.7436,10.96],[-14.7318,10.9665],[-14.725,10.9805],[-14.7206,10.9946],[-14.7163,11.001],[-14.6995,11.0055],[-14.6808,11.0275],[-14.6647,11.0358],[-14.6722,11.0414],[-14.6772,11.0476],[-14.6852,11.0637],[-14.687,11.0543],[-14.6901,11.0452],[-14.695,11.0385],[-14.7079,11.0345],[-14.7235,11.0283],[-14.7268,11.0258],[-14.7308,11.0058],[-14.7415,10.9891],[-14.7568,10.9812],[-14.7746,10.988],[-14.7794,10.9833],[-14.7846,10.9811],[-14.8013,10.9805],[-14.7955,10.9997],[-14.8013,11.0119],[-14.8107,11.0145],[-14.8155,11.0047],[-14.8435,10.9675],[-14.8746,10.9733],[-14.8944,11.0303],[-14.9186,11.029],[-14.9015,11.0117],[-14.8988,10.9932],[-14.9041,10.9755],[-14.9111,10.96],[-14.932,10.9757],[-14.9439,10.98],[-14.9596,10.9805],[-14.9264,10.9556],[-14.9144,10.9423],[-14.9111,10.9259],[-14.9209,10.9077],[-14.9398,10.8891],[-14.9581,10.8762],[-14.9664,10.875],[-14.9685,10.8779],[-14.9732,10.8789],[-14.9779,10.8779],[-14.9801,10.875],[-14.979,10.8688],[-14.9742,10.8593],[-14.9732,10.8542],[-14.9732,10.8201],[-14.969,10.8144],[-14.9596,10.81],[-14.9502,10.8038],[-14.9459,10.7928],[-14.9477,10.7876],[-14.9596,10.7683],[-14.9775,10.777],[-15.0139,10.7826],[-15.0316,10.7928],[-15.0526,10.8144],[-15.0694,10.8371],[-15.0795,10.8587],[-15.0811,10.8782],[-15.0743,10.8969],[-15.0589,10.916],[-15.0516,10.9196],[-15.0319,10.9255],[-15.0278,10.9293],[-15.0267,10.9367],[-15.0236,10.9436],[-15.0194,10.9495],[-15.0148,10.9538],[-15.0148,10.96],[-15.0193,10.9597],[-15.0203,10.9614],[-15.021,10.9675],[-14.9926,10.9962],[-14.9591,11.0358],[-14.8631,11.2186],[-14.8432,11.2972],[-14.8282,11.3348],[-14.729,11.478],[-14.7111,11.4976],[-14.6868,11.5107],[-14.6454,11.5151],[-14.5623,11.5056],[-14.5209,11.5129],[-14.3392,11.6106],[-14.3265,11.6206],[-14.3198,11.6305],[-14.3082,11.6545],[-14.3004,11.6632],[-14.2897,11.6689],[-14.2845,11.6682],[-14.2787,11.6651],[-14.195,11.6597],[-14.172,11.6628],[-14.1618,11.6609],[-14.1531,11.6548],[-14.1445,11.6474],[-14.1349,11.6418],[-14.1186,11.638],[-14.1047,11.6386],[-14.0746,11.6437],[-14.0588,11.644],[-14.0151,11.6371],[-13.9965,11.6438],[-13.9534,11.6697],[-13.9454,11.6757],[-13.9237,11.665],[-13.9036,11.6654],[-13.8864,11.6756],[-13.8735,11.6945],[-13.8707,11.7041],[-13.8685,11.727],[-13.873,11.7384],[-13.8701,11.7437],[-13.855,11.7434],[-13.8463,11.7373],[-13.843,11.7173],[-13.8346,11.7121],[-13.8201,11.7081],[-13.8195,11.7017],[-13.8217,11.6942],[-13.8158,11.6868],[-13.7957,11.684],[-13.77,11.6887],[-13.7458,11.6982],[-13.7299,11.7098],[-13.7248,11.7231],[-13.7196,11.7661],[-13.7194,11.784],[-13.7346,11.9019],[-13.7313,11.9434],[-13.7226,11.9839],[-13.7239,12.0028],[-13.7349,12.0193],[-13.7444,12.0239],[-13.7796,12.0293],[-13.7959,12.0363],[-13.8078,12.0443],[-13.8296,12.0681],[-13.8352,12.0778],[-13.8377,12.0854],[-13.8424,12.0913],[-13.8697,12.1007],[-13.8798,12.1077],[-13.8993,12.1262],[-13.9184,12.1378],[-13.9387,12.1443],[-13.9649,12.1479],[-13.9725,12.1516],[-13.9684,12.1626],[-13.9683,12.184],[-13.9657,12.1942],[-13.9439,12.2186],[-13.8832,12.2464],[-13.859,12.266],[-13.84,12.2771],[-13.8126,12.2836],[-13.7957,12.2787],[-13.8086,12.2561],[-13.7408,12.2569],[-13.7118,12.2675],[-13.695,12.2929],[-13.691,12.3193],[-13.683,12.3387],[-13.682,12.3503],[-13.6852,12.3792],[-13.6841,12.392],[-13.682,12.4003],[-13.6644,12.4415],[-13.6607,12.4587],[-13.6634,12.4758],[-13.6747,12.4961],[-13.7251,12.5581],[-13.7346,12.5853],[-13.7363,12.6076],[-13.7283,12.6734],[-13.4048,12.6618],[-13.3566,12.6489],[-13.352,12.647],[-13.3434,12.641],[-13.3386,12.6392],[-13.3328,12.6396],[-13.3277,12.6449],[-13.3229,12.6465],[-13.2929,12.6527],[-13.2841,12.6533],[-13.2757,12.6511],[-13.2634,12.6432],[-13.2547,12.6418],[-13.246,12.6432],[-13.2291,12.6478],[-13.2215,12.6484],[-13.216,12.6457],[-13.2065,12.6357],[-13.2019,12.6334],[-13.1852,12.6378],[-13.1763,12.6377],[-13.1692,12.6388],[-13.1626,12.6381],[-13.1547,12.6328],[-13.1453,12.6439],[-13.1273,12.6348],[-13.109,12.6354],[-13.0917,12.6382],[-13.0765,12.6359],[-13.0636,12.6223],[-13.0593,12.6035],[-13.0604,12.5834],[-13.0642,12.5662],[-13.0791,12.5322],[-13.0827,12.5157],[-13.0783,12.4962],[-13.0667,12.4801],[-13.052,12.4723],[-13.0346,12.4706],[-13.0152,12.4727],[-12.9974,12.4659],[-12.981,12.467],[-12.9695,12.4768],[-12.9662,12.4961],[-12.9495,12.5359],[-12.9131,12.5363],[-12.874,12.5164],[-12.8492,12.495],[-12.8513,12.4844],[-12.8491,12.4758],[-12.8386,12.4664],[-12.8291,12.4628],[-12.7994,12.4606],[-12.7835,12.4531],[-12.7792,12.4433],[-12.7733,12.4351],[-12.7527,12.4324],[-12.6881,12.436],[-12.6675,12.4337],[-12.648,12.4258],[-12.6316,12.4127],[-12.6034,12.3819],[-12.5981,12.3724],[-12.5973,12.3654],[-12.5937,12.3616],[-12.5794,12.3612],[-12.5706,12.3637],[-12.5415,12.3795],[-12.5219,12.3869],[-12.5051,12.3903],[-12.4878,12.3895],[-12.4668,12.3845],[-12.4234,12.3691],[-12.4055,12.3565],[-12.3771,12.3137],[-12.3609,12.3056],[-12.192,12.3488],[-12.155,12.369],[-12.1219,12.3987],[-12.104,12.4074],[-12.0792,12.4081],[-12.0189,12.3884],[-11.9976,12.3864],[-11.9843,12.389],[-11.9463,12.4094],[-11.9352,12.417],[-11.9309,12.4187],[-11.9239,12.4188],[-11.9206,12.416],[-11.8602,12.3911],[-11.8396,12.3867],[-11.7578,12.3833],[-11.72,12.3895],[-11.6431,12.4176],[-11.6015,12.4252],[-11.5154,12.4316],[-11.4816,12.4282],[-11.416,12.405],[-11.3884,12.4039],[-11.3886,12.3845],[-11.4076,12.3819],[-11.4317,12.383],[-11.4472,12.3745],[-11.4515,12.3521],[-11.4449,12.3125],[-11.4446,12.2895],[-11.4632,12.25],[-11.4917,12.2209],[-11.5078,12.1916],[-11.4896,12.1512],[-11.4708,12.1346],[-11.4096,12.1079],[-11.3917,12.0937],[-11.3513,12.0404],[-11.3347,12.0262],[-11.3151,12.0133],[-11.2947,12.0031],[-11.275,11.9963],[-11.2555,11.9962],[-11.2233,12.0093],[-11.207,12.0102],[-11.1912,12.0144],[-11.1763,12.0295],[-11.1656,12.0486],[-11.1594,12.0775],[-11.1527,12.0809],[-11.1442,12.0813],[-11.1363,12.0851],[-11.1221,12.1073],[-11.1166,12.1137],[-11.0843,12.1366],[-11.0728,12.1495],[-11.0598,12.1924],[-11.0523,12.2025],[-11.0388,12.2053],[-11.0155,12.2044],[-10.972,12.2186],[-10.9521,12.2195],[-10.9277,12.213],[-10.9098,12.2001],[-10.8696,12.1384],[-10.8464,12.1214],[-10.8229,12.1105],[-10.8049,12.096],[-10.7985,12.0681],[-10.8012,12.0592],[-10.811,12.0415],[-10.8124,12.0334],[-10.8078,12.0228],[-10.781,11.9962],[-10.7403,11.9199],[-10.7114,11.8904],[-10.67,11.892],[-10.6551,11.899],[-10.6452,11.9084],[-10.6342,11.9254],[-10.6253,11.9439],[-10.6215,11.9577],[-10.6138,11.9677],[-10.5957,11.9799],[-10.575,11.9903],[-10.5595,11.9952],[-10.5665,12.0173],[-10.5554,12.0293],[-10.5354,12.0387],[-10.5151,12.0529],[-10.5149,12.0601],[-10.5177,12.0707],[-10.5173,12.0803],[-10.508,12.0846],[-10.5044,12.0884],[-10.5127,12.1085],[-10.5116,12.1181],[-10.4935,12.1244],[-10.4457,12.1207],[-10.436,12.1352],[-10.4289,12.1434],[-10.3946,12.1716],[-10.3814,12.1801],[-10.3748,12.1748],[-10.3682,12.1715],[-10.3534,12.1665],[-10.3541,12.1809],[-10.3484,12.1848],[-10.3393,12.1855],[-10.3299,12.1904],[-10.3256,12.1998],[-10.3236,12.202],[-10.3165,12.1969],[-10.3136,12.1911],[-10.311,12.191],[-10.305,12.2029],[-10.2669,12.2178],[-10.259,12.2138],[-10.2541,12.2072],[-10.2478,12.2011],[-10.2149,12.1946],[-10.1798,12.1782],[-10.1602,12.1745],[-10.1358,12.1755],[-10.1287,12.1745],[-10.1188,12.1702],[-10.1052,12.1586],[-10.0973,12.1537],[-10.087,12.1506],[-10.0704,12.1499],[-10.0602,12.1475],[-10.0481,12.1414],[-10.0277,12.1257],[-10.0155,12.1199],[-9.9964,12.1141],[-9.9616,12.096],[-9.9415,12.0928],[-9.9232,12.0876],[-9.8888,12.0606],[-9.8707,12.0521],[-9.8611,12.0519],[-9.8407,12.055],[-9.8337,12.0551],[-9.823,12.0509],[-9.8068,12.0384],[-9.7966,12.0323],[-9.7786,12.0267],[-9.723,12.0254],[-9.6988,12.051],[-9.6863,12.0682],[-9.6815,12.0808],[-9.6837,12.1015],[-9.6823,12.1185],[-9.6751,12.134],[-9.66,12.1498],[-9.6282,12.1702],[-9.5156,12.2071],[-9.4959,12.2247],[-9.4796,12.2358],[-9.4389,12.2548],[-9.4215,12.2571],[-9.3602,12.2466],[-9.3368,12.2698],[-9.3319,12.2828],[-9.335,12.3065],[-9.3218,12.3102],[-9.3129,12.3261],[-9.3085,12.345],[-9.3092,12.3577],[-9.3148,12.3627],[-9.3316,12.3663],[-9.3392,12.3706],[-9.3439,12.3801],[-9.3445,12.389],[-9.3472,12.3965],[-9.3747,12.4111],[-9.3928,12.428],[-9.4073,12.4451],[-9.4126,12.4554],[-9.3982,12.4732],[-9.3509,12.4846],[-9.3342,12.4963],[-9.3273,12.4975],[-9.3215,12.4966],[-9.3082,12.489],[-9.2941,12.4838],[-9.2864,12.4881],[-9.2789,12.4944],[-9.2659,12.4952],[-9.1895,12.4792],[-9.1473,12.4655],[-8.9938,12.3875],[-8.9759,12.3687],[-8.9647,12.3463],[-8.9631,12.3242],[-8.9721,12.302],[-8.9853,12.2821],[-8.9959,12.261],[-8.9976,12.2348],[-8.9943,12.2248],[-8.9845,12.2089],[-8.9812,12.1989],[-8.9738,12.1876],[-8.9617,12.188],[-8.942,12.1958],[-8.927,12.1874],[-8.9139,12.1699],[-8.906,12.1477],[-8.907,12.1254],[-8.922,12.086],[-8.9263,12.0643],[-8.9221,12.0454],[-8.9037,12.0304],[-8.8817,12.0292],[-8.8588,12.0318],[-8.838,12.0282],[-8.8198,12.0127],[-8.8155,11.9957],[-8.8164,11.9768],[-8.8149,11.9554],[-8.81,11.9444],[-8.8032,11.9349],[-8.7978,11.9251],[-8.797,11.9132],[-8.8472,11.6579],[-8.8285,11.6592],[-8.8117,11.6517],[-8.7952,11.6419],[-8.7772,11.6359],[-8.7565,11.6388],[-8.7404,11.6462],[-8.7265,11.6495],[-8.7129,11.6401],[-8.6907,11.568],[-8.6873,11.55],[-8.679,11.5298],[-8.668,11.5109],[-8.6568,11.4964],[-8.6022,11.4721],[-8.5752,11.4703],[-8.5496,11.4901],[-8.544,11.4776],[-8.5355,11.4381],[-8.5276,11.4234],[-8.5158,11.419],[-8.4881,11.4182],[-8.4277,11.4001],[-8.3976,11.3859],[-8.3753,11.3677],[-8.3934,11.363],[-8.4141,11.3535],[-8.4261,11.3405],[-8.418,11.3255],[-8.3996,11.3222],[-8.3813,11.3251],[-8.371,11.3206],[-8.3767,11.2947],[-8.3884,11.2814],[-8.4067,11.2753],[-8.4269,11.2742],[-8.4446,11.2763],[-8.4832,11.2849],[-8.4926,11.2778],[-8.5031,11.2554],[-8.5023,11.2516],[-8.4992,11.2467],[-8.497,11.2407],[-8.4988,11.2335],[-8.5021,11.2312],[-8.5121,11.2303],[-8.5156,11.2291],[-8.5241,11.2238],[-8.5446,11.215],[-8.5518,11.2107],[-8.5639,11.1934],[-8.5697,11.1578],[-8.5782,11.1421],[-8.587,11.1375],[-8.6072,11.1372],[-8.6154,11.1341],[-8.6246,11.122],[-8.6249,11.1122],[-8.6224,11.1026],[-8.6231,11.0913],[-8.6337,11.0713],[-8.6798,11.0252],[-8.6887,11.0126],[-8.6969,10.996],[-8.7007,10.9785],[-8.6962,10.9627],[-8.6809,10.9523],[-8.6652,10.957],[-8.648,10.9658],[-8.6282,10.9678],[-8.6114,10.9651],[-8.5933,10.9647],[-8.5756,10.9667],[-8.5595,10.9716],[-8.5416,10.9838],[-8.5316,10.999],[-8.5058,11.0528],[-8.4891,11.0527],[-8.469,11.0464],[-8.4487,11.0471],[-8.4382,11.0497],[-8.4291,11.0483],[-8.4105,11.0419],[-8.4006,11.0433],[-8.3813,11.0539],[-8.3693,11.0542],[-8.3473,11.0431],[-8.3266,11.0238],[-8.3111,11.0008],[-8.3051,10.9782],[-8.3036,10.8749],[-8.3059,10.8563],[-8.3118,10.8472],[-8.3189,10.8395],[-8.3398,10.7839],[-8.3419,10.7632],[-8.3156,10.7531],[-8.3111,10.7353],[-8.2955,10.5374],[-8.2844,10.5112],[-8.2539,10.4698],[-8.2289,10.4234],[-8.2106,10.4141],[-8.189,10.4136],[-8.166,10.4181],[-8.1506,10.4245],[-8.1421,10.4296],[-8.1354,10.4273],[-8.1254,10.4117],[-8.1221,10.3995],[-8.1209,10.373],[-8.1155,10.3602],[-8.0961,10.3467],[-8.0701,10.3419],[-8.0157,10.3393],[-7.9963,10.3283],[-7.9815,10.307],[-7.9712,10.2818],[-7.9646,10.2589],[-7.9626,10.2333],[-7.968,10.21],[-7.9897,10.162],[-7.9998,10.1507],[-8.0072,10.1383],[-8.0123,10.1249],[-8.0157,10.1104],[-8.0349,10.0858],[-8.0579,10.0731],[-8.1088,10.0542],[-8.1275,10.0371],[-8.1477,10.01],[-8.1585,9.9849],[-8.1489,9.9739],[-8.1363,9.9694],[-8.1401,9.9597],[-8.1524,9.95],[-8.1738,9.9419],[-8.1747,9.933],[-8.1715,9.9228],[-8.1679,9.9147],[-8.1645,9.9127],[-8.159,9.9124],[-8.1532,9.9109],[-8.1495,9.9053],[-8.1472,9.8879],[-8.1457,9.8825],[-8.1473,9.8801],[-8.1521,9.8788],[-8.1551,9.8752],[-8.151,9.8661],[-8.1469,9.8647],[-8.1281,9.8662],[-8.1235,9.8449],[-8.1616,9.5756],[-8.161,9.5536],[-8.1576,9.5309],[-8.1529,9.5131],[-8.1454,9.4971],[-8.0872,9.4154],[-8.0704,9.3975],[-8.0541,9.3891],[-8.0323,9.3846],[-8.0099,9.3836],[-7.9916,9.3853],[-7.9711,9.393],[-7.933,9.4143],[-7.9119,9.4187],[-7.8706,9.4186],[-7.8654,9.4099],[-7.8917,9.3302],[-7.8949,9.3071],[-7.9306,9.2203],[-7.9296,9.1839],[-7.8787,9.1639],[-7.8663,9.166],[-7.8562,9.1702],[-7.8479,9.1686],[-7.8342,9.143],[-7.8234,9.132],[-7.801,9.1148],[-7.7594,9.0917],[-7.7468,9.0764],[-7.7642,9.0636],[-7.7881,9.06],[-7.8078,9.06],[-7.827,9.0578],[-7.9167,9.0123],[-7.9318,8.9966],[-7.9416,8.9722],[-7.9465,8.9486],[-7.9507,8.8995],[-7.9689,8.8128],[-7.9589,8.782],[-7.9131,8.7682],[-7.891,8.7657],[-7.831,8.7477],[-7.8266,8.7482],[-7.8161,8.7535],[-7.8102,8.7534],[-7.8037,8.7491],[-7.7957,8.7365],[-7.7909,8.7309],[-7.7721,8.7145],[-7.7651,8.7061],[-7.7412,8.6629],[-7.7318,8.6521],[-7.7039,8.6335],[-7.6968,8.6248],[-7.6916,8.6061],[-7.694,8.5678],[-7.6917,8.5467],[-7.6792,8.5051],[-7.6793,8.4877],[-7.6865,8.4626],[-7.6896,8.4387],[-7.6832,8.4173],[-7.6624,8.3749],[-7.7207,8.3685],[-7.7483,8.3723],[-7.771,8.3865],[-7.8024,8.4492],[-7.8238,8.4779],[-7.8457,8.4743],[-7.8494,8.4592],[-7.8468,8.4427],[-7.8486,8.4286],[-7.8656,8.4209],[-7.8823,8.4215],[-7.8986,8.4263],[-7.9129,8.4342],[-7.9238,8.4438],[-7.9316,8.457],[-7.937,8.4714],[-7.9439,8.4846],[-7.9563,8.4944],[-7.9705,8.497],[-7.9859,8.4949],[-8.0157,8.4872],[-8.0249,8.4886],[-8.0425,8.4872],[-8.0507,8.4877],[-8.0572,8.4909],[-8.0681,8.5005],[-8.0766,8.5033],[-8.0969,8.5017],[-8.1301,8.4886],[-8.1505,8.4865],[-8.1863,8.4937],[-8.2003,8.4918],[-8.2489,8.4536],[-8.2544,8.4465],[-8.2543,8.4345],[-8.2491,8.4238],[-8.2421,8.4128],[-8.2369,8.4001],[-8.2353,8.3795],[-8.2476,8.3226],[-8.2476,8.3038],[-8.2453,8.2851],[-8.2483,8.2736],[-8.2646,8.2565],[-8.266,8.246],[-8.1829,8.1917],[-8.0855,8.162],[-8.076,8.1634],[-8.0157,8.1839],[-8.0033,8.184],[-8.0024,8.1743],[-8.0083,8.1604],[-8.0157,8.1482],[-8.0217,8.1177],[-8.0213,8.1027],[-8.0157,8.0885],[-7.9971,8.0773],[-7.9804,8.059],[-7.9682,8.037],[-7.9626,8.0152],[-7.9804,8.0166],[-7.9925,8.0242],[-8.0022,8.0324],[-8.012,8.0356],[-8.0538,8.0288],[-8.0691,8.0293],[-8.0672,8.0208],[-8.0689,7.9966],[-8.0791,7.9577],[-8.1289,7.8826],[-8.1312,7.8424],[-8.1238,7.832],[-8.1014,7.8128],[-8.0963,7.8019],[-8.0983,7.7919],[-8.1039,7.7863],[-8.1105,7.7824],[-8.1151,7.7769],[-8.119,7.7608],[-8.1226,7.7275],[-8.1274,7.713],[-8.1595,7.6763],[-8.1602,7.6722],[-8.1574,7.6624],[-8.158,7.6582],[-8.1621,7.6542],[-8.1734,7.6478],[-8.1779,7.6439],[-8.1979,7.6186],[-8.2026,7.6072],[-8.203,7.5996],[-8.1998,7.5834],[-8.2002,7.5763],[-8.229,7.5443],[-8.2654,7.5601],[-8.3032,7.5893],[-8.3368,7.5978],[-8.3723,7.5873],[-8.3909,7.5858],[-8.4148,7.6129],[-8.44,7.5999],[-8.4854,7.558],[-8.5156,7.5772],[-8.5478,7.6008],[-8.5665,7.6234],[-8.5728,7.6507],[-8.5674,7.6882],[-8.6866,7.6944],[-8.6945,7.6744],[-8.7207,7.6427],[-8.7276,7.622],[-8.73,7.5874],[-8.7315,7.5818],[-8.7374,7.5714],[-8.7392,7.5657],[-8.738,7.5595],[-8.7295,7.5564],[-8.7268,7.5518],[-8.7257,7.5285],[-8.7296,7.5087],[-8.7395,7.4906],[-8.7565,7.4724],[-8.7844,7.4557],[-8.7904,7.4508],[-8.794,7.4415],[-8.7955,7.4211],[-8.7992,7.4122],[-8.8077,7.4045],[-8.824,7.3998],[-8.8334,7.3939],[-8.8516,7.3715],[-8.8606,7.3576],[-8.8654,7.3469],[-8.8633,7.3299],[-8.8559,7.3119],[-8.8514,7.2929],[-8.8578,7.273],[-8.8689,7.2666],[-8.9122,7.2502],[-8.9254,7.2486],[-8.9444,7.2787],[-8.9572,7.2865],[-8.9626,7.263],[-8.9731,7.2677],[-8.9777,7.2662],[-8.981,7.2506],[-8.9855,7.25],[-9.0076,7.2435],[-9.0157,7.2389],[-9.0329,7.2403],[-9.0467,7.2327],[-9.0593,7.2214],[-9.0731,7.2113],[-9.0864,7.2072],[-9.1004,7.2048],[-9.1139,7.2004],[-9.1254,7.1902],[-9.1161,7.2247],[-9.1196,7.238],[-9.1392,7.2479],[-9.1469,7.2541],[-9.1475,7.2714],[-9.1531,7.2755],[-9.1754,7.2746],[-9.1815,7.2757],[-9.2063,7.2984],[-9.2199,7.361],[-9.2343,7.3813],[-9.2497,7.3831],[-9.2838,7.3741],[-9.2995,7.3766],[-9.3055,7.3835],[-9.3124,7.4033],[-9.3194,7.412],[-9.3278,7.4171],[-9.335,7.4197],[-9.3492,7.4216],[-9.366,7.4211],[-9.3752,7.4193],[-9.3792,7.4158],[-9.3814,7.405],[-9.3865,7.4017],[-9.3923,7.3999],[-9.4074,7.3781],[-9.4187,7.3878],[-9.4381,7.4216],[-9.4493,7.4051],[-9.4784,7.3769],[-9.4866,7.3728],[-9.4907,7.376],[-9.4797,7.3854],[-9.4735,7.3956],[-9.4709,7.4074],[-9.4702,7.421],[-9.4662,7.4334],[-9.4567,7.4431],[-9.4361,7.4586],[-9.4134,7.4923],[-9.4049,7.5136],[-9.4087,7.5274],[-9.3908,7.5482],[-9.3837,7.5595],[-9.3788,7.5863],[-9.373,7.6013],[-9.3644,7.6143],[-9.3535,7.6224],[-9.3747,7.6469],[-9.3762,7.6806],[-9.3664,7.7162],[-9.3555,7.7419],[-9.381,7.7744],[-9.3897,7.7915],[-9.4157,7.8244],[-9.4387,7.8662],[-9.4484,7.9078],[-9.446,7.9501],[-9.4331,7.9935],[-9.4317,7.9966],[-9.4246,8.0058],[-9.4223,8.0158],[-9.4241,8.0262],[-9.4293,8.0369],[-9.4409,8.0506],[-9.4515,8.0518],[-9.4622,8.0435],[-9.4742,8.0288],[-9.4728,8.0404],[-9.4619,8.0584],[-9.4598,8.0688],[-9.478,8.1413],[-9.4781,8.1528],[-9.4814,8.1647],[-9.4913,8.17],[-9.5156,8.1749],[-9.5301,8.1855],[-9.5319,8.2123],[-9.5254,8.2408],[-9.5156,8.2566],[-9.5108,8.261],[-9.5092,8.2656],[-9.5108,8.2701],[-9.5156,8.2744],[-9.5212,8.2844],[-9.5251,8.2954],[-9.5302,8.306],[-9.5394,8.3146],[-9.5285,8.3257],[-9.5223,8.3307],[-9.4991,8.3435],[-9.5044,8.3462],[-9.5115,8.3538],[-9.5291,8.3663],[-9.5792,8.3873],[-9.592,8.4051],[-9.6002,8.4109],[-9.6121,8.3963],[-9.6195,8.3927],[-9.6281,8.3916],[-9.6361,8.3926],[-9.6534,8.3921],[-9.6684,8.3887],[-9.6773,8.3915],[-9.6759,8.4096],[-9.6665,8.4224],[-9.6534,8.4314],[-9.6451,8.4434],[-9.6505,8.4648],[-9.6635,8.4779],[-9.6835,8.4871],[-9.7033,8.4873],[-9.7155,8.4733],[-9.718,8.4527],[-9.7182,8.4383],[-9.7221,8.4356],[-9.7359,8.4505],[-9.7463,8.4681],[-9.7509,8.4859],[-9.7573,8.5327],[-9.763,8.55],[-9.7736,8.563],[-9.7906,8.5654],[-9.79,8.5531],[-9.7948,8.5445],[-9.802,8.5372],[-9.8089,8.5285],[-9.8088,8.5205],[-9.8055,8.5128],[-9.8068,8.5063],[-9.8316,8.499],[-9.8497,8.4897],[-9.8586,8.4871],[-9.8635,8.4935],[-9.8682,8.4981],[-9.8728,8.5004],[-9.8919,8.4959],[-9.9114,8.4957],[-9.9281,8.4934],[-9.9442,8.4883],[-9.9611,8.4796],[-10.0002,8.4493],[-10.0404,8.4257],[-10.0617,8.4222],[-10.075,8.4266],[-10.0794,8.44],[-10.0693,8.4869],[-10.0761,8.5015],[-10.0911,8.5101],[-10.148,8.5243],[-10.1649,8.5246],[-10.1818,8.5196],[-10.2156,8.4866],[-10.2324,8.4771],[-10.2403,8.4937],[-10.2608,8.4859],[-10.2713,8.4841],[-10.2822,8.4846],[-10.2937,8.4831],[-10.3022,8.4859],[-10.3102,8.4904],[-10.3376,8.4986],[-10.3443,8.4991],[-10.3747,8.4948],[-10.3898,8.4891],[-10.4024,8.481],[-10.4141,8.4702],[-10.4238,8.4566],[-10.448,8.4076],[-10.4602,8.3922],[-10.5193,8.3348],[-10.5544,8.3118],[-10.5727,8.3046],[-10.5833,8.3069],[-10.6119,8.3253],[-10.6267,8.3315],[-10.6598,8.3333],[-10.6882,8.3241],[-10.7079,8.3031],[-10.7152,8.2696],[-10.7353,8.2873],[-10.725,8.3199],[-10.702,8.3536],[-10.6838,8.3749],[-10.6691,8.3991],[-10.6547,8.4855],[-10.6439,8.4869],[-10.6411,8.4948],[-10.6412,8.5066],[-10.6389,8.5199],[-10.6319,8.532],[-10.6165,8.5465],[-10.6005,8.5757],[-10.5846,8.5968],[-10.5654,8.6128],[-10.5452,8.6168],[-10.5221,8.6186],[-10.5033,8.6316],[-10.4897,8.651],[-10.4819,8.6725],[-10.5248,8.7295],[-10.5302,8.7392],[-10.5453,8.75],[-10.5863,8.8041],[-10.5963,8.8112],[-10.5997,8.8154],[-10.6002,8.819],[-10.5991,8.8296],[-10.5994,8.834],[-10.6085,8.8623],[-10.6101,8.8723],[-10.6119,8.9451],[-10.6071,8.9798],[-10.5918,9.0391],[-10.5941,9.0541],[-10.606,9.0638],[-10.6293,9.0704],[-10.6691,9.0744],[-10.7104,9.073],[-10.7463,9.0838],[-10.7535,9.1201],[-10.7426,9.1633],[-10.7247,9.1945],[-10.715,9.2014],[-10.7038,9.2063],[-10.6932,9.2128],[-10.6852,9.2245],[-10.6839,9.2338],[-10.6879,9.2507],[-10.6881,9.2593],[-10.6835,9.2718],[-10.6777,9.2829],[-10.6738,9.294],[-10.6751,9.3065],[-10.7178,9.3433],[-10.7282,9.3482],[-10.7415,9.3571],[-10.7535,9.3676],[-10.7655,9.3852],[-10.7748,9.3873],[-10.7854,9.3872],[-10.7952,9.3885],[-10.8017,9.3873],[-10.8194,9.3881],[-10.8318,9.3921],[-10.8222,9.4009],[-10.8115,9.4083],[-10.8134,9.4139],[-10.8291,9.4239],[-10.844,9.4403],[-10.8549,9.4553],[-10.8591,9.473],[-10.8537,9.4979],[-10.8526,9.5121],[-10.8602,9.5185],[-10.8706,9.5234],[-10.8777,9.5327],[-10.8828,9.5602],[-10.8863,9.5684],[-10.896,9.5783],[-10.9217,9.5959],[-10.9291,9.6057],[-10.9358,9.6319],[-10.9401,9.6397],[-10.9466,9.6448],[-10.9629,9.6508],[-10.9685,9.6542],[-10.9746,9.6638],[-10.9863,9.6978],[-11.0101,9.7427],[-11.0449,9.7871],[-11.086,9.8262],[-11.1603,9.8728],[-11.1677,9.8845],[-11.1813,9.9504],[-11.1885,9.9726],[-11.1996,9.9822],[-11.2134,9.9834],[-11.2473,9.9934],[-11.2727,9.996],[-11.9101,9.9925],[-11.915,9.9315],[-11.9218,9.9222],[-12.1413,9.8749],[-12.1583,9.8756],[-12.1748,9.8792],[-12.1936,9.8861],[-12.2174,9.9006],[-12.2356,9.9168],[-12.2536,9.9284],[-12.2767,9.9293],[-12.427,9.8976],[-12.4723,9.8813],[-12.5083,9.8604],[-12.5143,9.8513],[-12.515,9.8451],[-12.5137,9.8383],[-12.5136,9.8278],[-12.5273,9.7536],[-12.5229,9.7394],[-12.5225,9.7345],[-12.5256,9.7321],[-12.5357,9.7328],[-12.5377,9.7279],[-12.5375,9.7157],[-12.5388,9.7119],[-12.542,9.7113],[-12.5731,9.6926],[-12.5823,9.6834],[-12.5986,9.6549],[-12.6016,9.6517],[-12.6028,9.6094],[-12.6068,9.6007],[-12.6149,9.6001],[-12.6246,9.6013],[-12.6338,9.5979],[-12.6386,9.5894],[-12.6473,9.5566],[-12.6499,9.5521],[-12.6521,9.5494],[-12.6553,9.5477],[-12.661,9.546],[-12.6686,9.5424],[-12.6693,9.5382],[-12.6673,9.5337],[-12.6675,9.5287],[-12.7016,9.4202],[-12.7062,9.4139],[-12.7165,9.4044],[-12.719,9.3984],[-12.7229,9.3921],[-12.7278,9.3931],[-12.7329,9.3965],[-12.7372,9.3972],[-12.7541,9.3878],[-12.7598,9.3828],[-12.7678,9.3723],[-12.7676,9.3644],[-12.7636,9.3553],[-12.7642,9.3477],[-12.7779,9.3438],[-12.7953,9.3351],[-12.8191,9.2958],[-12.8358,9.282],[-12.8569,9.2785],[-12.8761,9.2798],[-12.8956,9.2785],[-12.9175,9.267],[-12.937,9.2871],[-12.9579,9.2724],[-12.9738,9.2416],[-12.9784,9.2128],[-12.9739,9.2028],[-12.9602,9.1861],[-12.9592,9.1778],[-12.9628,9.1767],[-12.9785,9.1752],[-12.9842,9.1723],[-12.9938,9.1587],[-13.002,9.1441],[-13.0152,9.1128],[-13.0289,9.096],[-13.047,9.0845],[-13.0856,9.066],[-13.1159,9.0439],[-13.1311,9.0415],[-13.1538,9.0493],[-13.1918,9.073],[-13.2075,9.0767],[-13.2336,9.0721],[-13.2774,9.0586],[-13.3011,9.0415]]]}}