{"type":"Feature","bbox":[13.5015,42.4163,19.4078,46.547],"properties":{"iso":"HR","name":"Croatia","name_de":"Kroatien","key":"HR"},"geometry":{"type":"MultiPolygon","coordinates":[[[[16.4911,46.5151],[16.5211,46.4985],[16.5643,46.4799],[16.5776,46.4707],[16.5837,46.4707],[16.5881,46.4796],[16.5943,46.483],[16.6021,46.482],[16.6111,46.4781],[16.6377,46.4745],[16.6593,46.4642],[16.6775,46.4487],[16.6936,46.4296],[16.7124,46.4127],[16.7429,46.3996],[16.7551,46.3819],[16.7619,46.3819],[16.7693,46.3961],[16.7765,46.3929],[16.8034,46.3887],[16.8079,46.3874],[16.8123,46.385],[16.8209,46.3781],[16.8275,46.374],[16.8302,46.3774],[16.8324,46.3819],[16.8377,46.3819],[16.8505,46.3731],[16.8655,46.3591],[16.8751,46.3429],[16.8718,46.3272],[16.8892,46.2922],[16.8961,46.2863],[16.9033,46.2819],[16.9407,46.2515],[16.9653,46.2195],[16.9748,46.2106],[17.028,46.1805],[17.0363,46.173],[17.0413,46.1622],[17.0529,46.1535],[17.1012,46.1282],[17.1162,46.1231],[17.1973,46.1212],[17.2086,46.1166],[17.2486,46.0802],[17.2541,46.0708],[17.2666,46.0388],[17.269,46.0287],[17.2759,46.012],[17.2915,46.0079],[17.3078,46.0064],[17.3168,45.9977],[17.3094,45.9966],[17.297,45.9926],[17.2901,45.9915],[17.2901,45.9846],[17.3048,45.981],[17.3166,45.9738],[17.3271,45.972],[17.3379,45.9846],[17.3437,45.9675],[17.3421,45.9586],[17.3453,45.9557],[17.3653,45.9567],[17.3892,45.9631],[17.3997,45.9599],[17.4062,45.9437],[17.4116,45.9466],[17.4182,45.953],[17.4267,45.9567],[17.5119,45.9539],[17.5543,45.9478],[17.5911,45.9362],[17.6384,45.9013],[17.6458,45.8918],[17.6469,45.8837],[17.6521,45.8688],[17.6532,45.8574],[17.6565,45.8454],[17.6647,45.8416],[17.6873,45.8406],[17.8092,45.8144],[17.8382,45.7996],[17.858,45.7759],[17.8581,45.7717],[17.8701,45.7735],[17.8757,45.7807],[17.8805,45.7885],[17.8898,45.7921],[17.9754,45.7921],[18.0805,45.7717],[18.0921,45.7717],[18.1029,45.7746],[18.1202,45.7834],[18.1289,45.7854],[18.2112,45.7854],[18.2298,45.7812],[18.2605,45.7651],[18.2833,45.7649],[18.3005,45.7518],[18.3177,45.7473],[18.3349,45.752],[18.3512,45.7584],[18.3672,45.7582],[18.3838,45.7432],[18.3976,45.7413],[18.4044,45.7418],[18.4117,45.7432],[18.4307,45.7536],[18.4655,45.7837],[18.4818,45.7914],[18.5042,45.784],[18.5303,45.7908],[18.5735,45.8167],[18.5855,45.8269],[18.6074,45.8567],[18.6222,45.8684],[18.6236,45.8687],[18.6263,45.8748],[18.6293,45.8869],[18.633,45.8919],[18.6556,45.9076],[18.6743,45.9104],[18.7238,45.8984],[18.7633,45.884],[18.7755,45.8828],[18.786,45.8869],[18.7904,45.8939],[18.7949,45.903],[18.8049,45.9136],[18.8178,45.9055],[18.8283,45.9057],[18.8454,45.9139],[18.8654,45.9181],[18.8766,45.9224],[18.8865,45.9304],[18.9013,45.9312],[18.907,45.9157],[18.8898,45.9079],[18.8729,45.8952],[18.8935,45.8839],[18.904,45.8757],[18.907,45.868],[18.8998,45.8614],[18.8871,45.8595],[18.8553,45.8574],[18.8524,45.8301],[18.8504,45.8242],[18.8467,45.82],[18.845,45.8157],[18.8487,45.8096],[18.864,45.7985],[18.8711,45.79],[18.9002,45.7649],[18.9048,45.7498],[18.909,45.7194],[18.9173,45.7066],[18.9311,45.6989],[18.9481,45.692],[18.9627,45.6831],[18.9685,45.6687],[18.9629,45.6601],[18.9354,45.6334],[18.9245,45.6277],[18.9124,45.6192],[18.9082,45.6004],[18.907,45.5817],[18.9036,45.5731],[18.9121,45.5682],[18.932,45.5455],[18.9417,45.5389],[18.9602,45.5391],[18.9731,45.5463],[18.9832,45.5547],[19.0006,45.5612],[19.0092,45.5655],[19.0181,45.5674],[19.0272,45.5626],[19.0365,45.5495],[19.0409,45.545],[19.051,45.5389],[19.0678,45.5334],[19.0823,45.5312],[19.0951,45.5261],[19.1063,45.5116],[19.0772,45.4916],[19.0096,45.4987],[18.9964,45.4738],[18.9971,45.4555],[19.0023,45.4437],[19.0164,45.4336],[19.0313,45.4162],[19.0226,45.4024],[18.9974,45.3998],[18.9755,45.3911],[18.9775,45.3712],[18.9957,45.3623],[19.0075,45.3595],[19.0142,45.3534],[19.0302,45.3451],[19.0529,45.3454],[19.0672,45.3434],[19.083,45.3392],[19.0962,45.3291],[19.1041,45.2987],[19.1585,45.2762],[19.1972,45.2649],[19.2599,45.243],[19.2898,45.2363],[19.3781,45.2296],[19.3973,45.2233],[19.4078,45.2031],[19.4054,45.1797],[19.3907,45.1693],[19.3043,45.1665],[19.2994,45.169],[19.2914,45.1777],[19.2867,45.1795],[19.2795,45.1772],[19.2728,45.1684],[19.2678,45.1658],[19.2259,45.1619],[19.2045,45.1629],[19.1853,45.168],[19.1746,45.1758],[19.1558,45.195],[19.1439,45.1995],[19.1219,45.1958],[19.1288,45.1811],[19.1417,45.1622],[19.1377,45.146],[19.1161,45.1429],[19.0601,45.1469],[19.0449,45.1372],[19.0462,45.1284],[19.0542,45.1206],[19.0641,45.1136],[19.0715,45.1071],[19.0792,45.0946],[19.0823,45.0849],[19.086,45.0609],[19.0943,45.0314],[19.0954,45.0209],[19.0932,45.0115],[19.0885,44.9995],[19.0852,44.9873],[19.0872,44.9771],[19.0981,44.97],[19.1186,44.9755],[19.1276,44.9684],[19.1317,44.9532],[19.1245,44.9459],[19.1131,44.9424],[19.1036,44.9382],[19.0879,44.9193],[19.0787,44.9109],[19.0667,44.9057],[19.0521,44.907],[19.0319,44.9226],[19.0184,44.9257],[18.9914,44.9149],[18.9943,44.8948],[19.0158,44.8656],[19.005,44.8633],[18.8896,44.8612],[18.8587,44.8685],[18.8178,44.8875],[18.7834,44.9137],[18.7726,44.9425],[18.7799,44.9522],[18.8016,44.964],[18.8046,44.9738],[18.803,44.9773],[18.7958,44.9851],[18.7946,44.9954],[18.7918,45.0015],[18.789,45.0057],[18.7849,45.0085],[18.778,45.0103],[18.7501,45.0122],[18.7383,45.0159],[18.7263,45.0261],[18.689,45.0802],[18.6841,45.0848],[18.6782,45.0874],[18.6713,45.0869],[18.6661,45.083],[18.6612,45.0711],[18.6581,45.0663],[18.6487,45.0627],[18.6405,45.0654],[18.6336,45.072],[18.6279,45.08],[18.6211,45.0931],[18.6167,45.0977],[18.6091,45.1001],[18.6025,45.0993],[18.5886,45.0932],[18.5818,45.0914],[18.5738,45.0916],[18.5577,45.0944],[18.5496,45.0948],[18.5349,45.0904],[18.5344,45.0815],[18.5393,45.0693],[18.5411,45.0553],[18.517,45.0559],[18.4908,45.0628],[18.4661,45.074],[18.4293,45.1022],[18.412,45.1124],[18.3929,45.1186],[18.3223,45.1229],[18.3074,45.1275],[18.262,45.1507],[18.2379,45.1575],[18.2133,45.1538],[18.2023,45.1441],[18.2001,45.1316],[18.1993,45.119],[18.1925,45.1085],[18.1749,45.1008],[18.1537,45.0976],[18.1318,45.0979],[18.1124,45.1006],[18.0903,45.108],[18.035,45.1433],[18.0191,45.1494],[18.0035,45.1493],[17.9885,45.1438],[17.9277,45.092],[17.9112,45.0811],[17.9026,45.0778],[17.8752,45.074],[17.8457,45.0653],[17.8357,45.0644],[17.8156,45.0702],[17.7975,45.082],[17.7414,45.1333],[17.7145,45.152],[17.6847,45.164],[17.6516,45.1654],[17.63,45.1573],[17.5931,45.1296],[17.5724,45.1204],[17.5614,45.1194],[17.5395,45.121],[17.4893,45.1163],[17.4819,45.1144],[17.487,45.1209],[17.4962,45.1417],[17.4723,45.1328],[17.4604,45.1313],[17.4478,45.1343],[17.455,45.1406],[17.4581,45.1461],[17.4569,45.1518],[17.4512,45.1585],[17.4433,45.1621],[17.4388,45.1581],[17.4341,45.1486],[17.4008,45.141],[17.3824,45.1396],[17.3686,45.1451],[17.3594,45.1507],[17.3265,45.1659],[17.3078,45.1714],[17.269,45.1895],[17.2497,45.1599],[17.2455,45.1554],[17.1978,45.153],[17.1871,45.1486],[17.0984,45.1777],[17.0557,45.2004],[17.0363,45.2305],[17.0083,45.2162],[17.0125,45.2245],[17.0136,45.2306],[17.012,45.2365],[17.0083,45.2442],[16.9987,45.2314],[16.9881,45.2365],[16.9759,45.2472],[16.9612,45.2509],[16.9653,45.2442],[16.968,45.2373],[16.9473,45.2357],[16.9415,45.2412],[16.9421,45.2498],[16.9407,45.2578],[16.9326,45.2788],[16.9244,45.2845],[16.897,45.2681],[16.894,45.2635],[16.8858,45.2552],[16.8754,45.247],[16.8673,45.2434],[16.8617,45.2322],[16.8519,45.2274],[16.8408,45.224],[16.8307,45.217],[16.8251,45.205],[16.8258,45.1964],[16.8242,45.1891],[16.8117,45.1812],[16.7863,45.1788],[16.587,45.2209],[16.5289,45.2223],[16.4819,45.1995],[16.4492,45.1481],[16.4355,45.1329],[16.4248,45.1273],[16.3985,45.1214],[16.3892,45.1168],[16.3818,45.1076],[16.382,45.102],[16.384,45.0954],[16.382,45.0837],[16.3773,45.0756],[16.357,45.0486],[16.3406,45.0059],[16.3162,45.0012],[16.2793,45.0072],[16.2412,45.019],[16.213,45.0315],[16.1215,45.0962],[16.1041,45.1125],[16.0828,45.1516],[16.0675,45.1696],[16.055,45.1764],[16.0331,45.1797],[16.0244,45.1843],[16.025,45.1889],[16.0287,45.1963],[16.0292,45.205],[16.0204,45.2139],[16.0085,45.2182],[15.9975,45.2185],[15.9746,45.2154],[15.8789,45.2172],[15.8248,45.211],[15.7923,45.1898],[15.781,45.168],[15.78,45.1603],[15.7838,45.1009],[15.7794,45.0854],[15.756,45.0422],[15.7556,45.0236],[15.7674,44.9932],[15.7636,44.9755],[15.7388,44.9449],[15.7309,44.9272],[15.7343,44.9021],[15.748,44.882],[15.764,44.864],[15.7734,44.845],[15.7687,44.8273],[15.7512,44.8216],[15.7306,44.817],[15.7161,44.8032],[15.7173,44.7865],[15.7285,44.7691],[15.7537,44.7393],[15.7593,44.7342],[15.7828,44.7226],[15.7905,44.7134],[15.797,44.7033],[15.8057,44.6967],[15.8204,44.6983],[15.83,44.7005],[15.8478,44.7015],[15.8564,44.7036],[15.8639,44.71],[15.8692,44.7186],[15.8763,44.7248],[15.8888,44.7242],[15.8956,44.7186],[15.9054,44.6901],[15.9131,44.6845],[15.9215,44.6861],[15.9298,44.6895],[15.9374,44.689],[15.9481,44.6781],[15.9556,44.6532],[15.969,44.6392],[15.9791,44.6344],[15.9916,44.6314],[16.016,44.629],[16.0283,44.6247],[16.0362,44.6153],[16.0411,44.6028],[16.0447,44.5894],[16.0349,44.5854],[16.0305,44.5722],[16.0139,44.557],[16.0061,44.541],[16.0266,44.5252],[16.0473,44.5233],[16.0837,44.5349],[16.1049,44.5324],[16.1165,44.5215],[16.1231,44.5039],[16.1283,44.4843],[16.1529,44.4351],[16.1597,44.4161],[16.1599,44.4007],[16.1539,44.3936],[16.1454,44.3896],[16.1388,44.3854],[16.1383,44.3776],[16.142,44.3808],[16.1532,44.3804],[16.1713,44.3771],[16.1921,44.3674],[16.2029,44.3598],[16.2059,44.3498],[16.2032,44.3331],[16.1997,44.3247],[16.1895,44.3085],[16.1866,44.2976],[16.1876,44.2824],[16.1971,44.2512],[16.2158,44.2082],[16.2321,44.191],[16.2755,44.1574],[16.29,44.1391],[16.3122,44.1],[16.3269,44.0824],[16.3461,44.0685],[16.3574,44.0622],[16.3672,44.0581],[16.3779,44.0574],[16.404,44.0588],[16.414,44.0558],[16.4269,44.0405],[16.4315,44.0258],[16.4396,44.014],[16.4835,44.0025],[16.501,43.9927],[16.5165,43.9795],[16.5558,43.9375],[16.6048,43.9011],[16.6374,43.8684],[16.6786,43.8407],[16.6861,43.8261],[16.6898,43.8093],[16.6982,43.7881],[16.7126,43.7715],[16.8238,43.7073],[16.9819,43.5897],[17.0305,43.5485],[17.0846,43.5132],[17.1428,43.4893],[17.2395,43.4784],[17.2705,43.4632],[17.2864,43.4374],[17.2676,43.3533],[17.2899,43.3034],[17.3287,43.2604],[17.3694,43.2326],[17.3897,43.2231],[17.4002,43.216],[17.4068,43.2054],[17.4152,43.185],[17.4268,43.1657],[17.4421,43.1524],[17.5874,43.0821],[17.6284,43.0466],[17.6593,42.9934],[17.6627,42.9657],[17.6345,42.9504],[17.5807,42.9421],[17.5497,42.9553],[17.5345,42.9506],[17.5156,42.9589],[17.4985,42.9722],[17.4883,42.9826],[17.4746,43.0012],[17.4709,43.0134],[17.4792,43.0224],[17.502,43.031],[17.488,43.035],[17.4717,43.0305],[17.4534,43.0228],[17.4336,43.0174],[17.4407,43.02],[17.4602,43.031],[17.4407,43.0323],[17.4323,43.0362],[17.4261,43.0446],[17.4336,43.0515],[17.4274,43.0609],[17.4261,43.0652],[17.4046,43.0515],[17.3709,43.0739],[17.3163,43.1273],[17.1724,43.1818],[17.138,43.2023],[17.1213,43.2088],[17.1139,43.2132],[17.1078,43.2264],[17.1003,43.2317],[17.0902,43.2352],[17.0801,43.2365],[17.0735,43.239],[17.0667,43.2449],[17.0563,43.257],[17.0495,43.278],[17.0451,43.2798],[17.0324,43.2824],[17.0282,43.2842],[16.9339,43.3736],[16.906,43.3873],[16.8958,43.3946],[16.8885,43.4012],[16.8806,43.406],[16.7525,43.4195],[16.6939,43.4383],[16.6258,43.449],[16.5348,43.4971],[16.5335,43.4997],[16.5326,43.5043],[16.53,43.5088],[16.5247,43.5108],[16.5186,43.5097],[16.5095,43.5051],[16.5044,43.504],[16.4666,43.5108],[16.3914,43.5108],[16.3914,43.5176],[16.4114,43.5178],[16.4343,43.5219],[16.4559,43.529],[16.4734,43.5382],[16.4568,43.5459],[16.4338,43.5498],[16.3368,43.5512],[16.325,43.5485],[16.3063,43.5399],[16.2993,43.5382],[16.2811,43.536],[16.2396,43.5266],[16.1177,43.5245],[16.1177,43.5176],[16.1507,43.5114],[16.1649,43.5041],[16.1724,43.4897],[16.1108,43.4897],[16.1131,43.4789],[16.0985,43.48],[16.0662,43.4897],[16.0396,43.4908],[16.0283,43.4949],[16.014,43.504],[16.0078,43.504],[16.0078,43.4971],[15.9958,43.5034],[15.9735,43.5031],[15.9663,43.5108],[15.9655,43.5091],[15.9656,43.5062],[15.9644,43.5039],[15.9595,43.504],[15.9613,43.515],[15.9666,43.5169],[15.9744,43.5168],[15.9837,43.5211],[15.987,43.5273],[15.9823,43.5373],[15.9873,43.5449],[15.971,43.5435],[15.9651,43.5419],[15.9595,43.5382],[15.9562,43.5479],[15.9481,43.5529],[15.9253,43.5586],[15.9419,43.56],[15.9442,43.5667],[15.9354,43.5729],[15.918,43.5729],[15.918,43.5791],[15.9321,43.5866],[15.9221,43.592],[15.918,43.5933],[15.9253,43.5996],[15.918,43.6064],[15.9253,43.6138],[15.919,43.6287],[15.9295,43.6342],[15.9663,43.6337],[15.9663,43.6412],[15.9214,43.6481],[15.9048,43.648],[15.9168,43.6536],[15.9266,43.653],[15.9348,43.6498],[15.9424,43.648],[15.953,43.6509],[15.9514,43.6574],[15.9426,43.6643],[15.9321,43.6684],[15.946,43.6723],[15.9524,43.6798],[15.9505,43.6885],[15.939,43.6964],[15.9397,43.6776],[15.9312,43.6765],[15.8929,43.7005],[15.886,43.7003],[15.8708,43.7032],[15.8645,43.7082],[15.8508,43.7239],[15.844,43.7299],[15.8035,43.7464],[15.7922,43.7545],[15.771,43.76],[15.7063,43.7634],[15.6926,43.7746],[15.6821,43.7972],[15.6585,43.8051],[15.633,43.8105],[15.6174,43.8255],[15.6473,43.8159],[15.6631,43.813],[15.6789,43.8118],[15.6789,43.8193],[15.673,43.8212],[15.669,43.821],[15.6658,43.8193],[15.6388,43.8361],[15.5741,43.8595],[15.5452,43.8776],[15.5249,43.9005],[15.5122,43.9111],[15.4977,43.9155],[15.4824,43.9171],[15.4736,43.9191],[15.4661,43.9217],[15.4551,43.928],[15.4497,43.9344],[15.4456,43.9414],[15.4387,43.9497],[15.384,43.9974],[15.3581,44.0257],[15.3396,44.0394],[15.3195,44.0452],[15.2776,44.0823],[15.2783,44.0856],[15.2332,44.1209],[15.222,44.1256],[15.2129,44.131],[15.2088,44.1382],[15.2127,44.1483],[15.197,44.1565],[15.1445,44.1955],[15.1604,44.2132],[15.1522,44.2353],[15.1315,44.2546],[15.1104,44.2644],[15.1222,44.2748],[15.1406,44.2825],[15.1576,44.2803],[15.1651,44.2612],[15.1766,44.2499],[15.1979,44.2573],[15.2078,44.2728],[15.1854,44.2854],[15.193,44.2869],[15.1946,44.2888],[15.1991,44.2854],[15.2066,44.2854],[15.2012,44.2975],[15.1981,44.3017],[15.2476,44.278],[15.2684,44.2585],[15.2796,44.2518],[15.2953,44.2507],[15.2817,44.2854],[15.2905,44.2874],[15.2949,44.2902],[15.3027,44.2991],[15.2893,44.3022],[15.2782,44.3098],[15.2689,44.3205],[15.2612,44.3326],[15.2805,44.3275],[15.3086,44.3093],[15.3369,44.3017],[15.4085,44.2723],[15.4245,44.268],[15.5036,44.2592],[15.5252,44.2607],[15.5287,44.2718],[15.5148,44.2785],[15.4492,44.2854],[15.4442,44.2885],[15.4141,44.3166],[15.406,44.3206],[15.308,44.3544],[15.155,44.4667],[15.1081,44.5139],[15.0801,44.5361],[15.052,44.5455],[15.0479,44.5504],[15.0153,44.5691],[15.0073,44.5697],[15.0013,44.5785],[14.9014,44.6902],[14.8838,44.7236],[14.8952,44.7362],[14.8939,44.751],[14.8875,44.7684],[14.8838,44.7888],[14.8814,44.8441],[14.8838,44.8615],[14.9053,44.9246],[14.9149,44.9399],[14.9216,44.9588],[14.9143,44.9814],[14.8565,45.0765],[14.8528,45.0937],[14.8425,45.1055],[14.8274,45.114],[14.766,45.1374],[14.6579,45.1966],[14.6067,45.2444],[14.5928,45.2498],[14.576,45.2623],[14.5686,45.2759],[14.5822,45.2853],[14.5708,45.2936],[14.5344,45.3127],[14.5523,45.2977],[14.5554,45.2959],[14.5519,45.2881],[14.5433,45.2838],[14.5331,45.2839],[14.5244,45.2888],[14.5105,45.2998],[14.4024,45.3386],[14.3636,45.3446],[14.3459,45.3516],[14.3298,45.354],[14.3115,45.344],[14.2908,45.3205],[14.272,45.2901],[14.2585,45.2558],[14.2477,45.1865],[14.2326,45.1494],[14.2092,45.1264],[14.1794,45.1345],[14.1953,45.1206],[14.1931,45.1056],[14.1804,45.0915],[14.1644,45.0799],[14.1582,45.0873],[14.1543,45.0789],[14.1541,45.072],[14.1582,45.0532],[14.1475,45.0573],[14.1439,45.0594],[14.1439,45.0532],[14.1594,45.0404],[14.1662,45.0189],[14.1637,44.9958],[14.1514,44.9775],[14.1399,44.9713],[14.1318,44.9721],[14.1242,44.9754],[14.1133,44.9775],[14.1013,44.9743],[14.0897,44.9665],[14.0804,44.9573],[14.0757,44.9495],[14.0689,44.9495],[14.0716,44.9691],[14.0796,44.9779],[14.0838,44.9864],[14.0757,45.0048],[14.0545,45.0185],[14.0515,45.026],[14.0531,45.0331],[14.0519,45.038],[14.0403,45.039],[14.0441,45.0272],[14.0399,45.0094],[14.0443,45.0014],[14.0547,44.9965],[14.0641,44.9958],[14.0715,44.9934],[14.0757,44.9837],[14.0648,44.9761],[14.0508,44.9565],[14.0444,44.9514],[14.0403,44.9564],[14.0347,44.9564],[14.0387,44.9494],[14.0402,44.9411],[14.0391,44.9318],[14.0347,44.9223],[14.0266,44.9241],[14.0225,44.9235],[14.0226,44.9206],[14.0278,44.9154],[14.0278,44.9086],[14.0227,44.9083],[14.0215,44.9074],[14.0217,44.9051],[14.0205,44.9011],[14.0106,44.9053],[13.9885,44.9008],[13.9727,44.9011],[13.9807,44.8966],[13.9858,44.8921],[13.993,44.8813],[13.9862,44.8813],[13.9862,44.8751],[13.993,44.8751],[13.993,44.8676],[13.9858,44.8642],[13.9813,44.8598],[13.9727,44.8472],[13.9746,44.8397],[13.9763,44.8375],[13.9762,44.8349],[13.9727,44.8266],[13.9832,44.8271],[13.9894,44.8251],[14.0,44.8131],[13.9639,44.8118],[13.9463,44.8138],[13.9317,44.8205],[13.9295,44.8153],[13.9248,44.8131],[13.9187,44.829],[13.9097,44.831],[13.8996,44.829],[13.8901,44.8335],[13.8831,44.8266],[13.8939,44.8234],[13.9043,44.8173],[13.9094,44.809],[13.9045,44.7988],[13.9134,44.7824],[13.918,44.7783],[13.9032,44.7724],[13.8994,44.782],[13.8997,44.7983],[13.897,44.8131],[13.8897,44.8171],[13.86,44.8257],[13.8491,44.8266],[13.856,44.8403],[13.8423,44.8403],[13.8491,44.8472],[13.8423,44.8546],[13.8314,44.8527],[13.8157,44.8566],[13.7993,44.8646],[13.7871,44.8751],[13.7946,44.8813],[13.8049,44.8706],[13.8196,44.8677],[13.8338,44.8734],[13.8423,44.8881],[13.8153,44.8835],[13.8049,44.8854],[13.7946,44.895],[13.7946,44.9011],[13.7987,44.904],[13.8035,44.9106],[13.8081,44.9154],[13.7967,44.9249],[13.7741,44.9638],[13.7328,44.9949],[13.6813,45.0464],[13.6733,45.0511],[13.6608,45.0612],[13.6438,45.0705],[13.6232,45.0731],[13.6277,45.0794],[13.6331,45.0894],[13.6369,45.0936],[13.6126,45.1179],[13.6385,45.13],[13.7262,45.1345],[13.7067,45.1411],[13.6836,45.1434],[13.6369,45.142],[13.612,45.1368],[13.6006,45.1373],[13.596,45.1454],[13.5979,45.156],[13.6006,45.1646],[13.5994,45.1713],[13.5891,45.1755],[13.5938,45.1823],[13.5944,45.1873],[13.5906,45.1918],[13.5823,45.1966],[13.5823,45.2028],[13.5905,45.2065],[13.5945,45.2126],[13.5942,45.2208],[13.5891,45.2307],[13.5957,45.2405],[13.5952,45.2508],[13.5882,45.2596],[13.5755,45.2649],[13.5788,45.271],[13.5842,45.2761],[13.5921,45.2791],[13.6027,45.2791],[13.6027,45.2853],[13.5925,45.2888],[13.5846,45.2932],[13.5789,45.299],[13.5755,45.3065],[13.5857,45.3078],[13.5945,45.3111],[13.6095,45.3201],[13.5979,45.3244],[13.5711,45.325],[13.5618,45.3264],[13.5506,45.3343],[13.5413,45.3461],[13.5405,45.3568],[13.5549,45.3611],[13.5549,45.3673],[13.5431,45.3762],[13.5134,45.4362],[13.5208,45.443],[13.5156,45.4481],[13.5178,45.4498],[13.5208,45.4573],[13.5046,45.4839],[13.5015,45.4986],[13.5071,45.5119],[13.5134,45.5119],[13.5231,45.5063],[13.5686,45.4908],[13.5895,45.4888],[13.6241,45.4627],[13.6429,45.4594],[13.7593,45.4632],[13.8065,45.4421],[13.8199,45.4326],[13.8356,45.4291],[13.889,45.4236],[13.8996,45.4292],[13.9084,45.4389],[13.923,45.449],[13.9698,45.463],[13.9826,45.4753],[13.9615,45.4931],[13.9615,45.5039],[13.965,45.511],[13.9719,45.5142],[14.014,45.508],[14.0283,45.5027],[14.0416,45.4932],[14.0667,45.4803],[14.0929,45.4739],[14.1197,45.4729],[14.1455,45.4762],[14.1931,45.4919],[14.2187,45.4972],[14.2406,45.4933],[14.2804,45.4811],[14.3268,45.4749],[14.3728,45.4778],[14.4112,45.4932],[14.4297,45.5054],[14.4689,45.5256],[14.4821,45.5424],[14.4874,45.5566],[14.4923,45.5834],[14.4986,45.5962],[14.5079,45.6058],[14.5331,45.6257],[14.5436,45.6364],[14.5561,45.6567],[14.5639,45.6627],[14.5809,45.6678],[14.5919,45.6634],[14.5941,45.648],[14.5929,45.6297],[14.5939,45.6162],[14.6031,45.6036],[14.616,45.5941],[14.6503,45.5748],[14.664,45.57],[14.6698,45.5646],[14.6717,45.5568],[14.6682,45.5391],[14.6685,45.534],[14.6883,45.522],[14.7812,45.4933],[14.7972,45.4652],[14.8388,45.459],[14.8816,45.4698],[14.9008,45.4931],[14.9044,45.5144],[14.9226,45.5149],[14.9454,45.5045],[14.9626,45.4931],[14.9863,45.4909],[14.9975,45.4872],[15.0074,45.4808],[15.0562,45.4799],[15.1393,45.43],[15.1842,45.4256],[15.2816,45.451],[15.314,45.4505],[15.3252,45.4528],[15.3339,45.4585],[15.3518,45.4761],[15.3614,45.482],[15.311,45.5059],[15.2967,45.523],[15.2886,45.5446],[15.2826,45.5706],[15.2767,45.5827],[15.2696,45.5934],[15.2686,45.6017],[15.2811,45.6062],[15.2879,45.6103],[15.2916,45.6183],[15.2974,45.6257],[15.3267,45.6323],[15.3391,45.6369],[15.3531,45.6403],[15.3738,45.6402],[15.3683,45.649],[15.352,45.6681],[15.3308,45.6846],[15.3271,45.6832],[15.315,45.6809],[15.3104,45.6782],[15.3091,45.6742],[15.3049,45.6721],[15.2919,45.6756],[15.283,45.6801],[15.2778,45.685],[15.2678,45.6985],[15.2582,45.7051],[15.2509,45.7077],[15.2489,45.7118],[15.255,45.7235],[15.2635,45.7304],[15.3038,45.7461],[15.4291,45.7753],[15.4411,45.7822],[15.4395,45.7917],[15.4356,45.8021],[15.4403,45.8115],[15.4513,45.8151],[15.4625,45.8142],[15.4739,45.8116],[15.4854,45.8102],[15.4953,45.8127],[15.5139,45.8234],[15.5235,45.8268],[15.5873,45.8192],[15.6261,45.8202],[15.6456,45.8241],[15.6661,45.8317],[15.6761,45.8417],[15.6755,45.856],[15.6637,45.8761],[15.6594,45.8888],[15.6634,45.9008],[15.6704,45.9127],[15.6756,45.9252],[15.6771,45.9418],[15.6742,45.9932],[15.682,46.0135],[15.6936,46.0258],[15.698,46.0362],[15.6839,46.0511],[15.6717,46.0574],[15.6437,46.0655],[15.6315,46.0706],[15.6038,46.091],[15.5899,46.1135],[15.59,46.1387],[15.6043,46.167],[15.6228,46.1917],[15.6398,46.2077],[15.6613,46.2153],[15.7498,46.2108],[15.7689,46.2193],[15.7891,46.2431],[15.8031,46.2505],[15.8183,46.2555],[15.8342,46.2584],[15.8837,46.2594],[15.9487,46.2842],[15.982,46.2883],[15.9984,46.2915],[16.0192,46.2988],[16.0389,46.3084],[16.0524,46.3186],[16.0596,46.3323],[16.0597,46.3453],[16.0574,46.3597],[16.058,46.3775],[16.0943,46.3723],[16.106,46.3737],[16.1155,46.3793],[16.1232,46.3869],[16.1316,46.3931],[16.1439,46.3947],[16.1536,46.3914],[16.1775,46.3756],[16.1918,46.3698],[16.2087,46.3671],[16.2171,46.3674],[16.2528,46.3734],[16.2756,46.3732],[16.2803,46.3762],[16.2787,46.3874],[16.2741,46.3921],[16.257,46.3999],[16.2509,46.405],[16.2482,46.4133],[16.2501,46.4294],[16.2494,46.4375],[16.2375,46.4651],[16.2337,46.4787],[16.2349,46.4933],[16.2639,46.5159],[16.2954,46.5244],[16.3107,46.531],[16.33,46.5355],[16.3441,46.547],[16.3517,46.5395],[16.3579,46.547],[16.3695,46.5406],[16.3822,46.5394],[16.3949,46.5401],[16.4063,46.5395],[16.4152,46.5356],[16.432,46.5232],[16.4404,46.519],[16.4491,46.5183],[16.4708,46.5203],[16.4813,46.519],[16.4911,46.5151]]],[[[18.4374,42.5592],[18.442,42.543],[18.4364,42.5108],[18.4371,42.4934],[18.4443,42.4779],[18.4549,42.4647],[18.4677,42.4534],[18.4929,42.4424],[18.4978,42.4312],[18.4964,42.4163],[18.4745,42.4414],[18.4609,42.4479],[18.4276,42.4553],[18.4131,42.4619],[18.4119,42.476],[18.2389,42.5591],[18.2206,42.5792],[18.2209,42.5883],[18.2232,42.6021],[18.2235,42.6147],[18.2175,42.6201],[18.166,42.6269],[18.1248,42.6446],[18.1087,42.6474],[18.0916,42.6483],[18.076,42.6513],[18.064,42.6576],[18.0574,42.6679],[18.0773,42.6679],[18.0559,42.683],[18.0479,42.6906],[18.0432,42.7021],[18.0283,42.6913],[18.0033,42.7007],[17.9612,42.7294],[17.9016,42.7519],[17.8807,42.7687],[17.8928,42.7908],[17.8651,42.7899],[17.835,42.8072],[17.8067,42.8119],[17.8001,42.811],[17.7923,42.8085],[17.7857,42.8052],[17.7801,42.7969],[17.7738,42.7986],[17.7654,42.8044],[17.7588,42.8076],[17.7351,42.822],[17.721,42.8262],[17.7396,42.8131],[17.7487,42.8034],[17.7619,42.7787],[17.7619,42.7743],[17.7551,42.7709],[17.7487,42.772],[17.7487,42.7781],[17.7503,42.7857],[17.7489,42.7908],[17.7288,42.8008],[17.6786,42.8162],[17.6335,42.8229],[17.5801,42.8413],[17.5252,42.8486],[17.4404,42.8734],[17.4427,42.8986],[17.4172,42.9112],[17.3509,42.9218],[17.2713,42.9634],[17.2375,42.9714],[17.2215,42.9798],[17.2139,42.9826],[17.2019,42.9843],[17.0954,42.9844],[17.0625,42.9901],[17.0462,42.9951],[17.0275,43.0036],[17.0179,43.0138],[17.0282,43.0242],[17.0282,43.031],[17.0188,43.0341],[17.013,43.0392],[17.0081,43.0453],[17.0016,43.0515],[17.0231,43.0487],[17.0557,43.029],[17.0733,43.0242],[17.1587,43.031],[17.2402,43.0228],[17.3905,42.9777],[17.4258,42.9609],[17.4541,42.9423],[17.4557,42.9384],[17.4568,42.927],[17.4602,42.9218],[17.4649,42.9207],[17.4766,42.9224],[17.4815,42.9218],[17.4993,42.9119],[17.5077,42.9091],[17.5189,42.9081],[17.5226,42.9102],[17.5221,42.9196],[17.5261,42.9218],[17.5321,42.9206],[17.5415,42.9155],[17.5589,42.9128],[17.5681,42.9091],[17.5838,42.9007],[17.6229,42.8913],[17.6416,42.8845],[17.6527,42.8734],[17.6589,42.8734],[17.6737,42.8751],[17.716,42.8442],[17.7415,42.8393],[17.7109,42.8566],[17.7019,42.8685],[17.7136,42.8808],[17.7074,42.887],[17.6787,42.8794],[17.6533,42.8909],[17.6659,42.9052],[17.6795,42.9157],[17.7016,42.9195],[17.7236,42.9162],[17.7655,42.9041],[17.7867,42.9014],[17.7947,42.9046],[17.8027,42.9096],[17.8118,42.9099],[17.8233,42.8984],[17.8262,42.8886],[17.8251,42.8645],[17.8272,42.8531],[17.8585,42.817],[17.8694,42.8118],[17.9045,42.8045],[17.9289,42.7908],[17.9719,42.755],[17.9953,42.7404],[18.0494,42.7148],[18.2241,42.6281],[18.2571,42.6149],[18.3116,42.6012],[18.3387,42.6025],[18.3496,42.5963],[18.3705,42.5736],[18.3853,42.5665],[18.421,42.5636],[18.4374,42.5592]]],[[[16.8582,42.784],[16.9211,42.7772],[16.9339,42.7709],[16.9364,42.7555],[16.9247,42.7414],[16.9054,42.7318],[16.8849,42.7294],[16.8822,42.7364],[16.874,42.7376],[16.8582,42.743],[16.8477,42.7336],[16.8343,42.7309],[16.8208,42.7361],[16.8098,42.7498],[16.8223,42.7551],[16.8241,42.7641],[16.8189,42.7694],[16.8098,42.7635],[16.803,42.7635],[16.8102,42.7753],[16.8281,42.781],[16.8582,42.784]]],[[[17.6589,42.743],[17.6794,42.7299],[17.7305,42.7134],[17.7489,42.6946],[17.3859,42.7709],[17.3738,42.76],[17.3538,42.7667],[17.3345,42.7803],[17.3237,42.7908],[17.3416,42.7934],[17.3738,42.8026],[17.3923,42.8017],[17.382,42.7978],[17.3716,42.7908],[17.3827,42.7917],[17.3933,42.7912],[17.4035,42.7888],[17.4124,42.784],[17.4199,42.7908],[17.4369,42.7826],[17.486,42.7822],[17.5237,42.7648],[17.5745,42.7575],[17.5975,42.7498],[17.5935,42.7472],[17.5907,42.743],[17.6482,42.7385],[17.6589,42.743]]],[[[17.1318,42.9695],[17.1487,42.9526],[17.1643,42.9415],[17.2002,42.9218],[17.1934,42.9143],[17.1743,42.922],[17.1531,42.9211],[17.1074,42.9143],[17.0153,42.9286],[16.9729,42.9267],[16.8987,42.9058],[16.8514,42.9007],[16.7398,42.9172],[16.6914,42.9282],[16.6729,42.9267],[16.6726,42.9218],[16.6554,42.9263],[16.6384,42.9348],[16.7068,42.9621],[16.7068,42.9695],[16.6878,42.9739],[16.6483,42.9778],[16.6317,42.9826],[16.6527,42.9924],[16.6748,42.9929],[16.6975,42.9902],[16.7205,42.9901],[16.7414,42.9806],[16.7686,42.9722],[16.8241,42.9621],[16.8787,42.9621],[16.8926,42.9653],[16.9155,42.9745],[17.0321,42.9826],[17.1111,42.9643],[17.1318,42.9695]]],[[[16.2412,43.072],[16.2455,43.0764],[16.2498,43.0794],[16.2534,43.0779],[16.2549,43.0685],[16.2521,43.0624],[16.2455,43.0578],[16.2337,43.0515],[16.2219,43.0403],[16.2103,43.0333],[16.1213,43.0134],[16.0872,43.0115],[16.0632,43.0174],[16.0845,43.0259],[16.0871,43.0414],[16.0791,43.0533],[16.0693,43.0515],[16.0632,43.0515],[16.0488,43.0652],[16.053,43.0683],[16.0573,43.0702],[16.0693,43.072],[16.0925,43.0827],[16.1302,43.0884],[16.1702,43.0877],[16.1997,43.0794],[16.1929,43.072],[16.2158,43.0792],[16.2282,43.0787],[16.2412,43.072]]],[[[16.6931,43.1273],[16.6702,43.1255],[16.5598,43.143],[16.4754,43.1665],[16.4452,43.1708],[16.4273,43.1799],[16.416,43.1818],[16.3716,43.1955],[16.3758,43.1999],[16.3804,43.202],[16.3914,43.2023],[16.404,43.1972],[16.4153,43.1985],[16.4398,43.2098],[16.4461,43.2023],[16.4491,43.2065],[16.4603,43.216],[16.4603,43.2098],[16.4964,43.2181],[16.527,43.2043],[16.5549,43.1879],[16.5833,43.1887],[16.5559,43.2098],[16.5293,43.2216],[16.5205,43.229],[16.535,43.2277],[16.5628,43.229],[16.5833,43.216],[16.5871,43.2163],[16.5969,43.2217],[16.6038,43.2235],[16.6164,43.2235],[16.646,43.2199],[16.6595,43.216],[16.6663,43.2108],[16.6725,43.203],[16.6807,43.1948],[16.6931,43.1887],[16.6936,43.184],[16.6922,43.1828],[16.6863,43.1818],[16.7058,43.1708],[16.7277,43.1646],[16.7512,43.1619],[16.8482,43.1623],[16.8644,43.1688],[16.8784,43.1588],[16.8967,43.1548],[16.9588,43.1524],[17.0186,43.1409],[17.1099,43.1438],[17.1553,43.1403],[17.1934,43.1273],[16.6931,43.1273]]],[[[16.5007,43.2842],[16.4219,43.3176],[16.4058,43.3327],[16.4194,43.3252],[16.4263,43.3252],[16.4268,43.3315],[16.4297,43.3325],[16.4343,43.3317],[16.4398,43.3327],[16.4343,43.3399],[16.4349,43.3464],[16.4417,43.3512],[16.4535,43.3532],[16.4397,43.3709],[16.4263,43.3941],[16.447,43.3948],[16.4535,43.3941],[16.4939,43.3823],[16.6877,43.377],[16.8098,43.3532],[16.8098,43.3464],[16.7962,43.3464],[16.8068,43.3425],[16.8163,43.3402],[16.8242,43.341],[16.8303,43.3464],[16.8394,43.3409],[16.8582,43.3252],[16.869,43.3226],[16.8777,43.3234],[16.8851,43.322],[16.8923,43.3122],[16.8796,43.2939],[16.8723,43.288],[16.8644,43.2917],[16.8462,43.2734],[16.8132,43.2678],[16.6283,43.2637],[16.564,43.2701],[16.5007,43.2842]]],[[[16.3914,43.3464],[16.376,43.3334],[16.3486,43.3387],[16.2817,43.3694],[16.2323,43.3845],[16.207,43.3873],[16.2064,43.3918],[16.2078,43.3931],[16.2132,43.3941],[16.2034,43.4],[16.2005,43.407],[16.2056,43.4129],[16.2201,43.4152],[16.277,43.4119],[16.2982,43.4036],[16.3027,43.3873],[16.3298,43.3897],[16.3486,43.3783],[16.3667,43.3612],[16.3914,43.3464]]],[[[15.6789,43.648],[15.7404,43.6275],[15.6813,43.6403],[15.672,43.6374],[15.6631,43.6457],[15.6196,43.6689],[15.6038,43.6747],[15.6113,43.6821],[15.6155,43.677],[15.6196,43.6754],[15.6502,43.673],[15.6616,43.6655],[15.6697,43.6557],[15.6789,43.648]]],[[[15.2612,43.8671],[15.2664,43.857],[15.3425,43.8118],[15.3543,43.8004],[15.3674,43.7901],[15.3957,43.7724],[15.387,43.7768],[15.328,43.7963],[15.3089,43.8056],[15.2884,43.8255],[15.2612,43.8398],[15.2479,43.849],[15.2334,43.8622],[15.2278,43.8745],[15.2407,43.8808],[15.2612,43.8671]]],[[[15.3027,43.9664],[15.2971,43.9781],[15.2702,44.0003],[15.2612,44.0111],[15.2803,44.0108],[15.2964,44.0056],[15.3499,43.9763],[15.3786,43.9717],[15.384,43.9702],[15.3866,43.9644],[15.3894,43.9477],[15.3916,43.9422],[15.3976,43.9372],[15.4111,43.9329],[15.4188,43.9291],[15.4268,43.9221],[15.4354,43.9113],[15.4427,43.8991],[15.4461,43.8875],[15.4387,43.8907],[15.4314,43.8928],[15.4151,43.8944],[15.4071,43.8961],[15.4036,43.9002],[15.4015,43.9048],[15.3977,43.9081],[15.3721,43.9139],[15.3587,43.9194],[15.3499,43.9291],[15.3543,43.9315],[15.3568,43.9354],[15.3435,43.9396],[15.3255,43.9484],[15.3096,43.9584],[15.3027,43.9664]]],[[[15.2544,44.0179],[15.2419,44.0278],[15.2323,44.0414],[15.2233,44.0503],[15.2127,44.0452],[15.2066,44.0452],[15.2053,44.0498],[15.1991,44.0588],[15.1891,44.0478],[15.1697,44.0587],[15.1488,44.0764],[15.1218,44.0922],[15.0871,44.1237],[15.0687,44.134],[15.0711,44.1385],[15.0755,44.1408],[15.0715,44.1464],[15.0625,44.1619],[15.2258,44.0662],[15.2471,44.0467],[15.2544,44.0179]]],[[[14.8428,44.1483],[14.8504,44.1522],[14.8573,44.152],[14.8638,44.1481],[14.8692,44.1405],[14.8561,44.1369],[14.8352,44.1417],[14.8198,44.153],[14.8224,44.1687],[14.8274,44.1579],[14.8355,44.151],[14.8428,44.1483]]],[[[15.1445,43.9497],[15.2168,43.9128],[15.2202,43.9012],[15.1955,43.8952],[15.1455,43.9239],[15.1333,43.9212],[15.1377,43.9179],[15.1403,43.913],[15.1445,43.9081],[15.1697,43.895],[15.1755,43.8909],[15.1834,43.8869],[15.1911,43.8875],[15.1968,43.8864],[15.1991,43.8776],[15.1945,43.8726],[15.1846,43.8771],[15.1751,43.8843],[15.1724,43.8875],[15.1365,43.903],[15.1213,43.9126],[15.1066,43.9254],[15.0669,43.9695],[15.0428,43.9904],[15.0031,44.0523],[14.9831,44.0663],[14.9551,44.0756],[14.8701,44.1408],[14.8678,44.152],[14.863,44.161],[14.8496,44.1756],[14.8552,44.1765],[14.8633,44.1756],[14.8828,44.1592],[14.9391,44.1271],[14.9442,44.1203],[14.9487,44.1112],[14.9544,44.1032],[14.9627,44.0998],[14.9763,44.0967],[14.9851,44.091],[14.9938,44.0878],[15.0073,44.093],[15.0005,44.0794],[15.0144,44.0779],[15.0227,44.0722],[15.0267,44.0623],[15.0278,44.0487],[15.0319,44.0364],[15.0414,44.0264],[15.0882,43.9897],[15.0991,43.9851],[15.1138,43.9838],[15.117,43.9788],[15.1445,43.9497]]],[[[14.877,44.5598],[14.8659,44.5664],[14.7615,44.6586],[14.7437,44.6805],[14.7337,44.7032],[14.7381,44.7031],[14.7412,44.7016],[14.78,44.6695],[14.8452,44.6005],[14.8838,44.5797],[14.8801,44.6092],[14.9041,44.61],[14.9382,44.5941],[14.9663,44.5734],[14.9891,44.5466],[15.0039,44.5361],[15.0412,44.5275],[15.0518,44.5162],[15.0617,44.5007],[15.0755,44.4841],[15.0559,44.4862],[15.0282,44.5032],[15.0073,44.5045],[15.0117,44.5149],[15.0142,44.5187],[14.9729,44.5361],[14.9529,44.5415],[14.9421,44.5474],[14.9286,44.5523],[14.9111,44.5523],[14.9111,44.5455],[14.966,44.5239],[15.048,44.4394],[15.0967,44.4152],[15.0808,44.4245],[15.065,44.4379],[15.051,44.4553],[15.0415,44.4766],[15.0833,44.4619],[15.1766,44.3913],[15.1991,44.381],[15.2132,44.3692],[15.2414,44.3511],[15.2544,44.34],[15.2351,44.3362],[15.2118,44.3461],[15.1873,44.3598],[15.1651,44.3674],[15.1651,44.3605],[15.1829,44.3579],[15.2005,44.3495],[15.2158,44.3381],[15.2271,44.3264],[15.2066,44.3264],[15.2083,44.3207],[15.2109,44.3173],[15.2202,44.3127],[15.1989,44.317],[15.1546,44.331],[15.1309,44.3326],[15.1309,44.3264],[15.1724,44.3053],[15.1724,44.2991],[15.1493,44.3032],[15.1288,44.312],[15.1112,44.3246],[15.0967,44.34],[15.0967,44.3463],[15.1104,44.3463],[15.1104,44.3537],[15.1023,44.3572],[15.0972,44.3613],[15.0892,44.3742],[15.0998,44.3736],[15.1069,44.3752],[15.1122,44.3796],[15.1172,44.3872],[15.0916,44.3994],[15.083,44.4015],[15.0736,44.4005],[15.0578,44.3942],[15.049,44.3947],[15.0383,44.4033],[15.0208,44.43],[14.9588,44.4667],[14.9497,44.4681],[14.8975,44.4909],[14.8975,44.4971],[14.9032,44.4985],[14.9186,44.5045],[14.9063,44.5209],[14.8776,44.5513],[14.877,44.5598]]],[[[14.4456,44.566],[14.5266,44.5037],[14.5344,44.4841],[14.512,44.4822],[14.485,44.5006],[14.4519,44.5319],[14.4382,44.5386],[14.4382,44.5455],[14.4592,44.5412],[14.4661,44.5386],[14.438,44.5646],[14.4226,44.5739],[14.4041,44.5797],[14.397,44.5692],[14.3866,44.5656],[14.3747,44.5676],[14.363,44.5734],[14.363,44.5797],[14.3699,44.5797],[14.3648,44.5872],[14.3826,44.6033],[14.376,44.623],[14.3494,44.6553],[14.3446,44.6685],[14.3371,44.6997],[14.3358,44.7168],[14.3557,44.7071],[14.3811,44.6986],[14.3975,44.6856],[14.3904,44.6622],[14.3952,44.6534],[14.3996,44.6375],[14.4041,44.6103],[14.41,44.601],[14.4456,44.566]]],[[[14.7405,44.7783],[14.7405,44.7705],[14.7429,44.7658],[14.7541,44.7578],[14.7409,44.7644],[14.7249,44.7676],[14.71,44.7679],[14.6995,44.7652],[14.6579,44.7988],[14.6704,44.7995],[14.6829,44.7988],[14.6948,44.7965],[14.7057,44.7925],[14.7057,44.7988],[14.7023,44.8022],[14.6995,44.8131],[14.7158,44.8032],[14.72,44.7988],[14.7268,44.7988],[14.7141,44.8184],[14.7058,44.8269],[14.6921,44.8335],[14.6898,44.8367],[14.6858,44.8472],[14.7068,44.845],[14.7268,44.8403],[14.7241,44.8444],[14.72,44.8546],[14.739,44.8534],[14.7533,44.8459],[14.7561,44.8357],[14.7405,44.8266],[14.7405,44.8205],[14.7481,44.8168],[14.7874,44.7893],[14.8115,44.7792],[14.8224,44.7714],[14.8512,44.7373],[14.8591,44.7174],[14.8496,44.7032],[14.8215,44.7206],[14.773,44.7603],[14.7405,44.7783]]],[[[14.5139,44.6622],[14.5081,44.6533],[14.5086,44.6453],[14.515,44.6422],[14.5275,44.6479],[14.5344,44.6343],[14.5274,44.6271],[14.5204,44.6215],[14.5134,44.6188],[14.5023,44.6203],[14.473,44.6203],[14.4279,44.6566],[14.3945,44.7076],[14.3972,44.7516],[14.3928,44.7525],[14.3836,44.7578],[14.3745,44.7539],[14.3682,44.7611],[14.3643,44.7744],[14.363,44.8065],[14.3616,44.816],[14.3566,44.8198],[14.346,44.8205],[14.3298,44.8339],[14.3141,44.8938],[14.2942,44.9086],[14.2962,44.9159],[14.3015,44.9223],[14.2925,44.9403],[14.3015,44.9434],[14.3252,44.9365],[14.3323,44.9322],[14.3503,44.9129],[14.3596,44.9086],[14.3771,44.9081],[14.3874,44.909],[14.3932,44.9148],[14.3972,44.9291],[14.3936,44.9348],[14.389,44.9503],[14.3903,44.9604],[14.4041,44.9495],[14.4114,44.9564],[14.3914,44.9694],[14.3767,44.9869],[14.3467,45.0476],[14.3408,45.0556],[14.2874,45.1011],[14.2785,45.1133],[14.2777,45.128],[14.2886,45.1488],[14.2996,45.1623],[14.3137,45.1724],[14.3319,45.1758],[14.3562,45.1693],[14.3641,45.1576],[14.3605,45.1176],[14.363,45.0936],[14.3696,45.0755],[14.3877,45.039],[14.4123,45.0036],[14.4177,44.998],[14.4308,44.9903],[14.4539,44.988],[14.4661,44.9837],[14.4735,44.9714],[14.471,44.9539],[14.4626,44.936],[14.4519,44.9223],[14.4592,44.9154],[14.45,44.898],[14.4485,44.8837],[14.4519,44.8509],[14.4649,44.8214],[14.4666,44.8048],[14.4519,44.7988],[14.457,44.7877],[14.4692,44.7731],[14.4729,44.7652],[14.4739,44.7545],[14.4676,44.7421],[14.4661,44.7298],[14.4722,44.708],[14.4856,44.6921],[14.5013,44.6782],[14.5139,44.6622]]],[[[14.7234,44.9433],[14.7064,44.9467],[14.6579,44.97],[14.6289,44.9782],[14.6245,44.9855],[14.6238,45.0014],[14.6263,45.0373],[14.6209,45.0456],[14.6033,45.039],[14.6033,45.0322],[14.617,45.0246],[14.5907,45.0233],[14.5105,45.0322],[14.4854,45.038],[14.4601,45.0524],[14.4387,45.0705],[14.4251,45.0873],[14.4331,45.0959],[14.4416,45.0998],[14.4512,45.101],[14.4627,45.101],[14.4665,45.1053],[14.4658,45.1147],[14.4671,45.1241],[14.4763,45.1284],[14.514,45.1291],[14.5301,45.1348],[14.5213,45.1488],[14.5342,45.1622],[14.5396,45.1704],[14.5418,45.1789],[14.5394,45.1868],[14.5359,45.1942],[14.5369,45.2017],[14.548,45.2103],[14.5498,45.2214],[14.5488,45.2302],[14.5438,45.2357],[14.5344,45.2375],[14.5488,45.2487],[14.5633,45.2497],[14.5959,45.2375],[14.5822,45.2375],[14.584,45.2302],[14.5872,45.2244],[14.5913,45.2199],[14.5959,45.2165],[14.6107,45.1981],[14.6238,45.1755],[14.5974,45.1664],[14.6126,45.1592],[14.6437,45.1568],[14.6653,45.1618],[14.6709,45.1435],[14.6589,45.1083],[14.6653,45.0873],[14.6781,45.0775],[14.696,45.0734],[14.7405,45.0731],[14.74,45.0443],[14.7998,45.0052],[14.815,44.9775],[14.8088,44.9775],[14.7972,44.9713],[14.7847,44.9693],[14.7722,44.9713],[14.7609,44.9775],[14.7472,44.97],[14.7472,44.9638],[14.7608,44.9551],[14.7568,44.9487],[14.742,44.9447],[14.7234,44.9433]]],[[[16.3103,43.5078],[16.3753,43.4902],[16.3708,43.4843],[16.3333,43.4814],[16.282,43.4879],[16.2673,43.4869],[16.2588,43.4835],[16.2464,43.4814],[16.2306,43.4832],[16.2183,43.4863],[16.2114,43.4901],[16.2118,43.4956],[16.2189,43.4977],[16.2435,43.4949],[16.2522,43.4999],[16.2481,43.5083],[16.2644,43.5129],[16.3103,43.5078]]],[[[14.7598,44.2921],[14.7734,44.2851],[14.7917,44.2725],[14.7897,44.2669],[14.7754,44.2666],[14.766,44.265],[14.7599,44.2598],[14.7485,44.2617],[14.7381,44.2721],[14.7396,44.2802],[14.7497,44.2802],[14.7532,44.2835],[14.7532,44.291],[14.7598,44.2921]]],[[[14.6135,44.3408],[14.6436,44.3258],[14.6614,44.3087],[14.6574,44.3052],[14.6408,44.3118],[14.5989,44.3391],[14.5951,44.3471],[14.6135,44.3408]]],[[[14.7979,44.3777],[14.8057,44.3678],[14.8112,44.35],[14.801,44.3431],[14.7852,44.3469],[14.7742,44.3525],[14.7562,44.364],[14.7578,44.3723],[14.7682,44.3842],[14.7634,44.4154],[14.7717,44.4179],[14.7829,44.4189],[14.7948,44.4145],[14.8032,44.4055],[14.805,44.3957],[14.7997,44.3876],[14.7967,44.3813],[14.7979,44.3777]]],[[[14.2442,44.6614],[14.2658,44.6795],[14.2804,44.6776],[14.28,44.6678],[14.2742,44.6617],[14.2609,44.6595],[14.2573,44.6567],[14.2568,44.6531],[14.2585,44.6479],[14.2564,44.6424],[14.2567,44.637],[14.2658,44.6254],[14.2712,44.6125],[14.264,44.6116],[14.2522,44.6168],[14.2398,44.6199],[14.2326,44.626],[14.2336,44.6348],[14.2356,44.6422],[14.2442,44.6614]]]]}}