{"type":"Feature","bbox":[-61.0785,13.7147,-60.883,14.1119],"properties":{"iso":"LC","name":"Saint Lucia","name_de":"St. Lucia","key":"LC"},"geometry":{"type":"Polygon","coordinates":[[[-60.8868,14.0101],[-60.883,13.9806],[-60.883,13.9544],[-60.8951,13.8773],[-60.8922,13.8332],[-60.9046,13.7842],[-60.9073,13.7773],[-60.9228,13.7727],[-60.9271,13.7699],[-60.9318,13.7603],[-60.9408,13.7221],[-60.947,13.7163],[-60.9501,13.7147],[-60.9551,13.7147],[-60.9734,13.739],[-61.0482,13.7673],[-61.0649,13.7869],[-61.0681,13.7922],[-61.0742,13.7987],[-61.0781,13.8063],[-61.0712,13.822],[-61.0701,13.8321],[-61.0712,13.8518],[-61.0727,13.8582],[-61.0781,13.8696],[-61.0785,13.8798],[-61.0759,13.8904],[-61.0669,13.909],[-61.0649,13.9173],[-61.0595,13.9312],[-61.0356,13.9649],[-61.0266,13.9874],[-61.0023,14.0231],[-60.9971,14.0272],[-60.9873,14.0325],[-60.9823,14.0373],[-60.98,14.0435],[-60.9761,14.0612],[-60.9721,14.0681],[-60.9476,14.1023],[-60.9335,14.1119],[-60.9141,14.1057],[-60.9186,14.0884],[-60.9119,14.0795],[-60.901,14.0734],[-60.893,14.0647],[-60.8902,14.0522],[-60.8868,14.0101]]]}}