{"type":"Feature","bbox":[-17.0812,14.7344,-4.8216,27.2854],"properties":{"iso":"MR","name":"Mauritania","name_de":"Mauretanien","key":"MR"},"geometry":{"type":"MultiPolygon","coordinates":[[[[-8.6824,27.2854],[-5.516,25.4233],[-4.8216,24.9951],[-6.5931,24.9941],[-6.5057,24.2703],[-6.0641,20.4954],[-5.9491,19.4956],[-5.6233,16.5278],[-5.6059,16.4959],[-5.3649,16.3349],[-5.3553,16.3248],[-5.3533,16.312],[-5.511,15.4942],[-5.5117,15.4934],[-5.5134,15.4934],[-5.516,15.4942],[-9.3492,15.4956],[-9.343,15.5869],[-9.3293,15.6552],[-9.3324,15.6876],[-9.3565,15.6979],[-9.3759,15.6859],[-9.437,15.6149],[-9.4517,15.5883],[-9.4518,15.5592],[-9.4359,15.4959],[-9.4239,15.4405],[-9.6721,15.4307],[-9.7208,15.4209],[-9.7407,15.4126],[-9.7974,15.3803],[-9.8356,15.3711],[-9.9514,15.3812],[-10.0676,15.3647],[-10.1083,15.3659],[-10.1316,15.3726],[-10.168,15.3952],[-10.1884,15.4047],[-10.1961,15.4053],[-10.2145,15.402],[-10.2232,15.402],[-10.3087,15.4352],[-10.3226,15.4371],[-10.3708,15.4335],[-10.3984,15.4387],[-10.5004,15.4404],[-10.5155,15.4377],[-10.535,15.4417],[-10.5515,15.4392],[-10.5874,15.4273],[-10.6071,15.4244],[-10.6489,15.4249],[-10.7092,15.4339],[-10.7254,15.4331],[-10.7364,15.4226],[-10.7401,15.4036],[-10.7389,15.3622],[-10.7468,15.3411],[-10.7545,15.3336],[-10.7707,15.3247],[-10.7817,15.3084],[-10.7901,15.3068],[-10.8002,15.3068],[-10.811,15.3031],[-10.8272,15.2877],[-10.8344,15.2714],[-10.8441,15.2345],[-10.8553,15.2177],[-10.8823,15.1928],[-10.8909,15.1767],[-10.9062,15.1198],[-10.9152,15.1029],[-10.948,15.152],[-10.9852,15.1875],[-11.0127,15.2396],[-11.0454,15.2702],[-11.2982,15.451],[-11.3169,15.4717],[-11.4096,15.6022],[-11.4348,15.6234],[-11.4582,15.6329],[-11.5154,15.6444],[-11.5244,15.6435],[-11.5273,15.6426],[-11.5256,15.6383],[-11.523,15.6352],[-11.5154,15.6303],[-11.5131,15.6253],[-11.5123,15.6202],[-11.5131,15.615],[-11.5154,15.6101],[-11.5243,15.6003],[-11.536,15.5949],[-11.5626,15.5872],[-11.5792,15.578],[-11.6149,15.5412],[-11.6441,15.5264],[-11.6708,15.5284],[-11.6975,15.5368],[-11.7271,15.5412],[-11.7271,15.507],[-11.7294,15.4961],[-11.7549,15.4691],[-11.7677,15.4372],[-11.7835,15.3659],[-11.8169,15.2961],[-11.8211,15.2801],[-11.8268,15.2326],[-11.8457,15.1791],[-11.8482,15.1581],[-11.8473,15.1487],[-11.8442,15.1348],[-11.8451,15.1246],[-11.8568,15.0842],[-11.8591,15.0541],[-11.8609,15.049],[-11.851,15.042],[-11.8445,15.0443],[-11.8392,15.049],[-11.8328,15.049],[-11.8212,15.0398],[-11.8138,15.0285],[-11.8111,15.0143],[-11.8132,14.9959],[-11.8206,14.9803],[-11.8258,14.9625],[-11.8309,14.9264],[-11.8301,14.9203],[-11.8204,14.9064],[-11.8204,14.9],[-11.8261,14.8966],[-11.8371,14.8931],[-11.8508,14.8765],[-11.8547,14.8673],[-11.8626,14.8541],[-11.8775,14.8415],[-11.8957,14.8321],[-11.936,14.8236],[-11.9503,14.8116],[-11.974,14.7798],[-11.9915,14.768],[-12.0111,14.7627],[-12.0311,14.7628],[-12.0497,14.7672],[-12.0571,14.7619],[-12.0623,14.7463],[-12.0704,14.7344],[-12.0815,14.74],[-12.1237,14.7766],[-12.1389,14.7845],[-12.1602,14.781],[-12.2033,14.7662],[-12.2248,14.7634],[-12.2468,14.767],[-12.2641,14.7749],[-12.3196,14.8172],[-12.3825,14.846],[-12.4001,14.8604],[-12.4338,14.8994],[-12.4476,14.9074],[-12.4482,14.9182],[-12.4715,14.998],[-12.4763,15.0077],[-12.4849,15.0173],[-12.4956,15.023],[-12.519,15.0283],[-12.5296,15.0344],[-12.5471,15.0472],[-12.6021,15.0788],[-12.6151,15.0946],[-12.6229,15.1023],[-12.6323,15.1054],[-12.6476,15.1032],[-12.6793,15.0938],[-12.6903,15.0924],[-12.717,15.1034],[-12.7546,15.1386],[-12.7798,15.1464],[-12.784,15.1581],[-12.7847,15.166],[-12.7793,15.1914],[-12.7795,15.1996],[-12.782,15.2073],[-12.7872,15.2142],[-12.7963,15.2203],[-12.8064,15.2231],[-12.817,15.2231],[-12.8383,15.2188],[-12.8479,15.2189],[-12.8568,15.222],[-12.8655,15.2287],[-12.8884,15.2509],[-12.8944,15.2634],[-12.8842,15.2708],[-12.85,15.2674],[-12.8334,15.27],[-12.828,15.2839],[-12.8345,15.3002],[-12.8473,15.3133],[-12.9068,15.3527],[-12.919,15.3654],[-12.9272,15.3807],[-12.931,15.397],[-12.9312,15.4305],[-12.9331,15.4383],[-12.9376,15.4458],[-12.9476,15.4586],[-12.9509,15.4654],[-12.9549,15.4931],[-12.958,15.5017],[-12.9643,15.5092],[-12.9802,15.5163],[-12.9958,15.5142],[-13.0105,15.5063],[-13.0238,15.496],[-13.0389,15.4869],[-13.0532,15.4851],[-13.0838,15.4927],[-13.0896,15.497],[-13.0931,15.5062],[-13.095,15.5147],[-13.0951,15.5234],[-13.0895,15.561],[-13.0918,15.5751],[-13.099,15.5869],[-13.1097,15.5964],[-13.1222,15.6035],[-13.1452,15.6095],[-13.1526,15.6124],[-13.1711,15.6254],[-13.1782,15.6282],[-13.1928,15.629],[-13.2228,15.6239],[-13.2378,15.6234],[-13.2473,15.6483],[-13.2487,15.6567],[-13.2477,15.6656],[-13.244,15.6737],[-13.2289,15.6966],[-13.2271,15.704],[-13.2283,15.7113],[-13.2325,15.7196],[-13.2439,15.7358],[-13.2507,15.7428],[-13.2587,15.7488],[-13.274,15.7575],[-13.281,15.7628],[-13.2861,15.7696],[-13.2875,15.7782],[-13.2797,15.8035],[-13.28,15.8229],[-13.2848,15.8399],[-13.2937,15.8553],[-13.3118,15.8758],[-13.316,15.8818],[-13.3182,15.8885],[-13.3182,15.8967],[-13.3144,15.9136],[-13.3137,15.9221],[-13.3159,15.9305],[-13.3218,15.9382],[-13.347,15.9568],[-13.3558,15.9655],[-13.3633,15.9751],[-13.3698,15.9855],[-13.3837,16.0192],[-13.385,16.0269],[-13.3861,16.0444],[-13.3886,16.0521],[-13.3946,16.0593],[-13.4221,16.0772],[-13.427,16.0831],[-13.4351,16.0965],[-13.44,16.1019],[-13.4551,16.1022],[-13.4915,16.0884],[-13.5017,16.0951],[-13.4999,16.1106],[-13.4831,16.141],[-13.4849,16.155],[-13.4915,16.1563],[-13.4973,16.1561],[-13.5164,16.149],[-13.5691,16.1382],[-13.5994,16.1255],[-13.607,16.1233],[-13.6293,16.1228],[-13.635,16.1216],[-13.6624,16.1074],[-13.669,16.1057],[-13.6759,16.1069],[-13.6781,16.1082],[-13.6847,16.1138],[-13.696,16.1189],[-13.7,16.1256],[-13.7045,16.1288],[-13.7148,16.1328],[-13.7196,16.1356],[-13.7228,16.1461],[-13.7126,16.1761],[-13.7106,16.1889],[-13.7201,16.19],[-13.7294,16.1895],[-13.7382,16.1871],[-13.7467,16.1824],[-13.7542,16.1753],[-13.772,16.1504],[-13.7788,16.1432],[-13.7949,16.1312],[-13.8113,16.1221],[-13.8192,16.1193],[-13.8273,16.1185],[-13.8358,16.1206],[-13.8448,16.126],[-13.8528,16.1335],[-13.8591,16.1423],[-13.8638,16.1518],[-13.8723,16.1788],[-13.8772,16.1869],[-13.8838,16.1937],[-13.8996,16.2053],[-13.9078,16.21],[-13.9471,16.2211],[-13.9641,16.2301],[-13.9678,16.246],[-13.9627,16.264],[-13.963,16.2724],[-13.9674,16.2814],[-13.9773,16.2938],[-13.9793,16.3004],[-13.9775,16.3088],[-13.9712,16.3242],[-13.9719,16.3312],[-13.9779,16.338],[-13.987,16.3429],[-14.0067,16.3503],[-14.0156,16.3559],[-14.0331,16.3761],[-14.0398,16.3821],[-14.073,16.4007],[-14.1324,16.4526],[-14.1664,16.4909],[-14.1901,16.5071],[-14.1972,16.5135],[-14.2142,16.535],[-14.2223,16.5396],[-14.2337,16.5416],[-14.2577,16.5432],[-14.2681,16.5479],[-14.2733,16.5556],[-14.2746,16.5735],[-14.278,16.5813],[-14.2876,16.5857],[-14.326,16.5824],[-14.3353,16.5865],[-14.337,16.5941],[-14.3318,16.6131],[-14.3313,16.6241],[-14.3355,16.6315],[-14.3433,16.6367],[-14.4066,16.6608],[-14.4262,16.6596],[-14.4358,16.656],[-14.4621,16.6408],[-14.472,16.6364],[-14.4824,16.6337],[-14.4931,16.6325],[-14.5039,16.6327],[-14.5445,16.6408],[-14.5551,16.6406],[-14.597,16.6292],[-14.6081,16.6288],[-14.6191,16.6307],[-14.6472,16.6435],[-14.656,16.6459],[-14.6659,16.6457],[-14.6997,16.6371],[-14.7112,16.6358],[-14.882,16.6477],[-14.9125,16.6406],[-14.9309,16.6434],[-14.9413,16.656],[-14.9499,16.6723],[-14.9629,16.6858],[-14.9743,16.6914],[-14.9966,16.6824],[-15.0069,16.6758],[-15.0134,16.6666],[-15.0165,16.6526],[-15.0187,16.6461],[-15.0237,16.64],[-15.0299,16.6355],[-15.0369,16.6326],[-15.0444,16.6319],[-15.0516,16.6342],[-15.062,16.6438],[-15.0699,16.6553],[-15.0789,16.665],[-15.0933,16.6692],[-15.1076,16.6654],[-15.1163,16.6555],[-15.1183,16.6426],[-15.1123,16.6292],[-15.0962,16.614],[-15.0928,16.6076],[-15.0932,16.6002],[-15.0975,16.5945],[-15.104,16.5904],[-15.1251,16.5827],[-15.2325,16.5664],[-15.2486,16.5658],[-15.2959,16.573],[-15.328,16.572],[-15.3436,16.5687],[-15.3857,16.5518],[-15.3998,16.5483],[-15.4145,16.548],[-15.4269,16.5532],[-15.4337,16.5625],[-15.4394,16.5727],[-15.4488,16.5802],[-15.464,16.5815],[-15.4785,16.5752],[-15.4909,16.5645],[-15.5152,16.5309],[-15.5248,16.5222],[-15.5367,16.5165],[-15.5515,16.5151],[-15.5944,16.5236],[-15.6097,16.5213],[-15.6215,16.5142],[-15.6436,16.4947],[-15.6574,16.4862],[-15.6722,16.4814],[-15.6875,16.4805],[-15.7032,16.4844],[-15.7268,16.4953],[-15.7353,16.4977],[-15.7677,16.4995],[-15.813,16.5138],[-15.8289,16.5145],[-15.8536,16.5103],[-15.862,16.5103],[-15.8969,16.5184],[-15.911,16.5169],[-15.9507,16.4998],[-15.9581,16.4984],[-15.9644,16.499],[-15.9773,16.504],[-15.9856,16.5059],[-15.9931,16.5046],[-16.0002,16.5011],[-16.0073,16.4962],[-16.0312,16.4929],[-16.0538,16.4954],[-16.074,16.5049],[-16.091,16.5222],[-16.1031,16.5396],[-16.1105,16.5469],[-16.1197,16.5524],[-16.1323,16.5548],[-16.1443,16.5527],[-16.1558,16.5475],[-16.1852,16.5273],[-16.1954,16.5227],[-16.2067,16.5207],[-16.2179,16.5215],[-16.251,16.5276],[-16.2738,16.5232],[-16.2951,16.5106],[-16.3135,16.4933],[-16.3274,16.4746],[-16.3349,16.4558],[-16.3402,16.4159],[-16.3811,16.2467],[-16.3854,16.2349],[-16.3917,16.2247],[-16.4073,16.2148],[-16.4442,16.2063],[-16.4588,16.1942],[-16.466,16.1741],[-16.4704,16.1064],[-16.4878,16.066],[-16.5016,16.0219],[-16.5075,16.0104],[-16.5099,15.9015],[-16.5197,15.8464],[-16.5423,15.8088],[-16.5273,15.9774],[-16.5293,16.0658],[-16.5392,16.2672],[-16.5293,16.3327],[-16.5222,16.3505],[-16.4945,16.4016],[-16.4862,16.4517],[-16.4777,16.4665],[-16.4672,16.4929],[-16.4672,16.6002],[-16.4592,16.6439],[-16.3791,16.841],[-16.3578,16.8747],[-16.3431,16.9423],[-16.326,16.9752],[-16.2781,17.0407],[-16.1925,17.2193],[-16.1867,17.2438],[-16.1726,17.2624],[-16.079,17.5448],[-16.049,17.6672],[-16.0414,17.8],[-16.0242,17.9601],[-16.0352,18.1414],[-16.0694,18.484],[-16.0806,18.5197],[-16.132,18.6286],[-16.1557,18.7525],[-16.173,18.7931],[-16.164,18.8168],[-16.1656,18.8442],[-16.2046,18.9827],[-16.2389,19.061],[-16.2828,19.1304],[-16.3419,19.1957],[-16.3607,19.2125],[-16.3647,19.2146],[-16.3683,19.2215],[-16.3766,19.2236],[-16.3865,19.2246],[-16.3949,19.2285],[-16.4119,19.2392],[-16.4509,19.2502],[-16.4672,19.2593],[-16.4746,19.2708],[-16.4913,19.3131],[-16.4945,19.331],[-16.5048,19.35],[-16.5241,19.3659],[-16.5355,19.3808],[-16.5218,19.3964],[-16.4637,19.3815],[-16.4078,19.3892],[-16.3592,19.4158],[-16.3232,19.4579],[-16.2995,19.4966],[-16.2939,19.5161],[-16.2849,19.5293],[-16.2828,19.5361],[-16.2859,19.5427],[-16.2926,19.5466],[-16.2991,19.547],[-16.3021,19.5432],[-16.3073,19.5436],[-16.3629,19.4858],[-16.3915,19.4641],[-16.3505,19.5466],[-16.3647,19.5393],[-16.4052,19.5071],[-16.4194,19.492],[-16.4263,19.4825],[-16.4322,19.4714],[-16.4342,19.4595],[-16.4294,19.4479],[-16.4289,19.4417],[-16.4375,19.4228],[-16.4399,19.4132],[-16.4425,19.4103],[-16.4484,19.4086],[-16.4551,19.4083],[-16.4604,19.4095],[-16.4651,19.4125],[-16.4657,19.4145],[-16.4654,19.4173],[-16.4689,19.4312],[-16.4685,19.4557],[-16.4672,19.4641],[-16.4578,19.4797],[-16.4316,19.5059],[-16.4263,19.523],[-16.4225,19.5438],[-16.4128,19.5542],[-16.3995,19.5618],[-16.3846,19.5739],[-16.2891,19.7111],[-16.2831,19.7164],[-16.2764,19.7204],[-16.2708,19.7259],[-16.2686,19.7353],[-16.2674,19.7553],[-16.2643,19.7628],[-16.258,19.7657],[-16.256,19.7695],[-16.2384,19.7877],[-16.2338,19.7936],[-16.2335,19.8043],[-16.236,19.8133],[-16.241,19.821],[-16.248,19.8278],[-16.2402,19.8345],[-16.2352,19.8424],[-16.2331,19.8516],[-16.2338,19.862],[-16.2496,19.8535],[-16.2549,19.8483],[-16.2578,19.8642],[-16.2435,19.8887],[-16.248,19.9029],[-16.2665,19.9137],[-16.2792,19.9052],[-16.2865,19.8904],[-16.2891,19.8825],[-16.3056,19.873],[-16.3127,19.8776],[-16.3133,19.8897],[-16.3096,19.9029],[-16.304,19.914],[-16.298,19.9225],[-16.2391,19.9792],[-16.2225,20.0036],[-16.214,20.0333],[-16.2184,20.0579],[-16.2486,20.1085],[-16.2611,20.1357],[-16.2532,20.1352],[-16.2461,20.1357],[-16.2396,20.1381],[-16.2338,20.1431],[-16.2117,20.1756],[-16.2031,20.1955],[-16.1997,20.2152],[-16.2023,20.2333],[-16.209,20.2484],[-16.2376,20.29],[-16.2437,20.2931],[-16.258,20.2939],[-16.2675,20.2982],[-16.2721,20.3076],[-16.2751,20.317],[-16.2792,20.3212],[-16.2951,20.3306],[-16.3232,20.3964],[-16.3324,20.4055],[-16.3412,20.4113],[-16.3479,20.4175],[-16.3505,20.4274],[-16.3477,20.4309],[-16.342,20.4328],[-16.338,20.4355],[-16.34,20.4411],[-16.3492,20.4574],[-16.3535,20.4764],[-16.3912,20.5695],[-16.401,20.5832],[-16.4157,20.5888],[-16.4239,20.6013],[-16.4252,20.6261],[-16.4296,20.6442],[-16.4467,20.6365],[-16.4672,20.6496],[-16.4672,20.6571],[-16.4219,20.6691],[-16.4087,20.675],[-16.4294,20.6776],[-16.4647,20.6719],[-16.4808,20.6751],[-16.4945,20.6911],[-16.487,20.698],[-16.5013,20.726],[-16.508,20.7306],[-16.5293,20.739],[-16.5363,20.6954],[-16.5284,20.5986],[-16.5423,20.5609],[-16.5525,20.5764],[-16.5655,20.5873],[-16.5907,20.6024],[-16.599,20.6111],[-16.6118,20.6345],[-16.6212,20.6465],[-16.6337,20.655],[-16.665,20.6706],[-16.6727,20.6776],[-16.6735,20.689],[-16.6687,20.6937],[-16.6623,20.6954],[-16.659,20.698],[-16.6593,20.7065],[-16.665,20.7147],[-16.6664,20.7222],[-16.6711,20.7371],[-16.6825,20.7492],[-16.7102,20.77],[-16.714,20.7777],[-16.7137,20.7962],[-16.7174,20.8041],[-16.7341,20.8215],[-16.7454,20.8686],[-16.7515,20.8799],[-16.762,20.892],[-16.769,20.9068],[-16.7731,20.9226],[-16.7751,20.9376],[-16.7794,20.9328],[-16.7858,20.928],[-16.7887,20.924],[-16.8032,20.9374],[-16.809,20.9526],[-16.8116,20.9689],[-16.8166,20.986],[-16.823,20.9931],[-16.8321,21.0001],[-16.8404,21.0095],[-16.844,21.0239],[-16.8494,21.0336],[-16.8733,21.0646],[-16.8787,21.0785],[-16.8808,21.0926],[-16.8858,21.1086],[-16.8985,21.1369],[-16.9176,21.1592],[-16.9312,21.1515],[-16.9573,21.1059],[-17.0001,21.051],[-17.0101,21.043],[-17.0159,21.0312],[-17.0084,21.0134],[-16.9972,21.0185],[-16.996,21.0014],[-17.0023,20.9649],[-17.0044,20.9324],[-17.0084,20.924],[-17.0181,20.9179],[-17.0412,20.9114],[-17.0494,20.9035],[-17.0501,20.8948],[-17.0455,20.8872],[-17.0358,20.8768],[-17.0286,20.8608],[-17.0279,20.8542],[-17.0289,20.842],[-17.0384,20.7998],[-17.0469,20.7778],[-17.0569,20.7669],[-17.0812,20.8747],[-17.0774,20.9045],[-17.054,20.9955],[-17.0474,21.0274],[-17.0049,21.1419],[-16.9683,21.3246],[-16.9588,21.3329],[-13.0152,21.3334],[-13.0603,21.9954],[-13.0933,22.4955],[-13.1064,22.5602],[-13.155,22.6888],[-13.1655,22.7527],[-13.1523,22.82],[-13.1199,22.8835],[-13.0343,22.9952],[-13.0152,23.018],[-12.6194,23.2708],[-12.5584,23.2903],[-12.3899,23.3125],[-12.3539,23.3225],[-12.1346,23.4193],[-12.0327,23.445],[-12.0193,23.461],[-12.0153,23.4952],[-12.0153,25.9949],[-8.7072,25.995],[-8.6877,26.0],[-8.6808,26.0131],[-8.6824,27.2854]]],[[[-16.3778,19.8135],[-16.3584,19.8532],[-16.3459,19.8684],[-16.3368,19.8557],[-16.3671,19.7211],[-16.3923,19.6584],[-16.4325,19.6013],[-16.4497,19.6228],[-16.453,19.6292],[-16.4527,19.6373],[-16.4503,19.6465],[-16.4502,19.6565],[-16.4567,19.6667],[-16.464,19.6846],[-16.4571,19.7034],[-16.4283,19.7446],[-16.4263,19.749],[-16.4274,19.778],[-16.4263,19.7869],[-16.4182,19.8056],[-16.4054,19.8211],[-16.3909,19.8261],[-16.3778,19.8135]]],[[[-16.3209,19.7285],[-16.3096,19.7308],[-16.3016,19.7226],[-16.3134,19.7047],[-16.3298,19.6899],[-16.3422,19.6764],[-16.3587,19.6479],[-16.3945,19.5999],[-16.3977,19.5999],[-16.3927,19.6171],[-16.3586,19.6774],[-16.3209,19.7285]]],[[[-16.4772,19.7315],[-16.4696,19.73],[-16.469,19.7197],[-16.4715,19.6997],[-16.4779,19.6855],[-16.4842,19.6777],[-16.4919,19.6841],[-16.4969,19.7055],[-16.4911,19.7251],[-16.4772,19.7315]]],[[[-16.4593,20.6147],[-16.4507,20.6125],[-16.4464,20.6073],[-16.4481,20.5745],[-16.4542,20.5711],[-16.4673,20.5762],[-16.4742,20.5942],[-16.4691,20.6091],[-16.4593,20.6147]]]]}}