{"type":"Feature","bbox":[-130.7531,-25.0771,-128.2902,-23.9244],"properties":{"iso":"PN","name":"Pitcairn Is.","name_de":"Pitcairninseln","key":"PN"},"geometry":{"type":"MultiPolygon","coordinates":[[[[-130.1204,-25.0683],[-130.1105,-25.0644],[-130.1011,-25.0644],[-130.093,-25.068],[-130.0863,-25.0751],[-130.0959,-25.0771],[-130.1053,-25.0768],[-130.1137,-25.0738],[-130.1204,-25.0683]]],[[[-128.3302,-24.3243],[-128.3037,-24.3346],[-128.2908,-24.3657],[-128.2902,-24.3984],[-128.3001,-24.4137],[-128.3207,-24.4006],[-128.3422,-24.3718],[-128.3502,-24.3412],[-128.3302,-24.3243]]],[[[-130.7453,-23.9244],[-130.7414,-23.9244],[-130.7421,-23.9278],[-130.747,-23.9328],[-130.7508,-23.9347],[-130.7531,-23.9296],[-130.7508,-23.9272],[-130.748,-23.9273],[-130.7453,-23.9244]]]]}}