{"type":"Feature","bbox":[-58.0677,1.8335,-53.9864,6.0116],"properties":{"iso":"SR","name":"Suriname","name_de":"Suriname","key":"SR"},"geometry":{"type":"Polygon","coordinates":[[[-54.0808,3.3093],[-54.1143,3.2854],[-54.14,3.245],[-54.1766,3.2006],[-54.1905,3.1781],[-54.2112,3.1274],[-54.188,3.131],[-54.1771,3.1166],[-54.1747,3.0939],[-54.177,3.0728],[-54.1795,3.0703],[-54.1885,3.0646],[-54.1907,3.0591],[-54.1792,3.0516],[-54.177,3.0489],[-54.1709,3.0248],[-54.1692,3.0107],[-54.1736,3.0045],[-54.1851,2.9978],[-54.1798,2.9837],[-54.1688,2.9714],[-54.1634,2.9697],[-54.163,2.956],[-54.1702,2.9254],[-54.1733,2.9195],[-54.187,2.8993],[-54.1907,2.8878],[-54.1913,2.8773],[-54.1896,2.8706],[-54.1834,2.8639],[-54.1702,2.8531],[-54.1822,2.8465],[-54.1889,2.8383],[-54.2047,2.7918],[-54.2125,2.7764],[-54.2853,2.678],[-54.3204,2.6067],[-54.3594,2.508],[-54.3756,2.4838],[-54.4235,2.4359],[-54.4355,2.4311],[-54.4505,2.4289],[-54.4726,2.4287],[-54.4934,2.4171],[-54.5203,2.3489],[-54.5316,2.3402],[-54.5512,2.3381],[-54.5848,2.3483],[-54.5992,2.3458],[-54.6153,2.3263],[-54.6341,2.3201],[-54.6534,2.3165],[-54.6729,2.316],[-54.6925,2.319],[-54.7041,2.3248],[-54.7066,2.3329],[-54.7054,2.3425],[-54.7067,2.3532],[-54.7157,2.3759],[-54.71,2.3948],[-54.7073,2.3959],[-54.702,2.3957],[-54.6973,2.3973],[-54.6956,2.4035],[-54.7025,2.4257],[-54.7032,2.4458],[-54.7077,2.4503],[-54.7212,2.458],[-54.743,2.4665],[-54.7598,2.4658],[-54.7925,2.4482],[-54.8419,2.4335],[-54.8803,2.4473],[-54.9786,2.5431],[-54.9828,2.5524],[-54.9796,2.5661],[-54.9602,2.5857],[-54.9537,2.5991],[-54.9591,2.609],[-54.9769,2.6069],[-55.0177,2.5906],[-55.0377,2.5779],[-55.0763,2.5452],[-55.1125,2.5278],[-55.1209,2.5248],[-55.1289,2.5257],[-55.1366,2.5338],[-55.1331,2.5529],[-55.1378,2.5622],[-55.172,2.5593],[-55.2519,2.4979],[-55.2753,2.4993],[-55.287,2.5139],[-55.3028,2.5197],[-55.3205,2.5183],[-55.3378,2.5113],[-55.3545,2.4949],[-55.3601,2.4762],[-55.3628,2.4579],[-55.3711,2.4425],[-55.3996,2.4302],[-55.4356,2.4309],[-55.4743,2.4358],[-55.5113,2.4364],[-55.5682,2.4313],[-55.5873,2.4339],[-55.6083,2.434],[-55.6454,2.4166],[-55.7243,2.3969],[-55.7441,2.401],[-55.7546,2.4094],[-55.7661,2.4313],[-55.7736,2.4401],[-55.7831,2.4452],[-55.8538,2.4626],[-55.8707,2.4709],[-55.925,2.5157],[-55.9472,2.5282],[-55.971,2.5303],[-55.983,2.5265],[-55.9892,2.5208],[-55.9969,2.5033],[-56.0075,2.4607],[-56.0082,2.4163],[-56.0133,2.3988],[-56.0426,2.3551],[-56.0502,2.347],[-56.0622,2.3416],[-56.0734,2.3424],[-56.0823,2.3477],[-56.0915,2.3519],[-56.1038,2.3491],[-56.1168,2.3331],[-56.132,2.3044],[-56.1439,2.2747],[-56.1468,2.2562],[-56.1353,2.2485],[-56.0915,2.2459],[-56.0729,2.2415],[-56.054,2.2241],[-56.0448,2.1847],[-56.0313,2.1635],[-56.0044,2.145],[-55.9958,2.1374],[-55.96,2.091],[-55.9258,2.0617],[-55.9183,2.0504],[-55.9151,2.0377],[-55.9168,2.0285],[-55.9204,2.0194],[-55.9236,2.0066],[-55.9223,1.9622],[-55.9168,1.9222],[-55.922,1.8862],[-55.9538,1.8533],[-56.0197,1.8335],[-56.0826,1.8466],[-56.1453,1.8718],[-56.2098,1.8885],[-56.2579,1.8856],[-56.2738,1.8875],[-56.2927,1.8955],[-56.3286,1.9185],[-56.348,1.9266],[-56.3672,1.9289],[-56.3965,1.9217],[-56.4152,1.9197],[-56.4298,1.9227],[-56.4818,1.9416],[-56.4851,1.9532],[-56.4912,1.9629],[-56.5,1.97],[-56.521,1.9767],[-56.5294,1.9818],[-56.5365,1.9886],[-56.5421,1.9972],[-56.5798,2.0168],[-56.6778,2.0184],[-56.7052,2.0296],[-56.8015,2.166],[-56.8088,2.1958],[-56.8163,2.2176],[-56.8262,2.2617],[-56.8389,2.2811],[-56.8478,2.2859],[-56.8709,2.2901],[-56.8801,2.2948],[-56.8844,2.3037],[-56.8839,2.3398],[-56.895,2.3621],[-56.9308,2.3933],[-56.9385,2.4114],[-56.932,2.4258],[-56.9302,2.4362],[-56.9351,2.4459],[-56.9516,2.4612],[-56.9564,2.47],[-56.9596,2.4838],[-56.9575,2.4935],[-56.9526,2.5046],[-56.9513,2.5155],[-56.9596,2.5247],[-56.98,2.5097],[-56.9941,2.5049],[-57.0006,2.5142],[-56.9953,2.5479],[-56.9971,2.5551],[-57.0224,2.5845],[-57.0272,2.5936],[-57.0279,2.6106],[-57.0232,2.6237],[-57.0205,2.6354],[-57.0272,2.6482],[-57.048,2.6365],[-57.056,2.6424],[-57.062,2.6818],[-57.0719,2.7001],[-57.0977,2.7274],[-57.1029,2.7405],[-57.099,2.7504],[-57.0921,2.763],[-57.0899,2.7739],[-57.0995,2.7786],[-57.1337,2.7734],[-57.1371,2.7712],[-57.1437,2.79],[-57.1264,2.826],[-57.1334,2.8326],[-57.1452,2.8304],[-57.1653,2.8211],[-57.1746,2.819],[-57.1866,2.8232],[-57.1911,2.8326],[-57.1943,2.842],[-57.2023,2.8462],[-57.2063,2.8566],[-57.2196,2.9083],[-57.2103,2.9182],[-57.1947,2.9306],[-57.1838,2.9447],[-57.1886,2.9595],[-57.2219,2.963],[-57.2346,2.9704],[-57.2212,2.9926],[-57.2218,3.0004],[-57.2247,3.0092],[-57.2265,3.0213],[-57.2232,3.0248],[-57.2092,3.0241],[-57.206,3.0281],[-57.207,3.0357],[-57.2118,3.0483],[-57.2129,3.056],[-57.2222,3.0783],[-57.2395,3.0941],[-57.2486,3.1124],[-57.2333,3.1417],[-57.2374,3.144],[-57.2395,3.1479],[-57.2462,3.1416],[-57.255,3.1358],[-57.2649,3.1326],[-57.2749,3.1343],[-57.286,3.1424],[-57.2842,3.149],[-57.2777,3.1569],[-57.2749,3.169],[-57.2857,3.1921],[-57.2879,3.2031],[-57.2871,3.2154],[-57.2817,3.2359],[-57.2805,3.2478],[-57.284,3.2597],[-57.2903,3.268],[-57.2925,3.2763],[-57.2842,3.2888],[-57.2828,3.295],[-57.2805,3.3298],[-57.2836,3.3438],[-57.3084,3.3949],[-57.34,3.3702],[-57.3668,3.3656],[-57.3935,3.3738],[-57.425,3.3875],[-57.424,3.3694],[-57.4309,3.3606],[-57.4592,3.3533],[-57.4688,3.3432],[-57.4763,3.3389],[-57.4797,3.3434],[-57.482,3.3486],[-57.488,3.3515],[-57.4958,3.353],[-57.5039,3.3533],[-57.5096,3.3577],[-57.5224,3.3652],[-57.5353,3.3678],[-57.545,3.3481],[-57.5542,3.3467],[-57.5651,3.3498],[-57.6132,3.3766],[-57.6415,3.3824],[-57.6499,3.3859],[-57.6548,3.3901],[-57.6582,3.3952],[-57.6625,3.4071],[-57.6646,3.4175],[-57.664,3.4258],[-57.6589,3.4439],[-57.6584,3.4506],[-57.6605,3.463],[-57.6607,3.4695],[-57.6455,3.499],[-57.644,3.5167],[-57.6604,3.5352],[-57.6851,3.5492],[-57.6872,3.5522],[-57.698,3.5536],[-57.7029,3.5557],[-57.7074,3.5607],[-57.7095,3.5677],[-57.7175,3.5824],[-57.7225,3.6],[-57.7261,3.6072],[-57.7642,3.6316],[-57.8131,3.6518],[-57.8298,3.6624],[-57.841,3.681],[-57.8469,3.7021],[-57.8496,3.7475],[-57.8539,3.7667],[-57.8751,3.8122],[-57.9258,3.8864],[-57.9421,3.9054],[-58.0079,3.9573],[-58.0321,3.9877],[-58.042,4.023],[-58.0551,4.1081],[-58.0677,4.1511],[-58.0659,4.1718],[-58.052,4.1931],[-57.965,4.282],[-57.9538,4.299],[-57.9474,4.3188],[-57.9453,4.3439],[-57.9481,4.3605],[-57.9535,4.3757],[-57.9566,4.3914],[-57.9527,4.4097],[-57.9428,4.4251],[-57.9313,4.4378],[-57.9219,4.4509],[-57.9145,4.4841],[-57.8961,4.5285],[-57.8791,4.5568],[-57.8633,4.6077],[-57.8454,4.6335],[-57.8374,4.6509],[-57.836,4.6698],[-57.8443,4.6875],[-57.8712,4.7217],[-57.8845,4.7629],[-57.9011,4.7739],[-57.9178,4.7824],[-57.9254,4.7961],[-57.9185,4.8298],[-57.9024,4.8527],[-57.8842,4.8723],[-57.8707,4.8889],[-57.8503,4.9228],[-57.8428,4.9299],[-57.8302,4.9331],[-57.8206,4.9303],[-57.811,4.9255],[-57.7985,4.9231],[-57.774,4.9264],[-57.7623,4.9355],[-57.7473,4.964],[-57.7205,4.9898],[-57.6869,5.0063],[-57.6494,5.0084],[-57.6101,4.9913],[-57.5662,5.0071],[-57.5433,5.0111],[-57.5176,5.0124],[-57.5122,5.0092],[-57.4969,4.9947],[-57.4903,4.9913],[-57.4773,4.9925],[-57.4605,4.9976],[-57.3814,5.0057],[-57.3562,5.0124],[-57.3294,5.0241],[-57.3152,5.0261],[-57.3065,5.0244],[-57.2987,5.0211],[-57.2905,5.0203],[-57.2805,5.0261],[-57.3169,5.059],[-57.3214,5.0702],[-57.3202,5.0834],[-57.3171,5.0948],[-57.3022,5.1285],[-57.2955,5.1572],[-57.289,5.171],[-57.2777,5.1769],[-57.2599,5.1763],[-57.2473,5.1724],[-57.2388,5.162],[-57.2333,5.1421],[-57.2178,5.1486],[-57.202,5.1576],[-57.1898,5.1692],[-57.1849,5.1831],[-57.1924,5.2032],[-57.2257,5.2436],[-57.2333,5.2626],[-57.2376,5.2687],[-57.2476,5.2718],[-57.259,5.2712],[-57.2674,5.2663],[-57.2692,5.2567],[-57.264,5.247],[-57.2538,5.2349],[-57.2564,5.2283],[-57.263,5.224],[-57.2717,5.2229],[-57.2805,5.2253],[-57.2855,5.2308],[-57.2873,5.2387],[-57.2888,5.3085],[-57.292,5.3113],[-57.2983,5.311],[-57.3084,5.3135],[-57.3228,5.3076],[-57.3317,5.3076],[-57.3357,5.3169],[-57.3323,5.3279],[-57.3241,5.3386],[-57.2755,5.3874],[-57.2652,5.4034],[-57.2612,5.4268],[-57.2601,5.4482],[-57.2569,5.4641],[-57.2477,5.4849],[-57.2251,5.5075],[-57.193,5.5197],[-57.1795,5.5306],[-57.1702,5.5428],[-57.1637,5.5571],[-57.1396,5.6651],[-57.1349,5.7599],[-57.128,5.7932],[-57.1258,5.8181],[-57.1138,5.8588],[-57.1023,5.8864],[-57.0758,5.93],[-57.0716,5.9412],[-57.066,5.9501],[-57.0577,5.9559],[-57.0348,5.9599],[-57.0279,5.9644],[-57.0227,5.9689],[-57.0174,5.9709],[-57.0128,5.9739],[-57.0001,5.988],[-56.9945,5.9927],[-56.9847,5.9963],[-56.9746,5.9981],[-56.9639,6.0092],[-56.9565,6.0116],[-56.9288,6.0043],[-56.867,5.9896],[-56.8304,5.9856],[-56.7807,5.9855],[-56.6595,5.9797],[-56.6424,5.9732],[-56.6114,5.9536],[-56.5931,5.9458],[-56.574,5.9408],[-56.5269,5.9365],[-56.4183,5.9113],[-56.355,5.8947],[-56.3038,5.8925],[-56.1916,5.8626],[-56.1243,5.848],[-56.083,5.8344],[-56.0586,5.8277],[-56.038,5.8242],[-55.9992,5.8107],[-55.936,5.8047],[-55.9179,5.7847],[-55.9036,5.7764],[-55.8977,5.763],[-55.8977,5.6767],[-55.8902,5.6767],[-55.885,5.6925],[-55.8833,5.7081],[-55.884,5.7419],[-55.8873,5.7595],[-55.9154,5.8218],[-55.9,5.842],[-55.91,5.8509],[-55.934,5.8498],[-55.9479,5.8615],[-55.9512,5.8815],[-55.9467,5.8965],[-55.9304,5.9176],[-55.9236,5.9278],[-55.9007,5.9519],[-55.8861,5.963],[-55.868,5.9698],[-55.8444,5.976],[-55.7291,5.9812],[-55.6786,5.9853],[-55.6373,5.9859],[-55.395,5.9739],[-55.336,5.9627],[-55.3079,5.9433],[-55.292,5.9367],[-55.2708,5.93],[-55.2638,5.9264],[-55.2429,5.9094],[-55.2329,5.9033],[-55.2214,5.9002],[-55.2129,5.9002],[-55.1884,5.8974],[-55.1641,5.9067],[-55.1478,5.9082],[-55.1108,5.8812],[-55.1031,5.8664],[-55.1151,5.8371],[-55.1299,5.8207],[-55.101,5.8305],[-55.0917,5.8528],[-55.0907,5.8751],[-55.0855,5.8828],[-55.0634,5.8829],[-55.0304,5.8598],[-55.0101,5.8555],[-54.9971,5.8585],[-54.9889,5.8637],[-54.9812,5.8655],[-54.9588,5.8518],[-54.9503,5.8503],[-54.9418,5.8521],[-54.932,5.8555],[-54.9241,5.8604],[-54.9187,5.8671],[-54.912,5.8729],[-54.9003,5.8754],[-54.8908,5.8734],[-54.8807,5.8684],[-54.863,5.8555],[-54.8675,5.8637],[-54.8743,5.8716],[-54.8822,5.8784],[-54.8903,5.8828],[-54.9035,5.8854],[-54.9126,5.884],[-54.9219,5.8766],[-54.9333,5.8697],[-54.9562,5.8676],[-54.9716,5.8773],[-54.9856,5.8804],[-55.0015,5.8713],[-55.0166,5.872],[-55.0317,5.8845],[-55.0473,5.8923],[-55.1053,5.9089],[-55.1256,5.9186],[-55.143,5.9301],[-55.1504,5.9409],[-55.1541,5.9514],[-55.16,5.9581],[-55.1533,5.9686],[-55.1445,5.9742],[-55.1169,5.9853],[-55.0853,5.9906],[-55.0448,5.9931],[-55.0139,5.9934],[-54.7736,5.9853],[-54.7554,5.9809],[-54.7126,5.9762],[-54.6736,5.9692],[-54.4718,5.941],[-54.3486,5.9138],[-54.2527,5.8948],[-54.1693,5.8679],[-54.0974,5.8473],[-54.0745,5.8449],[-54.062,5.8406],[-54.0367,5.8424],[-54.0309,5.8342],[-54.0205,5.8303],[-54.0147,5.8201],[-54.0163,5.8097],[-53.9921,5.7635],[-53.9864,5.7457],[-53.9959,5.7345],[-54.0198,5.689],[-54.0311,5.6693],[-54.0364,5.6295],[-54.0504,5.5521],[-54.0611,5.5129],[-54.0736,5.4898],[-54.0918,5.4679],[-54.1091,5.4528],[-54.1185,5.4428],[-54.1225,5.4334],[-54.1285,5.4143],[-54.171,5.3484],[-54.1905,5.3257],[-54.2692,5.2691],[-54.3113,5.2258],[-54.332,5.1962],[-54.3436,5.1564],[-54.35,5.1496],[-54.3654,5.1388],[-54.3699,5.1324],[-54.3723,5.1211],[-54.3756,5.1149],[-54.4302,5.0534],[-54.4486,5.0243],[-54.4548,5.0085],[-54.4576,4.9913],[-54.4488,4.9515],[-54.4508,4.9367],[-54.4555,4.9314],[-54.4821,4.9128],[-54.4867,4.903],[-54.485,4.8928],[-54.4787,4.8787],[-54.4787,4.7552],[-54.4754,4.7417],[-54.4673,4.7362],[-54.457,4.7333],[-54.4473,4.7279],[-54.4355,4.7094],[-54.4351,4.6924],[-54.4386,4.6733],[-54.4377,4.6487],[-54.4253,4.6161],[-54.4235,4.6043],[-54.4235,4.5634],[-54.4282,4.5462],[-54.448,4.5095],[-54.4508,4.4842],[-54.4334,4.3764],[-54.403,4.3129],[-54.3941,4.2698],[-54.3932,4.2444],[-54.3996,4.2273],[-54.4106,4.2086],[-54.4066,4.1915],[-54.3949,4.1779],[-54.3825,4.1696],[-54.3489,4.1605],[-54.3386,4.1523],[-54.3347,4.1317],[-54.3376,4.1166],[-54.351,4.0821],[-54.3552,4.0665],[-54.3539,4.0417],[-54.3444,4.0249],[-54.3102,3.9942],[-54.3039,3.9845],[-54.2931,3.9498],[-54.2865,3.9407],[-54.2725,3.9295],[-54.2658,3.9225],[-54.2411,3.8764],[-54.2222,3.8662],[-54.218,3.8576],[-54.2145,3.8582],[-54.207,3.8465],[-54.1975,3.8269],[-54.1874,3.8147],[-54.1816,3.811],[-54.1702,3.8058],[-54.1361,3.7957],[-54.1255,3.7887],[-54.1048,3.758],[-54.0944,3.7471],[-54.074,3.6761],[-54.0507,3.6406],[-54.0501,3.6345],[-54.0394,3.6364],[-54.0284,3.6398],[-54.0179,3.6415],[-54.0088,3.6379],[-53.9948,3.6236],[-53.9888,3.611],[-53.9903,3.5957],[-53.9983,3.573],[-54.0063,3.531],[-54.003,3.4554],[-54.0194,3.4154],[-54.0557,3.3777],[-54.0603,3.3642],[-54.0627,3.3467],[-54.0695,3.3271],[-54.0808,3.3093]]]}}