{"type":"Feature","bbox":[-61.9287,10.0421,-60.5221,11.3511],"properties":{"iso":"TT","name":"Trinidad and Tobago","name_de":"Trinidad und Tobago","key":"TT"},"geometry":{"type":"MultiPolygon","coordinates":[[[[-61.0023,10.6994],[-61.0209,10.7027],[-61.0327,10.6835],[-61.0381,10.6536],[-61.037,10.6249],[-61.0176,10.5641],[-61.0135,10.5345],[-61.0425,10.51],[-61.0419,10.4819],[-61.0281,10.4085],[-61.023,10.3948],[-61.0163,10.3821],[-60.9984,10.3559],[-60.9613,10.33],[-60.9902,10.2993],[-61.0028,10.2475],[-61.0033,10.1891],[-60.996,10.1383],[-61.0175,10.1429],[-61.0416,10.1356],[-61.0643,10.1218],[-61.082,10.1069],[-61.0997,10.0952],[-61.1224,10.0868],[-61.1673,10.0762],[-61.1916,10.0738],[-61.253,10.0836],[-61.275,10.0817],[-61.3387,10.0693],[-61.4175,10.0762],[-61.5031,10.0693],[-61.5441,10.0762],[-61.5535,10.0739],[-61.5819,10.0626],[-61.5931,10.0614],[-61.6128,10.0568],[-61.6229,10.0556],[-61.637,10.0578],[-61.647,10.063],[-61.6561,10.0696],[-61.6676,10.0762],[-61.6862,10.0816],[-61.7067,10.084],[-61.7933,10.0841],[-61.817,10.0814],[-61.8352,10.0727],[-61.8498,10.0615],[-61.8693,10.05],[-61.8898,10.0423],[-61.9072,10.0421],[-61.9287,10.0565],[-61.9189,10.07],[-61.8867,10.0867],[-61.8819,10.0905],[-61.871,10.0938],[-61.8385,10.0998],[-61.8319,10.1061],[-61.8215,10.1212],[-61.8059,10.1329],[-61.7892,10.1409],[-61.7121,10.1636],[-61.6691,10.184],[-61.6388,10.2105],[-61.6396,10.2407],[-61.6269,10.2473],[-61.6118,10.2475],[-61.5601,10.2387],[-61.5066,10.2407],[-61.4953,10.245],[-61.4819,10.2557],[-61.4698,10.2693],[-61.4621,10.2822],[-61.4584,10.3022],[-61.4596,10.3097],[-61.4613,10.319],[-61.4663,10.3352],[-61.469,10.3539],[-61.4708,10.3594],[-61.4796,10.3666],[-61.4827,10.371],[-61.4831,10.3765],[-61.4769,10.3786],[-61.4752,10.3815],[-61.4762,10.3893],[-61.482,10.4089],[-61.4857,10.4157],[-61.4879,10.4301],[-61.4822,10.4499],[-61.469,10.4809],[-61.4623,10.5189],[-61.4621,10.5582],[-61.4723,10.5949],[-61.4962,10.6249],[-61.4889,10.631],[-61.5288,10.6579],[-61.5776,10.6799],[-61.599,10.6844],[-61.65,10.6878],[-61.6564,10.6898],[-61.6613,10.6951],[-61.6676,10.7068],[-61.6156,10.7422],[-61.6021,10.7477],[-61.5611,10.7443],[-61.5151,10.7549],[-61.4857,10.7546],[-61.4732,10.7602],[-61.4656,10.7703],[-61.4604,10.7744],[-61.4553,10.762],[-61.4479,10.762],[-61.4479,10.7757],[-61.4417,10.7757],[-61.441,10.7707],[-61.4342,10.762],[-61.4417,10.7546],[-61.4334,10.7565],[-61.4276,10.7612],[-61.4212,10.7683],[-61.4019,10.7689],[-61.4001,10.7683],[-61.3918,10.7756],[-61.3729,10.7975],[-61.3666,10.803],[-61.3491,10.8044],[-61.2961,10.798],[-61.1801,10.7976],[-61.1549,10.8165],[-61.0965,10.8234],[-61.0785,10.831],[-60.9488,10.8453],[-60.9073,10.8371],[-60.9498,10.7635],[-61.0023,10.6994]]],[[[-60.5305,11.3511],[-60.5231,11.3437],[-60.5221,11.3188],[-60.5255,11.2882],[-60.533,11.2665],[-60.5442,11.2691],[-60.5504,11.2691],[-60.5565,11.2541],[-60.5653,11.2524],[-60.5753,11.2558],[-60.5851,11.2555],[-60.5871,11.2511],[-60.602,11.2314],[-60.6056,11.2307],[-60.6288,11.2165],[-60.6361,11.2108],[-60.6471,11.2042],[-60.6598,11.2043],[-60.6719,11.2067],[-60.6813,11.2071],[-60.7418,11.1771],[-60.7595,11.1729],[-60.7864,11.15],[-60.8033,11.1433],[-60.8104,11.1592],[-60.8254,11.1518],[-60.8393,11.1541],[-60.8475,11.164],[-60.8452,11.1791],[-60.8367,11.1833],[-60.8229,11.1855],[-60.8099,11.1907],[-60.8043,11.2037],[-60.7943,11.2166],[-60.7097,11.2713],[-60.6916,11.2889],[-60.6813,11.2965],[-60.6686,11.3029],[-60.6358,11.3148],[-60.6076,11.3207],[-60.5958,11.3273],[-60.5836,11.3295],[-60.5677,11.3203],[-60.5604,11.3212],[-60.5413,11.3434],[-60.5305,11.3511]]]]}}