{"type":"Feature","bbox":[-168.1374,18.9061,-66.9773,71.4125],"properties":{"iso":"US","name":"United States of America","name_de":"Vereinigte Staaten","key":"US"},"geometry":{"type":"MultiPolygon","coordinates":[[[[-122.753,48.9925],[-95.1771,48.9927],[-95.1606,49.3695],[-94.8391,49.3089],[-94.7109,48.8075],[-94.5929,48.7264],[-93.8749,48.6362],[-93.7568,48.5165],[-93.3857,48.6149],[-92.9797,48.6177],[-92.6486,48.5363],[-92.7189,48.4598],[-92.4906,48.4331],[-92.3719,48.2226],[-92.291,48.2496],[-92.2816,48.3318],[-92.0705,48.3467],[-91.9755,48.2366],[-91.7441,48.1796],[-91.5748,48.0482],[-91.2764,48.0648],[-90.8738,48.2343],[-90.7503,48.084],[-90.1204,48.1154],[-89.9205,47.9875],[-89.3636,47.9796],[-88.3765,48.3051],[-84.8787,46.8979],[-84.7733,46.6334],[-84.5666,46.4612],[-84.1104,46.5265],[-84.1588,46.4333],[-84.0968,46.2248],[-83.9646,46.0632],[-83.6139,46.1156],[-83.4628,46.0078],[-83.6369,45.7739],[-83.484,45.7719],[-82.5483,45.3346],[-82.1457,43.5764],[-82.4111,43.0513],[-82.5262,42.6199],[-83.08,42.3051],[-83.1595,42.0463],[-83.0684,41.8477],[-82.6669,41.6691],[-82.4249,41.6768],[-81.2767,42.2087],[-80.2466,42.3655],[-79.0194,42.8027],[-78.9091,42.9302],[-79.032,43.0134],[-79.0584,43.2778],[-79.1743,43.4645],[-78.7508,43.6171],[-76.8415,43.6255],[-76.3278,44.1815],[-75.8703,44.4086],[-75.2702,44.8638],[-74.9037,45.0052],[-71.5041,45.0137],[-71.4066,45.2049],[-71.449,45.2269],[-71.3343,45.2887],[-71.1603,45.2458],[-70.9932,45.3478],[-70.8924,45.2346],[-70.813,45.4234],[-70.6413,45.4085],[-70.732,45.4916],[-70.6868,45.5727],[-70.4193,45.7169],[-70.4152,45.8044],[-70.2625,45.923],[-70.3163,45.983],[-70.244,46.141],[-70.2809,46.2119],[-70.0743,46.4195],[-70.0078,46.7041],[-69.2373,47.4588],[-69.0697,47.4319],[-69.0575,47.2695],[-68.9062,47.1902],[-68.2997,47.3678],[-67.8136,47.0819],[-67.7578,45.9195],[-67.807,45.7129],[-67.4313,45.5979],[-67.4932,45.4931],[-67.4288,45.3871],[-67.4713,45.2663],[-67.3192,45.1539],[-67.255,45.205],[-67.176,45.1787],[-67.0401,44.9732],[-67.2034,44.9049],[-67.1487,44.8155],[-67.0885,44.8881],[-67.0436,44.834],[-67.0593,44.8974],[-66.9773,44.8155],[-67.1965,44.6442],[-67.2805,44.6314],[-67.332,44.7095],[-67.3957,44.6988],[-67.4094,44.5958],[-67.4347,44.6592],[-67.4543,44.6046],[-67.5544,44.6441],[-67.6035,44.5281],[-67.6592,44.5667],[-67.728,44.5032],[-67.7446,44.5958],[-67.7861,44.5275],[-67.7827,44.6015],[-67.8284,44.5843],[-67.9022,44.3972],[-67.9022,44.4866],[-67.937,44.4086],[-67.9779,44.4991],[-68.0288,44.4685],[-67.9747,44.3953],[-68.0605,44.3283],[-68.1115,44.4801],[-68.1816,44.4591],[-68.202,44.5251],[-68.2221,44.4663],[-68.3081,44.529],[-68.2727,44.4519],[-68.3547,44.4661],[-68.4093,44.4046],[-68.4782,44.4934],[-68.4648,44.3898],[-68.5744,44.4108],[-68.5414,44.2373],[-68.8208,44.3146],[-68.6993,44.4097],[-68.8162,44.4021],[-68.7426,44.5373],[-68.8016,44.5603],[-68.8071,44.4729],[-68.9866,44.4212],[-68.9375,44.332],[-69.1914,43.9522],[-69.2634,43.9299],[-69.2195,44.0085],[-69.3105,43.9416],[-69.3695,43.9726],[-69.3643,44.0605],[-69.5476,43.8349],[-69.534,44.021],[-69.5924,43.8077],[-69.6701,43.8736],[-69.6296,44.0273],[-69.7592,43.8864],[-69.7463,43.8144],[-69.7047,43.842],[-69.758,43.7595],[-69.7747,44.06],[-69.8828,43.9766],[-69.8255,43.9701],[-69.7804,43.7635],[-69.8282,43.6983],[-69.8691,43.8696],[-69.8948,43.7893],[-69.9927,43.7256],[-69.9307,43.8491],[-70.0275,43.7399],[-69.9511,43.8491],[-69.9994,43.8615],[-70.2869,43.6505],[-70.2109,43.635],[-70.2049,43.5611],[-70.3437,43.5395],[-70.3216,43.4525],[-70.5705,43.2985],[-70.6601,43.0941],[-70.7334,43.1204],[-70.7085,43.0452],[-70.8092,42.8262],[-70.8638,42.8262],[-70.7571,42.6572],[-70.6823,42.6322],[-70.6317,42.6946],[-70.597,42.6345],[-70.878,42.5375],[-70.8382,42.4992],[-70.9221,42.4656],[-70.8917,42.4283],[-70.963,42.4383],[-70.9525,42.3594],[-71.0369,42.3725],[-71.0468,42.3215],[-70.9553,42.2433],[-70.8673,42.2648],[-70.8985,42.3184],[-70.7418,42.2357],[-70.5908,42.0173],[-70.6483,42.0653],[-70.7148,42.0027],[-70.545,41.9406],[-70.5043,41.79],[-70.2747,41.7363],[-70.3352,41.7192],[-70.0702,41.7735],[-70.0001,41.8163],[-69.9867,41.9212],[-70.0687,41.8933],[-70.0999,42.0374],[-70.2468,42.0615],[-70.0812,42.0584],[-69.9247,41.8381],[-69.9798,41.7971],[-69.9389,41.6742],[-70.4181,41.64],[-70.6587,41.5213],[-70.6236,41.7294],[-70.7104,41.748],[-70.8452,41.5925],[-70.9054,41.64],[-70.9476,41.5364],[-71.0402,41.5071],[-71.0624,41.5644],[-71.1859,41.4687],[-71.2069,41.6462],[-71.1107,41.7971],[-71.2604,41.6511],[-71.3913,41.8188],[-71.364,41.7121],[-71.4468,41.6772],[-71.4261,41.4687],[-71.4977,41.3663],[-71.8715,41.3026],[-72.0834,41.352],[-72.288,41.2829],[-72.3918,41.3663],[-72.3509,41.29],[-72.5079,41.2564],[-72.8924,41.245],[-72.91,41.3051],[-73.1085,41.1487],[-73.2211,41.1671],[-73.6039,41.0228],[-73.8117,40.871],[-73.7977,40.8132],[-73.8938,40.8039],[-73.8753,41.1533],[-73.9759,41.2922],[-73.9181,40.9315],[-74.0319,40.7142],[-74.2096,40.6342],[-74.2827,40.4973],[-73.993,40.4024],[-74.0182,40.4805],[-73.9792,40.4493],[-74.093,39.7763],[-74.0513,40.0354],[-74.0607,40.0622],[-74.1676,39.6994],[-74.3285,39.5762],[-74.2974,39.5086],[-74.4072,39.557],[-74.3837,39.4711],[-74.4481,39.4472],[-74.4687,39.3994],[-74.4134,39.3571],[-74.6421,39.3067],[-74.5506,39.2827],[-74.8033,38.9876],[-74.9547,38.9264],[-74.9063,39.1796],[-75.1465,39.1871],[-75.5316,39.478],[-75.5582,39.6135],[-75.4061,39.8029],[-75.1442,39.8749],[-75.0236,40.0163],[-75.1478,39.9026],[-75.3917,39.8396],[-75.5922,39.6492],[-75.5879,39.4628],[-75.398,39.2493],[-75.3938,39.0556],[-75.1955,38.8155],[-75.0843,38.796],[-75.0648,38.6326],[-75.1392,38.6881],[-75.0987,38.6384],[-75.2079,38.5695],[-75.0601,38.6125],[-75.0447,38.425],[-75.0788,38.3367],[-75.0627,38.4573],[-75.1795,38.4084],[-75.1044,38.3162],[-75.2331,38.239],[-75.4215,37.9879],[-75.4249,37.8751],[-75.8187,37.4542],[-75.7959,37.4057],[-75.8873,37.357],[-75.9491,37.125],[-76.017,37.2578],[-75.9347,37.5764],[-75.8187,37.6726],[-75.7869,37.8094],[-75.661,37.8433],[-75.743,37.9122],[-75.6331,37.96],[-75.875,37.9511],[-75.743,38.1108],[-75.9405,38.1354],[-75.8187,38.2337],[-75.9066,38.271],[-75.8433,38.4044],[-75.9627,38.248],[-75.9905,38.362],[-76.0379,38.2325],[-76.2097,38.392],[-76.2159,38.3169],[-76.319,38.4739],[-76.172,38.5662],[-76.286,38.5628],[-76.2774,38.6247],[-76.0536,38.568],[-75.9702,38.6066],[-75.9627,38.6589],[-76.0242,38.5928],[-76.1544,38.6527],[-76.1061,38.6862],[-76.1681,38.7277],[-76.1986,38.6751],[-76.2339,38.7574],[-76.2919,38.7213],[-76.288,38.7755],[-76.3413,38.6732],[-76.3047,38.8227],[-76.2532,38.855],[-76.1731,38.7566],[-76.109,38.8007],[-76.177,38.7856],[-76.1882,38.8467],[-76.1061,38.878],[-76.2472,38.9512],[-76.3747,38.8416],[-76.3153,39.0294],[-76.1976,38.9793],[-76.0651,39.1461],[-76.2426,39.0333],[-76.2726,39.168],[-76.175,39.3162],[-76.1054,39.372],[-75.8392,39.3715],[-76.0343,39.3929],[-75.9347,39.4745],[-75.8392,39.4608],[-75.8938,39.5086],[-75.8317,39.5844],[-76.0007,39.4528],[-75.9347,39.6042],[-76.083,39.5578],[-76.1204,39.4949],[-76.0675,39.4578],[-76.2097,39.3647],[-76.2325,39.4745],[-76.2842,39.3106],[-76.3115,39.4028],[-76.4015,39.3925],[-76.3326,39.351],[-76.4308,39.3181],[-76.4015,39.256],[-76.4835,39.3106],[-76.3969,39.238],[-76.4492,39.195],[-76.5708,39.2736],[-76.6232,39.2597],[-76.4333,39.1312],[-76.433,39.0672],[-76.5165,39.0756],[-76.3942,39.0246],[-76.4556,38.9887],[-76.5692,39.0664],[-76.4524,38.9439],[-76.5686,38.9525],[-76.4931,38.8989],[-76.5517,38.7756],[-76.512,38.5277],[-76.3928,38.3536],[-76.4536,38.3241],[-76.6365,38.4742],[-76.6815,38.6794],[-76.6736,38.4861],[-76.4506,38.2931],[-76.3734,38.2989],[-76.3239,38.0438],[-76.4561,38.207],[-76.5172,38.1318],[-76.6167,38.2233],[-76.8042,38.2536],[-76.8276,38.3629],[-76.8807,38.3989],[-76.8392,38.2572],[-76.9222,38.2916],[-77.0316,38.4814],[-77.2037,38.3643],[-77.2553,38.3935],[-77.2275,38.5569],[-77.0125,38.6974],[-77.0159,38.8543],[-77.0683,38.9019],[-77.0478,38.7157],[-77.1678,38.689],[-77.1349,38.6363],[-77.2299,38.6567],[-77.3143,38.4061],[-77.3587,38.4293],[-77.2908,38.3538],[-77.3431,38.3487],[-77.249,38.3299],[-77.0408,38.3959],[-77.0527,38.3168],[-76.9542,38.2102],[-76.6146,38.1504],[-76.5306,38.0251],[-76.2479,37.9035],[-76.2501,37.8228],[-76.3249,37.8487],[-76.3047,37.6379],[-76.4689,37.7086],[-76.505,37.6569],[-76.935,38.0937],[-77.0626,38.166],[-77.1339,38.166],[-76.9259,38.0588],[-76.9226,37.9808],[-76.552,37.6268],[-76.2842,37.5696],[-76.3934,37.5331],[-76.2701,37.5174],[-76.2576,37.3355],[-76.4152,37.4427],[-76.435,37.3231],[-76.3719,37.288],[-76.496,37.2491],[-76.7298,37.4945],[-76.7982,37.5044],[-76.6062,37.2958],[-76.4681,37.214],[-76.3856,37.2325],[-76.2745,37.048],[-76.4292,36.9763],[-76.6112,37.1194],[-76.634,37.2207],[-76.7438,37.1975],[-76.8602,37.3231],[-76.9315,37.2453],[-77.0036,37.3231],[-77.2743,37.3164],[-77.0172,37.2952],[-76.9732,37.24],[-76.718,37.15],[-76.67,37.185],[-76.6597,37.0433],[-76.4947,36.954],[-76.5244,36.8632],[-76.3807,36.9006],[-76.2917,36.8496],[-76.31,36.9596],[-76.0046,36.9324],[-75.8634,36.5906],[-75.7864,36.282],[-75.5238,35.7944],[-75.7195,36.01],[-75.6798,36.0367],[-75.8185,36.2968],[-75.9469,36.7185],[-75.9683,36.5517],[-75.9143,36.5759],[-75.9011,36.496],[-76.0446,36.5895],[-76.0372,36.5008],[-75.9737,36.4011],[-75.9279,36.3636],[-75.9186,36.4293],[-75.7855,36.0816],[-75.9617,36.307],[-75.9081,36.165],[-76.1988,36.3227],[-76.0635,36.162],[-76.1681,36.1308],[-76.292,36.2127],[-76.2201,36.0995],[-76.463,36.206],[-76.3115,36.0961],[-76.5773,36.0124],[-76.687,36.0561],[-76.7298,36.1817],[-76.6796,36.2875],[-76.7298,36.3227],[-76.7572,36.1271],[-76.6889,36.0067],[-76.7298,35.9453],[-76.4202,35.9813],[-76.2637,35.9248],[-76.3068,35.9578],[-76.0483,35.9837],[-76.0563,35.7934],[-76.1242,35.7946],[-76.0372,35.6988],[-76.1409,35.6988],[-76.0372,35.651],[-75.99,35.8869],[-75.8614,35.8807],[-75.9081,35.9384],[-75.8249,35.9316],[-75.8529,35.98],[-75.7218,35.8292],[-75.7839,35.5759],[-75.8863,35.6374],[-76.1504,35.3472],[-76.3553,35.4135],[-76.3736,35.3432],[-76.4183,35.4645],[-76.4984,35.3913],[-76.5752,35.4975],[-76.463,35.5412],[-76.6473,35.5207],[-76.5998,35.3951],[-77.052,35.5344],[-76.9763,35.4382],[-76.4704,35.2706],[-76.6752,35.1706],[-76.5716,35.178],[-76.5605,35.1244],[-76.7645,34.9892],[-77.0793,35.157],[-76.9403,34.9798],[-76.7572,34.9099],[-76.6318,34.987],[-76.5399,34.9321],[-76.5686,34.9932],[-76.4896,34.9726],[-76.4538,35.0734],[-76.4618,34.9406],[-76.3252,34.9757],[-76.3531,35.0272],[-76.2699,34.9726],[-76.3463,34.8832],[-76.5128,34.7344],[-76.616,34.8161],[-76.633,34.7092],[-76.6852,34.8007],[-76.7708,34.7535],[-76.702,34.7256],[-77.0933,34.677],[-77.1317,34.7624],[-77.1369,34.6824],[-77.3365,34.5611],[-77.4015,34.5891],[-77.3332,34.6498],[-77.4356,34.7535],[-77.3824,34.632],[-77.4498,34.6089],[-77.3789,34.5272],[-77.5359,34.4686],[-77.7305,34.3159],[-77.8327,34.207],[-77.8744,34.1223],[-77.9111,33.9582],[-77.942,33.9305],[-77.9216,34.1086],[-77.9626,34.1911],[-77.9495,34.0028],[-78.0178,33.8963],[-78.3747,33.9509],[-78.7633,33.7786],[-79.1331,33.4174],[-79.1835,33.2179],[-79.272,33.3173],[-79.1896,33.437],[-79.2771,33.3591],[-79.2914,33.2777],[-79.1835,33.1838],[-79.2722,33.1223],[-79.3404,33.1558],[-79.2926,33.1087],[-79.3715,33.064],[-79.387,33.0173],[-79.5848,33.0138],[-79.5887,32.9141],[-79.8287,32.7628],[-79.9438,32.8515],[-79.9676,32.7852],[-79.868,32.7381],[-79.8873,32.6881],[-80.1771,32.567],[-80.2659,32.6214],[-80.2045,32.5606],[-80.3232,32.4884],[-80.5397,32.5606],[-80.6698,32.5211],[-80.4782,32.4781],[-80.5875,32.4569],[-80.4584,32.4232],[-80.5471,32.3471],[-80.4298,32.4098],[-80.5533,32.2788],[-80.6368,32.2668],[-80.6573,32.4627],[-80.6675,32.3054],[-80.7593,32.3608],[-80.7856,32.4967],[-80.855,32.5395],[-80.7989,32.3197],[-80.6778,32.2147],[-80.8208,32.1081],[-80.7772,32.2073],[-80.788,32.2358],[-80.8945,32.0588],[-80.8357,32.0029],[-80.9374,31.9765],[-80.9582,31.8793],[-81.1182,31.9077],[-81.143,31.8549],[-81.0399,31.827],[-81.1055,31.7427],[-81.2733,31.7655],[-81.1963,31.7176],[-81.3311,31.5524],[-81.3257,31.3489],[-81.4924,31.3677],[-81.2677,31.2587],[-81.386,31.1417],[-81.4548,31.206],[-81.4926,31.1137],[-81.4054,31.0948],[-81.4241,31.0251],[-81.5135,31.0933],[-81.4508,31.0219],[-81.5197,30.9766],[-81.4508,30.9636],[-81.5334,30.8537],[-81.4993,30.7043],[-81.4286,30.6817],[-81.4378,30.5241],[-81.489,30.621],[-81.5003,30.5513],[-81.4098,30.4565],[-81.2938,29.8941],[-80.9221,29.0683],[-80.6271,28.6509],[-80.5282,28.4726],[-80.5941,28.4016],[-80.5922,28.2079],[-80.4509,27.8664],[-80.6199,28.207],[-80.6004,28.6003],[-80.7659,28.6123],[-80.7523,28.7419],[-80.8481,28.7906],[-80.7383,28.3735],[-80.381,27.6661],[-80.3454,27.5146],[-80.1978,27.196],[-80.197,27.1805],[-80.2172,27.2094],[-80.3143,27.2426],[-80.1488,27.1383],[-80.0382,26.8112],[-80.1288,25.7753],[-80.1406,25.9008],[-80.3069,25.6182],[-80.3143,25.3712],[-80.423,25.2524],[-80.4025,25.1862],[-80.5655,25.246],[-80.7109,25.1453],[-80.855,25.1862],[-81.102,25.1247],[-81.1771,25.2278],[-81.1649,25.2981],[-81.13,25.3445],[-81.0779,25.2729],[-80.9853,25.2346],[-81.0058,25.2142],[-80.9172,25.2458],[-81.1413,25.3848],[-81.3485,25.8168],[-81.6227,25.9472],[-81.732,25.9205],[-81.6644,25.9813],[-81.8009,26.0986],[-81.8559,26.4489],[-82.0087,26.4845],[-81.7804,26.715],[-82.0391,26.5279],[-82.097,26.9094],[-81.9784,26.9962],[-82.1552,26.9276],[-82.2738,27.016],[-82.1503,26.8032],[-82.3138,26.8494],[-82.5736,27.3951],[-82.6984,27.4548],[-82.7292,27.5147],[-82.6575,27.4617],[-82.6608,27.5203],[-82.5892,27.5032],[-82.637,27.5237],[-82.39,27.8111],[-82.4217,27.9172],[-82.5271,27.8248],[-82.5411,27.9428],[-82.691,28.0377],[-82.6444,27.9687],[-82.7189,27.9278],[-82.5619,27.8862],[-82.654,27.6951],[-82.8151,27.8322],[-82.7394,27.7286],[-82.7189,27.6597],[-82.8424,27.8285],[-82.7873,28.1938],[-82.6642,28.4479],[-82.6319,28.6953],[-82.6847,28.8048],[-82.6301,28.7844],[-82.6336,28.8876],[-82.7272,28.9592],[-82.8009,29.1747],[-83.0407,29.1801],[-83.2157,29.4106],[-83.4048,29.5317],[-83.3973,29.6545],[-83.5438,29.7281],[-83.6806,29.9213],[-84.024,30.1066],[-84.2091,30.1071],[-84.3836,30.0319],[-84.3463,29.9699],[-84.4535,30.0052],[-84.4661,29.9897],[-84.343,29.9468],[-84.349,29.902],[-84.3773,29.8874],[-84.5084,29.9221],[-84.8754,29.7332],[-84.8733,29.8046],[-85.0043,29.716],[-85.3461,29.6784],[-85.3916,29.716],[-85.4135,29.8514],[-85.3205,29.6933],[-85.3565,29.8887],[-85.6796,30.1343],[-85.4424,30.0202],[-85.395,30.0556],[-85.4621,30.0349],[-85.4946,30.1406],[-85.5697,30.1139],[-85.7205,30.1958],[-85.5555,30.2851],[-85.5868,30.3261],[-85.7086,30.247],[-85.7547,30.3193],[-85.8544,30.2648],[-85.756,30.2316],[-85.7205,30.1343],[-86.066,30.3061],[-86.5109,30.4076],[-86.1078,30.3867],[-86.2071,30.5049],[-86.4084,30.4614],[-86.4884,30.5241],[-86.6023,30.4183],[-86.7825,30.4223],[-87.1941,30.3603],[-86.8938,30.4389],[-87.0135,30.5113],[-86.9607,30.5595],[-87.0296,30.6073],[-87.0774,30.4497],[-87.1806,30.5847],[-87.1568,30.4745],[-87.3288,30.3197],[-87.5292,30.2777],[-87.3456,30.4277],[-87.4268,30.4831],[-87.3921,30.4497],[-87.4737,30.3592],[-87.6118,30.3603],[-87.5902,30.2754],[-87.6545,30.2521],[-88.0301,30.2238],[-87.7642,30.2795],[-87.8213,30.4047],[-87.9114,30.4136],[-87.9125,30.5837],[-88.0301,30.7377],[-88.1377,30.3198],[-88.3354,30.4039],[-88.4706,30.3239],[-88.5912,30.395],[-88.7421,30.3541],[-88.9276,30.4422],[-88.9823,30.4223],[-88.8594,30.4081],[-89.2535,30.3193],[-89.3319,30.3771],[-89.4425,30.1898],[-89.5959,30.1559],[-90.1894,30.3908],[-90.405,30.2202],[-90.4141,30.1066],[-90.1684,30.0245],[-89.9964,30.0524],[-89.8804,30.1549],[-89.7888,30.0989],[-89.7364,30.1753],[-89.7432,30.0996],[-89.6674,30.164],[-89.7179,30.0333],[-89.8404,30.0114],[-89.6645,29.8755],[-89.4862,30.0764],[-89.366,30.0487],[-89.4547,29.9764],[-89.3702,29.9508],[-89.4347,29.9289],[-89.3317,29.8799],[-89.3453,29.7917],[-89.4136,29.7644],[-89.4825,29.8333],[-89.6015,29.7348],[-89.4825,29.6341],[-89.7023,29.7098],[-89.6197,29.6273],[-89.7569,29.6341],[-89.5235,29.4696],[-89.5399,29.3978],[-89.1971,29.3535],[-89.1474,29.2368],[-89.0102,29.1747],[-89.097,29.1596],[-89.0232,29.1474],[-89.0648,29.086],[-89.0989,29.1195],[-89.1337,28.9962],[-89.2477,29.1059],[-89.4136,28.9284],[-89.2762,29.1601],[-89.3218,29.182],[-89.3837,29.0878],[-89.4552,29.2505],[-89.8181,29.3162],[-89.7438,29.3698],[-89.8163,29.4744],[-89.9416,29.4644],[-90.182,29.5795],[-90.2103,29.5151],[-90.0238,29.4286],[-90.0176,29.2983],[-90.095,29.2838],[-90.0802,29.1747],[-90.2292,29.0867],[-90.2608,29.2695],[-90.3391,29.3113],[-90.3937,29.2431],[-90.4344,29.3572],[-90.4831,29.2908],[-90.6028,29.3076],[-90.6407,29.1406],[-90.758,29.1159],[-90.8462,29.1822],[-90.884,29.1338],[-91.328,29.2949],[-91.223,29.3802],[-91.154,29.2505],[-91.1131,29.271],[-91.2626,29.4691],[-91.2284,29.6081],[-91.2987,29.4838],[-91.429,29.5658],[-91.5593,29.5385],[-91.6379,29.7421],[-91.8585,29.7191],[-91.8475,29.8312],[-92.2024,29.7644],[-92.1723,29.6955],[-92.1,29.7098],[-92.1074,29.6204],[-92.0249,29.6273],[-92.3143,29.5344],[-93.1996,29.7728],[-93.831,29.7001],[-93.8937,29.7908],[-93.7819,29.8565],[-93.76,29.9606],[-93.8541,29.9866],[-93.9381,29.8059],[-93.8758,29.675],[-94.102,29.6706],[-94.7628,29.3665],[-94.701,29.4628],[-94.5045,29.526],[-94.486,29.5661],[-94.779,29.5299],[-94.6927,29.6963],[-94.7341,29.7822],[-94.9196,29.6553],[-95.0523,29.7497],[-94.9858,29.675],[-95.0239,29.5422],[-94.8211,29.374],[-95.1159,29.1747],[-95.1705,29.2089],[-95.1589,29.0457],[-95.6019,28.7639],[-95.952,28.6887],[-95.9402,28.6257],[-95.7192,28.7155],[-96.2189,28.4895],[-95.9878,28.6448],[-96.2265,28.5871],[-96.1369,28.6267],[-96.2154,28.6294],[-96.1881,28.6909],[-96.3458,28.6353],[-96.3833,28.73],[-96.4448,28.7639],[-96.3697,28.6267],[-96.4276,28.5954],[-96.4932,28.5789],[-96.4471,28.6356],[-96.6509,28.7297],[-96.6086,28.5789],[-96.4932,28.5106],[-96.5476,28.4693],[-96.4038,28.4349],[-96.6537,28.3195],[-96.7933,28.4797],[-96.767,28.4107],[-96.8445,28.4156],[-96.7823,28.2416],[-96.8802,28.1506],[-96.9451,28.1265],[-96.9103,28.2636],[-96.973,28.1339],[-97.014,28.209],[-97.1732,28.159],[-97.2175,28.0748],[-97.1491,28.0055],[-97.0211,28.1003],[-97.1841,27.8366],[-97.5211,27.8732],[-97.3907,27.8459],[-97.3718,27.7553],[-97.2596,27.6951],[-97.4112,27.335],[-97.5416,27.2904],[-97.4613,27.3437],[-97.4869,27.4002],[-97.6302,27.3002],[-97.7743,27.4685],[-97.6676,27.3109],[-97.7606,27.2791],[-97.4261,27.2637],[-97.4807,27.022],[-97.5628,26.9937],[-97.4813,26.8776],[-97.5484,26.8999],[-97.562,26.8379],[-97.493,26.7917],[-97.4186,26.502],[-97.4726,26.4958],[-97.3402,26.3416],[-97.3105,26.1233],[-97.212,26.0912],[-97.2556,25.9989],[-97.1518,26.075],[-97.1375,25.9745],[-97.3284,25.9333],[-97.366,25.8439],[-97.6599,26.0307],[-98.2227,26.0754],[-98.4288,26.2177],[-98.6537,26.2443],[-98.8013,26.3721],[-99.1064,26.423],[-99.2483,26.8271],[-99.4617,27.057],[-99.432,27.2076],[-99.5214,27.3113],[-99.4729,27.4266],[-99.515,27.5886],[-99.8329,27.7768],[-100.0565,28.1379],[-100.2751,28.2772],[-100.3226,28.5104],[-100.6243,28.9247],[-100.669,29.1162],[-101.0378,29.4601],[-101.2129,29.5316],[-101.2339,29.6227],[-101.3122,29.5979],[-101.4051,29.7784],[-102.1093,29.8021],[-102.321,29.8939],[-102.4061,29.7773],[-102.691,29.7368],[-102.8831,29.3438],[-102.8588,29.2291],[-102.9884,29.1771],[-103.1228,28.9965],[-103.3866,29.0288],[-103.7837,29.2748],[-104.0573,29.339],[-104.5166,29.6543],[-104.6805,29.9423],[-104.6816,30.1929],[-104.9343,30.6105],[-105.3638,30.8504],[-105.9612,31.371],[-106.2092,31.4773],[-106.3918,31.7459],[-108.2151,31.7778],[-108.2148,31.3274],[-111.0671,31.3336],[-114.8221,32.5002],[-114.7243,32.7128],[-117.1251,32.5317],[-117.2262,32.6972],[-117.1151,32.6003],[-117.1332,32.6898],[-117.1746,32.7267],[-117.2553,32.6914],[-117.3222,33.1085],[-117.5088,33.3352],[-118.1174,33.7436],[-118.1929,33.7317],[-118.2215,33.7709],[-118.2546,33.7654],[-118.2768,33.7566],[-118.2913,33.7032],[-118.412,33.7417],[-118.3914,33.8359],[-118.5141,34.0222],[-118.807,33.9994],[-119.1287,34.1005],[-119.2812,34.2687],[-119.5632,34.4148],[-120.4541,34.4428],[-120.6366,34.5629],[-120.6449,35.1394],[-120.8767,35.2238],[-120.8314,35.3361],[-120.8873,35.4329],[-121.2883,35.6648],[-121.5067,36.0033],[-121.8997,36.3044],[-121.9811,36.5837],[-121.7637,36.7221],[-121.8042,36.836],[-121.9056,36.9691],[-122.135,36.9657],[-122.3393,37.1186],[-122.4492,37.4767],[-122.5205,37.5314],[-122.5152,37.7811],[-122.4086,37.8104],[-122.3741,37.6042],[-122.1002,37.4551],[-122.0321,37.4634],[-122.2518,37.7228],[-122.2173,37.7585],[-122.3315,37.7824],[-122.3139,37.8858],[-122.4297,37.9643],[-122.3663,38.0123],[-122.227,38.0584],[-122.1479,38.0236],[-121.69,38.0091],[-121.6067,38.0994],[-121.6128,38.0215],[-121.5693,38.0658],[-121.4454,38.0039],[-121.6041,38.1058],[-121.7787,38.036],[-121.6826,38.1472],[-121.8982,38.0532],[-122.0552,38.1337],[-122.1303,38.0421],[-122.3965,38.1532],[-122.5023,38.1135],[-122.4453,37.9851],[-122.5034,37.9248],[-122.4388,37.8821],[-122.499,37.8936],[-122.4704,37.8318],[-122.5284,37.8164],[-122.9201,38.0653],[-122.9625,37.992],[-123.0275,37.9945],[-122.9496,38.144],[-122.9963,38.2427],[-122.8257,38.0721],[-122.8323,38.0959],[-123.0023,38.2949],[-123.0624,38.2959],[-123.1287,38.4493],[-123.7262,38.9186],[-123.6891,39.0279],[-123.8249,39.3473],[-123.7694,39.5637],[-123.854,39.8335],[-124.3635,40.2615],[-124.4092,40.4438],[-124.2397,40.7587],[-124.2258,40.6861],[-124.1827,40.7999],[-124.0874,40.8252],[-124.1513,40.8633],[-124.2328,40.7666],[-124.1104,41.0153],[-124.1641,41.1322],[-124.0683,41.5393],[-124.1595,41.7367],[-124.2629,41.7764],[-124.2037,41.9712],[-124.3596,42.113],[-124.4328,42.3293],[-124.3999,42.6157],[-124.5668,42.834],[-124.4449,43.03],[-124.4013,43.3101],[-124.3421,43.3521],[-124.3165,43.2998],[-124.2329,43.4241],[-124.2129,43.3747],[-124.14,43.3753],[-124.2087,43.4522],[-124.3352,43.3653],[-124.2098,43.6566],[-124.1747,43.673],[-124.1398,43.7331],[-124.109,43.7061],[-124.0702,43.7117],[-124.1488,43.7476],[-124.2029,43.6808],[-124.1141,44.3074],[-124.0844,44.4117],[-124.0179,44.4098],[-124.0844,44.4981],[-124.0632,44.6095],[-124.0048,44.6163],[-124.078,44.6749],[-123.9711,45.1537],[-124.0018,45.3445],[-123.9184,45.4177],[-123.9711,45.452],[-123.9488,45.5572],[-123.8905,45.4755],[-123.9579,45.5762],[-123.8711,45.6979],[-123.9379,45.6606],[-123.9811,45.7603],[-123.9905,45.9379],[-123.9233,46.014],[-124.0227,46.2308],[-123.7987,46.1024],[-123.8654,46.1865],[-123.5193,46.2353],[-123.3855,46.1462],[-123.2564,46.1333],[-123.1801,46.1791],[-123.2979,46.1515],[-123.4557,46.267],[-123.693,46.3052],[-123.873,46.2402],[-124.0093,46.3135],[-124.0802,46.2717],[-124.0629,46.6549],[-124.0143,46.3851],[-123.9581,46.3782],[-123.9269,46.4401],[-123.8406,46.4158],[-123.9358,46.4723],[-123.8964,46.5444],[-123.9564,46.6231],[-123.8949,46.6027],[-123.8773,46.6921],[-123.8119,46.6626],[-123.764,46.6784],[-124.0934,46.7432],[-124.1268,46.8985],[-124.0213,46.8323],[-124.0469,46.8911],[-123.8131,46.959],[-124.1169,47.0429],[-124.1058,46.9334],[-124.1785,46.9255],[-124.1998,47.1875],[-124.3178,47.3574],[-124.4228,47.7419],[-124.672,47.9907],[-124.7346,48.1704],[-124.6615,48.3195],[-124.7275,48.3877],[-123.971,48.1656],[-123.2469,48.1153],[-123.15,48.1771],[-123.1083,48.1838],[-123.1613,48.1519],[-123.0079,48.0386],[-122.9275,48.0951],[-122.8733,47.9937],[-122.8249,48.0352],[-122.8778,48.1066],[-122.7702,48.1411],[-122.792,48.0829],[-122.6201,47.8776],[-122.8004,47.6799],[-122.8057,47.8435],[-122.8392,47.782],[-122.8564,47.8261],[-122.8392,47.7466],[-123.1613,47.3568],[-123.0741,47.3446],[-122.8392,47.432],[-123.1135,47.391],[-122.949,47.5971],[-122.7635,47.6691],[-122.6236,47.8472],[-122.571,47.8198],[-122.6132,47.946],[-122.5281,47.9055],[-122.4684,47.7565],[-122.558,47.7404],[-122.5959,47.692],[-122.661,47.7305],[-122.5922,47.5827],[-122.6969,47.6231],[-122.6392,47.5771],[-122.6815,47.5275],[-122.5531,47.5834],[-122.5079,47.5203],[-122.5685,47.2641],[-122.6863,47.3012],[-122.6279,47.38],[-122.6331,47.4046],[-122.7259,47.3391],[-122.7728,47.1731],[-122.8057,47.3978],[-123.0788,47.1303],[-122.9302,47.1745],[-123.0105,47.0825],[-122.9354,47.1303],[-122.8933,47.0473],[-122.9012,47.1303],[-122.8171,47.1657],[-122.7225,47.0893],[-122.5716,47.2093],[-122.5375,47.3159],[-122.4331,47.2649],[-122.3285,47.3571],[-122.409,47.5749],[-122.34,47.5989],[-122.4288,47.6604],[-122.4044,47.7976],[-122.1917,48.0263],[-122.3402,48.09],[-122.3756,48.2132],[-122.4695,48.1771],[-122.348,48.0543],[-122.5104,48.1474],[-122.534,48.2497],[-122.4008,48.2353],[-122.3859,48.3038],[-122.5589,48.434],[-122.6835,48.4302],[-122.7024,48.498],[-122.633,48.5163],[-122.4889,48.4549],[-122.567,48.5854],[-122.4403,48.5807],[-122.5086,48.7557],[-122.6673,48.7319],[-122.8081,48.9345],[-122.753,48.9925]]],[[[-141.0056,69.6509],[-140.9949,60.3044],[-140.5337,60.2185],[-140.4241,60.2932],[-140.0158,60.1874],[-139.6798,60.3268],[-139.0795,60.341],[-139.1821,60.0734],[-138.7049,59.8985],[-138.5992,59.7538],[-137.6114,59.2393],[-137.4869,58.9001],[-136.8408,59.1482],[-136.5695,59.1722],[-136.4665,59.2878],[-136.4676,59.4616],[-136.32,59.4591],[-136.2447,59.5282],[-136.3503,59.5924],[-135.4828,59.7925],[-135.2599,59.6982],[-135.0185,59.5594],[-135.0958,59.4189],[-134.9933,59.3819],[-134.9578,59.281],[-134.6921,59.2352],[-134.451,59.0979],[-134.3994,58.975],[-134.2222,58.8427],[-133.8311,58.718],[-133.3922,58.4039],[-133.415,58.3305],[-132.231,57.1968],[-132.3412,57.0804],[-132.0319,57.0284],[-132.1074,56.8588],[-131.8716,56.7935],[-131.8256,56.5933],[-131.5604,56.5941],[-130.7603,56.3452],[-130.4723,56.2249],[-130.404,56.1219],[-130.0715,56.0841],[-130.0196,55.908],[-130.1737,55.7495],[-130.147,55.5472],[-129.9892,55.284],[-130.3654,54.9073],[-130.6913,54.7626],[-130.7525,54.9694],[-130.7452,54.8217],[-130.8319,54.7654],[-130.9342,54.8244],[-130.9397,54.9589],[-131.0094,54.9983],[-130.971,55.0612],[-130.7203,55.081],[-130.4616,55.3319],[-130.7599,55.097],[-130.8111,55.1469],[-130.9708,55.0854],[-131.057,55.1263],[-131.0576,55.1987],[-130.9247,55.294],[-130.6125,55.2971],[-130.6564,55.3523],[-130.8619,55.3122],[-130.8868,55.7086],[-130.9619,55.783],[-130.9204,55.8105],[-131.1964,55.9714],[-131.0097,56.1126],[-131.3419,55.9609],[-131.4144,56.0102],[-131.9147,55.8594],[-131.7638,55.7973],[-131.8669,55.7291],[-131.8277,55.6679],[-131.8805,55.5987],[-132.004,55.6676],[-131.9289,55.5893],[-131.9614,55.501],[-132.1716,55.5885],[-132.2662,55.7563],[-132.1679,55.7228],[-132.1689,55.8023],[-132.0462,55.8173],[-132.0569,55.9445],[-131.9498,55.9721],[-131.963,56.1574],[-131.5795,56.1791],[-131.4895,56.2225],[-131.9078,56.2327],[-131.9801,56.3659],[-132.161,56.3802],[-132.2033,56.4713],[-132.3449,56.529],[-132.305,56.6402],[-132.5402,56.6315],[-132.4565,56.675],[-132.531,56.7086],[-132.3597,56.8184],[-132.5148,56.7554],[-132.7614,56.8458],[-132.922,56.9829],[-132.7677,56.9697],[-132.7954,57.0927],[-132.8777,57.0213],[-133.1652,57.086],[-133.1211,57.1443],[-133.1676,57.1696],[-133.317,57.1025],[-133.552,57.1815],[-133.4719,57.2819],[-133.2548,57.2811],[-133.0584,57.3319],[-133.0381,57.3671],[-133.4195,57.3439],[-133.4565,57.3808],[-133.3359,57.4382],[-133.4542,57.4318],[-133.4974,57.5316],[-133.3131,57.593],[-133.5914,57.5746],[-133.6483,57.7028],[-133.5663,57.7165],[-133.0455,57.5036],[-133.004,57.5179],[-133.5289,57.7509],[-133.552,57.9151],[-133.1241,57.8571],[-133.5543,57.9294],[-133.6864,57.7907],[-133.8612,57.9567],[-133.6914,57.942],[-133.6693,58.0175],[-133.765,58.0622],[-133.6824,58.1553],[-133.8644,57.987],[-134.0597,58.0722],[-134.0864,58.1963],[-134.0666,58.2851],[-133.9824,58.3156],[-134.0045,58.4086],[-133.7718,58.5246],[-133.9766,58.5048],[-134.1579,58.2043],[-134.498,58.3539],[-134.7562,58.3815],[-134.7829,58.4931],[-134.9914,58.6829],[-134.9157,58.6556],[-134.9504,58.8201],[-135.0255,58.7375],[-135.149,58.8437],[-135.2296,59.1259],[-135.3618,59.2708],[-135.3483,59.4706],[-135.4144,59.3006],[-135.5538,59.3198],[-135.3595,59.2138],[-135.3074,59.087],[-135.4233,59.2051],[-135.5538,59.2304],[-135.375,59.087],[-135.3858,58.9543],[-135.1627,58.6345],[-135.2262,58.6123],[-135.0573,58.3515],[-135.0938,58.2373],[-135.3505,58.2768],[-135.4849,58.484],[-135.478,58.3738],[-135.6275,58.4263],[-135.9094,58.3813],[-135.8759,58.4632],[-135.9503,58.4564],[-135.9503,58.4632],[-135.848,58.47],[-135.8896,58.5799],[-135.8207,58.6003],[-136.0739,58.8126],[-135.773,58.9045],[-135.964,58.9225],[-136.0465,58.861],[-136.0329,58.9225],[-136.1574,59.0376],[-136.141,58.9548],[-136.2247,58.9225],[-136.1178,58.9333],[-136.0999,58.8537],[-136.2097,58.7508],[-136.3824,58.8065],[-136.2595,58.8263],[-136.4752,58.8366],[-136.4923,58.9709],[-136.5741,58.9157],[-136.712,59.0256],[-136.6335,58.8918],[-137.0595,59.0637],[-136.9037,58.9324],[-137.013,58.9225],[-137.1297,58.8263],[-136.9947,58.8934],[-136.5876,58.8483],[-136.4848,58.7996],[-136.6499,58.8201],[-136.5159,58.7024],[-136.4376,58.6693],[-136.4919,58.7492],[-136.3426,58.6916],[-136.5257,58.614],[-136.3277,58.6003],[-136.293,58.6693],[-136.1282,58.5707],[-136.211,58.5246],[-136.0825,58.5164],[-136.0267,58.3881],[-136.2728,58.313],[-136.3277,58.4086],[-136.5059,58.4427],[-136.5611,58.3738],[-136.4101,58.3793],[-136.3706,58.2995],[-136.6205,58.3539],[-136.5611,58.2578],[-136.6648,58.2204],[-136.6772,58.3056],[-136.8491,58.3266],[-136.8605,58.3824],[-137.1123,58.395],[-137.6315,58.6062],[-137.4381,58.6556],[-137.6706,58.6332],[-137.9261,58.7957],[-137.9844,58.92],[-138.2879,59.0808],[-138.61,59.128],[-138.4491,59.1916],[-138.6305,59.1422],[-139.857,59.5463],[-139.6449,59.5727],[-139.4801,59.7044],[-139.6211,59.8903],[-139.4732,59.9936],[-139.3052,59.8647],[-139.342,59.7204],[-139.2673,59.6214],[-139.3431,59.6009],[-139.2899,59.5762],[-139.2264,59.6214],[-139.2804,59.8337],[-139.0364,59.8469],[-138.9453,59.8071],[-138.8974,59.8132],[-139.0283,59.8615],[-139.239,59.8783],[-139.5209,60.0515],[-139.849,59.8194],[-140.3227,59.7012],[-141.454,59.8821],[-141.2673,59.9556],[-141.2821,60.0665],[-141.3777,60.1422],[-141.4776,60.1111],[-141.3929,60.022],[-141.6735,59.9611],[-142.7985,60.1124],[-143.9186,59.997],[-144.2496,60.0323],[-144.0026,60.0397],[-144.2526,60.1546],[-144.1964,60.2056],[-144.5711,60.1906],[-144.7699,60.3027],[-144.9416,60.3066],[-144.7908,60.4649],[-144.887,60.4854],[-144.7606,60.6728],[-144.6228,60.717],[-144.7561,60.684],[-145.2695,60.3571],[-145.5726,60.4511],[-145.9388,60.4561],[-145.629,60.6791],[-145.8446,60.621],[-145.8392,60.6977],[-146.0037,60.6356],[-145.9388,60.7082],[-146.2632,60.6537],[-146.0261,60.7448],[-146.0434,60.801],[-146.4823,60.687],[-146.6957,60.7448],[-146.0931,60.841],[-146.2235,60.8926],[-146.3583,60.8223],[-146.6283,60.8273],[-146.6114,60.8771],[-146.7533,60.955],[-146.5858,60.9447],[-146.6998,60.9769],[-146.6622,61.0403],[-146.5705,61.0307],[-146.6479,61.0738],[-146.2364,61.0943],[-146.278,61.1227],[-146.6094,61.1308],[-146.9767,60.9458],[-147.0316,60.9577],[-146.9838,61.0056],[-147.1653,60.9509],[-147.2879,61.007],[-147.2573,60.9379],[-147.3646,60.8913],[-147.4499,60.9025],[-147.381,60.9857],[-147.4496,60.9577],[-147.4226,61.0124],[-147.5421,60.9133],[-147.484,61.0738],[-147.5611,61.1559],[-147.6653,61.0146],[-147.6074,61.0034],[-147.599,60.8691],[-147.7305,60.8895],[-147.7031,60.9509],[-147.813,60.8758],[-147.7546,60.841],[-147.8702,60.8377],[-147.9381,60.9088],[-148.0504,60.9501],[-147.7021,61.2132],[-147.7652,61.2185],[-147.7305,61.2799],[-148.0494,61.0266],[-148.1459,61.1179],[-148.4095,61.0601],[-148.3611,61.0465],[-148.4498,60.9919],[-148.1488,61.0601],[-148.2519,60.9547],[-148.3331,60.9714],[-148.3072,60.8527],[-148.3958,60.8616],[-148.3329,60.8194],[-148.5234,60.8404],[-148.7037,60.7927],[-148.4498,60.8001],[-148.6112,60.7629],[-148.6675,60.6745],[-148.3747,60.7796],[-148.4299,60.6287],[-148.2307,60.7728],[-148.255,60.7186],[-148.1966,60.6287],[-148.337,60.5406],[-148.4885,60.5822],[-148.6899,60.4572],[-148.4702,60.5462],[-148.2375,60.4575],[-148.2341,60.5224],[-148.1846,60.5578],[-148.1664,60.5016],[-148.0836,60.6049],[-147.9359,60.4612],[-148.1823,60.4165],[-148.1424,60.3552],[-148.2546,60.379],[-148.2409,60.2977],[-148.3909,60.2774],[-148.443,60.1837],[-148.2258,60.2604],[-148.2102,60.1558],[-148.1003,60.2209],[-148.1888,60.1348],[-148.3331,60.1701],[-148.4354,59.9593],[-148.546,60.0323],[-148.6456,59.9232],[-149.1069,59.969],[-149.0388,60.0528],[-149.1031,60.0581],[-149.2859,59.8747],[-149.2933,60.0118],[-149.4087,60.1237],[-149.4444,60.0629],[-149.3889,59.9975],[-149.6279,59.8283],[-149.5267,59.7176],[-149.6359,59.7449],[-149.6501,59.9123],[-149.7247,59.9641],[-149.7659,59.8397],[-149.8681,59.848],[-149.7691,59.7865],[-149.7461,59.6672],[-150.0317,59.7993],[-149.9165,59.7176],[-150.0127,59.6282],[-150.1193,59.7003],[-150.0878,59.5947],[-150.348,59.47],[-150.3832,59.4979],[-150.2244,59.7154],[-150.4795,59.4674],[-150.5533,59.5357],[-150.4925,59.6009],[-150.657,59.5525],[-150.5812,59.4979],[-150.6093,59.4387],[-150.9177,59.3266],[-150.892,59.2575],[-150.9586,59.2037],[-151.0426,59.2972],[-151.2435,59.3184],[-151.0972,59.2326],[-151.4096,59.2601],[-151.7415,59.1671],[-151.9772,59.2794],[-151.925,59.3539],[-151.8152,59.3539],[-151.894,59.4128],[-151.6891,59.4803],[-151.3822,59.4448],[-151.4415,59.5322],[-151.1741,59.6001],[-151.2014,59.6412],[-150.9928,59.779],[-151.4726,59.6357],[-151.4105,59.6077],[-151.8718,59.7495],[-151.725,60.0249],[-151.4296,60.2164],[-151.3902,60.3594],[-151.306,60.3869],[-151.2828,60.5371],[-151.3969,60.738],[-151.0715,60.7853],[-150.387,61.0473],[-150.2253,60.9372],[-149.7529,60.9738],[-149.0258,60.8547],[-149.1693,60.947],[-149.3579,60.9338],[-150.0673,61.1557],[-149.6834,61.3994],[-149.2456,61.499],[-149.4282,61.5132],[-149.7574,61.4534],[-149.9838,61.2463],[-150.4996,61.2617],[-150.5403,61.3693],[-150.5849,61.2946],[-151.0399,61.1774],[-151.1771,61.0539],[-151.5668,60.9945],[-151.8077,60.8479],[-151.7114,60.7257],[-151.8698,60.7591],[-152.0514,60.6732],[-152.3296,60.4925],[-152.2459,60.396],[-152.5963,60.2285],[-152.8908,60.2514],[-152.9386,60.3135],[-153.0826,60.2998],[-152.9566,60.2939],[-152.9227,60.2372],[-152.5786,60.0701],[-152.7379,59.9084],[-153.2434,59.8625],[-153.2881,59.82],[-153.0001,59.8132],[-153.1662,59.664],[-153.4252,59.6494],[-153.3222,59.7176],[-153.4526,59.7927],[-153.4907,59.6501],[-153.6227,59.6952],[-153.7064,59.632],[-153.566,59.6093],[-153.5864,59.5675],[-153.8771,59.5463],[-153.7411,59.4977],[-153.7515,59.4403],[-154.1453,59.3812],[-153.9534,59.3613],[-154.1278,59.2942],[-154.1308,59.2082],[-154.2613,59.1484],[-154.1773,59.1298],[-154.1651,59.0256],[-154.022,59.0839],[-153.7115,59.0707],[-153.2642,58.8574],[-153.3631,58.8474],[-153.6088,58.6444],[-153.8994,58.6167],[-153.9424,58.5029],[-154.1105,58.4775],[-154.0002,58.3856],[-154.3644,58.2851],[-154.1213,58.2797],[-154.2477,58.2578],[-154.1654,58.2394],[-154.1881,58.1982],[-154.3023,58.1963],[-154.2468,58.1264],[-154.337,58.1621],[-154.3528,58.0822],[-154.4941,58.2031],[-154.4698,58.0898],[-154.6108,58.1206],[-154.5456,58.0711],[-154.5831,58.025],[-154.6699,58.0723],[-154.7789,58.0051],[-155.0231,58.0256],[-155.1253,57.9567],[-155.0687,57.8974],[-155.337,57.8332],[-155.3103,57.7404],[-155.6051,57.7922],[-155.5908,57.6755],[-155.7714,57.6447],[-155.7416,57.5521],[-156.0205,57.5768],[-156.1047,57.5316],[-156.0427,57.5073],[-156.0607,57.4302],[-156.2146,57.4763],[-156.5446,57.3227],[-156.34,57.2853],[-156.4474,57.2299],[-156.3512,57.1883],[-156.3759,57.1433],[-156.5231,57.0458],[-156.6454,57.0586],[-156.5498,56.9829],[-156.7848,57.0491],[-156.8094,56.9067],[-156.9613,56.9766],[-156.9409,56.9145],[-157.0917,56.8258],[-157.191,56.8497],[-157.1894,56.7763],[-157.4197,56.8674],[-157.4685,56.8289],[-157.4063,56.7637],[-157.6056,56.7222],[-157.4827,56.6203],[-157.6647,56.6114],[-157.7729,56.6844],[-158.1332,56.5303],[-157.869,56.569],[-157.8771,56.4782],[-158.1263,56.5167],[-158.1383,56.4655],[-158.431,56.4381],[-158.6464,56.2707],[-158.5372,56.2498],[-158.5605,56.2993],[-158.473,56.3428],[-158.2082,56.2839],[-158.4144,56.2021],[-158.1195,56.2362],[-158.3597,56.1269],[-158.4097,56.1808],[-158.4076,56.0784],[-158.5032,56.1016],[-158.4276,56.0065],[-158.6047,56.0523],[-158.4792,56.1915],[-158.6396,56.2021],[-158.5646,56.1679],[-158.7023,56.1474],[-158.6829,55.9584],[-158.8594,56.0129],[-158.9283,55.9208],[-159.3559,55.8795],[-159.4217,55.7905],[-159.4696,55.9003],[-159.545,55.8896],[-159.5037,55.7669],[-159.6265,55.5783],[-159.7569,55.5987],[-159.617,55.6352],[-159.7097,55.6676],[-159.6334,55.7011],[-159.6818,55.7427],[-159.6252,55.8127],[-159.8458,55.8512],[-159.8568,55.7905],[-160.0381,55.7973],[-160.0654,55.7011],[-160.1554,55.7365],[-160.1641,55.6571],[-160.4421,55.6466],[-160.3664,55.6055],[-160.4952,55.4862],[-160.6135,55.6055],[-160.7681,55.5454],[-160.6754,55.5219],[-160.6834,55.4647],[-160.9246,55.5191],[-161.2792,55.3549],[-161.5184,55.3834],[-161.3887,55.5722],[-161.1449,55.535],[-161.4082,55.6359],[-161.6208,55.613],[-161.7164,55.5131],[-161.7164,55.3933],[-161.9024,55.2178],[-162.046,55.2356],[-161.9566,55.1257],[-162.0013,55.0932],[-162.128,55.103],[-162.1013,55.1679],[-162.2309,55.1127],[-162.2021,55.0399],[-162.4493,55.0403],[-162.5174,55.1147],[-162.3607,55.1053],[-162.6453,55.3],[-162.7183,55.2179],[-162.6141,55.1663],[-162.6428,55.0711],[-162.5599,54.9612],[-162.6495,55.053],[-162.7528,54.9449],[-162.8776,54.939],[-162.9744,55.0095],[-162.9196,55.0199],[-163.1831,55.1391],[-163.2384,55.1053],[-163.2055,55.019],[-163.0499,54.9418],[-163.3414,54.8111],[-163.3898,54.8589],[-163.2799,54.9135],[-163.3476,54.9408],[-163.246,54.97],[-163.3345,55.1195],[-163.0247,55.2456],[-163.0765,55.1806],[-162.962,55.169],[-162.8337,55.2294],[-162.8964,55.2667],[-162.6418,55.3803],[-162.4971,55.374],[-162.5289,55.4479],[-162.6214,55.4069],[-162.227,55.6979],[-161.8,55.8897],[-161.1553,56.017],[-161.3675,55.9556],[-160.8741,55.9931],[-160.8605,55.9345],[-161.0234,55.8908],[-160.6896,55.6979],[-160.7916,55.8867],[-160.2435,55.7768],[-160.3192,55.8253],[-160.251,55.8525],[-160.5663,55.9283],[-160.5799,55.9897],[-160.3687,56.2768],[-160.1887,56.3869],[-159.7457,56.5793],[-159.2089,56.6955],[-159.2634,56.7086],[-158.8892,56.8896],[-159.0249,56.7966],[-158.945,56.8429],[-158.6396,56.7637],[-158.6821,57.022],[-158.3124,57.3149],[-158.0581,57.3671],[-157.9613,57.4842],[-157.7578,57.5643],[-157.6807,57.5725],[-157.6567,57.4836],[-157.4138,57.4899],[-157.3921,57.5663],[-157.4548,57.5521],[-157.4138,57.4975],[-157.5954,57.4932],[-157.6022,57.624],[-157.7099,57.6525],[-157.6055,58.1052],[-157.3842,58.2071],[-157.1395,58.1684],[-157.4827,58.2304],[-157.5621,58.3637],[-157.4361,58.5216],[-156.9409,58.7375],[-157.078,58.7574],[-156.7832,59.1552],[-157.0845,58.8867],[-158.2034,58.613],[-158.5577,58.8065],[-158.4993,58.9488],[-158.4211,58.9771],[-158.4975,58.994],[-158.1728,59.013],[-158.0301,58.8791],[-157.9954,58.9083],[-158.1402,59.0362],[-158.4416,59.087],[-158.5441,59.1758],[-158.4621,59.0528],[-158.7295,58.8736],[-158.7905,58.9634],[-158.7464,58.9948],[-158.8253,58.9771],[-158.788,58.7698],[-158.8913,58.7434],[-158.8271,58.8194],[-158.9146,58.7754],[-158.7087,58.4923],[-158.8817,58.3996],[-159.0513,58.4247],[-159.4827,58.8161],[-159.6609,58.8394],[-159.6175,58.9313],[-159.7381,58.9282],[-159.7529,58.8408],[-159.9061,58.7654],[-159.9971,58.8741],[-160.1531,58.8613],[-160.1522,58.9161],[-160.3289,58.9414],[-160.2551,58.9903],[-160.3522,59.0707],[-160.8337,58.8125],[-160.8886,58.8841],[-161.1797,58.7827],[-161.3061,58.8126],[-161.263,58.7767],[-161.3762,58.6868],[-161.3013,58.6818],[-161.7075,58.5612],[-161.7648,58.5594],[-161.7102,58.614],[-161.7651,58.6451],[-161.7629,58.591],[-162.1761,58.6449],[-161.8911,58.6537],[-161.6774,58.7735],[-161.6848,58.8186],[-161.7747,58.7705],[-161.8558,59.0338],[-161.5692,59.1151],[-161.8405,59.1206],[-161.8884,59.0944],[-161.8474,59.0666],[-161.9741,59.1314],[-162.0429,59.2484],[-162.0515,59.2702],[-162.0387,59.2894],[-161.9831,59.2537],[-161.9466,59.3878],[-161.7139,59.5014],[-162.2098,60.0255],[-162.2036,60.1533],[-162.2514,60.2014],[-162.1616,60.2164],[-162.149,60.2452],[-162.2902,60.2425],[-162.2287,60.1456],[-162.3172,60.1131],[-162.3417,60.219],[-162.4586,60.2951],[-162.2275,60.509],[-162.2241,60.5878],[-161.8815,60.7039],[-162.0723,60.6652],[-162.1151,60.7128],[-162.1832,60.7311],[-162.1234,60.6589],[-162.2763,60.6129],[-162.416,60.3824],[-162.6083,60.3339],[-162.56,60.2611],[-162.7033,60.2657],[-162.4503,60.1911],[-162.5258,59.9975],[-162.7517,60.005],[-163.3165,59.8303],[-164.0983,59.8337],[-164.2123,59.955],[-164.1147,60.005],[-164.4127,60.0918],[-164.6438,60.2483],[-164.6492,60.3339],[-164.7535,60.2871],[-164.989,60.3414],[-165.1433,60.4506],[-165.024,60.469],[-164.9856,60.5468],[-165.2217,60.499],[-165.4312,60.553],[-164.9992,60.7114],[-165.0314,60.787],[-164.8749,60.8488],[-164.9374,60.9365],[-164.8348,60.8684],[-164.6395,60.9133],[-164.6691,60.8258],[-164.2708,60.7879],[-164.2184,60.6902],[-164.4204,60.5543],[-163.9556,60.7799],[-163.8162,60.7551],[-163.8111,60.5939],[-163.6865,60.5897],[-163.409,60.7523],[-163.9304,60.8547],[-163.5636,60.9133],[-163.7564,60.9453],[-163.7041,60.9997],[-164.0071,60.8622],[-164.5644,60.8547],[-164.628,60.9323],[-165.1708,60.9416],[-165.1985,60.9782],[-165.1182,61.0133],[-164.7665,61.1086],[-165.0587,61.0629],[-165.191,61.1365],[-165.1295,61.1566],[-165.0607,61.2185],[-165.1433,61.2594],[-165.0824,61.2185],[-165.1568,61.1557],[-165.3627,61.2128],[-165.2127,61.2652],[-165.2084,61.3268],[-165.2599,61.3345],[-165.1578,61.3658],[-165.1588,61.4186],[-165.0762,61.4194],[-164.9677,61.4896],[-164.8415,61.499],[-164.7241,61.6256],[-165.0858,61.4763],[-165.2941,61.3345],[-165.2258,61.2731],[-165.3902,61.2246],[-165.3737,61.0716],[-165.6051,61.1245],[-165.61,61.2873],[-165.8768,61.3366],[-165.9183,61.4147],[-165.7801,61.458],[-165.777,61.5158],[-165.9239,61.5622],[-166.1062,61.4985],[-166.1999,61.5945],[-166.1444,61.7255],[-166.1164,61.6361],[-165.7664,61.6908],[-166.0034,61.7349],[-166.1028,61.8211],[-165.5882,61.8621],[-165.7504,61.9844],[-165.7056,62.1166],[-165.133,62.5157],[-164.8679,62.538],[-164.8481,62.4779],[-164.6088,62.4374],[-164.7336,62.3787],[-164.5819,62.4262],[-164.6771,62.4744],[-164.63,62.5132],[-164.8415,62.4927],[-164.7944,62.5337],[-164.858,62.5636],[-164.4791,62.7459],[-164.8132,62.6202],[-164.89,62.7869],[-164.7665,62.8012],[-164.8832,62.8415],[-164.6907,63.0271],[-164.314,63.0141],[-164.5952,63.1301],[-164.4235,63.209],[-163.9946,63.2563],[-163.7292,63.2168],[-163.6635,63.1165],[-163.5418,63.1288],[-163.7919,63.0219],[-163.8069,62.9862],[-163.5286,63.1167],[-163.3505,63.0308],[-163.094,63.0574],[-162.5965,63.2767],[-162.28,63.4891],[-162.3094,63.5466],[-162.0181,63.4858],[-162.1689,63.4312],[-161.4405,63.4602],[-161.0565,63.5744],[-160.8271,63.7135],[-160.767,63.8241],[-160.9288,64.0482],[-160.9735,64.2505],[-161.2578,64.4051],[-161.1888,64.4181],[-161.5389,64.3976],[-161.4139,64.5375],[-161.035,64.5078],[-161.0859,64.5526],[-160.834,64.6173],[-160.7916,64.7259],[-161.1553,64.9252],[-161.0858,64.913],[-160.9908,64.9394],[-161.0201,64.9472],[-161.2106,64.9326],[-161.5458,64.7509],[-161.7336,64.8207],[-161.8064,64.8227],[-161.7164,64.7949],[-162.5112,64.5587],[-162.6426,64.3944],[-162.7813,64.3437],[-162.8746,64.4597],[-162.8275,64.5006],[-163.0533,64.5559],[-163.149,64.6583],[-163.3898,64.5969],[-163.0397,64.5211],[-163.1659,64.4106],[-163.6785,64.5863],[-164.3891,64.5695],[-164.2662,64.5758],[-164.3419,64.59],[-164.746,64.4931],[-164.6566,64.5211],[-164.9378,64.5347],[-164.9241,64.4597],[-164.7665,64.4802],[-164.8371,64.4552],[-165.0355,64.4483],[-166.1897,64.5852],[-166.4835,64.7296],[-166.3902,64.8985],[-166.6845,64.9822],[-166.9574,65.1781],[-166.8802,65.282],[-166.9321,65.1689],[-166.7126,65.1129],[-166.5342,65.1374],[-166.4887,65.2343],[-166.3713,65.2725],[-166.0312,65.2431],[-167.3986,65.4011],[-168.0524,65.58],[-168.1374,65.665],[-167.8821,65.7554],[-168.0629,65.6514],[-167.5312,65.7261],[-167.4966,65.7654],[-167.561,65.8089],[-167.3459,65.8986],[-167.0599,65.8776],[-166.8768,65.9468],[-166.973,65.9742],[-166.3109,66.1754],[-165.755,66.1053],[-165.5001,66.1523],[-165.89,66.241],[-165.4877,66.4023],[-165.1052,66.4453],[-165.0334,66.3993],[-164.9447,66.467],[-164.7313,66.5327],[-164.7181,66.5563],[-164.2744,66.6023],[-163.7363,66.6035],[-163.6287,66.57],[-163.9301,66.5858],[-163.7624,66.5258],[-163.8956,66.3993],[-163.8547,66.2895],[-164.1911,66.1933],[-163.9175,66.2107],[-163.6805,66.0786],[-162.7585,66.1113],[-162.6769,66.0065],[-162.1794,66.0759],[-161.9156,66.0424],[-161.9771,66.0151],[-161.8582,65.9773],[-161.5059,66.2789],[-161.0864,66.241],[-161.1625,66.1186],[-161.0175,66.1933],[-160.997,66.241],[-161.1357,66.3432],[-161.5107,66.4077],[-161.8747,66.3776],[-161.8963,66.2705],[-161.9566,66.3503],[-161.8884,66.5244],[-162.2098,66.7072],[-162.5046,66.7498],[-162.6253,66.8615],[-162.4848,66.9604],[-162.3066,66.9529],[-162.0168,66.781],[-162.066,66.6531],[-161.6338,66.458],[-161.2042,66.5386],[-160.7654,66.3704],[-160.2285,66.4121],[-160.2192,66.532],[-160.3254,66.6048],[-160.275,66.6546],[-160.5517,66.5911],[-160.881,66.6724],[-161.1361,66.6519],[-161.272,66.543],[-161.4954,66.5367],[-161.902,66.7351],[-161.7307,66.9536],[-161.5252,66.9914],[-161.8352,67.055],[-162.248,67.015],[-162.2883,67.0709],[-162.293,67.0089],[-162.4569,66.9946],[-162.3378,67.1451],[-162.3601,67.1674],[-162.5804,67.015],[-163.725,67.1113],[-163.824,67.3546],[-164.1515,67.6196],[-165.4372,68.0602],[-165.9281,68.1369],[-166.2966,68.2996],[-166.829,68.3514],[-166.3151,68.406],[-166.3704,68.4408],[-166.231,68.5799],[-166.2226,68.8858],[-164.3464,68.9294],[-163.6225,69.1192],[-163.177,69.4269],[-163.2724,69.2979],[-163.1258,69.39],[-163.0648,69.556],[-163.149,69.6058],[-162.9384,69.7112],[-163.0187,69.7458],[-161.9057,70.3206],[-161.7034,70.2637],[-161.902,70.2569],[-161.7586,70.2296],[-162.1217,70.1539],[-161.7034,70.1955],[-161.6319,70.2561],[-160.9499,70.2904],[-160.984,70.3251],[-160.1722,70.6049],[-159.9471,70.5972],[-159.9438,70.522],[-160.2019,70.4766],[-159.922,70.4897],[-160.1337,70.3251],[-159.9485,70.3704],[-159.7712,70.1955],[-159.8873,70.3872],[-159.8258,70.4971],[-159.7097,70.4698],[-159.2914,70.5381],[-159.7159,70.4971],[-159.9479,70.6364],[-160.1274,70.6262],[-159.6682,70.805],[-159.161,70.8869],[-159.3733,70.8459],[-159.1406,70.8254],[-159.449,70.777],[-159.2225,70.6889],[-159.279,70.7647],[-158.9897,70.777],[-159.0604,70.8166],[-157.8649,70.8664],[-156.4715,71.4125],[-156.3717,71.3803],[-156.6044,71.3537],[-156.4433,71.2684],[-156.0427,71.2159],[-156.111,71.1749],[-155.9449,71.2204],[-155.5734,71.1504],[-155.5666,71.0815],[-155.7447,71.0045],[-156.1873,70.9217],[-155.9813,70.8944],[-155.9781,70.7597],[-155.8914,70.8367],[-155.5771,70.8459],[-155.5179,70.9521],[-155.3086,71.0288],[-155.1917,70.9951],[-155.2892,71.0861],[-155.0974,71.0861],[-155.0897,71.1549],[-155.0394,71.0557],[-155.0974,71.0173],[-155.039,71.0174],[-154.9717,71.1201],[-154.6002,71.0129],[-154.81,70.8807],[-154.2303,70.7784],[-153.8935,70.8984],[-153.2557,70.9328],[-152.8157,70.8869],[-152.7149,70.821],[-152.6575,70.8459],[-152.7125,70.8904],[-152.3275,70.8569],[-152.2192,70.8124],[-152.5091,70.6639],[-152.0753,70.579],[-152.6301,70.5585],[-151.7333,70.5585],[-151.9797,70.4487],[-151.2223,70.3757],[-151.1777,70.4487],[-150.7451,70.4766],[-150.7935,70.5033],[-150.3794,70.497],[-150.4167,70.4145],[-149.4885,70.523],[-148.6824,70.4201],[-148.5118,70.3183],[-148.2233,70.3593],[-147.8428,70.3075],[-147.6796,70.2122],[-145.8802,70.175],[-145.6139,70.0714],[-145.2154,70.044],[-145.2749,69.9931],[-144.9416,69.978],[-144.1295,70.0677],[-144.0714,69.9894],[-144.0231,70.0515],[-144.064,70.0856],[-143.5507,70.1266],[-143.2975,70.0434],[-143.3003,70.1166],[-143.2357,70.1182],[-142.6008,70.0131],[-142.2709,69.856],[-141.6533,69.7622],[-141.4129,69.6504],[-141.2206,69.6741],[-141.3162,69.6945],[-141.0056,69.6509]]],[[[-123.0905,48.9925],[-123.0353,48.9925],[-123.0885,48.9722],[-123.0905,48.9925]]],[[[-73.928,40.8775],[-73.9758,40.714],[-74.0169,40.6993],[-73.928,40.8775]]],[[[-71.3151,41.5808],[-71.3568,41.6316],[-71.3437,41.6706],[-71.3034,41.6264],[-71.3151,41.5808]]],[[[-69.6641,43.7891],[-69.6888,43.8282],[-69.6732,43.8529],[-69.6471,43.8373],[-69.6641,43.7891]]],[[[-69.6693,43.9558],[-69.6987,43.8725],[-69.7148,43.8594],[-69.7226,43.9076],[-69.6693,43.9558]]],[[[-68.6068,44.0886],[-68.6081,44.0235],[-68.6562,44.0105],[-68.651,44.0652],[-68.6068,44.0886]]],[[[-68.8112,44.1485],[-68.8633,44.1199],[-68.9427,44.1173],[-68.8568,44.1811],[-68.8112,44.1485]]],[[[-68.3906,44.1628],[-68.4323,44.129],[-68.5065,44.1602],[-68.4596,44.185],[-68.3906,44.1628]]],[[[-68.9206,44.237],[-68.9427,44.2904],[-68.901,44.3113],[-68.8854,44.2995],[-68.9206,44.237]]],[[[-68.5117,44.379],[-68.4844,44.3139],[-68.5299,44.3308],[-68.5117,44.379]]],[[[-68.9114,44.366],[-68.8594,44.3581],[-68.9036,44.3191],[-68.9114,44.366]]],[[[-67.582,44.5144],[-67.5846,44.4441],[-67.6146,44.5144],[-67.582,44.5144]]],[[[-67.3034,44.6251],[-67.276,44.6029],[-67.3216,44.6029],[-67.3034,44.6251]]],[[[-67.0121,44.8994],[-67.0382,44.9549],[-66.9896,44.8976],[-67.0121,44.8994]]],[[[-132.6893,54.8445],[-132.6162,54.7602],[-132.7848,54.9277],[-132.6293,54.904],[-132.6893,54.8445]]],[[[-131.2638,54.9969],[-131.1947,54.9073],[-131.3312,54.8612],[-131.4822,54.9256],[-131.2638,54.9969]]],[[[-132.8265,55.0544],[-132.8692,55.154],[-132.8227,55.1905],[-132.6682,55.0507],[-132.7507,54.9954],[-132.8736,55.0364],[-132.8265,55.0544]]],[[[-132.703,54.7012],[-132.8429,54.6938],[-132.9562,54.8037],[-132.9084,54.8383],[-133.1479,54.9544],[-133.2169,55.0991],[-133.1207,55.0991],[-133.2169,55.1537],[-133.1684,55.1537],[-133.2169,55.1741],[-133.1548,55.1946],[-133.1821,55.2356],[-133.107,55.2487],[-132.9562,55.0643],[-133.0865,55.0922],[-132.9971,55.0643],[-133.0455,55.0438],[-132.9576,55.0233],[-132.703,54.7012]]],[[[-131.4796,55.0063],[-131.5478,55.0888],[-131.5311,55.0302],[-131.6245,55.0174],[-131.5172,55.1342],[-131.5865,55.2187],[-131.5516,55.2766],[-131.3728,55.2015],[-131.357,55.0325],[-131.4796,55.0063]]],[[[-133.2914,55.2629],[-133.2094,55.2704],[-133.3162,55.2015],[-133.4499,55.2502],[-133.4322,55.3144],[-133.3181,55.3391],[-133.2914,55.2629]]],[[[-131.8185,55.4138],[-131.6361,55.2993],[-131.6861,55.2303],[-131.7638,55.2487],[-131.7229,55.1401],[-131.8178,55.198],[-131.8669,55.3728],[-131.8185,55.4138]]],[[[-133.4496,55.4069],[-133.5799,55.3454],[-133.6073,55.2356],[-133.6892,55.3113],[-133.5806,55.4262],[-133.4496,55.4069]]],[[[-133.6005,55.4479],[-133.5057,55.5226],[-133.4184,55.4756],[-133.6005,55.4479]]],[[[-133.3466,55.4479],[-133.4332,55.528],[-133.4285,55.5441],[-133.2721,55.5305],[-133.3466,55.4479]]],[[[-133.5868,55.5441],[-133.652,55.4479],[-133.7991,55.4479],[-133.7029,55.5578],[-133.5868,55.5441]]],[[[-133.3057,55.7973],[-133.4179,55.7385],[-133.4906,55.7905],[-133.5421,55.6949],[-133.6824,55.7905],[-133.3057,55.7973]]],[[[-133.2851,55.9072],[-133.2169,55.8663],[-133.2508,55.7759],[-133.3412,55.8373],[-133.2851,55.9072]]],[[[-155.7498,55.8177],[-155.5561,55.9146],[-155.5973,55.7604],[-155.7498,55.8177]]],[[[-134.3472,55.911],[-134.1016,55.9208],[-134.2584,55.8184],[-134.3472,55.911]]],[[[-133.9127,55.8628],[-133.856,55.9423],[-133.8425,55.8664],[-133.9127,55.8628]]],[[[-130.9687,55.7011],[-130.9717,55.3852],[-131.0271,55.4103],[-131.0557,55.2736],[-131.192,55.1857],[-131.3114,55.2356],[-131.2157,55.3176],[-131.2099,55.4063],[-131.2983,55.2766],[-131.4632,55.2934],[-131.2707,55.4473],[-131.3508,55.6456],[-131.3254,55.4468],[-131.4621,55.3319],[-131.4213,55.5305],[-131.5065,55.4994],[-131.4657,55.3723],[-131.5265,55.2994],[-131.8202,55.4638],[-131.6198,55.5953],[-131.699,55.6161],[-131.6869,55.6839],[-131.5174,55.7291],[-131.7092,55.7397],[-131.4827,55.783],[-131.6877,55.832],[-131.4704,55.832],[-131.5788,55.9072],[-131.2803,55.9652],[-130.9687,55.7011]]],[[[-133.7949,55.9436],[-133.4831,56.0922],[-133.617,56.1315],[-133.2853,56.1472],[-133.3111,55.9979],[-133.4703,56.0173],[-133.7027,55.9028],[-133.7949,55.9436]]],[[[-132.703,56.2225],[-132.3998,56.3504],[-132.39,56.2355],[-132.4838,56.1946],[-132.3594,56.2179],[-132.0922,56.1064],[-132.202,56.0922],[-132.1335,55.929],[-132.3356,55.9182],[-132.4491,56.0648],[-132.6454,56.0581],[-132.703,56.2225]]],[[[-131.9767,54.8315],[-132.004,54.6938],[-132.2777,54.7148],[-132.2163,54.8037],[-132.3597,54.8037],[-132.2648,54.8445],[-132.3939,54.9346],[-132.3802,55.0234],[-132.4361,54.9166],[-132.5015,54.9138],[-132.4442,54.963],[-132.4901,55.0029],[-132.5189,54.9442],[-132.5934,54.9682],[-132.531,55.0165],[-132.5719,55.0438],[-132.465,55.0507],[-132.5598,55.1241],[-132.6129,55.0643],[-132.5583,55.1679],[-132.6409,55.2561],[-132.6205,55.1534],[-132.6961,55.1469],[-132.7991,55.2704],[-132.9493,55.2083],[-133.035,55.2257],[-132.9098,55.2852],[-133.213,55.2792],[-133.2646,55.3454],[-133.2066,55.3845],[-132.8463,55.3523],[-133.1258,55.4836],[-133.0729,55.5783],[-132.9084,55.6329],[-133.2513,55.5848],[-133.3791,55.6298],[-133.3819,55.7228],[-133.2367,55.7451],[-133.1398,55.8766],[-133.2598,55.9453],[-133.2646,56.1474],[-133.5731,56.185],[-133.6147,56.3529],[-133.3415,56.3334],[-133.3122,56.2772],[-133.1821,56.3323],[-133.0249,56.172],[-133.1405,56.1195],[-133.0791,56.0581],[-132.7364,55.9966],[-132.5084,55.8276],[-132.4348,55.6267],[-132.3705,55.6676],[-132.1406,55.4653],[-132.5235,55.6252],[-132.5658,55.572],[-132.5145,55.5472],[-132.6818,55.4553],[-132.4013,55.5168],[-132.2769,55.4527],[-132.4838,55.4069],[-132.1549,55.366],[-132.0953,55.2671],[-132.243,55.2561],[-132.2402,55.1972],[-131.9943,55.2681],[-132.0015,55.1045],[-132.2231,54.9892],[-131.963,55.0302],[-131.9761,54.9081],[-132.047,54.8986],[-131.9767,54.8315]]],[[[-132.6129,56.4006],[-132.6472,56.2824],[-132.8197,56.2362],[-133.0552,56.3448],[-132.9242,56.452],[-132.703,56.4621],[-132.6129,56.4006]]],[[[-132.004,56.3392],[-131.9283,56.1946],[-132.0723,56.1195],[-132.3382,56.2578],[-132.3754,56.4885],[-132.1515,56.352],[-132.004,56.3392]]],[[[-154.1378,56.5105],[-154.0205,56.5555],[-153.8771,56.5651],[-154.1378,56.5105]]],[[[-157.2593,56.5834],[-156.9783,56.5365],[-157.3312,56.5242],[-157.2593,56.5834]]],[[[-154.4252,56.593],[-154.4106,56.5476],[-154.5167,56.5902],[-154.4875,56.5168],[-154.7382,56.3983],[-154.7912,56.4309],[-154.7001,56.5303],[-154.5363,56.5976],[-154.4252,56.593]]],[[[-154.0826,56.5521],[-154.2101,56.5036],[-154.3501,56.5447],[-154.1241,56.6126],[-154.0826,56.5521]]],[[[-132.9596,56.788],[-132.8163,56.7973],[-132.5334,56.5803],[-132.9186,56.507],[-132.9522,56.6016],[-132.8811,56.6402],[-132.9596,56.788]]],[[[-133.8847,56.4901],[-133.8258,56.4422],[-133.9089,56.4348],[-133.9164,56.3734],[-133.8475,56.2982],[-133.9725,56.3605],[-133.9785,56.2788],[-133.8919,56.2298],[-133.9491,56.0924],[-134.0393,56.1126],[-134.0523,56.3188],[-134.0902,56.1927],[-134.1901,56.1781],[-134.0864,56.0922],[-134.1294,55.9995],[-134.2242,56.0785],[-134.1972,56.1621],[-134.2646,56.2604],[-134.1601,56.3124],[-134.2926,56.2982],[-134.282,56.3628],[-134.1784,56.4414],[-134.1553,56.3659],[-134.0393,56.3734],[-134.0344,56.4859],[-134.0818,56.5516],[-134.1212,56.4969],[-134.3061,56.5651],[-134.0864,56.647],[-134.2469,56.6201],[-134.2857,56.647],[-134.2227,56.6944],[-134.3576,56.6766],[-134.4057,56.8527],[-134.2809,56.7928],[-134.3061,56.8979],[-134.1075,56.8463],[-134.2646,56.9419],[-134.0127,56.8852],[-133.9049,56.7606],[-133.9938,56.6392],[-133.8708,56.7149],[-133.8624,56.8099],[-133.7172,56.7712],[-133.7803,56.6864],[-133.7359,56.5671],[-133.9226,56.6166],[-133.8475,56.5651],[-133.8847,56.4901]]],[[[-133.9127,57.0827],[-133.3351,56.9974],[-133.2633,56.9253],[-133.2987,57.0102],[-133.0524,56.9829],[-132.9357,56.8668],[-132.9911,56.8084],[-132.9339,56.6416],[-133.0108,56.6061],[-133.3464,56.8376],[-133.3051,56.7354],[-133.2218,56.7316],[-133.2423,56.6341],[-133.1071,56.621],[-133.1684,56.6061],[-133.0791,56.5303],[-133.16,56.4577],[-133.4359,56.5036],[-133.4413,56.4538],[-133.6212,56.4422],[-133.6892,56.572],[-133.6346,56.6061],[-133.7029,56.675],[-133.6793,56.8537],[-133.7406,56.8089],[-133.765,56.8122],[-133.8882,56.9014],[-133.7376,56.8941],[-134.0182,57.0176],[-133.9127,57.0827]]],[[[-153.2124,57.1337],[-152.9261,57.126],[-153.2092,57.079],[-153.2722,56.9985],[-153.4116,57.079],[-153.2444,57.211],[-153.1809,57.175],[-153.2124,57.1337]]],[[[-135.6282,57.2367],[-135.5463,57.1411],[-135.6282,57.0102],[-135.8411,56.9897],[-135.7108,57.1684],[-135.8554,57.2231],[-135.8437,57.3247],[-135.6152,57.2845],[-135.5538,57.2299],[-135.6282,57.2367]]],[[[-134.6215,56.7438],[-134.6675,56.1704],[-135.0528,56.5378],[-134.8474,56.6887],[-134.961,56.6265],[-134.9368,56.716],[-134.9847,56.7145],[-135.1098,56.6018],[-135.1122,56.6787],[-134.9989,56.7617],[-135.1879,56.6767],[-135.1217,56.832],[-135.3675,56.8289],[-135.2945,56.8922],[-135.35,56.9704],[-135.1654,57.0417],[-135.375,57.0927],[-135.2664,57.161],[-135.4129,57.1579],[-135.3341,57.2504],[-135.5292,57.2367],[-135.675,57.3586],[-135.4753,57.3543],[-135.609,57.3876],[-135.5088,57.4595],[-135.5154,57.5156],[-135.3812,57.5536],[-135.2794,57.5111],[-135.3961,57.4427],[-135.1803,57.4807],[-135.2037,57.4285],[-134.9948,57.3978],[-134.9095,57.3398],[-134.9982,57.3466],[-134.9845,57.2982],[-134.839,57.2578],[-134.6215,56.7438]]],[[[-153.2124,57.8127],[-153.3253,57.8586],[-153.5419,57.9356],[-153.4822,57.9778],[-153.3267,57.9266],[-153.2124,57.8127]]],[[[-152.1609,57.6271],[-152.363,57.4285],[-152.9734,57.5179],[-152.9107,57.4899],[-153.028,57.4763],[-153.0417,57.4285],[-152.8325,57.4763],[-152.596,57.3739],[-152.6922,57.2833],[-152.8375,57.2707],[-152.8822,57.3525],[-153.1748,57.3514],[-152.9591,57.2571],[-153.3911,57.2094],[-153.4553,57.1168],[-153.4861,57.1757],[-153.5419,57.1758],[-153.4982,57.0743],[-153.7611,57.0517],[-153.5913,57.0482],[-153.6716,57.0102],[-153.5598,56.9865],[-153.6268,56.9362],[-153.6785,56.9766],[-153.7789,56.877],[-153.7014,56.8642],[-153.9873,56.7438],[-154.1495,56.7509],[-153.7747,56.9971],[-153.9733,56.963],[-153.8982,57.0728],[-153.7399,57.1337],[-153.8057,57.1542],[-154.0996,56.9648],[-154.1105,57.0381],[-153.9597,57.1201],[-154.2408,57.1548],[-154.4949,57.1136],[-154.413,57.0502],[-154.1037,57.1138],[-154.1583,56.9692],[-154.3049,56.8558],[-154.3283,56.9297],[-154.5286,56.9916],[-154.6015,57.2589],[-154.7832,57.2729],[-154.81,57.3466],[-154.707,57.3398],[-154.7269,57.4285],[-154.6147,57.5266],[-154.2203,57.6755],[-154.0186,57.6472],[-153.9733,57.5725],[-154.1105,57.5446],[-153.9355,57.535],[-153.8907,57.408],[-153.7473,57.3034],[-153.6307,57.2709],[-153.8114,57.4123],[-153.8088,57.5179],[-153.8508,57.5773],[-153.6785,57.5446],[-153.8846,57.6483],[-153.5846,57.6171],[-153.9058,57.7112],[-153.9246,57.8105],[-153.6655,57.8947],[-153.5744,57.8395],[-153.5072,57.6271],[-153.5277,57.7233],[-153.4395,57.6994],[-153.4991,57.7609],[-153.3213,57.7309],[-153.4492,57.8469],[-153.211,57.7856],[-153.2124,57.7296],[-153.1788,57.7097],[-153.2403,57.9021],[-153.0485,57.8332],[-153.2842,58.0104],[-152.8083,57.9083],[-152.8908,57.8742],[-152.8856,57.7287],[-152.818,57.8604],[-152.7418,57.8269],[-152.624,57.8605],[-152.6246,57.9328],[-152.4863,57.9107],[-152.4211,57.822],[-152.3291,57.8258],[-152.5511,57.7033],[-152.3974,57.6885],[-152.4263,57.6135],[-152.1609,57.6271]]],[[[-136.3384,58.0146],[-136.4513,57.8469],[-136.4786,57.9356],[-136.5528,57.9251],[-136.5428,58.0659],[-136.4753,58.0978],[-136.3384,58.0146]]],[[[-153.4184,58.066],[-153.2778,58.1468],[-152.8908,57.9977],[-153.2626,58.0854],[-153.4184,58.066]]],[[[-151.8661,58.2578],[-151.7934,58.2447],[-151.8462,58.1752],[-151.8971,58.1929],[-151.8661,58.2578]]],[[[-135.6908,57.367],[-136.0124,57.5179],[-135.8009,57.4658],[-136.0739,57.6073],[-135.9503,57.6209],[-136.1155,57.6216],[-136.0882,57.6885],[-136.2247,57.7848],[-136.4165,57.8258],[-136.3119,57.9955],[-136.0329,57.8469],[-136.4097,58.0799],[-136.3802,58.1404],[-136.2725,58.1069],[-136.3557,58.2199],[-136.2632,58.2169],[-136.1937,58.0836],[-136.1012,58.0585],[-136.1648,58.102],[-136.1366,58.223],[-135.9653,58.164],[-135.7851,58.2761],[-135.4849,58.1621],[-135.6273,58.0414],[-135.7831,58.0421],[-135.6248,58.0132],[-135.7933,57.984],[-135.6562,57.9493],[-135.3893,58.1411],[-134.9248,58.0275],[-134.9651,57.8861],[-134.9157,57.8469],[-135.2037,57.9431],[-134.93,57.8127],[-135.0138,57.7859],[-135.2594,57.796],[-135.8896,57.9977],[-135.3724,57.8052],[-135.321,57.758],[-135.3639,57.7262],[-134.9139,57.7558],[-134.8139,57.4975],[-135.0569,57.4666],[-135.8132,57.7643],[-135.704,57.6755],[-135.807,57.6414],[-135.6048,57.6071],[-135.5705,57.5725],[-135.6439,57.5705],[-135.6562,57.5521],[-135.5777,57.5555],[-135.5463,57.4661],[-135.6908,57.367]]],[[[-134.5973,58.2373],[-134.6798,58.3093],[-134.5633,58.3445],[-134.2584,58.1963],[-134.5973,58.2373]]],[[[-134.0848,57.2564],[-134.6146,57.0102],[-134.5799,57.1548],[-134.6333,57.2242],[-134.5255,57.2158],[-134.5832,57.2694],[-134.457,57.3118],[-134.5563,57.3978],[-134.313,57.3323],[-134.3676,57.3739],[-134.3061,57.3944],[-134.4639,57.3944],[-134.5692,57.492],[-134.354,57.5446],[-134.5669,57.5111],[-134.6536,57.5982],[-134.8065,58.0554],[-134.7313,58.1789],[-134.7837,58.1105],[-134.9076,58.2012],[-134.961,58.4049],[-134.8094,58.3306],[-134.6932,58.1684],[-134.177,58.1635],[-133.7893,57.5889],[-133.963,57.6923],[-134.2311,58.0312],[-134.1727,58.0137],[-134.3068,58.0981],[-134.2646,58.025],[-134.3192,58.0312],[-134.2242,57.9697],[-134.3166,57.9966],[-134.2892,57.8367],[-134.2087,57.8399],[-134.0802,57.6619],[-133.9379,57.6186],[-133.84,57.4626],[-134.0728,57.5111],[-134.1007,57.4763],[-133.9983,57.4155],[-133.8932,57.435],[-133.865,57.3551],[-133.9581,57.3037],[-134.1759,57.3876],[-134.0848,57.2564]]],[[[-151.966,58.3328],[-151.9722,58.2373],[-152.1168,58.1479],[-152.2766,58.2642],[-152.2946,58.1973],[-152.3701,58.2031],[-152.2739,58.1348],[-152.5482,58.0864],[-152.5767,58.2067],[-152.6444,58.0722],[-152.7673,58.0796],[-152.8049,57.9915],[-153.2296,58.1689],[-153.1885,58.2199],[-152.9051,58.1684],[-153.1099,58.2714],[-152.7673,58.2578],[-152.7605,58.3602],[-152.8834,58.4086],[-152.6506,58.4836],[-152.4998,58.4632],[-152.5271,58.4148],[-152.4197,58.3229],[-152.3494,58.4211],[-152.2119,58.3535],[-152.1168,58.4011],[-152.1435,58.2338],[-152.0999,58.3119],[-151.966,58.3328]]],[[[-152.6444,58.5185],[-152.4537,58.6282],[-152.349,58.6283],[-152.3633,58.5519],[-152.502,58.4735],[-152.6444,58.5185]]],[[[-161.078,58.6393],[-160.767,58.7757],[-160.6878,58.8187],[-160.8979,58.5703],[-161.086,58.5533],[-161.0795,58.6298],[-161.1719,58.6908],[-161.078,58.6393]]],[[[-152.1578,58.9567],[-152.3342,58.9119],[-152.3633,58.9157],[-152.3291,58.9709],[-152.1578,58.9567]]],[[[-150.7799,59.3341],[-150.6086,59.3812],[-150.7618,59.3168],[-150.7799,59.3341]]],[[[-153.5245,59.3303],[-153.4768,59.4054],[-153.3574,59.3781],[-153.4059,59.3386],[-153.5245,59.3303]]],[[[-150.4105,59.4463],[-150.2939,59.457],[-150.4435,59.4023],[-150.4105,59.4463]]],[[[-144.5524,59.8732],[-144.2086,60.0118],[-144.6053,59.8132],[-144.5524,59.8732]]],[[[-148.005,60.0466],[-148.0812,59.9717],[-148.245,59.9435],[-148.1823,59.9641],[-148.2233,59.9914],[-148.1448,59.9724],[-148.005,60.0466]]],[[[-147.8267,60.0528],[-147.8952,59.9904],[-148.0464,59.9571],[-147.8766,60.0764],[-147.8267,60.0528]]],[[[-147.8813,60.1074],[-148.0444,60.0703],[-148.1413,60.0118],[-147.9665,60.1566],[-147.8813,60.1074]]],[[[-148.1594,60.0432],[-148.3138,60.0323],[-148.1898,60.0466],[-148.2996,60.0602],[-148.05,60.1957],[-148.1594,60.0432]]],[[[-147.1072,60.2862],[-146.9223,60.3135],[-147.3282,60.0703],[-147.367,59.9728],[-147.4874,59.9435],[-147.4923,59.8618],[-147.9154,59.7927],[-147.7372,59.9025],[-147.8049,59.9204],[-147.6689,59.9709],[-147.7031,59.9975],[-147.2012,60.2422],[-147.1896,60.3622],[-147.0111,60.3476],[-147.1072,60.2862]]],[[[-147.9774,60.3756],[-148.0422,60.2866],[-148.1351,60.2998],[-148.0756,60.3694],[-147.9774,60.3756]]],[[[-145.2843,60.3339],[-145.0951,60.4163],[-145.1233,60.3118],[-145.2843,60.3339]]],[[[-146.1886,60.4022],[-146.0937,60.4103],[-146.0788,60.4022],[-146.6002,60.2452],[-146.682,60.2862],[-146.4903,60.3613],[-146.7226,60.3862],[-146.5881,60.484],[-146.3531,60.4711],[-146.3668,60.4097],[-146.1204,60.4271],[-146.1886,60.4022]]],[[[-147.7714,60.4097],[-147.8402,60.396],[-147.7082,60.5068],[-147.6144,60.437],[-147.7372,60.396],[-147.6254,60.3896],[-147.7987,60.1701],[-147.8402,60.1937],[-147.7925,60.2383],[-147.9086,60.2383],[-147.9086,60.293],[-147.7804,60.3148],[-147.875,60.3334],[-147.7714,60.4097]]],[[[-151.8698,60.4854],[-151.966,60.3756],[-152.0386,60.3504],[-152.0897,60.3591],[-151.9532,60.5085],[-151.8698,60.4854]]],[[[-145.7572,60.6287],[-145.7731,60.583],[-146.0631,60.4883],[-146.3326,60.4649],[-145.7572,60.6287]]],[[[-147.4977,60.6567],[-147.4288,60.7114],[-147.3127,60.684],[-147.3397,60.6456],[-147.4977,60.6567]]],[[[-148.0122,60.725],[-147.9098,60.7448],[-147.8471,60.694],[-147.9359,60.6629],[-148.0122,60.725]]],[[[-148.1078,60.6629],[-148.2222,60.7061],[-148.217,60.7591],[-148.1112,60.7381],[-148.1078,60.6629]]],[[[-147.9123,60.8254],[-148.1351,60.8131],[-148.1078,60.923],[-147.9676,60.9056],[-147.9123,60.8254]]],[[[-162.3408,63.6025],[-162.3594,63.5462],[-162.7176,63.5752],[-162.4281,63.6422],[-162.3408,63.6025]]],[[[-163.1763,69.4822],[-163.1716,69.6578],[-163.1291,69.6815],[-163.1679,69.6385],[-163.1763,69.4822]]],[[[-141.8092,69.8219],[-141.3851,69.6945],[-141.8984,69.8249],[-141.8092,69.8219]]],[[[-163.1291,69.702],[-162.9999,69.8558],[-162.8411,69.9348],[-163.1291,69.702]]],[[[-162.8063,69.9484],[-162.6418,70.0656],[-162.5565,70.0903],[-162.8063,69.9484]]],[[[-162.5599,70.106],[-162.3085,70.2413],[-162.1627,70.2699],[-162.5599,70.106]]],[[[-161.5511,70.326],[-161.8378,70.3434],[-161.9771,70.3122],[-161.8881,70.3539],[-161.5511,70.326]]],[[[-148.8197,70.4698],[-149.0157,70.4849],[-149.3132,70.5449],[-149.2363,70.5533],[-148.8197,70.4698]]],[[[-81.8103,24.5582],[-81.732,24.5562],[-81.8146,24.5425],[-81.8103,24.5582]]],[[[-81.7257,24.5562],[-81.6569,24.5978],[-81.6501,24.5761],[-81.7257,24.5562]]],[[[-81.506,24.6388],[-81.5308,24.6152],[-81.6365,24.5836],[-81.5812,24.6518],[-81.5272,24.6245],[-81.5607,24.6934],[-81.506,24.6388]]],[[[-81.0762,24.7091],[-81.1361,24.707],[-81.0399,24.7344],[-81.0762,24.7091]]],[[[-81.4303,24.7548],[-81.3555,24.6862],[-81.3627,24.6313],[-81.3642,24.6612],[-81.4303,24.7548]]],[[[-80.9556,24.7687],[-80.9589,24.7493],[-81.0331,24.7207],[-80.9556,24.7687]]],[[[-80.845,24.8144],[-80.8022,24.8099],[-80.855,24.8033],[-80.845,24.8144]]],[[[-80.2516,25.3445],[-80.3615,25.1595],[-80.5786,24.9503],[-80.598,24.9501],[-80.3573,25.2274],[-80.369,25.2861],[-80.2516,25.3445]]],[[[-80.1882,25.4984],[-80.2169,25.4155],[-80.238,25.406],[-80.1882,25.4984]]],[[[-80.1583,25.6793],[-80.1833,25.7138],[-80.1561,25.7349],[-80.1583,25.6793]]],[[[-82.2049,26.5505],[-82.0268,26.4475],[-82.1639,26.4543],[-82.2049,26.5505]]],[[[-82.2477,26.6544],[-82.246,26.6945],[-82.2255,26.6113],[-82.2477,26.6544]]],[[[-82.082,26.4915],[-82.1324,26.6098],[-82.1776,26.7013],[-82.1136,26.6544],[-82.082,26.4915]]],[[[-82.2875,26.8031],[-82.258,26.7585],[-82.2664,26.715],[-82.2875,26.8031]]],[[[-97.3429,26.7567],[-97.1664,26.1028],[-97.3975,26.831],[-97.405,27.1252],[-97.3916,27.1931],[-97.3771,27.2078],[-97.3429,26.7567]]],[[[-82.649,27.3813],[-82.681,27.4341],[-82.5892,27.3244],[-82.649,27.3813]]],[[[-97.2057,27.633],[-97.044,27.8353],[-97.3975,27.2289],[-97.2541,27.6597],[-97.2057,27.633]]],[[[-80.2926,27.4173],[-80.4446,27.8575],[-80.1629,27.1737],[-80.2926,27.4173]]],[[[-96.8802,28.1301],[-96.8501,28.0712],[-97.0344,27.852],[-96.9726,28.0099],[-96.8802,28.1301]]],[[[-96.4277,28.3933],[-96.4169,28.3288],[-96.8358,28.0712],[-96.8078,28.1876],[-96.4277,28.3933]]],[[[-96.3697,28.4069],[-96.3129,28.4586],[-96.2325,28.4895],[-96.2839,28.4477],[-96.3697,28.4069]]],[[[-80.6775,28.5789],[-80.6122,28.5688],[-80.6498,28.2252],[-80.7374,28.4848],[-80.6775,28.5789]]],[[[-90.9151,29.0513],[-90.9032,29.0572],[-90.8796,29.0513],[-90.9151,29.0513]]],[[[-90.3465,29.0581],[-90.3108,29.0824],[-90.2838,29.086],[-90.2838,29.0786],[-90.3465,29.0581]]],[[[-90.0243,29.2385],[-89.9555,29.2573],[-90.0306,29.2164],[-90.0243,29.2385]]],[[[-94.8341,29.3598],[-94.7244,29.3332],[-95.1165,29.089],[-94.8341,29.3598]]],[[[-89.173,29.4893],[-89.1662,29.4824],[-89.2218,29.4696],[-89.173,29.4893]]],[[[-91.7202,29.5817],[-91.8405,29.4838],[-92.0354,29.5962],[-91.9171,29.6481],[-91.7202,29.5817]]],[[[-85.0861,29.6857],[-85.1719,29.6688],[-85.2128,29.6887],[-85.0861,29.6857]]],[[[-85.0973,29.6273],[-84.6927,29.7644],[-84.7882,29.6955],[-84.9695,29.6118],[-85.0492,29.6059],[-85.0973,29.6273]]],[[[-89.4906,29.7938],[-89.4273,29.744],[-89.49,29.7365],[-89.4906,29.7938]]],[[[-89.337,29.8066],[-89.2772,29.8121],[-89.2907,29.7712],[-89.337,29.8066]]],[[[-84.6569,29.7871],[-84.5764,29.8198],[-84.6647,29.7787],[-84.6569,29.7871]]],[[[-89.279,29.9372],[-89.2355,29.9316],[-89.2939,29.9201],[-89.279,29.9372]]],[[[-89.2781,29.9821],[-89.2958,29.9422],[-89.3279,29.9159],[-89.2781,29.9821]]],[[[-88.8178,29.9351],[-88.8505,30.0468],[-88.8178,29.9835],[-88.8109,29.9152],[-88.821,29.8327],[-88.8546,29.7692],[-88.8178,29.9351]]],[[[-89.4394,30.1365],[-89.4249,30.1426],[-89.4313,30.1334],[-89.4394,30.1365]]],[[[-89.1883,30.0797],[-89.2221,30.0338],[-89.3453,30.0661],[-89.1808,30.1685],[-89.2499,30.102],[-89.1883,30.0797]]],[[[-88.9674,30.2143],[-88.9278,30.2176],[-88.9693,30.2106],[-88.9674,30.2143]]],[[[-88.4342,30.2094],[-88.503,30.2238],[-88.4274,30.2163],[-88.4342,30.2094]]],[[[-89.077,30.2408],[-89.0846,30.1958],[-89.1536,30.2299],[-89.077,30.2408]]],[[[-88.6978,30.2579],[-88.5379,30.2244],[-88.7563,30.2504],[-88.6978,30.2579]]],[[[-88.109,30.2761],[-88.091,30.2447],[-88.3113,30.2368],[-88.109,30.2761]]],[[[-87.2965,30.3323],[-86.5218,30.4013],[-87.2412,30.3261],[-87.2965,30.3323]]],[[[-81.4617,30.7258],[-81.4822,30.9044],[-81.4173,30.9704],[-81.4617,30.7258]]],[[[-118.3588,32.8278],[-118.4992,32.8506],[-118.6072,33.0309],[-118.5644,33.0238],[-118.3588,32.8278]]],[[[-79.3631,33.043],[-79.361,33.0057],[-79.3684,33.0057],[-79.3631,33.043]]],[[[-119.5321,33.2863],[-119.4343,33.224],[-119.5789,33.2761],[-119.5321,33.2863]]],[[[-118.4636,33.3235],[-118.6039,33.4766],[-118.3692,33.4084],[-118.3043,33.309],[-118.4636,33.3235]]],[[[-77.9952,33.8993],[-77.97,33.848],[-78.0178,33.8759],[-77.9952,33.8993]]],[[[-120.0441,34.0373],[-119.9688,33.9411],[-120.1099,33.8931],[-120.2485,34.0011],[-120.0441,34.0373]]],[[[-120.3691,34.0762],[-120.3083,34.0182],[-120.4492,34.0359],[-120.3691,34.0762]]],[[[-119.5294,34.0252],[-119.8172,33.9593],[-119.933,34.0602],[-119.5649,34.0553],[-119.5294,34.0252]]],[[[-77.8602,34.1004],[-77.8442,34.1667],[-77.8192,34.1775],[-77.8602,34.1004]]],[[[-77.5787,34.4254],[-77.353,34.5276],[-77.6342,34.3625],[-77.5787,34.4254]]],[[[-76.6343,34.6915],[-76.5377,34.6422],[-76.6548,34.6915],[-76.6343,34.6915]]],[[[-77.0998,34.6498],[-76.7336,34.7176],[-76.6815,34.7051],[-77.0998,34.6498]]],[[[-76.4078,34.7944],[-76.2023,34.9447],[-76.5306,34.5891],[-76.4078,34.7944]]],[[[-76.1064,35.0303],[-76.0372,35.0613],[-76.147,34.9925],[-76.1064,35.0303]]],[[[-76.0173,35.075],[-75.9398,35.1269],[-75.7703,35.1979],[-76.0173,35.075]]],[[[-75.5171,35.7807],[-75.4518,35.5825],[-75.5156,35.2602],[-75.7357,35.1877],[-75.5163,35.291],[-75.4686,35.5651],[-75.5171,35.7807]]],[[[-75.7157,35.9248],[-75.661,35.9248],[-75.6254,35.8301],[-75.6593,35.836],[-75.7157,35.9248]]],[[[-75.6765,37.4551],[-75.6604,37.4432],[-75.7192,37.3683],[-75.6765,37.4551]]],[[[-75.6744,37.4858],[-75.5998,37.5751],[-75.6706,37.4771],[-75.6744,37.4858]]],[[[-76.0514,37.9941],[-75.9813,37.9928],[-76.0264,37.9135],[-76.0514,37.9941]]],[[[-76.0332,38.1486],[-76.0836,38.1607],[-76.079,38.1828],[-76.0486,38.2004],[-76.0332,38.1486]]],[[[-75.3929,37.8647],[-75.0924,38.3026],[-75.1897,38.0898],[-75.326,37.8923],[-75.3785,37.8558],[-75.3929,37.8647]]],[[[-74.4481,39.4199],[-74.3021,39.4647],[-74.3934,39.3891],[-74.4481,39.4199]]],[[[-74.2401,39.5754],[-74.0981,39.7557],[-74.2564,39.5222],[-74.2401,39.5754]]],[[[-73.2561,40.6391],[-73.3203,40.6351],[-73.5741,40.5751],[-73.3394,40.6446],[-73.2561,40.6391]]],[[[-74.1918,40.6283],[-74.0536,40.6027],[-74.2508,40.5014],[-74.1918,40.6283]]],[[[-73.0403,40.682],[-72.7571,40.7688],[-73.1475,40.6443],[-73.2458,40.6238],[-73.305,40.6299],[-73.2553,40.6297],[-73.0403,40.682]]],[[[-72.109,41.0014],[-71.8574,41.0717],[-72.724,40.7704],[-72.6505,40.7975],[-73.7109,40.6102],[-73.5818,40.5845],[-73.9395,40.542],[-73.7688,40.6185],[-73.9881,40.5694],[-74.04,40.6198],[-73.9086,40.7887],[-73.7575,40.7711],[-73.7202,40.8662],[-73.6533,40.8239],[-73.6327,40.8996],[-73.4798,40.8772],[-73.4857,40.9456],[-73.3583,40.9004],[-73.4019,40.9544],[-73.2353,40.9078],[-73.1131,40.9735],[-72.6283,40.9836],[-72.2755,41.1626],[-72.2469,41.1354],[-72.3044,41.1319],[-72.4123,41.0649],[-72.4377,40.9842],[-72.6246,40.9078],[-72.4808,40.8979],[-72.3215,41.0358],[-72.1868,41.0092],[-72.1554,41.055],[-72.109,41.0014]]],[[[-71.5792,41.2256],[-71.5491,41.152],[-71.6137,41.1552],[-71.5792,41.2256]]],[[[-70.0761,41.3111],[-70.0289,41.3861],[-69.9578,41.2757],[-69.9671,41.2495],[-70.2781,41.3079],[-70.0819,41.2925],[-70.014,41.3446],[-70.0761,41.3111]]],[[[-70.4655,41.3603],[-70.4557,41.4296],[-70.4467,41.3674],[-70.4655,41.3603]]],[[[-70.6051,41.474],[-70.5074,41.3626],[-70.7759,41.3044],[-70.8462,41.3467],[-70.6051,41.474]]],[[[-71.3777,41.5779],[-71.3656,41.4953],[-71.3988,41.4619],[-71.3777,41.5779]]],[[[-69.981,41.6277],[-69.9594,41.6326],[-70.0215,41.5507],[-69.981,41.6277]]],[[[-71.3546,41.4583],[-71.2206,41.6605],[-71.2336,41.4892],[-71.3546,41.4583]]],[[[-123.9978,46.4534],[-123.9482,46.4642],[-123.9641,46.4068],[-123.9978,46.4534]]],[[[-122.471,47.4958],[-122.3668,47.3835],[-122.5273,47.3463],[-122.471,47.4958]]],[[[-122.4969,47.6071],[-122.5779,47.6015],[-122.5578,47.7138],[-122.511,47.6959],[-122.4969,47.6071]]],[[[-122.7293,48.0967],[-122.6869,48.0732],[-122.6815,48.0073],[-122.7308,48.0424],[-122.7293,48.0967]]],[[[-122.3594,47.9766],[-122.3867,47.9049],[-122.5392,47.9722],[-122.6072,48.1538],[-122.7441,48.2059],[-122.6566,48.3851],[-122.5958,48.4019],[-122.5176,48.294],[-122.7237,48.2338],[-122.5806,48.1885],[-122.5355,48.0059],[-122.514,48.0908],[-122.3594,47.9766]]],[[[-122.8871,48.5637],[-122.8277,48.4174],[-122.9376,48.4583],[-122.8871,48.5637]]],[[[-122.7354,48.5904],[-122.6745,48.5688],[-122.7143,48.5419],[-122.7354,48.5904]]],[[[-123.0202,48.4993],[-122.965,48.4515],[-123.1393,48.4958],[-123.1776,48.5988],[-122.9777,48.5313],[-123.0202,48.4993]]],[[[-122.7458,48.6644],[-122.821,48.6091],[-122.8964,48.6998],[-122.8744,48.5937],[-123.0265,48.6265],[-122.918,48.7114],[-122.7458,48.6644]]],[[[-122.6985,48.7347],[-122.6551,48.6647],[-122.7152,48.7391],[-122.6985,48.7347]]],[[[-166.0946,53.9807],[-166.1539,53.9553],[-166.1961,53.981],[-166.1566,53.9936],[-166.0946,53.9807]]],[[[-159.5215,54.7922],[-159.5693,54.7546],[-159.6042,54.8123],[-159.5713,54.8223],[-159.5215,54.7922]]],[[[-161.3544,55.2215],[-161.3605,55.163],[-161.4397,55.1973],[-161.3544,55.2215]]],[[[-161.559,55.2545],[-161.5641,55.2079],[-161.6917,55.2116],[-161.6589,55.2424],[-161.559,55.2545]]],[[[-160.0666,55.3447],[-160.04,55.3071],[-160.1091,55.3258],[-160.0666,55.3447]]],[[[-159.3328,55.8124],[-159.3021,55.7592],[-159.3623,55.7863],[-159.3328,55.8124]]],[[[-156.7013,56.0661],[-156.6949,56.0093],[-156.7462,56.0349],[-156.7013,56.0661]]],[[[-156.7783,56.2267],[-156.7665,56.1677],[-156.7921,56.153],[-156.8093,56.1901],[-156.7783,56.2267]]],[[[-157.8566,56.3621],[-157.8333,56.3137],[-157.8984,56.3391],[-157.8566,56.3621]]],[[[-153.8878,57.509],[-153.8293,57.4511],[-153.8436,57.4362],[-153.8878,57.509]]],[[[-152.4323,57.9692],[-152.3694,57.8864],[-152.5048,57.9257],[-152.4323,57.9692]]],[[[-152.7444,57.9838],[-152.7641,57.9301],[-152.8607,57.9547],[-152.8331,57.9746],[-152.7444,57.9838]]],[[[-152.8114,58.2904],[-152.9027,58.3077],[-152.9306,58.3286],[-152.8461,58.3376],[-152.8114,58.2904]]],[[[-160.2759,58.6794],[-160.2772,58.6367],[-160.3012,58.7294],[-160.2759,58.6794]]],[[[-160.406,58.7513],[-160.393,58.6997],[-160.4331,58.6846],[-160.406,58.7513]]],[[[-150.2244,61.1704],[-150.1777,61.1614],[-150.2764,61.1274],[-150.2244,61.1704]]],[[[-164.6116,63.0559],[-164.567,63.0463],[-164.6118,63.0467],[-164.6116,63.0559]]],[[[-179.1435,51.2751],[-179.0882,51.2961],[-179.0616,51.2477],[-179.119,51.2154],[-179.1435,51.2751]]],[[[-178.9869,51.3075],[-178.9544,51.3952],[-178.9042,51.3538],[-178.9869,51.3075]]],[[[-178.8589,51.7957],[-178.7402,51.7836],[-178.8083,51.7473],[-178.8589,51.7957]]],[[[-176.2647,51.81],[-176.2927,51.7412],[-176.3856,51.7371],[-176.423,51.851],[-176.3032,51.869],[-176.3541,51.8299],[-176.2647,51.81]]],[[[-176.0115,51.8299],[-176.1356,51.8299],[-176.1487,51.7753],[-176.2237,51.8436],[-176.1901,51.8867],[-176.0115,51.8299]]],[[[-176.0209,51.9128],[-175.9569,51.851],[-176.1077,51.8845],[-176.0209,51.9128]]],[[[-177.8003,51.7957],[-177.8104,51.6954],[-177.9335,51.5987],[-178.1014,51.6654],[-177.9554,51.7637],[-178.2138,51.876],[-177.9523,51.9248],[-177.8406,51.8367],[-177.6222,51.8572],[-177.8003,51.7957]]],[[[-177.1944,51.93],[-177.0468,51.892],[-177.137,51.8228],[-177.1567,51.7001],[-177.4361,51.7259],[-177.66,51.653],[-177.7047,51.7001],[-177.2925,51.7828],[-177.2155,51.8188],[-177.1944,51.93]]],[[[-175.752,51.9392],[-175.6621,51.967],[-175.6621,51.9596],[-175.752,51.9392]]],[[[-176.464,51.851],[-176.4708,51.72],[-176.7104,51.6859],[-176.7104,51.617],[-176.8144,51.6155],[-176.8271,51.72],[-176.9779,51.6003],[-176.8203,51.7685],[-176.9048,51.8076],[-176.7042,51.7883],[-176.7799,51.829],[-176.706,51.8597],[-176.7588,51.9534],[-176.5459,51.9801],[-176.6415,51.8572],[-176.464,51.851]]],[[[-175.95,51.9739],[-175.806,51.9875],[-175.8764,51.9689],[-175.95,51.9739]]],[[[-176.043,51.9634],[-176.1945,52.0511],[-176.1433,52.1071],[-175.9637,52.0353],[-176.043,51.9634]]],[[[-174.0594,52.1247],[-172.9558,52.0899],[-173.4902,52.0217],[-174.0594,52.1247]]],[[[-172.4072,52.3854],[-172.3109,52.3165],[-172.633,52.2613],[-172.558,52.3507],[-172.4072,52.3854]]],[[[-174.052,52.2408],[-174.2028,52.2128],[-174.0989,52.113],[-174.4299,52.1101],[-174.3741,52.1042],[-174.4114,52.0428],[-174.525,52.0974],[-174.4902,52.0353],[-175.3405,52.0148],[-175.0198,52.0315],[-174.9066,52.1149],[-174.6016,52.1046],[-174.4976,52.152],[-174.5591,52.1793],[-174.4127,52.1712],[-174.4492,52.2128],[-174.3393,52.1862],[-174.2283,52.2675],[-174.4355,52.3227],[-174.1903,52.4179],[-174.011,52.3581],[-174.052,52.2408]]],[[[-171.2936,52.5141],[-171.2222,52.4631],[-171.3116,52.4643],[-171.2936,52.5141]]],[[[-170.7437,52.6787],[-170.5659,52.6562],[-170.6219,52.5939],[-170.8374,52.5493],[-170.7437,52.6787]]],[[[-170.187,52.7827],[-170.0634,52.7343],[-170.1944,52.7274],[-170.187,52.7827]]],[[[-169.6866,52.872],[-169.7234,52.7745],[-170.0111,52.8236],[-169.8503,52.8825],[-169.6866,52.872]]],[[[-170.1248,52.8886],[-170.0143,52.9058],[-169.9946,52.9056],[-170.1248,52.8886]]],[[[-169.7533,53.0248],[-169.6662,53.0012],[-169.7481,52.9465],[-169.7533,53.0248]]],[[[-167.8575,53.3928],[-168.2876,53.243],[-168.4661,53.0566],[-168.7661,52.9139],[-169.1113,52.8236],[-168.8711,52.954],[-168.7721,53.067],[-168.7753,53.1708],[-168.6234,53.2742],[-168.3608,53.2713],[-168.4329,53.3301],[-168.4066,53.4095],[-168.2368,53.5301],[-168.0083,53.5703],[-167.807,53.5201],[-167.8575,53.3928]]],[[[-166.2978,53.7602],[-166.0892,53.8447],[-166.2126,53.7081],[-166.2978,53.7602]]],[[[-166.3462,53.7827],[-166.2895,53.6799],[-166.5621,53.6181],[-166.5212,53.5846],[-166.5957,53.5362],[-166.6645,53.5982],[-166.6366,53.5328],[-166.713,53.5498],[-166.6592,53.4909],[-166.7949,53.5703],[-166.7522,53.4509],[-167.0074,53.4526],[-167.5082,53.2599],[-167.85,53.3096],[-166.96,53.5362],[-167.1444,53.5566],[-167.1338,53.6318],[-166.9935,53.6181],[-167.0624,53.6665],[-167.028,53.7048],[-166.9164,53.7157],[-166.8017,53.6318],[-166.829,53.7081],[-166.7055,53.7211],[-167.1511,53.8242],[-167.0216,53.9612],[-166.6346,54.0046],[-166.6099,53.831],[-166.4591,53.8856],[-166.3704,54.0085],[-166.3734,53.9568],[-166.2767,53.9749],[-166.2249,53.9055],[-166.5416,53.79],[-166.4932,53.7695],[-166.5751,53.7143],[-166.3765,53.7211],[-166.3462,53.7827]]],[[[-165.2667,54.0911],[-165.2941,54.0439],[-165.4858,54.0775],[-165.3766,54.0911],[-165.2667,54.0911]]],[[[-165.9455,54.2221],[-165.6572,54.1252],[-165.9007,54.0334],[-166.0408,54.0364],[-166.1227,54.1184],[-165.9455,54.2221]]],[[[-165.4045,54.1918],[-165.61,54.1184],[-165.5746,54.2351],[-165.6798,54.2489],[-165.4943,54.2964],[-165.5473,54.2221],[-165.4045,54.1918]]],[[[-159.3392,54.9346],[-159.2126,54.9311],[-159.2088,54.9185],[-159.2866,54.8717],[-159.3392,54.9346]]],[[[-159.3901,55.0234],[-159.3392,54.9755],[-159.4627,54.9482],[-159.4081,54.9818],[-159.4831,55.0165],[-159.4627,55.0643],[-159.3454,55.0507],[-159.3901,55.0234]]],[[[-159.5242,55.0711],[-159.6592,55.0651],[-159.6402,55.1339],[-159.5446,55.1503],[-159.6061,55.1679],[-159.5336,55.251],[-159.5242,55.0711]]],[[[-159.9015,55.1401],[-159.8258,55.181],[-160.2371,54.8886],[-160.0927,55.0507],[-160.1948,55.1215],[-160.0722,55.0991],[-160.1106,55.1608],[-160.0176,55.1053],[-160.0654,55.2015],[-159.9536,55.1758],[-159.8873,55.2971],[-159.9015,55.1401]]],[[[-163.1428,55.4411],[-163.1517,55.397],[-163.1951,55.4127],[-163.1428,55.4411]]],[[[-154.9899,19.7267],[-154.8141,19.5066],[-154.8747,19.4129],[-155.5028,19.1377],[-155.6748,18.9061],[-155.8781,19.0291],[-155.8874,19.3596],[-156.0602,19.7312],[-155.8355,19.9757],[-155.8805,20.252],[-155.738,20.2438],[-155.168,19.9468],[-155.0871,19.8604],[-155.0854,19.7274],[-154.9899,19.7267]]],[[[-156.6088,20.591],[-156.5446,20.5132],[-156.7006,20.5254],[-156.6088,20.591]]],[[[-156.8484,20.8768],[-156.8313,20.7638],[-156.9623,20.7324],[-157.0631,20.8904],[-156.8484,20.8768]]],[[[-156.0017,20.8004],[-156.0484,20.6509],[-156.4077,20.5872],[-156.4643,20.7814],[-156.6202,20.8071],[-156.696,20.9158],[-156.5979,21.0327],[-156.4817,20.9044],[-156.2819,20.9503],[-156.0017,20.8004]]],[[[-157.2598,21.2219],[-156.7248,21.1237],[-156.8696,21.0534],[-157.3039,21.1096],[-157.2598,21.2219]]],[[[-157.7257,21.459],[-157.6472,21.3064],[-157.7041,21.2595],[-157.947,21.3027],[-157.9609,21.3888],[-158.0202,21.3833],[-157.9806,21.3185],[-158.0943,21.2936],[-158.2789,21.5753],[-158.1211,21.5859],[-157.9697,21.7091],[-157.8421,21.461],[-157.7762,21.4133],[-157.7257,21.459]]],[[[-160.1138,22.0003],[-160.0514,21.983],[-160.0722,21.9108],[-160.2113,21.7802],[-160.2455,21.8508],[-160.1138,22.0003]]],[[[-159.3013,22.151],[-159.3341,21.9581],[-159.4373,21.8688],[-159.605,21.8917],[-159.7872,22.0193],[-159.7165,22.1575],[-159.5585,22.233],[-159.3579,22.2227],[-159.3013,22.151]]],[[[179.28,51.3985],[179.4723,51.3706],[179.243,51.3538],[178.9601,51.5421],[178.6364,51.6374],[178.9202,51.6118],[179.28,51.3985]]],[[[178.2249,51.8367],[178.334,51.8162],[178.3962,51.7685],[178.3415,51.7685],[178.2366,51.8229],[178.2249,51.8367]]],[[[178.5339,51.9875],[178.6043,51.9377],[178.5168,51.8962],[178.46,51.9444],[178.5339,51.9875]]],[[[179.7809,51.967],[179.6421,51.8742],[179.4861,51.9739],[179.637,52.0353],[179.7809,51.967]]],[[[177.5539,52.1042],[177.6904,52.0899],[177.5545,51.9685],[177.6121,51.9279],[177.4136,51.9306],[177.3236,51.8268],[177.2243,51.892],[177.5085,51.9946],[177.5539,52.1042]]],[[[175.9289,52.3393],[175.9159,52.378],[175.991,52.3581],[175.9289,52.3393]]],[[[173.7913,52.5015],[173.7131,52.4506],[173.7434,52.3612],[173.3889,52.4038],[173.7913,52.5015]]],[[[174.0967,52.7138],[174.1139,52.741],[174.1823,52.7069],[174.0967,52.7138]]],[[[173.4419,52.8577],[173.0775,52.8283],[172.9443,52.7498],[172.7634,52.7957],[172.811,52.8879],[172.4761,52.9267],[172.6604,53.0086],[173.1272,52.9949],[173.1675,52.913],[173.2498,52.9444],[173.3225,52.916],[173.263,52.872],[173.4419,52.8577]]],[[[-164.9725,54.1252],[-164.976,54.0758],[-165.2258,54.0911],[-165.133,54.1326],[-164.9725,54.1252]]],[[[-162.4722,54.4221],[-162.3681,54.3859],[-162.4854,54.4139],[-162.4722,54.4221]]],[[[-162.8138,54.5043],[-162.55,54.3859],[-162.6327,54.3719],[-162.8411,54.461],[-162.8138,54.5043]]],[[[-162.4342,54.9144],[-162.2627,54.9892],[-162.2309,54.9073],[-162.3422,54.8395],[-162.4342,54.9144]]],[[[-163.0738,54.6876],[-163.2281,54.6801],[-163.3695,54.7646],[-163.4492,54.6635],[-163.6225,54.6118],[-164.1327,54.6232],[-164.4056,54.436],[-164.6526,54.392],[-164.8453,54.4235],[-164.9582,54.5851],[-164.7007,54.6783],[-164.4775,54.9189],[-164.2251,54.8947],[-163.7565,55.0604],[-163.5257,55.0438],[-163.3544,54.7769],[-163.1442,54.7703],[-163.0738,54.6876]]],[[[-161.7307,55.1605],[-161.6413,55.1195],[-161.7512,55.0581],[-161.8132,55.0854],[-161.7832,55.1449],[-161.8263,55.0991],[-161.9082,55.1435],[-161.7307,55.1605]]],[[[-160.3254,55.3585],[-160.3363,55.2487],[-160.5315,55.325],[-160.4869,55.3532],[-160.3254,55.3585]]],[[[-160.4974,55.1946],[-160.5588,55.1884],[-160.5383,55.1332],[-160.6833,55.2114],[-160.8189,55.1195],[-160.8536,55.3319],[-160.696,55.4069],[-160.6794,55.3067],[-160.5593,55.3931],[-160.5799,55.2356],[-160.4974,55.1946]]],[[[-160.1479,55.3864],[-160.2595,55.4223],[-160.3465,55.4175],[-160.1711,55.4538],[-160.1479,55.3864]]],[[[-158.7086,55.8315],[-158.8584,55.863],[-158.8838,55.8052],[-158.9087,55.8413],[-158.8281,55.8967],[-158.7086,55.8315]]],[[[-169.7891,56.6203],[-169.4744,56.593],[-169.6327,56.5447],[-169.7891,56.6203]]],[[[-170.4121,57.1848],[-170.1044,57.2504],[-170.29,57.1064],[-170.4121,57.1848]]],[[[-165.5411,59.9845],[-166.2467,59.8539],[-166.0817,59.779],[-166.1821,59.7563],[-167.1219,60.0007],[-167.307,60.07],[-167.4528,60.2172],[-166.8204,60.2176],[-166.7609,60.3044],[-166.4592,60.3872],[-166.1516,60.3812],[-166.1574,60.437],[-166.0755,60.3339],[-165.6844,60.2998],[-165.7329,60.1763],[-165.6715,60.1216],[-165.7261,60.0665],[-165.5411,59.9845]]],[[[-172.8118,60.478],[-172.2086,60.3135],[-172.6,60.3298],[-173.0576,60.4984],[-172.925,60.6067],[-172.8118,60.478]]],[[[-169.8688,63.1061],[-169.7771,63.0351],[-169.9319,63.1391],[-169.8688,63.1061]]],[[[-169.4409,63.3635],[-169.4893,63.3678],[-169.5123,63.3738],[-169.529,63.3834],[-169.4409,63.3635]]],[[[-170.2962,63.2394],[-170.4497,63.3251],[-170.7078,63.3952],[-170.4855,63.3447],[-170.3818,63.3014],[-170.2962,63.2394]]],[[[-170.9752,63.4312],[-171.0729,63.4373],[-170.784,63.4085],[-170.9752,63.4312]]],[[[-171.09,63.6039],[-171.1577,63.6097],[-171.144,63.6118],[-171.09,63.6039]]],[[[-168.6861,63.3015],[-168.8508,63.1628],[-169.3511,63.1762],[-169.6662,62.9452],[-169.7556,62.9656],[-169.7053,63.0402],[-169.8175,63.1268],[-170.262,63.1984],[-170.235,63.2835],[-170.4443,63.3592],[-170.8562,63.4604],[-171.0839,63.4449],[-171.4393,63.3198],[-171.7356,63.3759],[-171.8529,63.5212],[-171.728,63.7961],[-171.6357,63.7773],[-171.6339,63.7004],[-171.4072,63.6441],[-171.5438,63.623],[-171.4872,63.609],[-170.937,63.5717],[-170.6462,63.685],[-170.31,63.6987],[-170.0825,63.6152],[-170.0386,63.5319],[-170.0845,63.4858],[-169.1867,63.3015],[-169.0703,63.3214],[-169.2211,63.3493],[-168.6861,63.3015]]],[[[-68.9102,44.0955],[-68.773,44.0819],[-68.7746,44.0619],[-68.9102,44.0955]]],[[[-68.6421,44.26],[-68.6228,44.1713],[-68.7163,44.1673],[-68.7246,44.2191],[-68.6421,44.26]]],[[[-68.2448,44.4245],[-68.1765,44.3283],[-68.3137,44.3084],[-68.326,44.2259],[-68.4141,44.2586],[-68.3758,44.4041],[-68.2448,44.4245]]],[[[-164.7043,23.5793],[-164.6991,23.5705],[-164.7085,23.5745],[-164.7043,23.5793]]],[[[-171.7407,25.769],[-171.7294,25.7519],[-171.7391,25.7563],[-171.7407,25.769]]],[[[-122.7464,47.1537],[-122.6714,47.165],[-122.7011,47.124],[-122.7464,47.1537]]],[[[-122.8682,47.2683],[-122.8483,47.1933],[-122.8739,47.1679],[-122.9219,47.2372],[-122.8682,47.2683]]],[[[-82.1105,24.5655],[-82.1348,24.593],[-82.1457,24.5927],[-82.1105,24.5655]]],[[[-81.4148,24.6477],[-81.4176,24.6594],[-81.4106,24.6554],[-81.4148,24.6477]]],[[[-81.2775,24.6576],[-81.2584,24.6676],[-81.276,24.6556],[-81.2775,24.6576]]],[[[-81.4607,24.6644],[-81.4393,24.6604],[-81.4414,24.6505],[-81.4607,24.6644]]],[[[-81.515,24.6977],[-81.4813,24.6498],[-81.5202,24.6741],[-81.515,24.6977]]],[[[-81.3409,24.7001],[-81.3207,24.6945],[-81.3178,24.675],[-81.3409,24.7001]]],[[[-80.7297,24.8628],[-80.7108,24.8643],[-80.7384,24.8507],[-80.7297,24.8628]]],[[[-80.6255,24.9362],[-80.6185,24.9416],[-80.6571,24.9011],[-80.6255,24.9362]]],[[[-81.0784,25.3017],[-81.0398,25.2967],[-81.0669,25.2768],[-81.0784,25.3017]]],[[[-81.1165,25.3419],[-81.0907,25.3128],[-81.1222,25.3366],[-81.1165,25.3419]]],[[[-81.3805,25.8209],[-81.4396,25.8039],[-81.4405,25.8424],[-81.4295,25.8509],[-81.3805,25.8209]]],[[[-81.4534,25.8255],[-81.512,25.8361],[-81.5169,25.8598],[-81.4744,25.8725],[-81.4534,25.8255]]],[[[-81.7084,25.8987],[-81.66,25.8865],[-81.6962,25.8658],[-81.7084,25.8987]]],[[[-81.5583,25.9034],[-81.5336,25.8786],[-81.5458,25.8537],[-81.5583,25.9034]]],[[[-82.6832,28.7377],[-82.6737,28.7144],[-82.696,28.7256],[-82.6832,28.7377]]],[[[-82.6738,28.7667],[-82.6949,28.7876],[-82.6799,28.7847],[-82.6738,28.7667]]],[[[-90.7672,29.0471],[-90.6422,29.0729],[-90.6563,29.0632],[-90.6728,29.0573],[-90.7494,29.041],[-90.7672,29.0471]]],[[[-90.4523,29.0696],[-90.4134,29.0486],[-90.5124,29.0749],[-90.4523,29.0696]]],[[[-83.0503,29.1557],[-83.0297,29.1398],[-83.0582,29.1362],[-83.0503,29.1557]]],[[[-90.4346,29.2645],[-90.4525,29.224],[-90.4463,29.2603],[-90.4346,29.2645]]],[[[-89.9338,29.2846],[-89.9132,29.2902],[-89.939,29.2772],[-89.9338,29.2846]]],[[[-90.1199,29.5055],[-90.0157,29.4438],[-90.0919,29.4735],[-90.1199,29.5055]]],[[[-89.057,29.5621],[-89.0499,29.565],[-89.0985,29.5209],[-89.057,29.5621]]],[[[-88.8896,29.7253],[-88.9388,29.6733],[-88.8741,29.7475],[-88.8896,29.7253]]],[[[-81.3003,31.4115],[-81.1746,31.5214],[-81.2796,31.3855],[-81.3003,31.4115]]],[[[-81.1795,31.6359],[-81.1364,31.6984],[-81.161,31.5673],[-81.1795,31.6359]]],[[[-118.2675,33.747],[-118.2363,33.728],[-118.2576,33.7166],[-118.2675,33.747]]],[[[-75.9038,37.1292],[-75.9054,37.2344],[-75.874,37.2904],[-75.8771,37.2056],[-75.8108,37.2002],[-75.9038,37.1292]]],[[[-72.3713,41.055],[-72.2805,41.0789],[-72.2755,41.0318],[-72.3713,41.055]]],[[[-72.1415,41.0968],[-72.0784,41.1],[-72.1008,41.0542],[-72.1415,41.0968]]],[[[-70.8231,41.2508],[-70.814,41.2632],[-70.8018,41.2481],[-70.8231,41.2508]]],[[[-70.926,41.4289],[-70.8486,41.4343],[-70.9485,41.4141],[-70.926,41.4289]]],[[[-70.8399,41.4505],[-70.6792,41.5104],[-70.7908,41.4492],[-70.8399,41.4505]]],[[[-123.411,46.1751],[-123.405,46.2009],[-123.3157,46.1485],[-123.411,46.1751]]],[[[-123.4684,46.225],[-123.4443,46.2359],[-123.4408,46.2132],[-123.4684,46.225]]],[[[-133.5447,54.8317],[-133.5152,54.7825],[-133.5218,54.7668],[-133.5447,54.8317]]],[[[-131.2441,55.0927],[-131.19,55.0483],[-131.2549,55.0692],[-131.2441,55.0927]]],[[[-133.2745,55.4043],[-133.2693,55.444],[-133.2361,55.4402],[-133.2745,55.4043]]],[[[-152.2999,57.3741],[-152.2559,57.3842],[-152.3151,57.3631],[-152.2999,57.3741]]],[[[-136.1376,58.2651],[-136.107,58.3034],[-136.0279,58.295],[-136.06,58.2678],[-136.1376,58.2651]]],[[[-135.7185,58.3461],[-135.6549,58.3798],[-135.5433,58.3348],[-135.6706,58.3309],[-135.7185,58.3461]]],[[[-152.0625,58.9428],[-152.0131,58.9398],[-152.0747,58.9143],[-152.0625,58.9428]]],[[[-151.7136,59.1058],[-151.6437,59.1157],[-151.6469,59.1039],[-151.7136,59.1058]]],[[[-151.5003,59.1373],[-151.4283,59.1173],[-151.5085,59.1286],[-151.5003,59.1373]]],[[[-151.8932,59.1444],[-151.8168,59.1707],[-151.7888,59.1531],[-151.8932,59.1444]]],[[[-146.3586,59.4224],[-146.3224,59.4258],[-146.3586,59.4101],[-146.3586,59.4224]]],[[[-152.6046,60.1786],[-152.5801,60.1072],[-152.6381,60.1673],[-152.6046,60.1786]]],[[[-147.4939,60.2631],[-147.3478,60.2736],[-147.4918,60.2288],[-147.4939,60.2631]]],[[[-173.0717,60.6862],[-173.0584,60.6213],[-173.1114,60.6642],[-173.0717,60.6862]]],[[[-146.8203,60.8417],[-146.7616,60.8792],[-146.7041,60.8395],[-146.7656,60.802],[-146.8203,60.8417]]],[[[-147.0941,60.8979],[-147.1396,60.8556],[-147.3189,60.8773],[-147.2269,60.9068],[-147.0941,60.8979]]],[[[-165.9721,62.0722],[-165.9478,62.0159],[-166.0098,62.0229],[-165.9721,62.0722]]],[[[-168.0876,64.9788],[-168.0484,64.9589],[-168.0967,64.9654],[-168.0876,64.9788]]],[[[-168.943,65.7647],[-168.9099,65.7396],[-168.9517,65.7532],[-168.943,65.7647]]],[[[-167.8194,65.7593],[-167.7383,65.7772],[-167.8487,65.7428],[-167.8194,65.7593]]],[[[-167.7305,65.7457],[-167.5665,65.8166],[-167.5565,65.8174],[-167.7305,65.7457]]],[[[-167.232,65.9179],[-166.8358,66.0418],[-167.2395,65.9092],[-167.232,65.9179]]],[[[-166.7628,66.0712],[-166.1871,66.2103],[-166.8005,66.0515],[-166.7628,66.0712]]],[[[-166.1474,66.2354],[-166.0418,66.26],[-166.1561,66.2263],[-166.1474,66.2354]]],[[[-165.97,66.2867],[-165.814,66.3225],[-166.0104,66.2577],[-165.97,66.2867]]],[[[-165.4887,66.409],[-165.6014,66.3767],[-165.7046,66.3617],[-165.6909,66.3708],[-165.4887,66.409]]],[[[-165.4887,66.409],[-165.4483,66.4188],[-165.4239,66.4213],[-165.4887,66.409]]],[[[-165.3426,66.4367],[-165.3817,66.4257],[-165.423,66.4214],[-165.3426,66.4367]]],[[[-164.7633,66.5465],[-164.8666,66.507],[-165.3209,66.4406],[-165.0421,66.4935],[-164.7633,66.5465]]]]}}