{"type":"Feature","bbox":[7.7273,47.1423,8.4456,47.622],"properties":{"iso":"CH","code":"AG","name":"Aargau","name_de":"Kanton Aargau","key":"CH-AG"},"geometry":{"type":"Polygon","coordinates":[[[8.2511,47.622],[8.277,47.6166],[8.2886,47.6158],[8.2939,47.6115],[8.2993,47.6018],[8.3063,47.5922],[8.3162,47.5878],[8.3541,47.581],[8.4211,47.5811],[8.4194,47.575],[8.3964,47.5499],[8.3748,47.535],[8.3581,47.5168],[8.3531,47.4979],[8.3526,47.4876],[8.3579,47.4738],[8.38,47.4419],[8.3874,47.4264],[8.4011,47.4142],[8.4035,47.4104],[8.3994,47.4022],[8.3728,47.3837],[8.3708,47.3783],[8.3795,47.3729],[8.3991,47.3661],[8.4035,47.3625],[8.4034,47.3562],[8.4011,47.3422],[8.402,47.3389],[8.4042,47.3351],[8.416,47.3264],[8.4456,47.3328],[8.4427,47.3232],[8.4335,47.3123],[8.4149,47.2959],[8.3977,47.2886],[8.391,47.2868],[8.3825,47.2861],[8.3849,47.278],[8.4074,47.2455],[8.3944,47.2284],[8.393,47.2195],[8.3981,47.1774],[8.4056,47.1423],[8.3765,47.1431],[8.3641,47.1472],[8.3587,47.1506],[8.3514,47.1568],[8.3404,47.1685],[8.3368,47.1733],[8.3035,47.2384],[8.2959,47.2498],[8.2917,47.2583],[8.2886,47.2681],[8.283,47.2738],[8.2771,47.2776],[8.2606,47.2823],[8.2437,47.2811],[8.227,47.2678],[8.2225,47.2596],[8.1998,47.2321],[8.1835,47.2239],[8.1745,47.2232],[8.1677,47.2253],[8.1593,47.2299],[8.1575,47.2316],[8.1562,47.2349],[8.1545,47.2369],[8.1545,47.2383],[8.1632,47.2413],[8.1604,47.2429],[8.1514,47.2454],[8.1242,47.2461],[8.1042,47.2506],[8.0893,47.2612],[8.0204,47.243],[7.9981,47.273],[7.9827,47.2774],[7.9613,47.2771],[7.9571,47.2766],[7.9556,47.2754],[7.9548,47.2727],[7.956,47.2562],[7.9556,47.2528],[7.9542,47.2498],[7.9487,47.2466],[7.9233,47.2403],[7.9005,47.2403],[7.8393,47.2318],[7.8263,47.247],[7.8254,47.2495],[7.8229,47.269],[7.8304,47.2754],[7.8545,47.308],[7.8575,47.3107],[7.9019,47.3383],[7.9178,47.3348],[7.9816,47.3283],[7.9969,47.3345],[8.0105,47.3562],[8.0218,47.3678],[8.0291,47.3792],[8.028,47.3981],[8.0155,47.4006],[8.0057,47.4043],[7.997,47.4099],[7.9924,47.4145],[7.988,47.4283],[7.9813,47.4312],[7.9802,47.4402],[7.9811,47.4422],[7.9808,47.4455],[7.9791,47.4487],[7.9704,47.4558],[7.9549,47.4577],[7.9424,47.4634],[7.9404,47.4694],[7.9402,47.4836],[7.9096,47.4858],[7.9005,47.4904],[7.8969,47.498],[7.8677,47.5281],[7.8631,47.535],[7.8573,47.538],[7.8494,47.5453],[7.8352,47.5482],[7.8291,47.5475],[7.8263,47.546],[7.8238,47.5324],[7.8214,47.5297],[7.7962,47.5142],[7.7827,47.5128],[7.7799,47.5163],[7.7777,47.522],[7.7771,47.5278],[7.7777,47.5326],[7.7717,47.5361],[7.7671,47.5366],[7.7273,47.5504],[7.7667,47.556],[7.7855,47.5632],[7.8015,47.5761],[7.8197,47.5953],[7.8337,47.5905],[7.8982,47.5878],[7.9043,47.5836],[7.9075,47.5742],[7.9095,47.5648],[7.9122,47.5606],[8.0423,47.5606],[8.0872,47.5674],[8.097,47.5719],[8.1054,47.5813],[8.1139,47.5878],[8.1221,47.5921],[8.1438,47.6001],[8.1621,47.6038],[8.1689,47.6086],[8.1738,47.6135],[8.179,47.6158],[8.233,47.622],[8.2511,47.622]]]}}