{"type":"Feature","bbox":[9.3028,47.2397,9.6084,47.4498],"properties":{"iso":"CH","code":"AI","name":"Appenzell Innerrhoden","name_de":"Kanton Appenzell Innerrhoden","key":"CH-AI"},"geometry":{"type":"MultiPolygon","coordinates":[[[[9.6084,47.4498],[9.5853,47.4342],[9.5832,47.4318],[9.5815,47.4244],[9.5499,47.4351],[9.5484,47.4372],[9.5484,47.4412],[9.5672,47.4405],[9.5824,47.4425],[9.6084,47.4498]]],[[[9.4882,47.3534],[9.4711,47.2964],[9.4516,47.2715],[9.4377,47.261],[9.4233,47.2539],[9.4038,47.247],[9.3755,47.2397],[9.3603,47.2411],[9.3534,47.2442],[9.3447,47.2466],[9.3315,47.2531],[9.3209,47.2757],[9.3159,47.2819],[9.3082,47.2888],[9.3046,47.2949],[9.3028,47.3035],[9.3056,47.327],[9.309,47.3329],[9.3235,47.341],[9.3318,47.3475],[9.3374,47.3545],[9.3427,47.364],[9.3434,47.3838],[9.3498,47.388],[9.4561,47.3541],[9.4882,47.3534]]],[[[9.5405,47.3972],[9.5264,47.4021],[9.5137,47.4008],[9.4866,47.3936],[9.4896,47.4049],[9.5118,47.4126],[9.514,47.4147],[9.5127,47.4168],[9.5084,47.4195],[9.5112,47.426],[9.5239,47.4331],[9.5278,47.4337],[9.5388,47.4269],[9.5428,47.423],[9.5437,47.4195],[9.5436,47.415],[9.5383,47.4113],[9.5405,47.3972]]]]}}