{"type":"Feature","bbox":[7.3369,47.3385,7.9549,47.5634],"properties":{"iso":"CH","code":"BL","name":"Basel-Landschaft","name_de":"Kanton Basel-Landschaft","key":"CH-BL"},"geometry":{"type":"MultiPolygon","coordinates":[[[[7.6834,47.5443],[7.7273,47.5504],[7.7671,47.5366],[7.7717,47.5361],[7.7777,47.5326],[7.7771,47.5278],[7.7777,47.522],[7.7799,47.5163],[7.7827,47.5128],[7.7962,47.5142],[7.8214,47.5297],[7.8238,47.5324],[7.8263,47.546],[7.8291,47.5475],[7.8352,47.5482],[7.8494,47.5453],[7.8573,47.538],[7.8631,47.535],[7.8677,47.5281],[7.8969,47.498],[7.9005,47.4904],[7.9096,47.4858],[7.9402,47.4836],[7.9404,47.4694],[7.9424,47.4634],[7.9549,47.4577],[7.9497,47.447],[7.9449,47.4406],[7.945,47.4383],[7.9467,47.4345],[7.9531,47.427],[7.9537,47.4223],[7.9478,47.4171],[7.9289,47.4078],[7.9078,47.4038],[7.8949,47.4031],[7.887,47.4035],[7.882,47.4024],[7.8765,47.3918],[7.8705,47.3847],[7.846,47.3771],[7.8386,47.3732],[7.8178,47.3692],[7.8053,47.3636],[7.7897,47.3454],[7.7861,47.3385],[7.7649,47.3427],[7.7589,47.3447],[7.7521,47.3477],[7.7447,47.3538],[7.7349,47.3586],[7.7138,47.3662],[7.689,47.3703],[7.6538,47.3681],[7.6485,47.3695],[7.6452,47.3722],[7.6396,47.3849],[7.6381,47.3907],[7.637,47.3981],[7.6379,47.4065],[7.671,47.4129],[7.6755,47.4145],[7.6839,47.4216],[7.687,47.4299],[7.6874,47.4426],[7.6883,47.4457],[7.6904,47.4482],[7.7012,47.4541],[7.7087,47.4631],[7.7134,47.4673],[7.707,47.4736],[7.6643,47.4916],[7.6563,47.492],[7.6561,47.4878],[7.6538,47.4853],[7.6497,47.4834],[7.6227,47.4853],[7.6145,47.4841],[7.6081,47.4728],[7.6235,47.4677],[7.626,47.4642],[7.6266,47.4618],[7.6151,47.4397],[7.6029,47.4312],[7.5802,47.4299],[7.5748,47.4283],[7.574,47.4227],[7.5751,47.4187],[7.5774,47.4155],[7.576,47.4134],[7.5709,47.4124],[7.5422,47.4108],[7.5383,47.4097],[7.5346,47.4075],[7.5316,47.4024],[7.5236,47.3935],[7.5163,47.3903],[7.5068,47.3886],[7.4905,47.3903],[7.4734,47.397],[7.4663,47.3978],[7.4527,47.3958],[7.4371,47.3793],[7.4263,47.3793],[7.4197,47.3827],[7.4182,47.3906],[7.4112,47.3983],[7.3842,47.4131],[7.4404,47.4146],[7.4551,47.4214],[7.4558,47.4251],[7.455,47.428],[7.4458,47.4389],[7.4435,47.4408],[7.4345,47.4413],[7.4292,47.4427],[7.4257,47.4454],[7.4206,47.4509],[7.4261,47.4558],[7.4293,47.4651],[7.4276,47.4707],[7.4195,47.4779],[7.4144,47.484],[7.4143,47.4902],[7.426,47.4925],[7.4415,47.4888],[7.446,47.4869],[7.4472,47.4648],[7.4506,47.4567],[7.4542,47.452],[7.4705,47.4518],[7.5339,47.4608],[7.5333,47.4873],[7.529,47.4939],[7.5209,47.4951],[7.5017,47.5001],[7.4858,47.4988],[7.4849,47.5009],[7.4778,47.5077],[7.4756,47.5117],[7.4769,47.5149],[7.4827,47.517],[7.4931,47.5155],[7.5011,47.5173],[7.5055,47.523],[7.5052,47.533],[7.5017,47.533],[7.4827,47.5423],[7.5209,47.5634],[7.5568,47.5468],[7.576,47.5444],[7.5788,47.5407],[7.5889,47.5349],[7.6064,47.5429],[7.6117,47.544],[7.6168,47.5426],[7.6226,47.538],[7.6303,47.5337],[7.6404,47.5297],[7.6467,47.5348],[7.6469,47.5514],[7.6614,47.5462],[7.6834,47.5443]]],[[[7.3785,47.4306],[7.3882,47.4333],[7.3842,47.4131],[7.3425,47.4273],[7.3394,47.429],[7.3369,47.4319],[7.3785,47.4306]]]]}}