{"type":"Feature","bbox":[7.5547,47.5193,7.6938,47.6009],"properties":{"iso":"CH","code":"BS","name":"Basel-Stadt","name_de":"Kanton Basel-Stadt","source":"swisstopo","key":"CH-BS"},"geometry":{"type":"Polygon","coordinates":[[[7.5547,47.5644],[7.5573,47.565],[7.5593,47.5694],[7.5565,47.5714],[7.5569,47.5725],[7.5654,47.5762],[7.5665,47.5777],[7.5716,47.5771],[7.5753,47.5761],[7.5764,47.5765],[7.5789,47.5767],[7.5847,47.5755],[7.5844,47.5786],[7.5847,47.5809],[7.5857,47.5841],[7.587,47.5866],[7.589,47.5899],[7.5985,47.5876],[7.6048,47.5849],[7.6046,47.5828],[7.6041,47.5813],[7.6047,47.5812],[7.6048,47.5804],[7.6053,47.5799],[7.6049,47.5779],[7.6094,47.5782],[7.6132,47.5782],[7.6167,47.5777],[7.6191,47.5769],[7.625,47.5796],[7.628,47.5814],[7.6341,47.5859],[7.6364,47.5884],[7.6396,47.5904],[7.6432,47.5913],[7.6419,47.5929],[7.6418,47.5942],[7.6444,47.5957],[7.6457,47.597],[7.6511,47.5957],[7.6551,47.5954],[7.6617,47.5937],[7.6646,47.5927],[7.6673,47.592],[7.6752,47.592],[7.6755,47.593],[7.6768,47.5943],[7.6781,47.5954],[7.6797,47.5964],[7.6807,47.5972],[7.6816,47.5973],[7.683,47.5985],[7.6848,47.5988],[7.688,47.5986],[7.6893,47.5988],[7.6916,47.5996],[7.6933,47.6009],[7.6938,47.6008],[7.693,47.5995],[7.6902,47.5976],[7.6847,47.5966],[7.6837,47.596],[7.682,47.5943],[7.6796,47.5923],[7.6774,47.5914],[7.6718,47.5873],[7.6721,47.5852],[7.6749,47.5842],[7.6809,47.5827],[7.6814,47.581],[7.6819,47.5775],[7.6839,47.5767],[7.6837,47.5739],[7.6843,47.5738],[7.6855,47.5731],[7.6889,47.5724],[7.6897,47.5714],[7.6889,47.5703],[7.6871,47.5684],[7.6859,47.5656],[7.6838,47.5684],[7.6834,47.5684],[7.6837,47.5705],[7.6835,47.5713],[7.681,47.5704],[7.6791,47.5695],[7.6784,47.569],[7.6777,47.5678],[7.6752,47.5654],[7.6773,47.5649],[7.6773,47.5637],[7.6745,47.5635],[7.6725,47.5637],[7.6724,47.5654],[7.6707,47.5658],[7.6656,47.5651],[7.6642,47.5654],[7.6588,47.5645],[7.6568,47.5631],[7.6562,47.5623],[7.6545,47.5624],[7.6504,47.5609],[7.6483,47.5599],[7.6441,47.5613],[7.6413,47.5613],[7.6383,47.5632],[7.6361,47.5639],[7.634,47.5612],[7.6315,47.5617],[7.6288,47.5617],[7.6274,47.5615],[7.6244,47.5608],[7.6176,47.5587],[7.6178,47.5569],[7.6176,47.5548],[7.6178,47.5543],[7.6184,47.5536],[7.6208,47.5524],[7.6218,47.5517],[7.6225,47.5509],[7.6229,47.55],[7.623,47.5493],[7.6223,47.5398],[7.6195,47.5403],[7.6182,47.5408],[7.617,47.5401],[7.6143,47.5395],[7.6136,47.5391],[7.613,47.5385],[7.6127,47.5371],[7.611,47.536],[7.6114,47.5354],[7.6105,47.5352],[7.6102,47.5356],[7.6092,47.535],[7.606,47.531],[7.606,47.5308],[7.6056,47.5307],[7.6055,47.5303],[7.6055,47.5298],[7.6046,47.5298],[7.6047,47.5293],[7.6018,47.5254],[7.5948,47.5193],[7.5903,47.5198],[7.5893,47.523],[7.5896,47.5252],[7.59,47.5257],[7.5899,47.5267],[7.5895,47.5279],[7.5885,47.5283],[7.5885,47.5291],[7.5859,47.5293],[7.5857,47.5313],[7.5846,47.5312],[7.5839,47.5309],[7.5828,47.532],[7.5827,47.5325],[7.5835,47.5335],[7.5859,47.5374],[7.586,47.5377],[7.5855,47.5382],[7.5855,47.5386],[7.5873,47.5419],[7.5815,47.5438],[7.581,47.5437],[7.5801,47.5438],[7.5785,47.5437],[7.5757,47.544],[7.5648,47.5457],[7.5575,47.5444],[7.5559,47.5443],[7.5588,47.5524],[7.5613,47.5517],[7.5631,47.5549],[7.5646,47.557],[7.5646,47.5572],[7.5616,47.5592],[7.5599,47.5605],[7.5587,47.562],[7.5579,47.5626],[7.5547,47.5644]]]}}