{"type":"Feature","bbox":[6.7562,46.4445,7.3827,47.0042],"properties":{"iso":"CH","code":"FR","name":"Fribourg","name_de":"Kanton Freiburg","key":"CH-FR"},"geometry":{"type":"MultiPolygon","coordinates":[[[[7.2159,47.0042],[7.2252,47.0025],[7.228,47.0001],[7.23,46.9921],[7.2365,46.9856],[7.2343,46.9819],[7.2239,46.9731],[7.2185,46.9701],[7.2056,46.9657],[7.2036,46.9641],[7.2039,46.9613],[7.2118,46.951],[7.216,46.9296],[7.2149,46.9246],[7.2123,46.9188],[7.2053,46.9087],[7.2059,46.9062],[7.2094,46.9049],[7.2244,46.9063],[7.2758,46.8962],[7.3557,46.8912],[7.3605,46.8688],[7.3557,46.8606],[7.3462,46.8552],[7.3405,46.8531],[7.3344,46.8531],[7.3295,46.8559],[7.3299,46.8585],[7.3222,46.8601],[7.3149,46.8559],[7.3138,46.8529],[7.3169,46.8483],[7.3195,46.838],[7.3191,46.8233],[7.3074,46.7902],[7.3051,46.7744],[7.3044,46.7482],[7.3066,46.7335],[7.3127,46.7227],[7.316,46.7207],[7.3333,46.7161],[7.3381,46.714],[7.3468,46.7093],[7.351,46.7042],[7.3541,46.7023],[7.3578,46.7014],[7.3653,46.7012],[7.3703,46.6973],[7.3811,46.6926],[7.3827,46.6908],[7.38,46.6841],[7.3762,46.6593],[7.378,46.6556],[7.3656,46.6457],[7.3581,46.6461],[7.3495,46.6484],[7.335,46.6506],[7.3307,46.6483],[7.3197,46.6396],[7.3234,46.6103],[7.3214,46.5963],[7.3191,46.5876],[7.3146,46.5834],[7.3103,46.5821],[7.283,46.5808],[7.2425,46.5561],[7.2126,46.5396],[7.1552,46.5276],[7.1451,46.5218],[7.1379,46.5147],[7.1221,46.502],[7.1116,46.4959],[7.1031,46.4921],[7.0736,46.4897],[7.0598,46.4849],[7.0424,46.4747],[7.0326,46.467],[7.0276,46.4611],[7.0236,46.4523],[7.0003,46.4445],[6.9994,46.4461],[6.9961,46.4473],[6.9875,46.4593],[6.9814,46.4787],[6.9747,46.4904],[6.9192,46.5189],[6.9055,46.5225],[6.8948,46.5228],[6.8802,46.5118],[6.8729,46.5081],[6.8644,46.5051],[6.8498,46.5037],[6.8422,46.5048],[6.8379,46.5064],[6.8265,46.5173],[6.8196,46.531],[6.8281,46.5429],[6.8437,46.5437],[6.852,46.5431],[6.8666,46.5371],[6.8698,46.5387],[6.8726,46.5418],[6.8976,46.5613],[6.9047,46.5693],[6.903,46.57],[6.8993,46.5697],[6.8915,46.5681],[6.8872,46.5691],[6.8804,46.5724],[6.8691,46.5803],[6.8599,46.5831],[6.8487,46.581],[6.834,46.5801],[6.8261,46.584],[6.8202,46.5841],[6.807,46.5807],[6.8059,46.582],[6.807,46.5898],[6.8062,46.5986],[6.8095,46.6007],[6.8101,46.6027],[6.806,46.6246],[6.8062,46.6364],[6.8092,46.6514],[6.8211,46.6522],[6.8372,46.6599],[6.8486,46.6617],[6.8641,46.6621],[6.8698,46.6629],[6.8722,46.6643],[6.8703,46.6671],[6.8706,46.6686],[6.8762,46.6786],[6.9108,46.7135],[6.94,46.741],[6.9437,46.7493],[6.9299,46.7523],[6.9228,46.7551],[6.9201,46.7588],[6.9214,46.7606],[6.9344,46.7632],[6.9384,46.7653],[6.9693,46.7951],[6.9676,46.809],[6.9733,46.8192],[6.9769,46.8231],[6.9875,46.8286],[6.9974,46.8369],[7.0006,46.8412],[7.0014,46.8444],[6.9991,46.8455],[6.9943,46.8444],[6.9915,46.8459],[6.9878,46.8496],[6.9851,46.8587],[6.9853,46.8633],[6.987,46.8677],[6.9899,46.8719],[6.9889,46.876],[6.9868,46.8794],[6.9845,46.8814],[6.9796,46.882],[6.9731,46.8801],[6.9714,46.879],[6.971,46.8752],[6.9699,46.8733],[6.9687,46.8725],[6.9665,46.8727],[6.9637,46.8743],[6.9474,46.8896],[6.9383,46.8956],[6.9074,46.9255],[6.9459,46.9472],[7.0085,46.8873],[7.0135,46.8805],[7.0248,46.8763],[7.0391,46.8621],[7.0415,46.8524],[7.059,46.8587],[7.0675,46.8658],[7.0729,46.873],[7.0774,46.8872],[7.0807,46.8917],[7.0844,46.895],[7.0877,46.8954],[7.0903,46.8948],[7.0952,46.8916],[7.0975,46.8923],[7.1049,46.8981],[7.1069,46.9009],[7.1063,46.9029],[7.1001,46.9047],[7.0941,46.9077],[7.0732,46.9373],[7.0694,46.9446],[7.0624,46.9782],[7.1427,46.9837],[7.2159,47.0042]]],[[[7.2374,46.9412],[7.2377,46.9377],[7.2342,46.9344],[7.2311,46.9335],[7.2259,46.9332],[7.2225,46.9383],[7.2374,46.9412]]],[[[6.8751,46.9072],[6.9174,46.8786],[6.924,46.8718],[6.9177,46.875],[6.9157,46.8751],[6.9058,46.8716],[6.9029,46.8699],[6.901,46.8669],[6.9105,46.8661],[6.9164,46.8641],[6.9268,46.8584],[6.9299,46.8554],[6.9296,46.8522],[6.9235,46.8455],[6.9171,46.8356],[6.915,46.829],[6.9112,46.8084],[6.9128,46.8057],[6.9146,46.8046],[6.9221,46.8071],[6.9283,46.8064],[6.93,46.8049],[6.9299,46.8028],[6.9259,46.798],[6.9185,46.7862],[6.9131,46.7829],[6.9053,46.7813],[6.8861,46.781],[6.8818,46.7815],[6.8678,46.7873],[6.8563,46.7857],[6.8495,46.7839],[6.8437,46.7811],[6.8355,46.7802],[6.8278,46.7813],[6.8172,46.7848],[6.806,46.7862],[6.7935,46.7904],[6.7921,46.7914],[6.793,46.7937],[6.7975,46.7983],[6.798,46.8003],[6.7949,46.803],[6.7905,46.8025],[6.7857,46.804],[6.7746,46.8119],[6.771,46.8191],[6.766,46.8453],[6.8751,46.9072]]],[[[6.7868,46.7519],[6.7926,46.7478],[6.7934,46.7404],[6.7918,46.7329],[6.7843,46.7263],[6.7727,46.7189],[6.7678,46.7205],[6.7653,46.7271],[6.7603,46.7304],[6.7562,46.7354],[6.7587,46.7404],[6.7653,46.7404],[6.7719,46.7461],[6.7802,46.7519],[6.7868,46.7519]]],[[[6.8596,46.7734],[6.8653,46.7693],[6.8687,46.7643],[6.8753,46.7627],[6.8835,46.7594],[6.8885,46.7519],[6.8852,46.7445],[6.8778,46.7346],[6.8703,46.7296],[6.8629,46.7271],[6.8339,46.7362],[6.8265,46.7346],[6.8149,46.7271],[6.8,46.7263],[6.7975,46.7304],[6.8066,46.7362],[6.8248,46.742],[6.829,46.7486],[6.8381,46.7569],[6.8439,46.7602],[6.8546,46.7709],[6.8596,46.7734]]]]}}