{"type":"Feature","bbox":[6.8407,47.1504,7.5583,47.5044],"properties":{"iso":"CH","code":"JU","name":"Jura","name_de":"Kanton Jura","source":"swisstopo","key":"CH-JU"},"geometry":{"type":"Polygon","coordinates":[[[7.5522,47.3453],[7.5511,47.3437],[7.5499,47.3427],[7.5498,47.3421],[7.5502,47.3414],[7.55,47.3409],[7.548,47.3406],[7.5453,47.3396],[7.5425,47.3381],[7.54,47.3371],[7.5345,47.3345],[7.5346,47.3342],[7.5341,47.3335],[7.5342,47.3331],[7.5335,47.3313],[7.5321,47.3301],[7.5303,47.3276],[7.5278,47.3227],[7.5285,47.3227],[7.5299,47.3217],[7.5315,47.3211],[7.532,47.321],[7.5341,47.3212],[7.536,47.3211],[7.5379,47.3214],[7.5476,47.3216],[7.5491,47.3222],[7.5505,47.3222],[7.5542,47.3233],[7.5583,47.3224],[7.5506,47.3199],[7.53,47.3163],[7.5289,47.3158],[7.5235,47.3142],[7.522,47.3137],[7.5187,47.3117],[7.5167,47.3108],[7.5149,47.3096],[7.5119,47.3084],[7.5099,47.3073],[7.5092,47.3073],[7.5078,47.307],[7.5067,47.3063],[7.506,47.3061],[7.5052,47.3056],[7.5029,47.3052],[7.502,47.3046],[7.5001,47.3042],[7.4978,47.3031],[7.4974,47.3023],[7.497,47.3024],[7.496,47.3021],[7.4954,47.3022],[7.4949,47.3027],[7.4942,47.3028],[7.4937,47.3025],[7.4903,47.302],[7.4883,47.302],[7.4869,47.3022],[7.4864,47.3021],[7.4848,47.303],[7.4841,47.3031],[7.4817,47.3042],[7.4813,47.3042],[7.4789,47.305],[7.478,47.3052],[7.4779,47.3054],[7.4781,47.3057],[7.4778,47.3062],[7.4773,47.3064],[7.4769,47.3067],[7.4766,47.3066],[7.4765,47.3069],[7.476,47.3071],[7.4709,47.307],[7.4675,47.3073],[7.4636,47.3069],[7.4595,47.3066],[7.458,47.3069],[7.4532,47.3074],[7.4478,47.3084],[7.4418,47.3087],[7.4299,47.3073],[7.4288,47.3072],[7.4259,47.3078],[7.4213,47.3068],[7.4217,47.3071],[7.4198,47.3086],[7.4191,47.3089],[7.4175,47.3093],[7.4164,47.3092],[7.4156,47.3093],[7.413,47.31],[7.4126,47.3116],[7.4117,47.3133],[7.4105,47.3134],[7.4088,47.3132],[7.4075,47.3129],[7.4064,47.3129],[7.4058,47.3126],[7.4023,47.3127],[7.3996,47.3132],[7.3985,47.3133],[7.3979,47.3131],[7.3962,47.3134],[7.3934,47.3135],[7.3905,47.3131],[7.3901,47.3135],[7.3886,47.3134],[7.3867,47.3137],[7.3845,47.3135],[7.3829,47.314],[7.3804,47.314],[7.3786,47.315],[7.3746,47.3135],[7.3716,47.3122],[7.3692,47.3109],[7.3651,47.3093],[7.3616,47.3086],[7.3603,47.3087],[7.356,47.3075],[7.3546,47.3073],[7.3521,47.3068],[7.3497,47.3059],[7.3482,47.3057],[7.3489,47.3024],[7.3503,47.2996],[7.3495,47.2989],[7.3482,47.2984],[7.3464,47.2981],[7.344,47.2979],[7.3422,47.2975],[7.3421,47.2967],[7.3423,47.2961],[7.3419,47.2958],[7.3413,47.2956],[7.3418,47.2943],[7.3417,47.2943],[7.3426,47.2935],[7.3443,47.2944],[7.3462,47.2947],[7.3459,47.2942],[7.346,47.2936],[7.3481,47.2923],[7.3505,47.2928],[7.3512,47.2931],[7.3562,47.2943],[7.3571,47.2928],[7.358,47.293],[7.3601,47.293],[7.363,47.2933],[7.3655,47.2938],[7.3744,47.2946],[7.3747,47.2951],[7.3761,47.2956],[7.3771,47.2957],[7.3791,47.2953],[7.3812,47.2959],[7.3818,47.2957],[7.3821,47.2953],[7.3904,47.2968],[7.3913,47.2972],[7.3959,47.2982],[7.3969,47.2977],[7.3964,47.2968],[7.3947,47.2955],[7.3917,47.2935],[7.3898,47.292],[7.3898,47.2894],[7.3924,47.286],[7.3926,47.2841],[7.3925,47.2808],[7.3923,47.2807],[7.3925,47.2802],[7.3923,47.2798],[7.392,47.2797],[7.3924,47.2795],[7.3921,47.2785],[7.3926,47.2784],[7.3924,47.2784],[7.3925,47.278],[7.3894,47.2748],[7.3899,47.2739],[7.3898,47.2729],[7.3902,47.2725],[7.3901,47.2723],[7.3903,47.2723],[7.3911,47.2715],[7.3914,47.2706],[7.3919,47.2697],[7.392,47.2692],[7.3934,47.2678],[7.3936,47.2671],[7.3931,47.2662],[7.3934,47.264],[7.3933,47.2625],[7.3931,47.2621],[7.3929,47.2599],[7.3924,47.2584],[7.3925,47.2571],[7.3918,47.2559],[7.3903,47.2552],[7.3891,47.256],[7.3868,47.256],[7.3856,47.2563],[7.3846,47.2563],[7.3831,47.256],[7.3815,47.2559],[7.3749,47.2563],[7.3735,47.2567],[7.3708,47.257],[7.3687,47.2585],[7.3679,47.258],[7.3669,47.2577],[7.3651,47.2576],[7.364,47.2561],[7.3565,47.2538],[7.3562,47.2533],[7.3549,47.253],[7.3549,47.2528],[7.354,47.2522],[7.3535,47.252],[7.3532,47.2517],[7.3523,47.2514],[7.352,47.2511],[7.3504,47.2504],[7.3488,47.2499],[7.3454,47.2478],[7.3443,47.2495],[7.3435,47.2504],[7.3432,47.2514],[7.3433,47.2519],[7.3406,47.255],[7.3384,47.2552],[7.3377,47.2573],[7.3382,47.2577],[7.3379,47.2577],[7.3376,47.258],[7.3375,47.2585],[7.3382,47.259],[7.3388,47.2598],[7.3399,47.2601],[7.3412,47.2613],[7.3415,47.2629],[7.3374,47.2625],[7.3373,47.2641],[7.3364,47.265],[7.3364,47.2653],[7.3369,47.2655],[7.3373,47.2654],[7.337,47.2673],[7.3366,47.268],[7.3372,47.2681],[7.3388,47.2687],[7.3397,47.2694],[7.3427,47.2701],[7.3461,47.2701],[7.3473,47.2705],[7.349,47.2709],[7.3506,47.2711],[7.3539,47.2711],[7.3543,47.2713],[7.354,47.2727],[7.3528,47.2731],[7.3527,47.2739],[7.3523,47.2746],[7.3519,47.275],[7.3508,47.2765],[7.3501,47.2771],[7.3503,47.2781],[7.3498,47.2782],[7.3497,47.2785],[7.3486,47.2781],[7.3476,47.2794],[7.3479,47.2799],[7.3479,47.2805],[7.3467,47.2807],[7.347,47.2812],[7.3456,47.2811],[7.3449,47.2819],[7.3398,47.2821],[7.3392,47.2823],[7.3372,47.2851],[7.3368,47.2867],[7.3367,47.2866],[7.3359,47.2874],[7.3355,47.2883],[7.3299,47.2873],[7.3296,47.2884],[7.3292,47.2889],[7.3267,47.288],[7.3252,47.2877],[7.3235,47.2874],[7.3211,47.2873],[7.3188,47.287],[7.3191,47.2874],[7.3189,47.2882],[7.3149,47.2882],[7.3107,47.2885],[7.3107,47.2881],[7.3092,47.2881],[7.3034,47.2876],[7.302,47.2878],[7.302,47.2876],[7.3017,47.2875],[7.2925,47.286],[7.2921,47.2857],[7.2917,47.2858],[7.2877,47.2855],[7.2873,47.2858],[7.2862,47.2859],[7.286,47.2852],[7.2842,47.2851],[7.2792,47.2842],[7.2778,47.2842],[7.2757,47.2844],[7.2749,47.2846],[7.2738,47.2847],[7.271,47.2852],[7.2679,47.2858],[7.263,47.2871],[7.261,47.2872],[7.2583,47.2868],[7.2583,47.2856],[7.2529,47.2852],[7.2494,47.2854],[7.2426,47.2852],[7.2395,47.2857],[7.2323,47.2882],[7.2235,47.2881],[7.2168,47.2896],[7.2163,47.2898],[7.2149,47.29],[7.2134,47.2898],[7.2102,47.2888],[7.2084,47.2899],[7.207,47.2911],[7.2062,47.292],[7.2072,47.2932],[7.2092,47.2947],[7.206,47.2955],[7.1976,47.2959],[7.1946,47.2958],[7.1878,47.2948],[7.1854,47.2952],[7.1764,47.2945],[7.1763,47.2942],[7.1746,47.2941],[7.1688,47.2945],[7.1686,47.2947],[7.1679,47.2943],[7.1638,47.2941],[7.1634,47.2931],[7.165,47.2927],[7.1681,47.2916],[7.1694,47.2909],[7.1685,47.2907],[7.1647,47.289],[7.1647,47.2886],[7.1652,47.2864],[7.1665,47.2858],[7.169,47.286],[7.1692,47.2857],[7.1693,47.285],[7.1702,47.284],[7.1702,47.2831],[7.1692,47.2836],[7.1685,47.2832],[7.1686,47.283],[7.1682,47.2827],[7.1681,47.2817],[7.1679,47.2814],[7.168,47.2798],[7.1685,47.2784],[7.1687,47.277],[7.1685,47.2756],[7.1687,47.2747],[7.1665,47.2739],[7.162,47.2728],[7.1604,47.2721],[7.1577,47.2715],[7.1551,47.2713],[7.1526,47.2704],[7.1505,47.2699],[7.1487,47.269],[7.149,47.2688],[7.1483,47.2684],[7.1482,47.2682],[7.1477,47.2679],[7.1477,47.2672],[7.1461,47.2659],[7.1457,47.2653],[7.1473,47.2626],[7.149,47.2632],[7.1492,47.2629],[7.149,47.2626],[7.149,47.2622],[7.1475,47.2617],[7.1464,47.2606],[7.1464,47.26],[7.1462,47.2599],[7.1431,47.2595],[7.1432,47.2579],[7.1428,47.2557],[7.1482,47.2562],[7.1498,47.2561],[7.1515,47.2555],[7.1514,47.2551],[7.1518,47.2548],[7.1516,47.2546],[7.1509,47.2542],[7.1492,47.2539],[7.1532,47.251],[7.1558,47.2475],[7.155,47.2477],[7.1536,47.2477],[7.1519,47.2471],[7.151,47.2466],[7.1471,47.2453],[7.1438,47.2446],[7.1402,47.2442],[7.1398,47.2432],[7.1339,47.2444],[7.1324,47.2445],[7.129,47.245],[7.1252,47.2448],[7.1196,47.244],[7.1152,47.2427],[7.1138,47.2425],[7.1115,47.2419],[7.1106,47.242],[7.1101,47.2425],[7.1071,47.2423],[7.1064,47.2424],[7.1052,47.2429],[7.1034,47.2431],[7.1021,47.2428],[7.1009,47.2423],[7.0973,47.2395],[7.0964,47.2386],[7.0962,47.237],[7.0884,47.237],[7.0857,47.24],[7.0879,47.2408],[7.0888,47.2416],[7.0874,47.2421],[7.0871,47.2424],[7.0872,47.2435],[7.0852,47.2454],[7.0845,47.2453],[7.0818,47.2434],[7.0796,47.2434],[7.0798,47.244],[7.08,47.2453],[7.0794,47.2474],[7.0795,47.2478],[7.0686,47.2441],[7.0646,47.2437],[7.0641,47.2434],[7.0617,47.2433],[7.0598,47.2428],[7.0587,47.2423],[7.0572,47.241],[7.0567,47.24],[7.0567,47.2395],[7.0575,47.2386],[7.057,47.2381],[7.0563,47.2378],[7.0563,47.2369],[7.0573,47.235],[7.0571,47.235],[7.0573,47.2346],[7.0575,47.2345],[7.058,47.232],[7.0587,47.2312],[7.0564,47.2301],[7.0552,47.2294],[7.0531,47.2286],[7.0502,47.228],[7.0473,47.2271],[7.0469,47.2267],[7.0465,47.2257],[7.0437,47.223],[7.0443,47.2219],[7.0368,47.2134],[7.0349,47.2098],[7.0303,47.2023],[7.0235,47.1957],[7.0092,47.1939],[6.9964,47.1933],[6.9945,47.1878],[6.9945,47.187],[6.993,47.1862],[6.9898,47.183],[6.9904,47.1826],[6.9887,47.1803],[6.9862,47.1779],[6.9867,47.1775],[6.9856,47.1766],[6.9832,47.1756],[6.9808,47.1743],[6.9799,47.1741],[6.9794,47.1748],[6.979,47.1747],[6.977,47.1749],[6.9765,47.1756],[6.9755,47.1763],[6.9721,47.1799],[6.9714,47.1803],[6.9705,47.1813],[6.9697,47.1812],[6.9696,47.1815],[6.9666,47.1814],[6.9618,47.1821],[6.9611,47.182],[6.9613,47.1817],[6.961,47.1817],[6.9604,47.182],[6.9597,47.1815],[6.9594,47.1817],[6.9561,47.1807],[6.9544,47.1825],[6.9539,47.1822],[6.9534,47.1828],[6.9554,47.1839],[6.9526,47.1857],[6.9524,47.1861],[6.9531,47.1864],[6.9525,47.1872],[6.9522,47.1871],[6.9522,47.1874],[6.9454,47.1854],[6.9414,47.1845],[6.9416,47.1843],[6.9408,47.1838],[6.9401,47.1816],[6.9411,47.1809],[6.9398,47.1799],[6.9382,47.1752],[6.9373,47.1741],[6.9351,47.173],[6.9299,47.1694],[6.9191,47.1649],[6.9167,47.1643],[6.9172,47.1638],[6.9139,47.1627],[6.9098,47.1594],[6.9089,47.1589],[6.9083,47.1597],[6.9075,47.1592],[6.9082,47.1584],[6.9057,47.1576],[6.9061,47.1572],[6.9001,47.1555],[6.8983,47.1553],[6.8958,47.1542],[6.8924,47.1538],[6.889,47.1523],[6.8876,47.1514],[6.8862,47.1512],[6.8854,47.1512],[6.8837,47.1504],[6.8829,47.1517],[6.8825,47.1531],[6.8796,47.1543],[6.8799,47.1585],[6.8769,47.1609],[6.872,47.1741],[6.8633,47.1684],[6.8615,47.1656],[6.8609,47.1655],[6.86,47.1657],[6.8597,47.1655],[6.8584,47.1654],[6.8582,47.1657],[6.8564,47.1658],[6.8556,47.1663],[6.8535,47.1668],[6.8516,47.1663],[6.8515,47.1661],[6.8501,47.1662],[6.8484,47.1659],[6.8445,47.1668],[6.8433,47.1672],[6.8434,47.1676],[6.8416,47.1699],[6.841,47.1703],[6.8409,47.1708],[6.8407,47.1708],[6.8411,47.1714],[6.8417,47.1716],[6.8422,47.1721],[6.843,47.1723],[6.8432,47.1725],[6.8455,47.1732],[6.8482,47.1745],[6.8512,47.1756],[6.8531,47.1766],[6.8556,47.1772],[6.8589,47.1786],[6.8603,47.179],[6.8612,47.1795],[6.8625,47.1798],[6.864,47.1804],[6.8652,47.1815],[6.8655,47.1821],[6.8656,47.1829],[6.866,47.1843],[6.8669,47.1848],[6.8673,47.1853],[6.868,47.1854],[6.8693,47.1851],[6.8716,47.1848],[6.8739,47.1853],[6.8743,47.1859],[6.8741,47.1872],[6.8736,47.1887],[6.8739,47.1905],[6.8741,47.191],[6.8747,47.1916],[6.8753,47.193],[6.8754,47.1928],[6.8758,47.1934],[6.8774,47.1946],[6.8787,47.1959],[6.8787,47.1962],[6.8788,47.1967],[6.8799,47.1987],[6.88,47.1993],[6.8804,47.2003],[6.8807,47.2005],[6.8831,47.2012],[6.8846,47.2025],[6.8847,47.2028],[6.8852,47.2032],[6.8859,47.2036],[6.8868,47.204],[6.8882,47.2042],[6.8893,47.2047],[6.8896,47.2051],[6.892,47.2072],[6.8935,47.208],[6.896,47.2087],[6.8973,47.2093],[6.8993,47.2104],[6.9014,47.2121],[6.9051,47.2138],[6.9054,47.2138],[6.9071,47.2147],[6.9087,47.2168],[6.91,47.2182],[6.9128,47.2187],[6.913,47.2183],[6.9163,47.2192],[6.9195,47.2203],[6.9211,47.2206],[6.9238,47.2221],[6.9273,47.2257],[6.927,47.227],[6.9272,47.2274],[6.9272,47.228],[6.9279,47.2287],[6.9293,47.2292],[6.9306,47.23],[6.9326,47.2306],[6.9342,47.2307],[6.9387,47.2306],[6.9394,47.2309],[6.9399,47.2313],[6.9408,47.2315],[6.9418,47.2326],[6.9428,47.2345],[6.9428,47.2349],[6.943,47.2352],[6.9431,47.2363],[6.9427,47.2375],[6.9431,47.2379],[6.9484,47.2394],[6.9517,47.2418],[6.9528,47.2422],[6.9546,47.2424],[6.9557,47.2431],[6.9558,47.2435],[6.9557,47.244],[6.9549,47.2444],[6.954,47.2451],[6.9521,47.2474],[6.9491,47.2489],[6.9475,47.2503],[6.9474,47.2507],[6.9471,47.2531],[6.9467,47.2537],[6.9466,47.2541],[6.9496,47.2565],[6.9502,47.2582],[6.9511,47.2596],[6.9516,47.2615],[6.9517,47.262],[6.9516,47.2627],[6.9506,47.2644],[6.9501,47.2661],[6.9504,47.267],[6.9519,47.2688],[6.952,47.2699],[6.9506,47.2718],[6.95,47.2723],[6.9483,47.2752],[6.9454,47.2787],[6.9451,47.2792],[6.9454,47.2798],[6.9453,47.2802],[6.9455,47.2808],[6.9452,47.2812],[6.9443,47.2823],[6.9429,47.2833],[6.9409,47.2851],[6.9407,47.2861],[6.941,47.2867],[6.9444,47.2884],[6.9471,47.2906],[6.949,47.2916],[6.9521,47.2921],[6.9564,47.2923],[6.9579,47.2921],[6.9599,47.2914],[6.9622,47.2914],[6.9685,47.2927],[6.9694,47.2925],[6.9728,47.2913],[6.9737,47.2913],[6.9752,47.292],[6.9761,47.2931],[6.9763,47.2937],[6.9759,47.2953],[6.9761,47.2959],[6.9764,47.2963],[6.979,47.2964],[6.9814,47.2954],[6.9832,47.2954],[6.9871,47.2962],[6.988,47.2966],[6.9899,47.2968],[6.9917,47.2965],[6.9943,47.2956],[6.996,47.2957],[6.9979,47.2966],[6.9989,47.2973],[6.9996,47.2978],[7.001,47.2997],[7.0037,47.3016],[7.0049,47.3017],[7.0068,47.3013],[7.0076,47.301],[7.0098,47.3028],[7.01,47.3041],[7.0105,47.3055],[7.0107,47.3073],[7.011,47.3081],[7.0115,47.3086],[7.0121,47.3089],[7.0134,47.3092],[7.0158,47.3133],[7.0162,47.3147],[7.0154,47.3169],[7.0149,47.3177],[7.0143,47.3181],[7.0137,47.3193],[7.013,47.3202],[7.0104,47.3204],[7.0093,47.3203],[7.0097,47.3216],[7.01,47.3245],[7.0128,47.3248],[7.0162,47.3254],[7.0188,47.3254],[7.0261,47.3262],[7.0307,47.3269],[7.0306,47.3274],[7.033,47.3278],[7.0338,47.3283],[7.0371,47.3279],[7.0433,47.3264],[7.0456,47.3265],[7.057,47.3344],[7.0562,47.3346],[7.0559,47.3345],[7.0556,47.3347],[7.0546,47.3347],[7.053,47.3351],[7.0528,47.3352],[7.0537,47.3354],[7.0537,47.3358],[7.0529,47.3367],[7.0552,47.3376],[7.0544,47.3383],[7.0551,47.3387],[7.0583,47.3393],[7.0587,47.3396],[7.059,47.3398],[7.0598,47.3397],[7.0624,47.3441],[7.0612,47.3446],[7.0567,47.3469],[7.0554,47.3474],[7.0499,47.3477],[7.05,47.3487],[7.0505,47.3499],[7.0512,47.3507],[7.0528,47.3513],[7.0528,47.3515],[7.0525,47.3529],[7.0516,47.3548],[7.0516,47.3558],[7.0519,47.3566],[7.0507,47.3579],[7.0501,47.359],[7.0499,47.3614],[7.0494,47.3618],[7.0485,47.3623],[7.0484,47.3622],[7.0482,47.3624],[7.0468,47.3624],[7.0469,47.3626],[7.0458,47.3632],[7.0445,47.3638],[7.0431,47.3643],[7.0382,47.364],[7.0378,47.3637],[7.0348,47.3633],[7.0344,47.3647],[7.0344,47.367],[7.0342,47.368],[7.0341,47.3697],[7.0325,47.3697],[7.0305,47.3695],[7.0294,47.3691],[7.0244,47.3699],[7.0244,47.3701],[7.0241,47.37],[7.0201,47.3703],[7.0191,47.3708],[7.0183,47.3714],[7.0182,47.3726],[7.0156,47.3729],[7.0142,47.3718],[7.0131,47.3714],[7.0122,47.3725],[7.0122,47.3729],[7.0094,47.3705],[7.0083,47.3693],[7.0082,47.3689],[7.0074,47.3681],[7.0069,47.3681],[7.0066,47.368],[7.0065,47.3678],[7.0044,47.3672],[7.0019,47.3661],[6.9988,47.3645],[6.9964,47.3636],[6.9943,47.3632],[6.9875,47.3638],[6.9843,47.3637],[6.9825,47.3633],[6.9771,47.3614],[6.9756,47.361],[6.9746,47.3605],[6.9747,47.3603],[6.9746,47.3601],[6.971,47.3608],[6.9706,47.361],[6.9705,47.3604],[6.9681,47.3596],[6.967,47.3594],[6.9664,47.3595],[6.9659,47.3592],[6.9645,47.3598],[6.9642,47.3603],[6.9625,47.36],[6.961,47.3593],[6.9586,47.3595],[6.9564,47.3591],[6.9539,47.3593],[6.9524,47.359],[6.9521,47.36],[6.9501,47.3595],[6.9464,47.3593],[6.9428,47.3577],[6.9396,47.3578],[6.9351,47.3576],[6.9331,47.3584],[6.9325,47.3581],[6.9308,47.3579],[6.9241,47.3552],[6.9237,47.3554],[6.9196,47.3553],[6.9171,47.3561],[6.9165,47.3565],[6.9159,47.3574],[6.9153,47.3576],[6.9118,47.358],[6.9087,47.3587],[6.9069,47.3589],[6.9059,47.3592],[6.9028,47.3596],[6.902,47.3594],[6.9001,47.3579],[6.8996,47.3577],[6.898,47.3585],[6.8963,47.3585],[6.8957,47.3587],[6.8956,47.3582],[6.8946,47.3576],[6.895,47.3572],[6.8948,47.357],[6.8949,47.3567],[6.8947,47.3565],[6.8941,47.3562],[6.8931,47.3562],[6.8916,47.3559],[6.8915,47.3556],[6.8893,47.3548],[6.8886,47.3543],[6.8873,47.354],[6.887,47.3533],[6.8852,47.3531],[6.8838,47.3525],[6.883,47.3524],[6.8793,47.3526],[6.8793,47.3535],[6.8791,47.3537],[6.8794,47.3553],[6.8793,47.3569],[6.8794,47.3578],[6.88,47.3586],[6.88,47.3591],[6.8805,47.3597],[6.8816,47.3603],[6.8825,47.3612],[6.8833,47.363],[6.8838,47.3657],[6.8847,47.3668],[6.8849,47.3674],[6.8842,47.3691],[6.8836,47.3722],[6.8836,47.3729],[6.8854,47.3744],[6.8885,47.3765],[6.8936,47.3791],[6.8958,47.3799],[6.8951,47.3817],[6.8967,47.3822],[6.9008,47.3823],[6.9039,47.3826],[6.9051,47.3825],[6.9052,47.3834],[6.9102,47.3851],[6.9121,47.3862],[6.9135,47.3881],[6.9135,47.3887],[6.9139,47.3893],[6.9135,47.3897],[6.9127,47.3898],[6.9114,47.3907],[6.911,47.3916],[6.9116,47.3938],[6.9105,47.3944],[6.9098,47.3958],[6.9093,47.3961],[6.9103,47.3965],[6.9134,47.397],[6.9155,47.3972],[6.9156,47.3991],[6.9168,47.4008],[6.9173,47.4027],[6.9178,47.4032],[6.9167,47.4039],[6.915,47.4041],[6.9133,47.4046],[6.9172,47.4053],[6.9197,47.4066],[6.9206,47.4051],[6.9222,47.4056],[6.9241,47.4058],[6.932,47.4057],[6.9384,47.4061],[6.9409,47.4116],[6.9409,47.4126],[6.9415,47.4157],[6.9412,47.4216],[6.9404,47.4303],[6.9401,47.4311],[6.9403,47.4321],[6.9403,47.4333],[6.9419,47.4339],[6.9471,47.434],[6.955,47.4353],[6.9576,47.4338],[6.9637,47.4358],[6.9663,47.4377],[6.9679,47.4412],[6.9688,47.4438],[6.9703,47.4471],[6.9734,47.4472],[6.9739,47.4477],[6.9753,47.4478],[6.981,47.4492],[6.9841,47.4482],[6.9878,47.4478],[6.9902,47.448],[6.9931,47.4487],[6.9959,47.4496],[6.9991,47.4525],[7.0022,47.4542],[7.0014,47.456],[6.9975,47.4564],[6.998,47.4579],[6.9982,47.4597],[6.9979,47.4598],[6.9995,47.4611],[7.0013,47.4619],[6.9998,47.465],[7.0005,47.4672],[6.9917,47.4664],[6.9911,47.4669],[6.9908,47.4676],[6.9914,47.4688],[6.9932,47.4707],[6.993,47.4711],[6.9925,47.4716],[6.9916,47.4721],[6.9902,47.4724],[6.9883,47.4731],[6.9884,47.4738],[6.9878,47.4749],[6.9864,47.4763],[6.9865,47.4768],[6.9886,47.481],[6.9886,47.4869],[6.9878,47.4883],[6.9869,47.4902],[6.9858,47.4917],[6.9864,47.4921],[6.9849,47.4929],[6.9826,47.4937],[6.983,47.4946],[6.986,47.4933],[6.9883,47.4948],[6.9908,47.4958],[6.9959,47.4973],[6.9994,47.4986],[7.0003,47.4991],[7.0004,47.4997],[7.0037,47.5007],[7.0147,47.5033],[7.0167,47.5037],[7.0177,47.5037],[7.0202,47.5044],[7.0249,47.5043],[7.0264,47.5024],[7.0276,47.5013],[7.0282,47.5016],[7.0291,47.5015],[7.0308,47.5004],[7.0342,47.4992],[7.0366,47.4992],[7.0369,47.4975],[7.0432,47.4982],[7.0445,47.4984],[7.0493,47.4961],[7.0524,47.4951],[7.0557,47.495],[7.0582,47.4954],[7.0608,47.4954],[7.0628,47.4946],[7.0721,47.4924],[7.0725,47.4897],[7.0749,47.4882],[7.0782,47.4887],[7.0814,47.4897],[7.0914,47.4947],[7.0942,47.4954],[7.0969,47.4952],[7.1,47.4943],[7.1125,47.4951],[7.1157,47.4963],[7.1228,47.5004],[7.1236,47.501],[7.1266,47.5026],[7.128,47.5039],[7.1303,47.5029],[7.1337,47.5025],[7.1357,47.5024],[7.1392,47.5018],[7.1453,47.4992],[7.1504,47.4973],[7.1525,47.4963],[7.1555,47.4931],[7.1569,47.4921],[7.1593,47.4907],[7.1623,47.49],[7.1661,47.4901],[7.1674,47.4894],[7.1705,47.4895],[7.1731,47.4898],[7.1758,47.4904],[7.1851,47.4912],[7.1953,47.4935],[7.197,47.4936],[7.201,47.4943],[7.2013,47.4941],[7.2014,47.4938],[7.2014,47.4931],[7.2012,47.4929],[7.2015,47.4926],[7.2021,47.4926],[7.2021,47.4922],[7.2027,47.4917],[7.2026,47.4915],[7.2029,47.4915],[7.203,47.4914],[7.1986,47.49],[7.1955,47.4893],[7.1941,47.4889],[7.1928,47.489],[7.1914,47.4888],[7.1909,47.4885],[7.1909,47.4874],[7.1904,47.4862],[7.1869,47.4825],[7.1864,47.4809],[7.1847,47.4772],[7.1829,47.4753],[7.182,47.4735],[7.1812,47.473],[7.1806,47.472],[7.1806,47.4715],[7.1788,47.4693],[7.1775,47.4681],[7.1774,47.4676],[7.1776,47.4675],[7.1776,47.4674],[7.1778,47.4674],[7.1779,47.4672],[7.1781,47.4673],[7.1782,47.467],[7.1787,47.4669],[7.1786,47.4666],[7.1784,47.4666],[7.1783,47.4664],[7.1785,47.4663],[7.1791,47.4655],[7.1789,47.4655],[7.1787,47.4651],[7.179,47.465],[7.1789,47.4649],[7.1789,47.4645],[7.1791,47.4644],[7.1786,47.4643],[7.1785,47.4641],[7.1789,47.464],[7.1787,47.4638],[7.179,47.4632],[7.1787,47.4619],[7.1789,47.4608],[7.1781,47.4601],[7.1775,47.4599],[7.1772,47.4595],[7.1775,47.4589],[7.1783,47.4586],[7.178,47.4582],[7.1781,47.458],[7.1768,47.4555],[7.1763,47.4539],[7.175,47.4516],[7.1745,47.4501],[7.1734,47.4488],[7.1731,47.4475],[7.1727,47.4468],[7.1721,47.4459],[7.1699,47.4437],[7.1702,47.443],[7.1738,47.4431],[7.1756,47.443],[7.1777,47.4423],[7.1807,47.4418],[7.1925,47.439],[7.1939,47.4384],[7.1951,47.4374],[7.1958,47.4354],[7.1999,47.4352],[7.2056,47.4356],[7.2067,47.4348],[7.2092,47.4356],[7.2093,47.4358],[7.2103,47.4358],[7.2109,47.436],[7.2124,47.4368],[7.2149,47.4374],[7.2169,47.4376],[7.2196,47.4385],[7.2205,47.4386],[7.2219,47.4391],[7.2229,47.4398],[7.2231,47.4397],[7.2256,47.44],[7.229,47.4399],[7.2334,47.4386],[7.2356,47.4371],[7.2389,47.4333],[7.2385,47.4322],[7.2375,47.4306],[7.239,47.4285],[7.2438,47.4278],[7.2458,47.4265],[7.2455,47.4247],[7.2458,47.4238],[7.2462,47.4234],[7.2461,47.4227],[7.2463,47.4222],[7.246,47.4217],[7.2454,47.421],[7.2466,47.4203],[7.2494,47.4214],[7.2506,47.4227],[7.2504,47.423],[7.2525,47.4234],[7.255,47.4244],[7.2593,47.4254],[7.2635,47.426],[7.2661,47.4267],[7.2668,47.4268],[7.2671,47.4266],[7.2682,47.4269],[7.2697,47.427],[7.2714,47.4277],[7.2725,47.4287],[7.2728,47.4288],[7.274,47.43],[7.2762,47.4311],[7.2764,47.4314],[7.2775,47.4318],[7.2779,47.4325],[7.2801,47.4328],[7.2809,47.4335],[7.2808,47.4338],[7.2814,47.4346],[7.2819,47.4348],[7.2838,47.4351],[7.2869,47.4352],[7.2874,47.4348],[7.2889,47.4347],[7.2916,47.4336],[7.2927,47.4334],[7.2937,47.4337],[7.2942,47.4342],[7.2948,47.4344],[7.2958,47.4357],[7.2969,47.4357],[7.2974,47.4359],[7.2978,47.4358],[7.2987,47.4361],[7.2995,47.4361],[7.3005,47.4365],[7.3021,47.4385],[7.3024,47.4386],[7.3069,47.439],[7.3081,47.4388],[7.3103,47.4382],[7.3124,47.438],[7.3135,47.4382],[7.3144,47.4386],[7.3164,47.4388],[7.3177,47.4387],[7.3193,47.4388],[7.3199,47.4387],[7.3205,47.4384],[7.321,47.4386],[7.3227,47.4389],[7.3235,47.4387],[7.3245,47.4391],[7.3252,47.4396],[7.3256,47.4396],[7.3259,47.4394],[7.3267,47.44],[7.3273,47.44],[7.3273,47.4397],[7.3278,47.439],[7.3278,47.4384],[7.3282,47.438],[7.3271,47.4365],[7.3264,47.4362],[7.3263,47.4359],[7.3254,47.4352],[7.3252,47.4348],[7.3253,47.4342],[7.3257,47.434],[7.3256,47.4333],[7.326,47.433],[7.3262,47.4326],[7.3259,47.4325],[7.3262,47.4321],[7.3291,47.4314],[7.3322,47.4302],[7.3379,47.4301],[7.3381,47.4296],[7.34,47.4298],[7.3409,47.4291],[7.3412,47.4291],[7.3407,47.4284],[7.341,47.4282],[7.3411,47.4269],[7.3413,47.4265],[7.3436,47.4259],[7.3437,47.4252],[7.3442,47.4244],[7.3461,47.4237],[7.3459,47.4234],[7.3484,47.4227],[7.3495,47.4213],[7.3521,47.4207],[7.3535,47.4197],[7.3554,47.4187],[7.358,47.4182],[7.3579,47.4166],[7.3573,47.415],[7.3581,47.4149],[7.3587,47.4152],[7.3698,47.4139],[7.3717,47.4138],[7.3739,47.4141],[7.376,47.4141],[7.378,47.4131],[7.3795,47.4128],[7.3841,47.4124],[7.3846,47.4103],[7.3852,47.409],[7.3862,47.4074],[7.3877,47.4042],[7.3887,47.403],[7.3918,47.403],[7.3938,47.4033],[7.3959,47.4034],[7.3978,47.3992],[7.3989,47.3968],[7.4014,47.3968],[7.4059,47.3951],[7.4089,47.3951],[7.4108,47.3947],[7.4128,47.3948],[7.4145,47.3943],[7.4148,47.394],[7.4139,47.3934],[7.4137,47.3894],[7.4138,47.3887],[7.4163,47.3848],[7.4117,47.3806],[7.425,47.3796],[7.4337,47.3794],[7.4373,47.3809],[7.4361,47.3781],[7.4402,47.3803],[7.4414,47.3798],[7.4436,47.3787],[7.445,47.3783],[7.4468,47.3766],[7.4485,47.3759],[7.4528,47.3746],[7.4538,47.3731],[7.4548,47.3722],[7.4568,47.3715],[7.4633,47.3703],[7.4644,47.3703],[7.466,47.3706],[7.4663,47.3705],[7.4665,47.3703],[7.4675,47.3701],[7.471,47.3703],[7.4724,47.3706],[7.474,47.3708],[7.4743,47.3706],[7.476,47.371],[7.4765,47.3709],[7.4771,47.3712],[7.4794,47.3714],[7.4815,47.3708],[7.4837,47.3704],[7.4841,47.3702],[7.4851,47.3701],[7.4874,47.3697],[7.4944,47.3706],[7.4971,47.3713],[7.4983,47.3717],[7.4999,47.372],[7.5021,47.3719],[7.505,47.3721],[7.5055,47.372],[7.506,47.3721],[7.5069,47.372],[7.5079,47.3722],[7.51,47.3721],[7.5104,47.3722],[7.5162,47.3722],[7.5172,47.3723],[7.5188,47.3722],[7.5193,47.372],[7.5205,47.372],[7.5212,47.3721],[7.5217,47.372],[7.5237,47.3721],[7.5244,47.3716],[7.5245,47.3702],[7.5246,47.3698],[7.5238,47.369],[7.5217,47.3662],[7.5218,47.3652],[7.5229,47.3646],[7.5233,47.3643],[7.5238,47.3642],[7.5245,47.3638],[7.5264,47.3632],[7.5268,47.363],[7.5274,47.363],[7.5277,47.3627],[7.5285,47.3627],[7.5288,47.3629],[7.5299,47.363],[7.5317,47.3624],[7.5323,47.3626],[7.5326,47.3623],[7.5332,47.3622],[7.5332,47.362],[7.5328,47.3613],[7.5338,47.3597],[7.5364,47.36],[7.5397,47.3601],[7.5397,47.3596],[7.5409,47.3566],[7.5415,47.3557],[7.5401,47.3543],[7.5394,47.3532],[7.5388,47.3529],[7.538,47.3522],[7.5369,47.3502],[7.5381,47.3493],[7.5389,47.3476],[7.5407,47.3474],[7.5413,47.3477],[7.5425,47.3478],[7.5449,47.3474],[7.5472,47.3466],[7.5483,47.3464],[7.5514,47.3454],[7.5522,47.3453]]]}}