{"type":"Feature","bbox":[7.8364,46.775,8.5141,47.2872],"properties":{"iso":"CH","code":"LU","name":"Lucerne","name_de":"Kanton Luzern","source":"swisstopo","key":"CH-LU"},"geometry":{"type":"Polygon","coordinates":[[[8.0469,46.7871],[8.0443,46.7871],[8.0437,46.7872],[8.0431,46.7875],[8.0413,46.7878],[8.0411,46.7877],[8.039,46.7876],[8.0381,46.7879],[8.038,46.7881],[8.0378,46.7881],[8.0377,46.7882],[8.037,46.7884],[8.0371,46.7886],[8.0367,46.7886],[8.0366,46.7889],[8.0357,46.789],[8.0353,46.7894],[8.0317,46.7896],[8.0314,46.7898],[8.0314,46.7903],[8.0293,46.7899],[8.029,46.79],[8.0271,46.7897],[8.0256,46.7897],[8.0228,46.7889],[8.0213,46.7888],[8.0207,46.7891],[8.0202,46.7889],[8.0202,46.7886],[8.0185,46.7881],[8.0177,46.7879],[8.0173,46.7882],[8.0166,46.7881],[8.0147,46.7867],[8.0125,46.7863],[8.0092,46.7849],[8.0076,46.7845],[8.0069,46.784],[8.0061,46.7838],[8.0049,46.7832],[8.0006,46.7829],[7.9986,46.7825],[7.9982,46.7823],[7.9969,46.7822],[7.9958,46.7818],[7.995,46.7812],[7.9949,46.7799],[7.9941,46.7789],[7.9934,46.7786],[7.9926,46.7787],[7.9917,46.7783],[7.9899,46.7773],[7.9889,46.7765],[7.9859,46.7752],[7.9846,46.775],[7.9831,46.7757],[7.983,46.776],[7.9824,46.7761],[7.982,46.7764],[7.9806,46.7766],[7.9803,46.7768],[7.9793,46.7769],[7.9787,46.7772],[7.9774,46.7772],[7.9766,46.7774],[7.9757,46.7773],[7.9735,46.7784],[7.9733,46.7789],[7.9719,46.78],[7.9713,46.7811],[7.9707,46.7819],[7.9695,46.7825],[7.9695,46.7841],[7.9687,46.7851],[7.9672,46.7857],[7.9666,46.7862],[7.9651,46.787],[7.9636,46.7868],[7.9629,46.787],[7.9609,46.7887],[7.9592,46.7893],[7.9578,46.7894],[7.9575,46.7897],[7.9563,46.7901],[7.9556,46.7906],[7.955,46.7908],[7.9547,46.7911],[7.954,46.7912],[7.954,46.7921],[7.9533,46.7924],[7.953,46.7929],[7.9524,46.7932],[7.9526,46.7935],[7.9539,46.7947],[7.9538,46.7958],[7.953,46.7964],[7.9529,46.7966],[7.9518,46.7976],[7.9514,46.7987],[7.951,46.7991],[7.9508,46.7999],[7.9467,46.8053],[7.9417,46.808],[7.9288,46.8165],[7.9224,46.82],[7.9044,46.8276],[7.8956,46.831],[7.8771,46.8371],[7.8727,46.8426],[7.8704,46.8439],[7.8706,46.8441],[7.8701,46.845],[7.8702,46.8466],[7.8698,46.8472],[7.8701,46.8476],[7.8695,46.8487],[7.8676,46.8504],[7.8675,46.8511],[7.8675,46.852],[7.868,46.8535],[7.8683,46.8539],[7.8681,46.8547],[7.8682,46.8554],[7.8677,46.8578],[7.8673,46.8587],[7.8679,46.8596],[7.8677,46.8599],[7.8677,46.8602],[7.869,46.861],[7.8687,46.862],[7.8689,46.8627],[7.8695,46.8637],[7.8695,46.8643],[7.8684,46.8651],[7.8647,46.8663],[7.8643,46.8696],[7.8619,46.8706],[7.8598,46.8704],[7.8578,46.8708],[7.8573,46.8715],[7.858,46.8754],[7.8578,46.8771],[7.8569,46.8786],[7.8569,46.8802],[7.8562,46.8809],[7.8566,46.8835],[7.8586,46.8853],[7.8596,46.8858],[7.8626,46.8866],[7.8658,46.8866],[7.8679,46.8871],[7.8694,46.8878],[7.8699,46.889],[7.8707,46.8896],[7.8719,46.8894],[7.8731,46.8897],[7.8728,46.8903],[7.8728,46.8912],[7.873,46.8922],[7.8753,46.8958],[7.8775,46.8981],[7.8783,46.8987],[7.8787,46.899],[7.8796,46.8989],[7.8805,46.8991],[7.8818,46.8997],[7.8805,46.9005],[7.8798,46.9004],[7.8798,46.9013],[7.8802,46.9018],[7.8827,46.9035],[7.8828,46.9045],[7.8825,46.9053],[7.8822,46.9055],[7.8831,46.9066],[7.8822,46.9072],[7.8817,46.9077],[7.8803,46.9108],[7.8795,46.9112],[7.8786,46.9113],[7.876,46.911],[7.8753,46.911],[7.8747,46.9113],[7.8735,46.9125],[7.8728,46.913],[7.8688,46.9145],[7.867,46.9148],[7.8676,46.9153],[7.8678,46.916],[7.869,46.9169],[7.8697,46.9191],[7.8705,46.921],[7.872,46.9228],[7.8727,46.9243],[7.8733,46.9247],[7.8747,46.9263],[7.8769,46.9274],[7.8792,46.928],[7.8808,46.9283],[7.8819,46.9289],[7.8833,46.9291],[7.8855,46.9298],[7.8874,46.9308],[7.8885,46.931],[7.8899,46.9316],[7.8936,46.9325],[7.8942,46.9331],[7.8956,46.9336],[7.8961,46.9339],[7.8961,46.9341],[7.8975,46.9346],[7.8989,46.9347],[7.9024,46.9344],[7.9034,46.9335],[7.9041,46.9332],[7.9079,46.9327],[7.9125,46.9331],[7.9134,46.9337],[7.9153,46.9346],[7.9158,46.9357],[7.9176,46.9381],[7.918,46.9392],[7.9194,46.9401],[7.9197,46.9406],[7.9199,46.9413],[7.9204,46.9417],[7.9209,46.9418],[7.9211,46.9431],[7.9217,46.9439],[7.9208,46.9454],[7.9213,46.9459],[7.9213,46.9463],[7.9217,46.9467],[7.9233,46.9472],[7.9241,46.9473],[7.9246,46.9472],[7.926,46.9483],[7.9277,46.9481],[7.9291,46.9482],[7.9305,46.9493],[7.9317,46.9505],[7.932,46.9522],[7.9319,46.9527],[7.9323,46.9537],[7.9315,46.9559],[7.9318,46.9564],[7.9324,46.957],[7.9326,46.9574],[7.9325,46.9585],[7.932,46.9597],[7.9315,46.9602],[7.9316,46.9606],[7.932,46.961],[7.9322,46.9617],[7.9341,46.9632],[7.9353,46.9638],[7.9362,46.9644],[7.9389,46.9649],[7.9401,46.9647],[7.9417,46.9659],[7.9437,46.9669],[7.9444,46.9675],[7.9454,46.9678],[7.9461,46.9689],[7.9453,46.9692],[7.9449,46.9696],[7.9447,46.9705],[7.9449,46.9718],[7.9445,46.9722],[7.9444,46.9726],[7.9448,46.9733],[7.9448,46.9742],[7.9447,46.9748],[7.9442,46.9756],[7.9442,46.9766],[7.9439,46.9772],[7.9447,46.9775],[7.9469,46.9791],[7.9482,46.9796],[7.9488,46.9799],[7.9501,46.9798],[7.9509,46.9801],[7.9519,46.981],[7.9524,46.9813],[7.9525,46.9817],[7.9522,46.983],[7.9516,46.9836],[7.9509,46.9851],[7.9504,46.9854],[7.9497,46.9872],[7.9495,46.9873],[7.9501,46.9883],[7.9491,46.9901],[7.949,46.9909],[7.9484,46.9919],[7.9485,46.9926],[7.9482,46.9933],[7.9484,46.9941],[7.9495,46.9952],[7.9501,46.9956],[7.9509,46.9963],[7.952,46.9966],[7.9525,46.9988],[7.9531,47.0],[7.953,47.0004],[7.9536,47.0009],[7.954,47.002],[7.9551,47.0021],[7.9556,47.0029],[7.9562,47.0034],[7.9547,47.0044],[7.9538,47.0052],[7.9524,47.0059],[7.9521,47.0059],[7.9514,47.0062],[7.9501,47.007],[7.95,47.0069],[7.9502,47.0068],[7.9498,47.0065],[7.9494,47.0058],[7.949,47.0057],[7.9486,47.006],[7.9449,47.0054],[7.9425,47.0053],[7.9411,47.0056],[7.9407,47.0055],[7.9403,47.005],[7.9395,47.0047],[7.9361,47.0047],[7.934,47.0042],[7.9327,47.0042],[7.9319,47.0048],[7.9313,47.0048],[7.93,47.0056],[7.9293,47.0054],[7.9281,47.0061],[7.928,47.0064],[7.9271,47.0069],[7.9268,47.0071],[7.9269,47.0075],[7.9265,47.008],[7.9257,47.0087],[7.9257,47.0093],[7.9259,47.0097],[7.9251,47.0104],[7.9229,47.0106],[7.922,47.0106],[7.92,47.0101],[7.9174,47.0088],[7.9162,47.0085],[7.9132,47.0086],[7.9123,47.0081],[7.911,47.0079],[7.9107,47.008],[7.9095,47.0076],[7.9094,47.0073],[7.9073,47.0069],[7.9046,47.0068],[7.9026,47.0063],[7.9018,47.0063],[7.8999,47.0076],[7.899,47.0087],[7.8993,47.009],[7.8982,47.0103],[7.8977,47.0117],[7.8969,47.013],[7.8972,47.0137],[7.8975,47.0141],[7.899,47.015],[7.8993,47.0157],[7.9001,47.0165],[7.9005,47.018],[7.9003,47.0184],[7.8989,47.0194],[7.8986,47.02],[7.8973,47.0209],[7.8968,47.0214],[7.8948,47.0222],[7.894,47.0239],[7.8933,47.0247],[7.8938,47.0257],[7.8937,47.0265],[7.8935,47.0266],[7.8934,47.027],[7.894,47.0274],[7.8941,47.0276],[7.8928,47.0288],[7.8928,47.0294],[7.8924,47.0301],[7.8918,47.0305],[7.8889,47.0309],[7.8875,47.032],[7.8851,47.0328],[7.8849,47.0327],[7.8841,47.0333],[7.8838,47.0336],[7.8831,47.0352],[7.8839,47.0372],[7.8816,47.0406],[7.8814,47.0407],[7.881,47.0405],[7.8796,47.0404],[7.8785,47.0409],[7.8769,47.0412],[7.8752,47.0409],[7.8748,47.041],[7.8725,47.0448],[7.8709,47.0452],[7.8695,47.0466],[7.8698,47.0474],[7.8686,47.0477],[7.8677,47.0494],[7.8672,47.0496],[7.8666,47.0496],[7.8664,47.0498],[7.8667,47.0503],[7.8673,47.0507],[7.8681,47.0518],[7.8674,47.0523],[7.8675,47.0531],[7.866,47.0534],[7.8662,47.0542],[7.8671,47.055],[7.8674,47.056],[7.8684,47.0569],[7.8696,47.0587],[7.8714,47.0597],[7.872,47.0607],[7.8739,47.0617],[7.8731,47.0624],[7.8723,47.0622],[7.8712,47.0625],[7.8711,47.0628],[7.8717,47.0642],[7.8716,47.0648],[7.872,47.0653],[7.8733,47.0656],[7.8738,47.0667],[7.8768,47.0706],[7.8768,47.071],[7.8773,47.0716],[7.8761,47.0735],[7.8768,47.0735],[7.8782,47.0744],[7.8775,47.0754],[7.8784,47.0785],[7.879,47.0788],[7.8767,47.0797],[7.8768,47.0798],[7.8793,47.0803],[7.8801,47.0813],[7.8793,47.0819],[7.8783,47.082],[7.8783,47.0822],[7.8789,47.083],[7.8797,47.0836],[7.8793,47.084],[7.8805,47.0845],[7.8805,47.0849],[7.8808,47.0854],[7.8802,47.0856],[7.8805,47.0868],[7.8809,47.0868],[7.8816,47.0888],[7.8807,47.0886],[7.8805,47.09],[7.8798,47.0919],[7.8779,47.0929],[7.8798,47.0945],[7.8795,47.0955],[7.8791,47.0957],[7.8791,47.0959],[7.8783,47.096],[7.876,47.0972],[7.8755,47.0972],[7.8747,47.0976],[7.8743,47.0974],[7.8736,47.0978],[7.8736,47.0981],[7.874,47.0983],[7.8739,47.0985],[7.8748,47.0989],[7.8746,47.0999],[7.8754,47.1003],[7.8755,47.101],[7.8762,47.1017],[7.8747,47.1035],[7.8734,47.1032],[7.8729,47.1043],[7.8731,47.105],[7.873,47.1054],[7.8737,47.106],[7.8738,47.1065],[7.8742,47.1069],[7.8743,47.1073],[7.8741,47.1076],[7.8743,47.1083],[7.8745,47.1087],[7.8748,47.1089],[7.875,47.1094],[7.8734,47.1105],[7.8728,47.1106],[7.8717,47.1111],[7.8682,47.112],[7.8694,47.1135],[7.8697,47.1141],[7.8698,47.1156],[7.87,47.1159],[7.8695,47.1161],[7.8694,47.1167],[7.8688,47.117],[7.8669,47.1166],[7.8671,47.1195],[7.8676,47.1206],[7.8682,47.1214],[7.8692,47.1223],[7.8702,47.1228],[7.8736,47.1241],[7.8849,47.1276],[7.8843,47.1281],[7.8862,47.1286],[7.8864,47.1289],[7.8865,47.1317],[7.8892,47.1318],[7.8898,47.132],[7.8885,47.1344],[7.8888,47.1346],[7.89,47.1346],[7.8898,47.1354],[7.8899,47.1358],[7.8893,47.1358],[7.8901,47.1366],[7.8906,47.1376],[7.8894,47.1392],[7.8894,47.1397],[7.8896,47.14],[7.8895,47.1405],[7.8901,47.1407],[7.8887,47.1424],[7.8875,47.1433],[7.8873,47.1436],[7.8874,47.1436],[7.8846,47.1453],[7.8845,47.1455],[7.8845,47.1458],[7.8834,47.1462],[7.8831,47.1466],[7.8827,47.1467],[7.8828,47.1469],[7.882,47.1471],[7.8823,47.1475],[7.8811,47.1481],[7.8812,47.1482],[7.8806,47.1485],[7.8802,47.1491],[7.8797,47.1494],[7.88,47.1497],[7.8794,47.1509],[7.8785,47.152],[7.8787,47.1523],[7.8783,47.1527],[7.878,47.1533],[7.8778,47.1532],[7.8775,47.1536],[7.8769,47.1554],[7.8763,47.156],[7.8766,47.1565],[7.8762,47.1569],[7.8762,47.1574],[7.876,47.1575],[7.8761,47.1582],[7.8757,47.1591],[7.8761,47.1597],[7.8761,47.1606],[7.8754,47.1616],[7.8757,47.1619],[7.8757,47.1626],[7.876,47.1631],[7.8758,47.1635],[7.8763,47.164],[7.8765,47.165],[7.8767,47.1652],[7.8772,47.1661],[7.8767,47.1668],[7.8768,47.167],[7.8775,47.1674],[7.8779,47.1679],[7.8785,47.1679],[7.8785,47.1681],[7.8787,47.1685],[7.8791,47.1687],[7.879,47.1689],[7.8793,47.1695],[7.8814,47.1707],[7.8829,47.1721],[7.8833,47.1727],[7.8833,47.1732],[7.8827,47.1739],[7.8821,47.1738],[7.8822,47.1743],[7.882,47.1744],[7.8807,47.1748],[7.8805,47.1753],[7.8811,47.1762],[7.8804,47.1764],[7.8799,47.1769],[7.8794,47.1775],[7.8804,47.1779],[7.8799,47.1781],[7.8795,47.1785],[7.8794,47.1787],[7.8795,47.1791],[7.8792,47.1794],[7.8785,47.1794],[7.8783,47.1797],[7.8778,47.1799],[7.8782,47.1801],[7.878,47.1804],[7.8774,47.1804],[7.877,47.1807],[7.8769,47.1809],[7.877,47.1813],[7.8766,47.1814],[7.8766,47.1819],[7.8762,47.1822],[7.8762,47.1826],[7.876,47.1828],[7.8761,47.183],[7.8759,47.1832],[7.875,47.1834],[7.8748,47.1836],[7.8745,47.1837],[7.8744,47.1839],[7.8741,47.184],[7.874,47.1843],[7.8737,47.1845],[7.8726,47.184],[7.8729,47.1843],[7.8727,47.1847],[7.8717,47.185],[7.8712,47.1854],[7.8703,47.1855],[7.8698,47.1857],[7.8697,47.1856],[7.8693,47.1856],[7.8694,47.1858],[7.8691,47.1863],[7.8683,47.1869],[7.8677,47.187],[7.8676,47.1874],[7.8671,47.1875],[7.8667,47.1879],[7.8656,47.1881],[7.8649,47.1884],[7.8648,47.189],[7.8653,47.1895],[7.8651,47.1897],[7.864,47.1899],[7.8635,47.1902],[7.8635,47.1904],[7.8639,47.1909],[7.8635,47.1911],[7.8635,47.1914],[7.8633,47.1917],[7.863,47.1917],[7.8624,47.1914],[7.8619,47.1916],[7.8613,47.1915],[7.86,47.1924],[7.8599,47.1927],[7.8595,47.193],[7.8595,47.1933],[7.8603,47.1936],[7.8608,47.1941],[7.8601,47.1948],[7.8604,47.195],[7.8603,47.1957],[7.8606,47.1962],[7.8603,47.1965],[7.8599,47.1966],[7.86,47.1969],[7.8594,47.1979],[7.86,47.1982],[7.8599,47.1987],[7.8595,47.1991],[7.8577,47.1995],[7.8575,47.1997],[7.8578,47.2],[7.8573,47.2001],[7.8567,47.2007],[7.8563,47.2007],[7.8559,47.2012],[7.8561,47.2018],[7.8558,47.2019],[7.8553,47.2027],[7.8547,47.2027],[7.8544,47.203],[7.8547,47.2035],[7.8544,47.2036],[7.854,47.2032],[7.8536,47.2035],[7.8537,47.2039],[7.8543,47.2041],[7.8545,47.2044],[7.8534,47.2054],[7.8533,47.2059],[7.8526,47.2062],[7.8521,47.2066],[7.8523,47.207],[7.8521,47.2072],[7.8521,47.2078],[7.8519,47.2084],[7.8516,47.2088],[7.851,47.2085],[7.8506,47.2088],[7.8503,47.2087],[7.8505,47.2093],[7.8503,47.2096],[7.8499,47.2098],[7.8491,47.2098],[7.8491,47.2101],[7.8493,47.2104],[7.8491,47.2107],[7.8487,47.2107],[7.849,47.211],[7.8485,47.2112],[7.8487,47.2115],[7.8484,47.212],[7.8487,47.2122],[7.8483,47.2127],[7.848,47.2138],[7.8472,47.2139],[7.8473,47.2144],[7.8467,47.215],[7.8471,47.2155],[7.8468,47.216],[7.8473,47.2164],[7.8469,47.2172],[7.846,47.2174],[7.8457,47.2177],[7.8453,47.2175],[7.8447,47.2177],[7.8437,47.2181],[7.8437,47.2183],[7.8433,47.219],[7.8435,47.2192],[7.8432,47.2194],[7.8437,47.2198],[7.8437,47.22],[7.843,47.22],[7.8425,47.2201],[7.8428,47.2205],[7.8425,47.2207],[7.8426,47.2209],[7.8424,47.2211],[7.8421,47.2208],[7.8417,47.2207],[7.8419,47.221],[7.8419,47.2213],[7.8417,47.2216],[7.8413,47.2217],[7.8413,47.222],[7.8409,47.2222],[7.8404,47.2221],[7.8395,47.2224],[7.84,47.2228],[7.8398,47.2229],[7.8393,47.2229],[7.8388,47.2231],[7.8377,47.2229],[7.8372,47.2231],[7.8372,47.2236],[7.8367,47.2238],[7.8367,47.2241],[7.8364,47.2245],[7.8374,47.2248],[7.8372,47.2253],[7.837,47.2266],[7.8366,47.2269],[7.8367,47.227],[7.8373,47.227],[7.8375,47.2272],[7.8373,47.2275],[7.8365,47.2276],[7.837,47.2283],[7.8369,47.2286],[7.837,47.2289],[7.8367,47.2292],[7.8369,47.2295],[7.8376,47.2299],[7.8377,47.2301],[7.8372,47.2306],[7.8372,47.231],[7.8383,47.2318],[7.8374,47.2323],[7.8375,47.2329],[7.8382,47.233],[7.8378,47.2337],[7.8383,47.2342],[7.8389,47.2345],[7.8387,47.2348],[7.8392,47.2356],[7.8393,47.2355],[7.8399,47.2357],[7.842,47.2357],[7.843,47.2344],[7.8532,47.2324],[7.8547,47.2332],[7.8674,47.2373],[7.8973,47.2431],[7.9101,47.2439],[7.9127,47.2426],[7.9146,47.2419],[7.9212,47.2379],[7.9253,47.2373],[7.9293,47.2365],[7.9335,47.2359],[7.9337,47.2362],[7.935,47.2369],[7.9361,47.238],[7.9398,47.2404],[7.9409,47.241],[7.9421,47.2413],[7.946,47.2433],[7.9541,47.2498],[7.9619,47.2541],[7.9616,47.2546],[7.9607,47.2552],[7.959,47.2562],[7.9593,47.2576],[7.9585,47.2594],[7.9579,47.2598],[7.9563,47.26],[7.9554,47.2606],[7.955,47.2615],[7.955,47.2625],[7.9544,47.2629],[7.9545,47.2634],[7.9536,47.264],[7.9535,47.2644],[7.953,47.265],[7.952,47.2654],[7.9517,47.2657],[7.9516,47.2669],[7.9521,47.2676],[7.9519,47.2679],[7.952,47.2682],[7.9517,47.2684],[7.9509,47.2683],[7.9505,47.2687],[7.9504,47.2692],[7.9497,47.2701],[7.9492,47.2725],[7.9509,47.2733],[7.9506,47.2748],[7.956,47.2769],[7.9717,47.2761],[7.9735,47.2745],[7.9869,47.276],[7.9953,47.2816],[8.0048,47.2744],[8.0049,47.2742],[8.0047,47.2738],[8.0049,47.2734],[8.0043,47.2726],[8.0049,47.2708],[8.0053,47.2702],[8.0052,47.2693],[8.0075,47.2675],[8.008,47.2667],[8.0088,47.2662],[8.0094,47.2651],[8.0103,47.2642],[8.0115,47.2638],[8.0118,47.2633],[8.0131,47.2627],[8.0144,47.2614],[8.0151,47.2605],[8.0168,47.2593],[8.0169,47.2589],[8.0163,47.2582],[8.0164,47.2573],[8.0166,47.257],[8.0171,47.2571],[8.0175,47.2559],[8.0171,47.255],[8.0165,47.2552],[8.0163,47.2546],[8.0165,47.2544],[8.0165,47.2537],[8.0167,47.2536],[8.0167,47.2528],[8.0164,47.252],[8.0168,47.2515],[8.0166,47.2512],[8.0166,47.2508],[8.0168,47.2506],[8.0169,47.25],[8.0161,47.2484],[8.0161,47.2481],[8.0157,47.2477],[8.016,47.2465],[8.0158,47.2464],[8.0157,47.246],[8.0158,47.2441],[8.0167,47.244],[8.0171,47.2438],[8.0198,47.2436],[8.0219,47.2423],[8.0251,47.2418],[8.0261,47.2419],[8.0267,47.2414],[8.0279,47.2411],[8.0292,47.2406],[8.0295,47.2414],[8.0301,47.2422],[8.0511,47.2447],[8.0513,47.2442],[8.063,47.2467],[8.0577,47.2518],[8.0571,47.253],[8.0566,47.2554],[8.0587,47.2557],[8.0586,47.2567],[8.0627,47.2567],[8.0633,47.2562],[8.066,47.2549],[8.0661,47.2547],[8.0664,47.2546],[8.0668,47.2549],[8.0669,47.2548],[8.0684,47.2549],[8.0693,47.2552],[8.0695,47.2547],[8.0705,47.2546],[8.0727,47.2551],[8.0734,47.2563],[8.0741,47.2568],[8.0773,47.2576],[8.0768,47.2582],[8.0766,47.2583],[8.0786,47.2587],[8.0783,47.2593],[8.0784,47.26],[8.0801,47.2602],[8.082,47.2607],[8.0824,47.2609],[8.0834,47.2611],[8.0884,47.2629],[8.0946,47.2611],[8.0988,47.2602],[8.1001,47.2589],[8.1009,47.2574],[8.1024,47.2561],[8.1059,47.2521],[8.1058,47.2494],[8.1079,47.2458],[8.1091,47.2445],[8.1196,47.2439],[8.1242,47.2417],[8.1244,47.2414],[8.1251,47.2414],[8.1267,47.2419],[8.1271,47.2422],[8.1284,47.2428],[8.1312,47.2439],[8.1315,47.2445],[8.1314,47.2451],[8.1315,47.2455],[8.1356,47.2469],[8.1358,47.2468],[8.1364,47.247],[8.1427,47.2473],[8.144,47.2475],[8.1467,47.2475],[8.1508,47.2484],[8.1564,47.2494],[8.1575,47.2487],[8.158,47.2488],[8.1583,47.2497],[8.1594,47.2498],[8.1595,47.249],[8.1603,47.2488],[8.1604,47.2495],[8.161,47.2499],[8.1617,47.2499],[8.1626,47.25],[8.1652,47.2502],[8.166,47.2509],[8.1665,47.2505],[8.1678,47.2511],[8.1692,47.2515],[8.1694,47.2513],[8.1719,47.2528],[8.173,47.2527],[8.1749,47.2535],[8.1756,47.2523],[8.176,47.2524],[8.1766,47.2518],[8.1778,47.2522],[8.1796,47.2507],[8.1804,47.2487],[8.1808,47.2474],[8.1803,47.2469],[8.1803,47.246],[8.1802,47.2456],[8.1793,47.245],[8.178,47.2448],[8.1774,47.2442],[8.177,47.2429],[8.1761,47.2423],[8.176,47.242],[8.1763,47.2409],[8.1761,47.2405],[8.1751,47.2401],[8.1711,47.2402],[8.1698,47.242],[8.1679,47.2409],[8.1617,47.2406],[8.1583,47.2401],[8.156,47.2394],[8.1561,47.2382],[8.1559,47.2378],[8.1593,47.2378],[8.1598,47.2372],[8.1606,47.237],[8.161,47.2364],[8.1619,47.2362],[8.1621,47.2358],[8.1621,47.2354],[8.1612,47.235],[8.1606,47.2345],[8.16,47.2344],[8.16,47.2337],[8.1597,47.2331],[8.1608,47.2318],[8.1619,47.2318],[8.1619,47.2314],[8.1626,47.2308],[8.163,47.2308],[8.1627,47.2306],[8.1637,47.2298],[8.1646,47.2298],[8.1654,47.2289],[8.1656,47.2284],[8.1675,47.2291],[8.168,47.2283],[8.1689,47.2279],[8.1701,47.2277],[8.1721,47.2282],[8.172,47.228],[8.1724,47.2275],[8.1731,47.2276],[8.1741,47.2275],[8.1737,47.2267],[8.173,47.2262],[8.1728,47.225],[8.1743,47.2247],[8.1753,47.2234],[8.176,47.2219],[8.1791,47.2221],[8.1796,47.2222],[8.1797,47.2224],[8.1804,47.2228],[8.1847,47.2224],[8.1862,47.2227],[8.1872,47.2232],[8.1881,47.2233],[8.1883,47.2237],[8.1891,47.224],[8.1897,47.2244],[8.1903,47.2244],[8.1932,47.2249],[8.1931,47.226],[8.194,47.2263],[8.1977,47.2263],[8.1983,47.2266],[8.1983,47.2262],[8.2,47.2261],[8.2003,47.2259],[8.2034,47.2261],[8.2048,47.2258],[8.2051,47.226],[8.2045,47.2272],[8.2041,47.2272],[8.2042,47.2284],[8.204,47.2284],[8.2042,47.2299],[8.2028,47.23],[8.2033,47.2314],[8.2028,47.2316],[8.2031,47.2323],[8.2034,47.2326],[8.2034,47.2335],[8.2032,47.2339],[8.2037,47.2343],[8.2036,47.2362],[8.2051,47.2364],[8.2048,47.2375],[8.2048,47.238],[8.2058,47.2383],[8.2053,47.2397],[8.2057,47.2414],[8.2053,47.242],[8.2045,47.2426],[8.2058,47.2444],[8.2079,47.2462],[8.2077,47.2473],[8.2125,47.2498],[8.2178,47.2518],[8.2198,47.2522],[8.2286,47.2734],[8.2296,47.2735],[8.231,47.2739],[8.233,47.2739],[8.2333,47.2737],[8.2333,47.2735],[8.2341,47.2732],[8.2346,47.2729],[8.2355,47.2729],[8.2358,47.2727],[8.2361,47.2729],[8.2366,47.2726],[8.2403,47.2726],[8.2409,47.2724],[8.2424,47.2723],[8.2412,47.2744],[8.241,47.276],[8.2426,47.2763],[8.2426,47.2775],[8.2422,47.2787],[8.243,47.2788],[8.2434,47.2796],[8.244,47.2795],[8.2451,47.2797],[8.2446,47.2808],[8.2474,47.2812],[8.2487,47.2812],[8.2489,47.2825],[8.2496,47.2825],[8.2498,47.2828],[8.2489,47.2844],[8.2498,47.2847],[8.2497,47.2849],[8.2509,47.2851],[8.2507,47.2861],[8.2526,47.2865],[8.2531,47.2861],[8.2548,47.2862],[8.2552,47.2863],[8.2552,47.2866],[8.2555,47.2867],[8.2567,47.2867],[8.2587,47.2872],[8.2595,47.2869],[8.2604,47.2854],[8.2605,47.285],[8.2602,47.285],[8.2605,47.2842],[8.261,47.2844],[8.2617,47.2825],[8.262,47.2825],[8.2626,47.2831],[8.2628,47.2823],[8.2653,47.2825],[8.2654,47.2828],[8.2673,47.2829],[8.2707,47.2835],[8.2716,47.2809],[8.2715,47.2808],[8.2725,47.2807],[8.274,47.2807],[8.2759,47.2815],[8.2786,47.2821],[8.2795,47.281],[8.2799,47.2811],[8.28,47.281],[8.2813,47.281],[8.2815,47.2806],[8.2846,47.28],[8.2847,47.2801],[8.2854,47.28],[8.2869,47.2793],[8.2897,47.2775],[8.2919,47.275],[8.2935,47.2742],[8.2948,47.273],[8.2954,47.2726],[8.2959,47.2724],[8.2974,47.2722],[8.2977,47.272],[8.3003,47.2715],[8.2993,47.2705],[8.2992,47.2701],[8.2988,47.2696],[8.2981,47.2695],[8.2975,47.269],[8.2971,47.269],[8.2967,47.2684],[8.2963,47.2684],[8.2965,47.2682],[8.2963,47.2681],[8.2963,47.2677],[8.2956,47.2671],[8.2953,47.2666],[8.2946,47.266],[8.2944,47.2656],[8.2945,47.2648],[8.2948,47.2639],[8.2953,47.2636],[8.2955,47.2627],[8.2958,47.2613],[8.2961,47.2604],[8.296,47.2594],[8.2965,47.259],[8.2965,47.2586],[8.2971,47.2578],[8.2972,47.2575],[8.2984,47.2566],[8.2983,47.2563],[8.2995,47.255],[8.2999,47.2539],[8.3004,47.2535],[8.3012,47.2523],[8.3017,47.2525],[8.3033,47.2516],[8.3049,47.2524],[8.3082,47.2493],[8.3101,47.247],[8.3103,47.2465],[8.3117,47.2455],[8.3121,47.2443],[8.3139,47.241],[8.3148,47.2397],[8.3146,47.2382],[8.314,47.2373],[8.3139,47.2363],[8.3142,47.2351],[8.3153,47.233],[8.3154,47.2307],[8.3158,47.2293],[8.3162,47.229],[8.3166,47.2284],[8.317,47.227],[8.3172,47.2267],[8.317,47.225],[8.318,47.2246],[8.3181,47.2235],[8.3184,47.2235],[8.3194,47.2226],[8.3203,47.2222],[8.3207,47.2218],[8.3209,47.2211],[8.3207,47.2211],[8.3203,47.2206],[8.3204,47.2201],[8.32,47.2197],[8.3201,47.2186],[8.3199,47.218],[8.3188,47.217],[8.3192,47.2164],[8.3195,47.2156],[8.3252,47.2147],[8.3264,47.211],[8.3267,47.2108],[8.3273,47.2108],[8.3274,47.2102],[8.3272,47.2095],[8.3275,47.2085],[8.328,47.2084],[8.3287,47.2081],[8.3288,47.2079],[8.3287,47.2073],[8.3282,47.2065],[8.3283,47.2062],[8.328,47.2062],[8.3281,47.2056],[8.3285,47.2044],[8.3295,47.2035],[8.3301,47.2023],[8.3302,47.2006],[8.3299,47.1985],[8.3304,47.1974],[8.3309,47.1966],[8.3332,47.1936],[8.3338,47.1924],[8.3358,47.191],[8.3382,47.1886],[8.338,47.1881],[8.3382,47.1879],[8.3381,47.1876],[8.3383,47.1872],[8.3381,47.1863],[8.3386,47.1861],[8.3396,47.1863],[8.3397,47.1861],[8.3396,47.1851],[8.3398,47.1849],[8.3393,47.1843],[8.3385,47.1846],[8.338,47.184],[8.3385,47.1836],[8.3383,47.1832],[8.3387,47.1825],[8.3388,47.1821],[8.3386,47.1818],[8.339,47.1817],[8.3384,47.1808],[8.3389,47.1802],[8.3387,47.1783],[8.3396,47.1764],[8.3405,47.1755],[8.3413,47.1751],[8.3412,47.1741],[8.3409,47.1738],[8.3428,47.1735],[8.3441,47.173],[8.3443,47.1715],[8.3459,47.1701],[8.3465,47.17],[8.346,47.169],[8.3474,47.1684],[8.3465,47.1677],[8.3475,47.1675],[8.3491,47.166],[8.3478,47.1651],[8.3481,47.1649],[8.3476,47.1645],[8.3493,47.1641],[8.3495,47.1642],[8.3516,47.1629],[8.3541,47.1604],[8.3547,47.1597],[8.3552,47.1586],[8.3569,47.1577],[8.3584,47.1566],[8.3581,47.1559],[8.3584,47.1533],[8.3598,47.1533],[8.3609,47.1525],[8.3606,47.1523],[8.3611,47.1507],[8.3622,47.1461],[8.3632,47.1458],[8.364,47.1459],[8.3654,47.1452],[8.3664,47.1448],[8.3675,47.145],[8.3683,47.1447],[8.3684,47.1443],[8.374,47.1431],[8.3748,47.143],[8.3755,47.1416],[8.3759,47.141],[8.3761,47.1393],[8.3783,47.1397],[8.3787,47.1396],[8.379,47.1393],[8.3795,47.1395],[8.3801,47.1392],[8.3816,47.1397],[8.3822,47.14],[8.3827,47.14],[8.384,47.1398],[8.386,47.14],[8.3891,47.1393],[8.3896,47.1394],[8.39,47.1398],[8.3934,47.1385],[8.396,47.139],[8.396,47.1387],[8.3964,47.1388],[8.3976,47.1379],[8.3982,47.138],[8.4042,47.1382],[8.4053,47.1375],[8.4089,47.1386],[8.4112,47.1398],[8.4122,47.1406],[8.4135,47.1382],[8.4152,47.1356],[8.4162,47.1331],[8.416,47.1326],[8.4156,47.1322],[8.4152,47.1315],[8.4155,47.1307],[8.4168,47.1306],[8.4157,47.1281],[8.4147,47.1275],[8.4143,47.1266],[8.4144,47.1262],[8.4154,47.1244],[8.4163,47.1238],[8.4178,47.1224],[8.418,47.1228],[8.4177,47.1232],[8.4183,47.1237],[8.4187,47.1234],[8.419,47.1234],[8.4203,47.1226],[8.4221,47.1235],[8.4228,47.1232],[8.4234,47.1235],[8.4238,47.1226],[8.4247,47.1229],[8.4247,47.1234],[8.4248,47.1236],[8.4267,47.1236],[8.427,47.1233],[8.4288,47.1242],[8.429,47.1239],[8.4295,47.1239],[8.4304,47.1233],[8.4318,47.1238],[8.4311,47.1243],[8.4319,47.1247],[8.4321,47.1246],[8.4344,47.125],[8.4387,47.127],[8.4401,47.128],[8.4413,47.1286],[8.4412,47.1293],[8.4415,47.1293],[8.4416,47.1295],[8.4435,47.1294],[8.4452,47.1291],[8.4454,47.1288],[8.4472,47.1295],[8.4475,47.1293],[8.4491,47.1309],[8.4496,47.131],[8.4495,47.131],[8.4508,47.1252],[8.451,47.1235],[8.4511,47.1235],[8.4516,47.1216],[8.4516,47.121],[8.4517,47.121],[8.4519,47.12],[8.4522,47.1197],[8.4533,47.1168],[8.4536,47.1159],[8.4534,47.1159],[8.4541,47.1137],[8.4549,47.1135],[8.4556,47.1134],[8.4604,47.116],[8.4643,47.1168],[8.4648,47.1168],[8.4648,47.117],[8.4659,47.1171],[8.4659,47.1173],[8.4663,47.1175],[8.4661,47.1177],[8.4661,47.118],[8.4666,47.118],[8.4669,47.1185],[8.4675,47.1186],[8.4671,47.1188],[8.4804,47.1263],[8.4937,47.1137],[8.4931,47.1002],[8.4763,47.1061],[8.476,47.1071],[8.4754,47.108],[8.4753,47.11],[8.4754,47.1109],[8.4754,47.1114],[8.4734,47.1123],[8.4712,47.1117],[8.4711,47.1121],[8.4708,47.1121],[8.4706,47.1128],[8.4663,47.1114],[8.4643,47.111],[8.4628,47.1113],[8.4614,47.1114],[8.4616,47.1121],[8.4613,47.112],[8.4612,47.1122],[8.4599,47.1119],[8.4596,47.1127],[8.4592,47.1131],[8.4573,47.1124],[8.4569,47.1129],[8.4554,47.1134],[8.4548,47.1134],[8.4531,47.114],[8.45,47.1144],[8.4493,47.1134],[8.4486,47.1114],[8.4483,47.1112],[8.4474,47.1111],[8.4456,47.1112],[8.4449,47.1115],[8.4435,47.1114],[8.4429,47.1116],[8.4428,47.1114],[8.4419,47.1114],[8.4409,47.1106],[8.4405,47.1108],[8.4404,47.1106],[8.44,47.1107],[8.4399,47.1103],[8.4393,47.1101],[8.4391,47.1098],[8.4387,47.1099],[8.4383,47.1095],[8.4379,47.1096],[8.4372,47.1089],[8.4369,47.1081],[8.437,47.1079],[8.4368,47.1076],[8.4369,47.1074],[8.4371,47.1074],[8.4372,47.1073],[8.4371,47.1071],[8.4377,47.1067],[8.4373,47.1066],[8.4374,47.1063],[8.437,47.1062],[8.4367,47.1063],[8.4363,47.1063],[8.4362,47.1065],[8.4356,47.1064],[8.4353,47.1065],[8.435,47.106],[8.4343,47.1061],[8.4341,47.1059],[8.4337,47.1059],[8.4337,47.1057],[8.4331,47.1061],[8.4326,47.1061],[8.4328,47.1059],[8.4325,47.1057],[8.4322,47.1058],[8.4315,47.1058],[8.4311,47.1054],[8.4297,47.1052],[8.4296,47.105],[8.429,47.1051],[8.4278,47.1045],[8.4263,47.1044],[8.4257,47.1041],[8.4242,47.1038],[8.4235,47.1033],[8.4226,47.103],[8.4213,47.102],[8.4209,47.102],[8.4204,47.1017],[8.4187,47.1004],[8.4173,47.0991],[8.4164,47.0979],[8.4153,47.097],[8.4147,47.0963],[8.4136,47.0955],[8.41,47.0935],[8.4094,47.0927],[8.4092,47.0919],[8.4095,47.0917],[8.4095,47.0914],[8.4098,47.0908],[8.4101,47.0908],[8.4095,47.0895],[8.4096,47.0893],[8.4091,47.0889],[8.4097,47.0885],[8.4101,47.0866],[8.4107,47.0859],[8.4099,47.085],[8.4092,47.0847],[8.4091,47.0839],[8.4093,47.0835],[8.4088,47.0827],[8.4088,47.0825],[8.4091,47.0824],[8.4085,47.0819],[8.4086,47.0817],[8.4084,47.0813],[8.4081,47.0812],[8.408,47.0813],[8.4071,47.0807],[8.4072,47.0799],[8.407,47.0794],[8.4065,47.0789],[8.4054,47.0786],[8.3998,47.0753],[8.3982,47.0753],[8.3971,47.0745],[8.3957,47.0739],[8.3955,47.0734],[8.3948,47.0727],[8.3923,47.0721],[8.3901,47.071],[8.3892,47.0707],[8.3888,47.0697],[8.389,47.0695],[8.3892,47.0687],[8.3896,47.0677],[8.3895,47.0674],[8.3898,47.0663],[8.3901,47.0634],[8.3903,47.0629],[8.3908,47.0624],[8.3906,47.0621],[8.3905,47.0613],[8.3922,47.0608],[8.3982,47.06],[8.3992,47.0594],[8.4302,47.0654],[8.432,47.0655],[8.4336,47.0648],[8.4337,47.0643],[8.4341,47.0639],[8.4353,47.064],[8.4364,47.0634],[8.4371,47.0637],[8.4375,47.0636],[8.4377,47.0638],[8.4386,47.0636],[8.4394,47.0637],[8.4414,47.0631],[8.446,47.0603],[8.4445,47.0593],[8.4459,47.0583],[8.4498,47.0569],[8.4536,47.0552],[8.4649,47.0484],[8.4684,47.0482],[8.4699,47.0475],[8.4789,47.04],[8.4816,47.0387],[8.4829,47.0384],[8.4838,47.038],[8.4863,47.0351],[8.4882,47.0345],[8.4897,47.0334],[8.4904,47.0318],[8.4917,47.0312],[8.4944,47.0291],[8.4965,47.0288],[8.497,47.0286],[8.4974,47.0277],[8.4979,47.0273],[8.4987,47.0271],[8.5006,47.0247],[8.5013,47.0243],[8.5031,47.0241],[8.505,47.0245],[8.5081,47.0241],[8.5105,47.0234],[8.5135,47.0217],[8.5137,47.0213],[8.5137,47.0207],[8.514,47.0201],[8.5141,47.0175],[8.5135,47.0161],[8.5135,47.0126],[8.5129,47.0113],[8.5125,47.0102],[8.5113,47.009],[8.5112,47.0084],[8.5108,47.0078],[8.5105,47.0068],[8.5108,47.0066],[8.5109,47.0061],[8.5093,47.0054],[8.5091,47.005],[8.5091,47.0045],[8.5064,47.0041],[8.5057,47.0037],[8.5051,47.0038],[8.5045,47.0036],[8.5035,47.0032],[8.5008,47.0009],[8.499,47.0009],[8.4986,47.0007],[8.4949,47.0005],[8.4924,46.9993],[8.4907,46.9992],[8.4831,46.9967],[8.4814,46.9967],[8.481,46.9966],[8.479,46.9962],[8.4754,46.9959],[8.4736,46.9955],[8.4682,46.9965],[8.4691,47.0093],[8.428,47.0172],[8.4268,47.0022],[8.427,47.0017],[8.427,47.0003],[8.4267,46.9994],[8.4274,46.9988],[8.426,46.9981],[8.4224,46.998],[8.4223,46.9982],[8.4218,46.9982],[8.4169,46.9984],[8.4138,46.9982],[8.4122,46.9988],[8.4115,46.9988],[8.4103,46.9995],[8.4098,46.9992],[8.4076,46.9998],[8.4067,46.9998],[8.4056,47.0002],[8.4039,46.9997],[8.4031,47.0],[8.4017,46.9998],[8.4,46.9998],[8.3992,46.9999],[8.3975,47.0007],[8.3964,47.0009],[8.3955,47.0007],[8.3943,47.0001],[8.3904,46.9996],[8.3888,46.999],[8.3856,46.9983],[8.3828,47.0005],[8.3827,47.0014],[8.3842,47.0022],[8.3847,47.0029],[8.3838,47.0177],[8.3685,47.02],[8.3345,46.989],[8.3189,46.9996],[8.3116,46.9982],[8.3116,46.998],[8.3107,46.9981],[8.3101,46.9983],[8.3096,46.9981],[8.307,46.9982],[8.3053,46.9979],[8.3052,46.9981],[8.3032,46.9984],[8.3004,46.9981],[8.3,46.9983],[8.2997,46.9982],[8.2986,46.9983],[8.297,46.9978],[8.2965,46.9978],[8.2956,46.9982],[8.2948,46.9981],[8.2938,46.9969],[8.294,46.9962],[8.2925,46.9959],[8.291,46.996],[8.2892,46.9951],[8.2889,46.9946],[8.2846,46.9949],[8.2813,46.9957],[8.2805,46.9962],[8.28,46.9963],[8.279,46.9973],[8.278,46.998],[8.2738,46.9974],[8.2731,46.9977],[8.2714,46.9975],[8.27,46.9981],[8.2679,46.9982],[8.2668,46.998],[8.2655,46.9982],[8.26,46.9963],[8.2584,46.9954],[8.2553,46.9941],[8.2548,46.9937],[8.2546,46.9928],[8.2539,46.9924],[8.2534,46.9918],[8.2504,46.9901],[8.2483,46.9882],[8.2484,46.9874],[8.244,46.986],[8.2421,46.9871],[8.2413,46.988],[8.2401,46.9888],[8.2395,46.9895],[8.2393,46.9904],[8.2377,46.9918],[8.2355,46.9911],[8.2337,46.992],[8.2311,46.9926],[8.2281,46.9926],[8.228,46.9919],[8.2273,46.9911],[8.2266,46.9897],[8.2249,46.9885],[8.2248,46.9879],[8.2239,46.9874],[8.2235,46.9866],[8.2235,46.9863],[8.223,46.9859],[8.2228,46.9854],[8.2214,46.9844],[8.221,46.9831],[8.2201,46.9826],[8.2192,46.9817],[8.2186,46.9815],[8.2181,46.9811],[8.2183,46.981],[8.2183,46.9807],[8.2186,46.9798],[8.2191,46.9792],[8.2204,46.9786],[8.2207,46.9778],[8.2219,46.9772],[8.2223,46.9765],[8.2231,46.9757],[8.2249,46.975],[8.2259,46.9748],[8.2289,46.9731],[8.2297,46.9721],[8.2292,46.9713],[8.2289,46.97],[8.227,46.9692],[8.226,46.9691],[8.2203,46.9695],[8.2162,46.9691],[8.214,46.9684],[8.209,46.9676],[8.203,46.9669],[8.1998,46.9675],[8.195,46.9687],[8.1873,46.9717],[8.1828,46.9693],[8.1819,46.9685],[8.1781,46.9687],[8.1767,46.9684],[8.1757,46.9679],[8.1748,46.9672],[8.1738,46.9672],[8.1728,46.9666],[8.1721,46.9666],[8.1685,46.9653],[8.1674,46.9652],[8.1657,46.9647],[8.1645,46.9647],[8.1611,46.9628],[8.159,46.9611],[8.1581,46.9608],[8.157,46.9613],[8.1566,46.9609],[8.1561,46.9607],[8.1559,46.9607],[8.1557,46.9605],[8.1549,46.9603],[8.1548,46.9601],[8.1556,46.9596],[8.1555,46.9594],[8.1549,46.959],[8.1531,46.9587],[8.1507,46.9579],[8.15,46.9574],[8.1503,46.9573],[8.1502,46.957],[8.15,46.9569],[8.1506,46.9568],[8.1504,46.9563],[8.1509,46.9561],[8.1512,46.9562],[8.1515,46.9558],[8.1511,46.9529],[8.1535,46.95],[8.1608,46.9435],[8.1617,46.9436],[8.1623,46.9431],[8.1632,46.9421],[8.1648,46.9396],[8.1647,46.9388],[8.1644,46.9386],[8.1638,46.9377],[8.1622,46.9368],[8.162,46.9365],[8.16,46.9358],[8.1592,46.9358],[8.1584,46.935],[8.1574,46.9337],[8.1569,46.9334],[8.1562,46.9335],[8.1541,46.9329],[8.1517,46.9309],[8.1496,46.9299],[8.148,46.9297],[8.1467,46.9285],[8.1454,46.9277],[8.1436,46.9272],[8.1411,46.9256],[8.1409,46.925],[8.1399,46.9239],[8.1392,46.9233],[8.1369,46.9227],[8.1356,46.9228],[8.1347,46.9223],[8.134,46.9215],[8.1338,46.9208],[8.1331,46.92],[8.1323,46.9196],[8.1298,46.9172],[8.1286,46.9155],[8.1284,46.9149],[8.1263,46.9134],[8.1263,46.9132],[8.1252,46.9121],[8.1241,46.9107],[8.1227,46.9097],[8.1218,46.9084],[8.1214,46.9068],[8.1203,46.9057],[8.1191,46.9046],[8.1188,46.904],[8.118,46.9037],[8.1175,46.9031],[8.1175,46.9026],[8.1173,46.9019],[8.1162,46.9002],[8.1158,46.8988],[8.1147,46.897],[8.1136,46.8957],[8.1127,46.8938],[8.1112,46.8927],[8.1103,46.8932],[8.1076,46.8949],[8.1064,46.8984],[8.1064,46.9003],[8.1063,46.9014],[8.107,46.9035],[8.1074,46.9042],[8.1073,46.905],[8.1081,46.9063],[8.1085,46.9083],[8.1062,46.9084],[8.1051,46.9089],[8.1039,46.9091],[8.102,46.9088],[8.1007,46.9091],[8.0984,46.9106],[8.0948,46.912],[8.0947,46.9111],[8.0939,46.9105],[8.0939,46.9103],[8.0915,46.9094],[8.0891,46.9091],[8.0884,46.9086],[8.0871,46.9072],[8.087,46.9068],[8.0858,46.9061],[8.0861,46.9043],[8.0843,46.9024],[8.0839,46.9016],[8.0836,46.9003],[8.0833,46.9002],[8.0832,46.8999],[8.0826,46.8995],[8.0826,46.8992],[8.0805,46.8984],[8.0796,46.8979],[8.078,46.8974],[8.077,46.8974],[8.076,46.8972],[8.0731,46.8971],[8.0719,46.8964],[8.0698,46.8957],[8.0697,46.8908],[8.0689,46.8891],[8.067,46.8878],[8.0676,46.8858],[8.0684,46.8846],[8.0689,46.8829],[8.0692,46.8826],[8.0694,46.882],[8.0702,46.8819],[8.071,46.8816],[8.0708,46.8802],[8.0701,46.8803],[8.0703,46.8781],[8.0705,46.8776],[8.0701,46.8769],[8.0703,46.8762],[8.0707,46.8756],[8.071,46.8745],[8.0716,46.8737],[8.0704,46.8726],[8.0697,46.8715],[8.0691,46.8712],[8.0697,46.8708],[8.0699,46.8702],[8.0699,46.8692],[8.0697,46.8688],[8.0688,46.868],[8.0678,46.8674],[8.066,46.867],[8.0658,46.8663],[8.0662,46.8659],[8.0661,46.8655],[8.0662,46.8654],[8.0661,46.8646],[8.0673,46.8624],[8.0664,46.8617],[8.066,46.8608],[8.0657,46.8596],[8.065,46.8587],[8.0637,46.8587],[8.0628,46.8589],[8.0625,46.8582],[8.0621,46.8579],[8.0615,46.8581],[8.061,46.8584],[8.0595,46.8587],[8.0592,46.8583],[8.0588,46.8577],[8.0575,46.8575],[8.0578,46.8572],[8.0585,46.8571],[8.0579,46.8563],[8.0573,46.856],[8.0578,46.8555],[8.0585,46.8537],[8.0589,46.8534],[8.0583,46.8527],[8.0577,46.8523],[8.057,46.851],[8.056,46.8502],[8.0561,46.8496],[8.056,46.8493],[8.0542,46.8485],[8.0521,46.8473],[8.0517,46.8466],[8.0507,46.8461],[8.0505,46.8457],[8.0498,46.8451],[8.0481,46.8449],[8.0458,46.8442],[8.0448,46.8424],[8.0447,46.8414],[8.0442,46.8401],[8.0422,46.8365],[8.0431,46.8358],[8.0434,46.8352],[8.0443,46.8345],[8.0448,46.8338],[8.0466,46.832],[8.0477,46.8316],[8.0478,46.8303],[8.0468,46.8294],[8.0471,46.829],[8.0504,46.8258],[8.0515,46.8252],[8.0529,46.8231],[8.0538,46.822],[8.0547,46.8213],[8.0553,46.8199],[8.0561,46.8195],[8.056,46.8193],[8.0566,46.8182],[8.0579,46.8167],[8.0584,46.8163],[8.0592,46.8148],[8.0623,46.8111],[8.0642,46.8084],[8.0641,46.8081],[8.0645,46.8081],[8.0642,46.8066],[8.0645,46.8061],[8.0639,46.803],[8.061,46.8028],[8.0607,46.8016],[8.0585,46.8007],[8.0584,46.8011],[8.0553,46.7992],[8.0552,46.7989],[8.0549,46.7986],[8.0554,46.7983],[8.0556,46.7979],[8.0551,46.7973],[8.0556,46.7969],[8.0562,46.7968],[8.0565,46.7965],[8.0569,46.7955],[8.0568,46.7949],[8.0566,46.7946],[8.0567,46.7942],[8.0561,46.7929],[8.0553,46.7927],[8.055,46.7924],[8.0539,46.7919],[8.0535,46.7916],[8.0534,46.7913],[8.0529,46.791],[8.0526,46.7907],[8.0517,46.7901],[8.051,46.7895],[8.0498,46.7889],[8.0497,46.7885],[8.0493,46.7882],[8.0469,46.7871]]]}}