{"type":"Feature","bbox":[6.4327,46.8466,7.0877,47.1657],"properties":{"iso":"CH","code":"NE","name":"Neuchâtel","name_de":"Kanton Neuenburg","source":"swisstopo","key":"CH-NE"},"geometry":{"type":"Polygon","coordinates":[[[7.0256,47.0058],[7.0403,46.9795],[7.0024,46.9869],[6.9282,46.9534],[6.8962,46.9255],[6.8657,46.9096],[6.7798,46.853],[6.7553,46.8705],[6.7519,46.8706],[6.7506,46.8711],[6.7406,46.8718],[6.74,46.872],[6.7346,46.8691],[6.7334,46.8679],[6.7329,46.8683],[6.7325,46.8683],[6.7332,46.8694],[6.7339,46.8716],[6.7357,46.8726],[6.7361,46.8732],[6.7368,46.8738],[6.7379,46.8766],[6.739,46.8785],[6.7394,46.8789],[6.7399,46.8821],[6.7402,46.8827],[6.7407,46.8833],[6.7405,46.8838],[6.74,46.8844],[6.7386,46.8844],[6.738,46.8846],[6.7401,46.8948],[6.7267,46.9019],[6.721,46.9054],[6.7167,46.9061],[6.7178,46.9117],[6.7175,46.9159],[6.7209,46.9258],[6.7237,46.9311],[6.7219,46.9317],[6.7204,46.9333],[6.7202,46.9338],[6.7204,46.9348],[6.7206,46.9348],[6.7209,46.9353],[6.7208,46.9361],[6.7156,46.9348],[6.684,46.9256],[6.6799,46.924],[6.6685,46.9206],[6.6548,46.9141],[6.654,46.9134],[6.6472,46.9107],[6.6469,46.9103],[6.6455,46.9062],[6.6271,46.8887],[6.6146,46.8889],[6.6065,46.8867],[6.5986,46.8836],[6.597,46.8835],[6.5934,46.8844],[6.5876,46.8843],[6.5748,46.8805],[6.5704,46.8788],[6.5649,46.8763],[6.5622,46.8752],[6.5599,46.8741],[6.5571,46.8737],[6.5563,46.8732],[6.5553,46.8731],[6.5549,46.8734],[6.5532,46.8733],[6.5514,46.8728],[6.5496,46.8718],[6.5463,46.8692],[6.5452,46.8686],[6.5395,46.867],[6.5378,46.8668],[6.5331,46.8629],[6.5306,46.8604],[6.5297,46.8599],[6.5287,46.8591],[6.5278,46.8587],[6.5273,46.8587],[6.526,46.858],[6.5253,46.8579],[6.5233,46.8566],[6.5143,46.8548],[6.5044,46.8524],[6.4821,46.8466],[6.4707,46.8471],[6.4665,46.8478],[6.4654,46.8508],[6.46,46.8513],[6.4637,46.882],[6.4646,46.8904],[6.4579,46.9008],[6.4416,46.9176],[6.4391,46.9196],[6.4359,46.9216],[6.4327,46.9287],[6.4378,46.9306],[6.4391,46.9308],[6.4465,46.9341],[6.4497,46.936],[6.4518,46.9378],[6.4535,46.9387],[6.4538,46.9394],[6.4553,46.9401],[6.4578,46.9422],[6.4592,46.9429],[6.4603,46.9438],[6.4614,46.9461],[6.4623,46.9471],[6.4639,46.9482],[6.4652,46.9493],[6.4664,46.9512],[6.4695,46.9532],[6.4718,46.956],[6.4777,46.9618],[6.4857,46.9675],[6.4888,46.969],[6.4949,46.9733],[6.4965,46.9741],[6.5048,46.9657],[6.5075,46.9668],[6.5082,46.9668],[6.5104,46.9675],[6.5138,46.9693],[6.5189,46.971],[6.5239,46.972],[6.5265,46.9718],[6.528,46.9723],[6.5347,46.9733],[6.5373,46.9735],[6.553,46.9779],[6.558,46.979],[6.561,46.9795],[6.5625,46.9794],[6.5636,46.9797],[6.5658,46.9806],[6.5668,46.9808],[6.5686,46.9815],[6.5719,46.982],[6.5732,46.9824],[6.576,46.9837],[6.576,46.9842],[6.579,46.9849],[6.5838,46.9872],[6.5864,46.9888],[6.589,46.9897],[6.5896,46.9902],[6.5928,46.9914],[6.5931,46.9918],[6.5962,46.9924],[6.6,46.9925],[6.6,46.9918],[6.6034,46.9919],[6.6041,46.9917],[6.6047,46.9911],[6.6057,46.9909],[6.6084,46.9911],[6.6105,46.9907],[6.6128,46.9911],[6.6139,46.9915],[6.618,46.9916],[6.6213,46.9935],[6.6225,46.9938],[6.6276,46.9964],[6.6314,46.9974],[6.6336,46.9982],[6.6404,47.0028],[6.646,47.0096],[6.6472,47.0115],[6.6484,47.0146],[6.6536,47.0223],[6.6552,47.0239],[6.6592,47.0273],[6.6599,47.0276],[6.6606,47.0281],[6.661,47.0282],[6.6611,47.0281],[6.6624,47.0289],[6.6662,47.0305],[6.6668,47.0309],[6.6689,47.0319],[6.6705,47.0324],[6.6734,47.0336],[6.6756,47.0347],[6.6783,47.0356],[6.6859,47.0374],[6.689,47.0376],[6.6948,47.037],[6.6965,47.0373],[6.7016,47.0408],[6.7058,47.0443],[6.7088,47.045],[6.7115,47.048],[6.7192,47.0512],[6.7196,47.052],[6.7188,47.0523],[6.7171,47.0524],[6.7143,47.0531],[6.7126,47.0534],[6.712,47.0536],[6.7112,47.0541],[6.7109,47.0546],[6.7101,47.0554],[6.7101,47.0558],[6.7096,47.0563],[6.7095,47.0568],[6.7088,47.0578],[6.7088,47.0581],[6.7075,47.0578],[6.7062,47.0584],[6.7054,47.0586],[6.705,47.059],[6.7043,47.0591],[6.704,47.0591],[6.7031,47.0586],[6.7019,47.0586],[6.7004,47.0593],[6.6995,47.0604],[6.6995,47.0613],[6.6982,47.0623],[6.6963,47.0636],[6.6954,47.0632],[6.6957,47.0628],[6.6952,47.0625],[6.6948,47.0628],[6.6948,47.0633],[6.6943,47.0635],[6.6939,47.0642],[6.6939,47.0648],[6.6937,47.065],[6.6915,47.0667],[6.6922,47.0679],[6.6934,47.0689],[6.6954,47.0689],[6.6969,47.0693],[6.7001,47.0697],[6.7012,47.0701],[6.7019,47.071],[6.7033,47.0734],[6.7041,47.0738],[6.7053,47.0739],[6.7062,47.0742],[6.7066,47.0747],[6.7065,47.0748],[6.7052,47.076],[6.7052,47.0764],[6.7055,47.0769],[6.7066,47.0776],[6.7074,47.0783],[6.7076,47.0788],[6.7075,47.0795],[6.7067,47.08],[6.7045,47.0803],[6.7035,47.0806],[6.7027,47.0813],[6.7025,47.0816],[6.7027,47.0821],[6.7037,47.0825],[6.7079,47.0832],[6.7084,47.0842],[6.7089,47.0845],[6.7091,47.0847],[6.7098,47.0843],[6.7103,47.0844],[6.7106,47.0846],[6.711,47.0851],[6.7121,47.0859],[6.7141,47.0866],[6.7142,47.0869],[6.7137,47.0872],[6.7151,47.0884],[6.7177,47.0892],[6.7227,47.0896],[6.7238,47.09],[6.7241,47.0903],[6.7243,47.091],[6.7259,47.0919],[6.7266,47.0919],[6.7296,47.09],[6.732,47.0895],[6.7334,47.0897],[6.7352,47.0896],[6.7368,47.0902],[6.7392,47.0904],[6.7416,47.0909],[6.7422,47.0916],[6.7446,47.0927],[6.7453,47.0954],[6.7459,47.0965],[6.7464,47.097],[6.7467,47.0978],[6.7463,47.0987],[6.7465,47.0994],[6.7464,47.0997],[6.7457,47.1002],[6.7449,47.1011],[6.7429,47.1029],[6.742,47.1035],[6.7415,47.1042],[6.7414,47.1046],[6.7407,47.1057],[6.74,47.108],[6.7401,47.109],[6.7405,47.1096],[6.7423,47.11],[6.7431,47.1097],[6.7448,47.1095],[6.7468,47.11],[6.7484,47.1112],[6.7492,47.1117],[6.75,47.1124],[6.7515,47.1142],[6.7521,47.1146],[6.7541,47.1152],[6.7565,47.117],[6.7581,47.1174],[6.7598,47.1185],[6.7614,47.1189],[6.7647,47.1204],[6.7674,47.1211],[6.7706,47.1214],[6.7725,47.1215],[6.7745,47.1211],[6.776,47.1214],[6.7772,47.122],[6.7782,47.1231],[6.7794,47.1238],[6.7832,47.1244],[6.7874,47.1257],[6.7917,47.1268],[6.7943,47.1277],[6.7956,47.1286],[6.7969,47.1291],[6.7981,47.1292],[6.799,47.1289],[6.8003,47.129],[6.8006,47.1292],[6.8019,47.1294],[6.806,47.1307],[6.8066,47.1312],[6.8071,47.1319],[6.8074,47.1345],[6.8077,47.135],[6.8081,47.1354],[6.8092,47.1357],[6.814,47.1354],[6.8149,47.1356],[6.8157,47.1359],[6.8162,47.1363],[6.8184,47.1391],[6.8195,47.14],[6.8206,47.1406],[6.8235,47.1414],[6.8246,47.142],[6.8254,47.1426],[6.8271,47.1454],[6.8284,47.1465],[6.8292,47.1466],[6.8296,47.1463],[6.8304,47.1462],[6.8326,47.1474],[6.8371,47.1493],[6.8379,47.1497],[6.8387,47.15],[6.8393,47.15],[6.8399,47.1506],[6.8397,47.1513],[6.8397,47.1522],[6.8404,47.1539],[6.8419,47.1545],[6.8439,47.1548],[6.8467,47.1556],[6.8484,47.1558],[6.8499,47.1564],[6.8501,47.157],[6.8515,47.1591],[6.8554,47.1617],[6.8583,47.1643],[6.8584,47.1649],[6.8582,47.1653],[6.8586,47.1655],[6.8597,47.1655],[6.86,47.1657],[6.8609,47.1655],[6.8615,47.1656],[6.8697,47.1548],[6.8713,47.1532],[6.8722,47.1513],[6.8801,47.1418],[6.8813,47.1396],[6.8849,47.1359],[6.8861,47.134],[6.8888,47.1311],[6.8869,47.1256],[6.887,47.1254],[6.8864,47.1243],[6.885,47.1196],[6.881,47.1084],[6.8718,47.1029],[6.8684,47.0923],[6.8669,47.0851],[6.8703,47.0865],[6.8705,47.0864],[6.8752,47.0881],[6.879,47.0899],[6.8802,47.0902],[6.8804,47.09],[6.8861,47.092],[6.8901,47.0938],[6.8899,47.0939],[6.8943,47.096],[6.9078,47.1013],[6.9157,47.1038],[6.918,47.1051],[6.9215,47.1064],[6.9266,47.1092],[6.9298,47.1126],[6.9341,47.1097],[6.9363,47.1087],[6.9393,47.1097],[6.9399,47.1092],[6.9422,47.1099],[6.9434,47.1106],[6.9473,47.1119],[6.9477,47.1121],[6.9476,47.1123],[6.9483,47.1124],[6.9488,47.1121],[6.9498,47.1124],[6.9522,47.1128],[6.9534,47.1127],[6.956,47.1133],[6.9581,47.1135],[6.9603,47.1139],[6.9655,47.1144],[6.9666,47.1144],[6.9696,47.1146],[6.9727,47.1151],[6.974,47.1155],[6.9748,47.1153],[6.9757,47.1157],[6.9824,47.1164],[6.9886,47.1173],[6.996,47.1189],[6.9978,47.1194],[6.9978,47.1196],[6.9995,47.1202],[7.0017,47.1216],[7.0017,47.1222],[7.0036,47.1223],[7.0061,47.1229],[7.0061,47.1235],[7.0078,47.1242],[7.0091,47.1242],[7.0103,47.1238],[7.0106,47.1232],[7.0136,47.1235],[7.0159,47.124],[7.0191,47.1239],[7.0226,47.1241],[7.0256,47.1241],[7.0284,47.1265],[7.0285,47.1269],[7.0311,47.1273],[7.0382,47.1264],[7.04,47.1247],[7.0358,47.1223],[7.0324,47.1198],[7.0314,47.1196],[7.0276,47.1158],[7.0235,47.1122],[7.0287,47.1037],[7.0406,47.109],[7.0412,47.1084],[7.0454,47.1065],[7.0493,47.105],[7.0553,47.1011],[7.0571,47.0997],[7.0633,47.0995],[7.067,47.0984],[7.0757,47.0963],[7.0868,47.0857],[7.0871,47.0816],[7.077,47.076],[7.0784,47.0752],[7.0789,47.0745],[7.0801,47.0737],[7.0805,47.0732],[7.0805,47.0726],[7.0808,47.0726],[7.0809,47.0723],[7.0806,47.0719],[7.0808,47.0713],[7.0807,47.0711],[7.0804,47.0692],[7.0802,47.0688],[7.0803,47.0686],[7.0803,47.0672],[7.0808,47.0664],[7.0824,47.0666],[7.083,47.0666],[7.0831,47.0664],[7.0825,47.066],[7.0826,47.0657],[7.0818,47.0651],[7.0818,47.0646],[7.0822,47.0644],[7.0832,47.0645],[7.0843,47.0641],[7.0844,47.0636],[7.0857,47.0628],[7.0867,47.0615],[7.0877,47.0597],[7.0782,47.0519],[7.0755,47.0503],[7.0719,47.049],[7.0692,47.047],[7.0661,47.0453],[7.0651,47.0449],[7.0634,47.0446],[7.0599,47.0444],[7.054,47.0434],[7.0522,47.043],[7.0506,47.0423],[7.0404,47.037],[7.0389,47.036],[7.0379,47.0351],[7.0343,47.0317],[7.0335,47.0303],[7.0332,47.0293],[7.0331,47.0269],[7.0337,47.0183],[7.0336,47.0171],[7.0333,47.0159],[7.0319,47.0125],[7.031,47.011],[7.0293,47.0094],[7.0251,47.0061],[7.0256,47.0058]]]}}