{"type":"Feature","bbox":[7.3404,47.0743,8.0314,47.5027],"properties":{"iso":"CH","code":"SO","name":"Solothurn","name_de":"Kanton Solothurn","source":"swisstopo","key":"CH-SO"},"geometry":{"type":"MultiPolygon","coordinates":[[[[7.7008,47.1618],[7.7003,47.1611],[7.6993,47.1608],[7.6957,47.1575],[7.6938,47.1581],[7.693,47.1571],[7.6915,47.1545],[7.6908,47.1536],[7.6904,47.1527],[7.6902,47.1526],[7.6883,47.1528],[7.6876,47.1532],[7.6862,47.1533],[7.6826,47.1541],[7.6801,47.1543],[7.6753,47.1532],[7.6744,47.154],[7.6758,47.1552],[7.6755,47.1554],[7.6761,47.156],[7.675,47.1564],[7.6765,47.1581],[7.6778,47.1601],[7.6782,47.1617],[7.6795,47.1632],[7.6812,47.1624],[7.6811,47.1622],[7.6818,47.1622],[7.682,47.1625],[7.6816,47.1626],[7.6819,47.1633],[7.6827,47.164],[7.6851,47.1651],[7.6845,47.1657],[7.6849,47.1661],[7.6854,47.1663],[7.6885,47.1667],[7.6889,47.1663],[7.6879,47.1655],[7.6879,47.1653],[7.691,47.1648],[7.6922,47.1642],[7.6925,47.1645],[7.6928,47.1637],[7.6944,47.1626],[7.6944,47.162],[7.7008,47.1618]]],[[[7.376,47.4141],[7.376,47.4151],[7.3771,47.418],[7.379,47.4213],[7.3792,47.4231],[7.3795,47.424],[7.3796,47.4276],[7.3813,47.4282],[7.3822,47.4288],[7.3822,47.4291],[7.383,47.43],[7.3828,47.4312],[7.3824,47.4312],[7.3824,47.4314],[7.3811,47.432],[7.3821,47.433],[7.3856,47.4319],[7.3864,47.4324],[7.3884,47.4331],[7.3939,47.4352],[7.3964,47.4355],[7.3987,47.4351],[7.4004,47.4355],[7.4031,47.4355],[7.4034,47.4366],[7.403,47.4372],[7.4032,47.4387],[7.4058,47.4397],[7.4067,47.4404],[7.4083,47.4408],[7.4103,47.4416],[7.4117,47.4418],[7.4145,47.4427],[7.415,47.4428],[7.4152,47.4427],[7.4154,47.4431],[7.4161,47.4435],[7.4164,47.4435],[7.4166,47.4436],[7.417,47.4435],[7.417,47.4438],[7.4173,47.4441],[7.418,47.4442],[7.4187,47.4447],[7.4206,47.4456],[7.4209,47.4459],[7.4234,47.4436],[7.4254,47.4433],[7.4293,47.4441],[7.4363,47.4458],[7.4378,47.4463],[7.4391,47.4451],[7.4388,47.445],[7.4394,47.4445],[7.4387,47.4442],[7.4395,47.4434],[7.4399,47.4435],[7.4422,47.4423],[7.4432,47.4412],[7.4457,47.4392],[7.4484,47.4377],[7.4512,47.4346],[7.4512,47.4337],[7.452,47.4325],[7.452,47.4319],[7.4524,47.431],[7.4529,47.4308],[7.4536,47.4299],[7.455,47.4291],[7.4551,47.4286],[7.4556,47.4279],[7.4547,47.4255],[7.4518,47.4228],[7.4503,47.4195],[7.4505,47.419],[7.4503,47.4184],[7.4504,47.4178],[7.4489,47.4162],[7.4484,47.4151],[7.447,47.4143],[7.4438,47.4134],[7.4411,47.4134],[7.4382,47.4127],[7.4367,47.4128],[7.4313,47.4141],[7.4275,47.4145],[7.4269,47.4139],[7.4257,47.4134],[7.4233,47.4131],[7.4213,47.4114],[7.4207,47.4111],[7.4171,47.4112],[7.4166,47.4111],[7.4137,47.4109],[7.4104,47.4114],[7.4077,47.4112],[7.4052,47.4115],[7.4046,47.4117],[7.4015,47.4119],[7.397,47.4129],[7.396,47.4129],[7.3942,47.4132],[7.3938,47.413],[7.3876,47.4141],[7.3869,47.4138],[7.3857,47.4139],[7.3856,47.4136],[7.385,47.4135],[7.3818,47.4133],[7.3784,47.414],[7.376,47.4141]]],[[[7.5088,47.5023],[7.5117,47.5027],[7.5122,47.4989],[7.5141,47.499],[7.5148,47.4978],[7.5203,47.4968],[7.5318,47.4974],[7.5325,47.4954],[7.5327,47.4932],[7.5326,47.491],[7.5362,47.4911],[7.5363,47.4886],[7.536,47.4852],[7.5367,47.4851],[7.5363,47.4838],[7.5343,47.4807],[7.5331,47.4783],[7.5303,47.4783],[7.5298,47.478],[7.5291,47.478],[7.5275,47.4739],[7.5291,47.4668],[7.5307,47.4612],[7.5278,47.461],[7.5175,47.461],[7.5151,47.4606],[7.5111,47.4589],[7.5098,47.4587],[7.5052,47.4587],[7.503,47.4591],[7.4982,47.4597],[7.497,47.4597],[7.4964,47.4594],[7.4924,47.459],[7.4847,47.4574],[7.4805,47.4555],[7.4769,47.4554],[7.4681,47.4539],[7.4666,47.4528],[7.4565,47.4493],[7.4548,47.4492],[7.4535,47.4513],[7.4472,47.457],[7.4461,47.459],[7.4458,47.462],[7.4452,47.4624],[7.4459,47.4632],[7.448,47.4645],[7.4486,47.4651],[7.4494,47.4667],[7.4502,47.4675],[7.4539,47.4701],[7.455,47.4706],[7.4558,47.4707],[7.4563,47.4727],[7.4557,47.4734],[7.4543,47.4738],[7.4514,47.4751],[7.4511,47.4749],[7.4502,47.4753],[7.4484,47.4738],[7.4465,47.4753],[7.4463,47.4764],[7.446,47.4768],[7.4444,47.4776],[7.4436,47.4785],[7.4425,47.4788],[7.4416,47.4781],[7.4388,47.4793],[7.4362,47.4807],[7.4349,47.4808],[7.4344,47.4805],[7.4326,47.4814],[7.4321,47.481],[7.4294,47.4829],[7.4291,47.4827],[7.4281,47.4825],[7.4271,47.4817],[7.4258,47.4813],[7.4241,47.4812],[7.4221,47.4808],[7.4208,47.4804],[7.4215,47.4812],[7.4221,47.4826],[7.4223,47.4839],[7.4245,47.4861],[7.4254,47.4876],[7.4258,47.4885],[7.427,47.4897],[7.429,47.4911],[7.4298,47.4936],[7.4315,47.4956],[7.4331,47.4972],[7.435,47.4981],[7.4369,47.4971],[7.4397,47.4961],[7.4411,47.4951],[7.4461,47.4939],[7.4471,47.4934],[7.4491,47.4919],[7.4488,47.4917],[7.4508,47.4903],[7.4551,47.4895],[7.456,47.4891],[7.4564,47.4885],[7.4591,47.4888],[7.4607,47.4893],[7.4612,47.4888],[7.4624,47.4891],[7.4639,47.4874],[7.4642,47.4875],[7.4661,47.4848],[7.467,47.484],[7.4688,47.483],[7.47,47.4814],[7.4708,47.4807],[7.472,47.4804],[7.4735,47.4806],[7.4758,47.4801],[7.4771,47.4801],[7.4809,47.4811],[7.4838,47.4813],[7.4873,47.482],[7.4897,47.4832],[7.4916,47.4847],[7.4922,47.4855],[7.4935,47.4881],[7.4938,47.4884],[7.4956,47.4886],[7.4968,47.489],[7.4981,47.4889],[7.4985,47.4898],[7.4987,47.4899],[7.4989,47.4902],[7.4999,47.491],[7.501,47.4909],[7.5012,47.4905],[7.5025,47.4908],[7.5011,47.4935],[7.5067,47.4959],[7.5111,47.497],[7.5093,47.5008],[7.5088,47.5023]]],[[[7.5583,47.3224],[7.5617,47.3214],[7.568,47.3242],[7.5687,47.3243],[7.571,47.3263],[7.5716,47.3271],[7.5719,47.3277],[7.572,47.3288],[7.5722,47.329],[7.5712,47.3303],[7.5659,47.3356],[7.5627,47.3394],[7.563,47.3399],[7.5627,47.3405],[7.5617,47.3415],[7.5607,47.3418],[7.5605,47.3425],[7.5598,47.3427],[7.5566,47.3421],[7.5565,47.3439],[7.5522,47.3453],[7.5514,47.3454],[7.5483,47.3464],[7.5472,47.3466],[7.5449,47.3474],[7.5425,47.3478],[7.5413,47.3477],[7.5407,47.3474],[7.5389,47.3476],[7.5381,47.3493],[7.5369,47.3502],[7.538,47.3522],[7.5388,47.3529],[7.5394,47.3532],[7.5401,47.3543],[7.5415,47.3557],[7.5409,47.3566],[7.5397,47.3596],[7.5397,47.3601],[7.5364,47.36],[7.5338,47.3597],[7.5328,47.3613],[7.5332,47.362],[7.5332,47.3622],[7.5326,47.3623],[7.5323,47.3626],[7.5317,47.3624],[7.5299,47.363],[7.5288,47.3629],[7.5285,47.3627],[7.5277,47.3627],[7.5274,47.363],[7.5268,47.363],[7.5264,47.3632],[7.5245,47.3638],[7.5238,47.3642],[7.5233,47.3643],[7.5229,47.3646],[7.5218,47.3652],[7.5217,47.3662],[7.5238,47.369],[7.5246,47.3698],[7.5245,47.3702],[7.5244,47.3716],[7.5237,47.3721],[7.5217,47.372],[7.5212,47.3721],[7.5205,47.372],[7.5193,47.372],[7.5188,47.3722],[7.5172,47.3723],[7.5162,47.3722],[7.5104,47.3722],[7.51,47.3721],[7.5079,47.3722],[7.5069,47.372],[7.506,47.3721],[7.5055,47.372],[7.505,47.3721],[7.5021,47.3719],[7.4999,47.372],[7.4983,47.3717],[7.4971,47.3713],[7.4944,47.3706],[7.4874,47.3697],[7.4851,47.3701],[7.4841,47.3702],[7.4837,47.3704],[7.4815,47.3708],[7.4794,47.3714],[7.4771,47.3712],[7.4765,47.3709],[7.476,47.371],[7.4743,47.3706],[7.474,47.3708],[7.4724,47.3706],[7.471,47.3703],[7.4675,47.3701],[7.4665,47.3703],[7.4663,47.3705],[7.466,47.3706],[7.4644,47.3703],[7.4633,47.3703],[7.4568,47.3715],[7.4548,47.3722],[7.4538,47.3731],[7.4528,47.3746],[7.4485,47.3759],[7.4468,47.3766],[7.445,47.3783],[7.4436,47.3787],[7.4414,47.3798],[7.4402,47.3803],[7.4361,47.3781],[7.4373,47.3809],[7.438,47.3818],[7.4379,47.3833],[7.4391,47.3851],[7.439,47.3852],[7.439,47.386],[7.4421,47.3885],[7.4436,47.389],[7.4432,47.3893],[7.4432,47.3901],[7.443,47.3902],[7.4433,47.391],[7.4431,47.3915],[7.4429,47.3933],[7.4426,47.3941],[7.4424,47.3948],[7.4428,47.3952],[7.4428,47.3956],[7.4431,47.3958],[7.4431,47.3963],[7.442,47.3971],[7.4414,47.3979],[7.4413,47.3982],[7.442,47.3991],[7.4418,47.3992],[7.442,47.3995],[7.4413,47.4002],[7.4421,47.4008],[7.443,47.402],[7.4435,47.4023],[7.4442,47.402],[7.4448,47.4014],[7.4451,47.4006],[7.4461,47.4],[7.4478,47.3995],[7.4496,47.3998],[7.4505,47.4004],[7.4509,47.4014],[7.4507,47.4018],[7.4497,47.4025],[7.4496,47.403],[7.4497,47.4036],[7.4503,47.4038],[7.4525,47.4038],[7.4546,47.4042],[7.4562,47.4035],[7.4568,47.4017],[7.4571,47.4014],[7.4576,47.4012],[7.459,47.4012],[7.4617,47.4008],[7.4627,47.4009],[7.4631,47.4012],[7.4636,47.4022],[7.4641,47.4025],[7.4646,47.4026],[7.4692,47.401],[7.4713,47.4004],[7.4735,47.4003],[7.4764,47.4008],[7.4774,47.4012],[7.4773,47.4003],[7.4775,47.3984],[7.477,47.3979],[7.4772,47.397],[7.4768,47.396],[7.4774,47.3951],[7.4773,47.3939],[7.4775,47.3936],[7.4777,47.3928],[7.4775,47.3921],[7.4782,47.3915],[7.4784,47.3905],[7.4787,47.3904],[7.4788,47.3901],[7.4791,47.3897],[7.4801,47.3896],[7.4804,47.389],[7.481,47.3888],[7.4834,47.3892],[7.4844,47.3891],[7.4847,47.3889],[7.4849,47.3874],[7.4851,47.3873],[7.4883,47.3862],[7.4923,47.3852],[7.4977,47.3845],[7.5008,47.3846],[7.5031,47.385],[7.5057,47.3867],[7.51,47.389],[7.5107,47.3896],[7.5113,47.3897],[7.5117,47.3895],[7.5135,47.3894],[7.5186,47.3882],[7.5214,47.3912],[7.5263,47.3984],[7.529,47.4011],[7.5304,47.4021],[7.5307,47.4024],[7.5309,47.4035],[7.5312,47.4035],[7.5312,47.4043],[7.5311,47.4047],[7.5312,47.4049],[7.5309,47.4054],[7.5288,47.4076],[7.528,47.4079],[7.5273,47.4085],[7.5274,47.4092],[7.5271,47.41],[7.5252,47.4116],[7.5261,47.4119],[7.5347,47.4133],[7.5431,47.414],[7.5512,47.4144],[7.5563,47.4143],[7.5593,47.4139],[7.5661,47.4134],[7.5768,47.4141],[7.5807,47.4147],[7.5795,47.416],[7.5791,47.4167],[7.579,47.4171],[7.5784,47.4176],[7.5771,47.418],[7.5758,47.4189],[7.5744,47.4195],[7.5733,47.4195],[7.5725,47.4192],[7.5715,47.4194],[7.5703,47.4204],[7.5695,47.4207],[7.5692,47.4219],[7.5682,47.4224],[7.5682,47.4228],[7.5685,47.4234],[7.5683,47.4237],[7.5682,47.4243],[7.5677,47.4249],[7.5678,47.4253],[7.5675,47.4259],[7.5683,47.4273],[7.5683,47.4282],[7.5689,47.4294],[7.5692,47.4304],[7.5691,47.4316],[7.5688,47.4323],[7.5689,47.4327],[7.5688,47.4331],[7.5689,47.4337],[7.5692,47.4345],[7.5692,47.4351],[7.5685,47.4366],[7.5689,47.4369],[7.5707,47.4366],[7.5716,47.4365],[7.5725,47.4366],[7.5732,47.4364],[7.5756,47.4368],[7.5757,47.4365],[7.5765,47.4361],[7.5773,47.4354],[7.5784,47.4349],[7.5783,47.4338],[7.5777,47.4324],[7.5801,47.4321],[7.58,47.4314],[7.5794,47.4307],[7.5793,47.4302],[7.5812,47.4288],[7.5849,47.4286],[7.5921,47.4327],[7.594,47.4324],[7.5986,47.4321],[7.6022,47.4312],[7.6074,47.4327],[7.6114,47.4328],[7.614,47.4334],[7.6158,47.4328],[7.6161,47.4376],[7.6153,47.4396],[7.6165,47.4418],[7.6164,47.4444],[7.6165,47.4452],[7.6173,47.4468],[7.6185,47.4477],[7.6185,47.4481],[7.6189,47.449],[7.6194,47.4496],[7.62,47.4506],[7.6201,47.4511],[7.6199,47.4512],[7.6203,47.4523],[7.6212,47.4543],[7.622,47.4557],[7.6226,47.4571],[7.6221,47.4592],[7.6222,47.462],[7.6242,47.4615],[7.6261,47.4629],[7.6248,47.4632],[7.6225,47.4652],[7.6208,47.4661],[7.62,47.4669],[7.6189,47.4675],[7.6169,47.4676],[7.6131,47.4689],[7.611,47.47],[7.6085,47.47],[7.6059,47.4701],[7.6045,47.4704],[7.6073,47.4738],[7.6082,47.4752],[7.6062,47.4756],[7.6064,47.4767],[7.6056,47.4792],[7.6057,47.4799],[7.606,47.4806],[7.6065,47.4811],[7.6082,47.4819],[7.6088,47.4834],[7.6088,47.484],[7.6081,47.4855],[7.6074,47.4883],[7.6073,47.4894],[7.6089,47.4893],[7.6091,47.4891],[7.6098,47.4892],[7.6101,47.4888],[7.6103,47.4888],[7.6104,47.4894],[7.6106,47.4894],[7.6108,47.4889],[7.6123,47.4889],[7.6129,47.4886],[7.614,47.4892],[7.6149,47.4892],[7.6167,47.4889],[7.6206,47.4875],[7.6242,47.4867],[7.6272,47.4849],[7.6296,47.4843],[7.6302,47.4845],[7.6326,47.4844],[7.6362,47.484],[7.641,47.4827],[7.6422,47.4833],[7.6444,47.4856],[7.6473,47.4848],[7.6497,47.4852],[7.651,47.4857],[7.6537,47.4864],[7.6559,47.4874],[7.6532,47.488],[7.6505,47.4883],[7.653,47.489],[7.6551,47.4899],[7.6554,47.4902],[7.6536,47.491],[7.6527,47.4905],[7.6522,47.4906],[7.6517,47.4909],[7.6502,47.491],[7.6499,47.4918],[7.6487,47.4918],[7.6507,47.4946],[7.6522,47.4958],[7.6534,47.4961],[7.6582,47.4953],[7.6594,47.4954],[7.6606,47.4961],[7.6617,47.4963],[7.6629,47.4961],[7.6661,47.4969],[7.6664,47.4948],[7.6654,47.4915],[7.6667,47.4886],[7.6683,47.4864],[7.6717,47.4845],[7.677,47.485],[7.684,47.4829],[7.691,47.4816],[7.6962,47.4818],[7.6998,47.4806],[7.7003,47.4799],[7.7008,47.4796],[7.7024,47.4779],[7.7054,47.4759],[7.7079,47.4726],[7.7099,47.4694],[7.7096,47.4693],[7.7091,47.4696],[7.7087,47.4696],[7.7081,47.4692],[7.7079,47.4689],[7.707,47.4686],[7.7066,47.4686],[7.7055,47.4671],[7.7057,47.4669],[7.7051,47.4667],[7.7052,47.4666],[7.7049,47.4663],[7.7045,47.4661],[7.7044,47.4658],[7.7046,47.4657],[7.7041,47.4655],[7.7038,47.4655],[7.7039,47.4651],[7.7034,47.4648],[7.7034,47.4645],[7.703,47.464],[7.6999,47.4619],[7.6998,47.4617],[7.7,47.4612],[7.6995,47.461],[7.6995,47.4608],[7.6993,47.4606],[7.6994,47.4601],[7.6989,47.4598],[7.6986,47.4594],[7.6987,47.4587],[7.6992,47.4574],[7.6992,47.4568],[7.6989,47.4559],[7.6983,47.4554],[7.6973,47.4552],[7.6967,47.4553],[7.6956,47.4548],[7.6942,47.4548],[7.6923,47.4542],[7.6918,47.4538],[7.6907,47.4522],[7.6867,47.4497],[7.6857,47.4486],[7.6849,47.4478],[7.685,47.4476],[7.6835,47.4422],[7.6837,47.4408],[7.6834,47.4405],[7.6831,47.4397],[7.683,47.4387],[7.6856,47.4364],[7.6866,47.4337],[7.6846,47.4305],[7.6847,47.4287],[7.683,47.4252],[7.6798,47.4175],[7.6739,47.4151],[7.6641,47.41],[7.6615,47.4098],[7.6575,47.4091],[7.6397,47.41],[7.6327,47.41],[7.6339,47.406],[7.6351,47.4003],[7.6355,47.3953],[7.6367,47.3876],[7.6373,47.3861],[7.6363,47.3858],[7.6333,47.3853],[7.6329,47.3846],[7.6333,47.3829],[7.6356,47.3806],[7.6376,47.3807],[7.6418,47.3805],[7.6417,47.3794],[7.641,47.3783],[7.6419,47.3778],[7.6421,47.3774],[7.6421,47.3768],[7.6432,47.3755],[7.643,47.3753],[7.6431,47.3751],[7.6429,47.3733],[7.6433,47.3719],[7.6435,47.3703],[7.6442,47.3672],[7.6645,47.3689],[7.6744,47.3699],[7.6789,47.3705],[7.702,47.3725],[7.7086,47.3716],[7.712,47.371],[7.714,47.3709],[7.7268,47.3689],[7.7279,47.3689],[7.7342,47.3578],[7.7428,47.3497],[7.7515,47.3443],[7.7542,47.3432],[7.764,47.3426],[7.7664,47.3427],[7.7692,47.3415],[7.769,47.3389],[7.7703,47.3388],[7.7729,47.3394],[7.774,47.3395],[7.7762,47.3395],[7.7776,47.3392],[7.7787,47.3393],[7.7797,47.3392],[7.7824,47.3396],[7.783,47.3393],[7.7837,47.3393],[7.7852,47.3389],[7.7853,47.3379],[7.7936,47.3391],[7.7935,47.3395],[7.7954,47.3465],[7.795,47.3498],[7.7964,47.3535],[7.7977,47.3558],[7.8022,47.3611],[7.8054,47.3624],[7.8092,47.3624],[7.8105,47.3629],[7.8123,47.3627],[7.8146,47.3628],[7.8155,47.3627],[7.8221,47.3632],[7.8221,47.3634],[7.8237,47.364],[7.8256,47.3641],[7.8298,47.365],[7.8302,47.3652],[7.8306,47.3651],[7.8326,47.3664],[7.8336,47.3675],[7.8349,47.3699],[7.8365,47.3713],[7.8365,47.3718],[7.8369,47.3727],[7.839,47.3738],[7.8401,47.3748],[7.8431,47.3759],[7.8462,47.3765],[7.8484,47.3771],[7.849,47.3773],[7.85,47.3784],[7.8587,47.3798],[7.86,47.3802],[7.8598,47.3811],[7.8627,47.382],[7.8676,47.3815],[7.8686,47.3813],[7.8726,47.3832],[7.8761,47.3845],[7.8788,47.3835],[7.8796,47.3845],[7.8792,47.385],[7.8792,47.3855],[7.8789,47.386],[7.8793,47.3864],[7.8797,47.3874],[7.8794,47.388],[7.8784,47.3885],[7.8782,47.3889],[7.8773,47.3891],[7.8771,47.39],[7.8767,47.3903],[7.8761,47.3904],[7.8739,47.39],[7.8736,47.3901],[7.8724,47.3911],[7.872,47.3912],[7.8691,47.3955],[7.872,47.3968],[7.8753,47.3976],[7.8777,47.4013],[7.8798,47.4017],[7.8818,47.4007],[7.8834,47.4012],[7.8832,47.4022],[7.8843,47.4032],[7.8836,47.4036],[7.8835,47.4038],[7.8841,47.4049],[7.8833,47.4056],[7.8833,47.4061],[7.8852,47.4063],[7.8875,47.4071],[7.8886,47.4073],[7.8902,47.4071],[7.8989,47.4017],[7.9005,47.401],[7.9008,47.4007],[7.9019,47.402],[7.9038,47.4025],[7.9053,47.4008],[7.9066,47.3998],[7.9086,47.3988],[7.9097,47.3985],[7.9113,47.3996],[7.9131,47.4002],[7.918,47.4014],[7.9211,47.4024],[7.9242,47.402],[7.9254,47.403],[7.9278,47.4036],[7.9299,47.4046],[7.9327,47.4053],[7.9367,47.4081],[7.9358,47.4106],[7.9349,47.4118],[7.9359,47.4121],[7.937,47.4129],[7.9382,47.4133],[7.9389,47.4136],[7.943,47.4145],[7.945,47.4145],[7.9456,47.4156],[7.9464,47.4155],[7.9484,47.4163],[7.951,47.4164],[7.9524,47.4161],[7.9539,47.416],[7.955,47.4156],[7.956,47.4167],[7.9551,47.4168],[7.955,47.417],[7.9543,47.4173],[7.9567,47.4188],[7.9563,47.4194],[7.9566,47.4197],[7.9584,47.4205],[7.9605,47.4212],[7.9618,47.4218],[7.9607,47.4231],[7.9557,47.4266],[7.95,47.4317],[7.9511,47.4326],[7.9519,47.4328],[7.9481,47.44],[7.9468,47.4432],[7.9475,47.4456],[7.9489,47.4458],[7.9501,47.4457],[7.9505,47.4469],[7.9522,47.4479],[7.9529,47.4488],[7.9536,47.4491],[7.9543,47.4491],[7.9546,47.4492],[7.9554,47.4502],[7.9557,47.4507],[7.9565,47.4512],[7.957,47.4513],[7.9579,47.4513],[7.9578,47.4516],[7.9569,47.452],[7.9574,47.4525],[7.9581,47.4526],[7.9585,47.4529],[7.9584,47.4537],[7.9579,47.4544],[7.9569,47.4549],[7.9562,47.4549],[7.9568,47.4552],[7.9584,47.4553],[7.9596,47.4548],[7.9595,47.455],[7.9607,47.4555],[7.9608,47.4556],[7.9605,47.4561],[7.9606,47.4569],[7.9604,47.4573],[7.9606,47.4578],[7.9629,47.4596],[7.9634,47.4598],[7.9643,47.4596],[7.9656,47.4603],[7.966,47.4609],[7.9662,47.4609],[7.9662,47.4613],[7.9668,47.4619],[7.9668,47.4621],[7.9679,47.4625],[7.9683,47.4628],[7.9686,47.4628],[7.9686,47.4624],[7.9687,47.4622],[7.9716,47.4606],[7.9732,47.4599],[7.9743,47.4596],[7.975,47.4587],[7.9759,47.4569],[7.9766,47.4542],[7.9766,47.4538],[7.9754,47.453],[7.9749,47.452],[7.9788,47.4498],[7.9806,47.4489],[7.981,47.4485],[7.9809,47.4483],[7.9813,47.4474],[7.9821,47.446],[7.9826,47.4446],[7.9834,47.4439],[7.9838,47.4432],[7.9841,47.4418],[7.9842,47.4403],[7.9836,47.4382],[7.9837,47.4374],[7.9851,47.4342],[7.9861,47.4331],[7.9865,47.4332],[7.9862,47.4326],[7.9854,47.4322],[7.9853,47.4319],[7.9861,47.4313],[7.9862,47.4306],[7.9868,47.4303],[7.9871,47.4299],[7.9866,47.4293],[7.9869,47.4293],[7.9868,47.4289],[7.9873,47.4287],[7.9855,47.4228],[7.9842,47.4229],[7.9839,47.4283],[7.9827,47.4283],[7.9802,47.4276],[7.9774,47.4263],[7.9741,47.4257],[7.9708,47.4247],[7.9675,47.4235],[7.9632,47.4224],[7.9694,47.4202],[7.9723,47.4189],[7.9742,47.4195],[7.9772,47.4161],[7.9794,47.4153],[7.98,47.4146],[7.9819,47.4136],[7.9823,47.4136],[7.9841,47.4141],[7.9848,47.4141],[7.9878,47.4133],[7.9895,47.4142],[7.9897,47.4137],[7.9902,47.4136],[7.9901,47.4132],[7.9904,47.4121],[7.9915,47.4112],[7.9927,47.4109],[7.9939,47.4111],[7.9947,47.4108],[7.9975,47.41],[7.9987,47.41],[7.9995,47.4097],[8.0018,47.4095],[8.0038,47.4085],[8.0043,47.4081],[8.0046,47.4076],[8.0054,47.4071],[8.0073,47.4066],[8.0077,47.4052],[8.0082,47.4049],[8.0081,47.4041],[8.0083,47.4036],[8.0089,47.4029],[8.0091,47.4018],[8.0093,47.4016],[8.0096,47.4016],[8.0099,47.4014],[8.0101,47.4012],[8.01,47.4007],[8.0103,47.4007],[8.0105,47.4004],[8.0101,47.3999],[8.0103,47.3995],[8.0102,47.3991],[8.0104,47.3988],[8.0102,47.3982],[8.0104,47.3977],[8.0099,47.3974],[8.0102,47.397],[8.0099,47.3966],[8.01,47.3962],[8.0098,47.3957],[8.01,47.3954],[8.0112,47.3949],[8.0136,47.3944],[8.0147,47.3948],[8.0162,47.395],[8.0173,47.3949],[8.02,47.394],[8.0203,47.3958],[8.0266,47.3956],[8.0298,47.3864],[8.0314,47.3837],[8.0308,47.3824],[8.0309,47.3813],[8.0295,47.3793],[8.0298,47.3777],[8.0292,47.3766],[8.0291,47.3756],[8.0277,47.3742],[8.0283,47.3732],[8.0277,47.3726],[8.0274,47.371],[8.0271,47.3707],[8.0273,47.3702],[8.0268,47.3688],[8.0262,47.3687],[8.0257,47.368],[8.0252,47.3677],[8.0252,47.3674],[8.0248,47.3669],[8.0245,47.3659],[8.024,47.3652],[8.0194,47.3638],[8.0181,47.3628],[8.0174,47.3625],[8.0165,47.3612],[8.0168,47.3609],[8.0167,47.3606],[8.0142,47.3595],[8.0141,47.3593],[8.0131,47.3587],[8.0129,47.3581],[8.0123,47.358],[8.0111,47.3571],[8.0105,47.357],[8.0128,47.3543],[8.0126,47.352],[8.0118,47.3498],[8.0038,47.3453],[8.0043,47.3434],[8.0074,47.3393],[8.0052,47.3368],[8.0029,47.336],[8.0011,47.3348],[8.0008,47.335],[8.0005,47.3348],[7.9956,47.3332],[7.9918,47.3326],[7.991,47.3328],[7.9894,47.3307],[7.9873,47.3296],[7.9874,47.3287],[7.9853,47.3276],[7.9846,47.3285],[7.9827,47.3276],[7.9823,47.3277],[7.9778,47.326],[7.9781,47.3255],[7.9761,47.3247],[7.9765,47.3234],[7.9734,47.3231],[7.9704,47.3225],[7.9705,47.3222],[7.9645,47.3213],[7.9639,47.3211],[7.9639,47.321],[7.9636,47.321],[7.9635,47.3212],[7.9586,47.3203],[7.9542,47.3192],[7.948,47.3171],[7.9483,47.3181],[7.9475,47.3199],[7.9475,47.321],[7.9471,47.3222],[7.9473,47.3252],[7.948,47.3267],[7.9488,47.3296],[7.9478,47.3325],[7.9471,47.3323],[7.9377,47.3325],[7.9192,47.334],[7.9182,47.3353],[7.9112,47.3392],[7.9093,47.341],[7.9092,47.3417],[7.9086,47.3419],[7.9078,47.3417],[7.9083,47.3404],[7.9079,47.3395],[7.9073,47.3389],[7.9045,47.3369],[7.9037,47.3362],[7.8993,47.331],[7.8969,47.3277],[7.8966,47.3268],[7.8961,47.3239],[7.8966,47.3219],[7.8972,47.3215],[7.8979,47.3206],[7.8981,47.3198],[7.8976,47.3194],[7.896,47.3187],[7.8938,47.3169],[7.8912,47.3153],[7.8903,47.3141],[7.8898,47.3123],[7.8891,47.3115],[7.8878,47.3111],[7.8838,47.311],[7.879,47.3118],[7.8759,47.3119],[7.874,47.3118],[7.8727,47.3114],[7.8689,47.3091],[7.867,47.3084],[7.8636,47.3075],[7.8613,47.3062],[7.8605,47.3056],[7.8599,47.3048],[7.8595,47.304],[7.859,47.302],[7.8582,47.3004],[7.856,47.2976],[7.8547,47.2957],[7.8537,47.2928],[7.8529,47.2915],[7.8516,47.2899],[7.8488,47.2876],[7.8483,47.2869],[7.8479,47.2856],[7.8475,47.285],[7.8466,47.2838],[7.8453,47.2828],[7.8448,47.282],[7.8444,47.2805],[7.8442,47.2779],[7.8438,47.277],[7.8418,47.2745],[7.8332,47.2679],[7.8293,47.2666],[7.8264,47.2661],[7.82,47.2634],[7.8194,47.2628],[7.8182,47.2621],[7.8166,47.2617],[7.8148,47.2613],[7.807,47.2633],[7.8063,47.2638],[7.8054,47.265],[7.8052,47.2658],[7.8054,47.2676],[7.8053,47.268],[7.8046,47.2684],[7.8028,47.2684],[7.8002,47.2676],[7.798,47.2661],[7.7938,47.2615],[7.7877,47.2579],[7.7862,47.2561],[7.7845,47.2573],[7.7758,47.2614],[7.7753,47.2659],[7.7746,47.2679],[7.7648,47.2667],[7.7607,47.2626],[7.7596,47.2609],[7.7588,47.2592],[7.7568,47.2581],[7.7532,47.2588],[7.7493,47.2588],[7.7447,47.257],[7.7429,47.2575],[7.7383,47.2599],[7.7327,47.2591],[7.7284,47.2632],[7.7248,47.2662],[7.7243,47.2679],[7.7252,47.2691],[7.7251,47.2693],[7.7175,47.2751],[7.7171,47.2752],[7.7156,47.2764],[7.7127,47.2738],[7.7123,47.2738],[7.7094,47.2756],[7.7105,47.2764],[7.7092,47.2772],[7.7099,47.2777],[7.7084,47.2787],[7.7089,47.2795],[7.7065,47.2814],[7.7056,47.2805],[7.703,47.283],[7.7039,47.2838],[7.7009,47.2865],[7.6995,47.2863],[7.6977,47.2872],[7.6886,47.2904],[7.6884,47.291],[7.688,47.291],[7.6879,47.2912],[7.6872,47.2913],[7.685,47.2935],[7.6848,47.294],[7.6829,47.2931],[7.6811,47.2911],[7.6802,47.2906],[7.6798,47.2901],[7.6772,47.2891],[7.6761,47.289],[7.674,47.2883],[7.6728,47.2883],[7.671,47.2876],[7.6705,47.2876],[7.6694,47.2886],[7.6688,47.2888],[7.6662,47.2877],[7.6605,47.2867],[7.6588,47.2859],[7.6589,47.2857],[7.6582,47.2855],[7.658,47.2851],[7.6567,47.2846],[7.6563,47.2846],[7.6543,47.2838],[7.6532,47.2836],[7.6509,47.2827],[7.6483,47.282],[7.6417,47.2818],[7.6361,47.2819],[7.6312,47.2815],[7.6283,47.2817],[7.6276,47.2816],[7.6201,47.2816],[7.6186,47.2813],[7.6142,47.2812],[7.6005,47.2793],[7.5801,47.2764],[7.5869,47.2697],[7.5937,47.2662],[7.5947,47.2644],[7.5961,47.2607],[7.5977,47.2541],[7.5959,47.2456],[7.5974,47.2448],[7.5978,47.2454],[7.5988,47.2452],[7.5997,47.2448],[7.5995,47.2446],[7.6014,47.2429],[7.6012,47.2428],[7.6024,47.2421],[7.6036,47.2423],[7.6046,47.2427],[7.6049,47.2421],[7.6055,47.2418],[7.6056,47.2412],[7.6052,47.2411],[7.6051,47.2403],[7.6054,47.2398],[7.6064,47.2391],[7.6083,47.2393],[7.6084,47.2395],[7.6095,47.2395],[7.609,47.2389],[7.6093,47.2382],[7.6109,47.2383],[7.614,47.2365],[7.6145,47.2349],[7.6149,47.2342],[7.617,47.2339],[7.617,47.2336],[7.6164,47.2329],[7.6183,47.2314],[7.6191,47.2291],[7.6215,47.2289],[7.6229,47.2291],[7.6235,47.2294],[7.6262,47.2263],[7.6295,47.2283],[7.6309,47.2267],[7.6339,47.2286],[7.6353,47.2272],[7.6406,47.2298],[7.644,47.2254],[7.6392,47.2234],[7.641,47.2211],[7.6448,47.2205],[7.645,47.2202],[7.6455,47.2201],[7.6454,47.2197],[7.6455,47.2194],[7.6476,47.2195],[7.6481,47.2193],[7.6485,47.219],[7.6467,47.2176],[7.646,47.216],[7.6459,47.215],[7.6461,47.2147],[7.6472,47.2135],[7.6483,47.2112],[7.6496,47.21],[7.6512,47.2067],[7.6494,47.2041],[7.6472,47.2018],[7.6552,47.2012],[7.6578,47.2007],[7.6623,47.201],[7.6624,47.1998],[7.6627,47.1987],[7.6642,47.1975],[7.6651,47.1977],[7.6658,47.198],[7.6667,47.1959],[7.6666,47.1958],[7.6685,47.196],[7.6691,47.1941],[7.6715,47.195],[7.6718,47.1943],[7.6713,47.193],[7.6746,47.1909],[7.6742,47.189],[7.6737,47.1879],[7.6716,47.1867],[7.6711,47.1845],[7.6724,47.1834],[7.6733,47.1844],[7.6744,47.1842],[7.6757,47.1837],[7.6749,47.1832],[7.6778,47.1827],[7.6776,47.1822],[7.678,47.1819],[7.6775,47.1818],[7.6768,47.1778],[7.6762,47.1761],[7.6754,47.1753],[7.6738,47.1744],[7.6739,47.1743],[7.6729,47.1684],[7.666,47.1684],[7.6661,47.1682],[7.6657,47.1682],[7.6653,47.1689],[7.661,47.1677],[7.6601,47.1684],[7.6543,47.1633],[7.6517,47.1616],[7.6536,47.1608],[7.6513,47.1575],[7.6508,47.1574],[7.6509,47.1561],[7.652,47.156],[7.6524,47.1525],[7.653,47.1524],[7.6524,47.1516],[7.6526,47.1515],[7.6515,47.1502],[7.6508,47.1499],[7.6473,47.1496],[7.6451,47.1489],[7.6432,47.1498],[7.6433,47.1502],[7.6408,47.1515],[7.6408,47.1527],[7.64,47.1536],[7.6356,47.1521],[7.6348,47.1533],[7.6341,47.1531],[7.634,47.1535],[7.6323,47.153],[7.6314,47.1538],[7.6291,47.1524],[7.6275,47.1529],[7.6246,47.1525],[7.6223,47.1534],[7.622,47.1531],[7.6173,47.1554],[7.6155,47.1566],[7.6154,47.1561],[7.6146,47.1556],[7.6145,47.1545],[7.6109,47.1537],[7.6079,47.1529],[7.6043,47.1526],[7.5979,47.1516],[7.5924,47.1527],[7.5884,47.1509],[7.5861,47.1475],[7.5834,47.1548],[7.5835,47.1549],[7.5828,47.156],[7.5811,47.1556],[7.5821,47.1583],[7.5817,47.1582],[7.5819,47.1589],[7.5811,47.1601],[7.5809,47.1601],[7.5807,47.1604],[7.5797,47.16],[7.5775,47.1618],[7.5749,47.1645],[7.5697,47.1629],[7.5698,47.1625],[7.5693,47.1625],[7.5673,47.1632],[7.5655,47.1644],[7.5655,47.1646],[7.5658,47.1647],[7.566,47.1655],[7.5644,47.1658],[7.5646,47.1663],[7.5635,47.1684],[7.5578,47.168],[7.5574,47.1672],[7.5569,47.1667],[7.5543,47.1653],[7.5526,47.1648],[7.55,47.1636],[7.5488,47.1621],[7.5478,47.1616],[7.5474,47.1612],[7.5463,47.1607],[7.5443,47.1604],[7.5417,47.1624],[7.5418,47.1626],[7.5407,47.1636],[7.5352,47.1625],[7.5345,47.1642],[7.5329,47.1638],[7.5314,47.163],[7.5258,47.1622],[7.526,47.1611],[7.5228,47.1607],[7.5229,47.16],[7.5206,47.1598],[7.5203,47.1589],[7.5217,47.1587],[7.5219,47.1584],[7.5243,47.1536],[7.5257,47.1537],[7.5257,47.1531],[7.5283,47.1518],[7.5289,47.1513],[7.5292,47.1508],[7.5296,47.1507],[7.5298,47.1487],[7.5253,47.1476],[7.5234,47.1458],[7.5229,47.1425],[7.5191,47.1404],[7.5158,47.1368],[7.5137,47.1332],[7.5138,47.13],[7.5097,47.1255],[7.5047,47.1227],[7.4986,47.1214],[7.4923,47.1171],[7.4613,47.1082],[7.4622,47.106],[7.462,47.1059],[7.4628,47.1037],[7.4618,47.1034],[7.4653,47.0993],[7.4642,47.099],[7.4708,47.0905],[7.4735,47.0895],[7.4739,47.0895],[7.4738,47.0888],[7.4744,47.0884],[7.4743,47.0882],[7.4751,47.0871],[7.4751,47.0867],[7.4746,47.086],[7.4739,47.0857],[7.4729,47.0846],[7.4711,47.0838],[7.4706,47.0829],[7.4684,47.0798],[7.4675,47.0791],[7.4662,47.0786],[7.4656,47.0788],[7.4645,47.079],[7.4641,47.0787],[7.4629,47.0784],[7.4625,47.0785],[7.4621,47.0783],[7.4615,47.0785],[7.4591,47.0781],[7.458,47.0776],[7.4557,47.0757],[7.4557,47.0753],[7.4545,47.0749],[7.454,47.076],[7.4459,47.0743],[7.4432,47.0746],[7.4405,47.0745],[7.4405,47.0758],[7.4402,47.0763],[7.4386,47.077],[7.4375,47.078],[7.4362,47.0798],[7.4354,47.0802],[7.4351,47.0813],[7.4353,47.082],[7.4351,47.0826],[7.4347,47.0829],[7.4345,47.0835],[7.4344,47.0844],[7.4345,47.0848],[7.4342,47.0856],[7.4344,47.0862],[7.4334,47.0869],[7.4329,47.088],[7.4331,47.0886],[7.4332,47.0896],[7.4345,47.0897],[7.4337,47.0913],[7.4358,47.0919],[7.435,47.0937],[7.4374,47.0942],[7.4372,47.0948],[7.4372,47.0951],[7.437,47.0951],[7.4365,47.0962],[7.4358,47.097],[7.434,47.1005],[7.4233,47.0975],[7.4224,47.0989],[7.421,47.0985],[7.4203,47.0997],[7.4122,47.0957],[7.4096,47.0949],[7.4016,47.0938],[7.3997,47.0936],[7.3994,47.0939],[7.3954,47.093],[7.3901,47.0923],[7.3894,47.0951],[7.3876,47.0954],[7.3864,47.0962],[7.3844,47.0963],[7.3843,47.0955],[7.382,47.0957],[7.3826,47.0967],[7.3825,47.0981],[7.3822,47.0992],[7.3813,47.1012],[7.3792,47.1041],[7.3788,47.105],[7.3793,47.1051],[7.3792,47.1062],[7.3772,47.1082],[7.3759,47.1084],[7.3744,47.1119],[7.3742,47.1117],[7.374,47.1119],[7.3736,47.1129],[7.3726,47.1132],[7.3715,47.1138],[7.3713,47.1141],[7.3707,47.1148],[7.3704,47.1154],[7.3697,47.116],[7.3709,47.1163],[7.3715,47.117],[7.3717,47.117],[7.372,47.1173],[7.3705,47.1209],[7.3714,47.1225],[7.374,47.1218],[7.3756,47.1223],[7.3755,47.1233],[7.377,47.1234],[7.3789,47.1241],[7.3801,47.1238],[7.3805,47.123],[7.3809,47.1227],[7.3823,47.1231],[7.3827,47.123],[7.3837,47.1233],[7.3846,47.1242],[7.3851,47.1253],[7.3867,47.1259],[7.3876,47.1253],[7.3889,47.1234],[7.389,47.1218],[7.3894,47.1214],[7.3893,47.1212],[7.39,47.1195],[7.391,47.1202],[7.395,47.1217],[7.3993,47.1201],[7.4038,47.1177],[7.4061,47.1184],[7.4063,47.1181],[7.4096,47.1202],[7.4099,47.1198],[7.412,47.1206],[7.4151,47.121],[7.4146,47.1214],[7.4175,47.1217],[7.4173,47.1218],[7.4198,47.1218],[7.4197,47.1213],[7.4199,47.1213],[7.4198,47.1212],[7.4204,47.1212],[7.4247,47.122],[7.4264,47.123],[7.4284,47.1237],[7.429,47.1244],[7.4306,47.1244],[7.4314,47.1242],[7.4347,47.1239],[7.4374,47.1227],[7.4402,47.1237],[7.4396,47.1246],[7.4333,47.1262],[7.4329,47.1276],[7.434,47.1277],[7.4352,47.1275],[7.4358,47.1288],[7.4364,47.1296],[7.4354,47.1313],[7.4312,47.1291],[7.4307,47.1292],[7.4302,47.1295],[7.4309,47.1309],[7.4297,47.1316],[7.4265,47.1313],[7.4252,47.1328],[7.4244,47.1343],[7.4238,47.135],[7.4218,47.1359],[7.4243,47.1374],[7.4267,47.1385],[7.4259,47.1401],[7.4266,47.1411],[7.4305,47.1429],[7.4321,47.1433],[7.4345,47.1437],[7.4366,47.1435],[7.4396,47.144],[7.4412,47.1459],[7.44,47.1505],[7.4412,47.1515],[7.4478,47.1551],[7.449,47.1553],[7.4499,47.1557],[7.452,47.1561],[7.4546,47.1563],[7.4588,47.1549],[7.4599,47.1533],[7.463,47.1537],[7.4631,47.153],[7.4648,47.1527],[7.4655,47.1524],[7.4659,47.1518],[7.4662,47.152],[7.4667,47.1516],[7.4676,47.1513],[7.4685,47.1514],[7.4695,47.1519],[7.4705,47.152],[7.4728,47.1526],[7.4739,47.1535],[7.4772,47.154],[7.4786,47.1545],[7.4792,47.1551],[7.4805,47.1559],[7.4804,47.1563],[7.4814,47.1573],[7.4821,47.1582],[7.4838,47.1588],[7.4847,47.1596],[7.4885,47.1607],[7.4898,47.1613],[7.4927,47.1633],[7.4923,47.164],[7.4902,47.1658],[7.4929,47.1672],[7.497,47.1701],[7.4957,47.1715],[7.4931,47.1711],[7.4918,47.1718],[7.489,47.1727],[7.4863,47.1731],[7.4864,47.1736],[7.4841,47.1731],[7.4843,47.1727],[7.4825,47.1724],[7.4825,47.1722],[7.4805,47.1717],[7.4791,47.1751],[7.4782,47.1762],[7.4783,47.1768],[7.4787,47.1773],[7.4785,47.1775],[7.4781,47.1775],[7.4768,47.1766],[7.4763,47.1769],[7.477,47.1779],[7.4759,47.179],[7.4752,47.1793],[7.4749,47.1802],[7.4733,47.1799],[7.4709,47.1813],[7.4752,47.183],[7.4745,47.1847],[7.473,47.185],[7.4726,47.1855],[7.4738,47.1858],[7.4736,47.1862],[7.4755,47.1867],[7.4753,47.1871],[7.476,47.1875],[7.4758,47.1879],[7.4766,47.1881],[7.4761,47.189],[7.4761,47.1898],[7.4757,47.1907],[7.4742,47.1904],[7.4693,47.1903],[7.4666,47.1901],[7.4596,47.1891],[7.4557,47.1888],[7.4511,47.1891],[7.4498,47.1896],[7.4488,47.1894],[7.4484,47.1888],[7.4484,47.1879],[7.4492,47.1864],[7.4497,47.1852],[7.4499,47.184],[7.4496,47.1829],[7.4488,47.1819],[7.4476,47.1811],[7.4456,47.1801],[7.4432,47.1793],[7.4418,47.1792],[7.4406,47.1798],[7.4399,47.1806],[7.4385,47.1844],[7.4374,47.185],[7.436,47.1853],[7.4346,47.1852],[7.4333,47.1847],[7.4317,47.1836],[7.4309,47.1825],[7.4309,47.1812],[7.4318,47.1787],[7.4316,47.1761],[7.4301,47.1746],[7.428,47.1735],[7.4261,47.173],[7.4218,47.1723],[7.4184,47.1712],[7.4174,47.1703],[7.4167,47.1691],[7.4165,47.1673],[7.416,47.1654],[7.4134,47.1632],[7.4118,47.1624],[7.4102,47.1621],[7.4086,47.1621],[7.403,47.1628],[7.4009,47.1629],[7.3989,47.1625],[7.3971,47.1619],[7.3931,47.1604],[7.3926,47.161],[7.3921,47.1611],[7.3873,47.1601],[7.3871,47.1599],[7.3873,47.1597],[7.3869,47.1595],[7.3857,47.16],[7.3842,47.1601],[7.383,47.1608],[7.3821,47.1625],[7.3818,47.1636],[7.3822,47.1646],[7.3822,47.1651],[7.3847,47.1661],[7.3908,47.1656],[7.3908,47.1662],[7.3919,47.1663],[7.3897,47.1704],[7.3848,47.178],[7.3835,47.1803],[7.3795,47.1851],[7.3797,47.1852],[7.3793,47.1857],[7.3788,47.1856],[7.3773,47.1872],[7.3751,47.1886],[7.3719,47.19],[7.3689,47.1906],[7.3677,47.191],[7.3672,47.1915],[7.3664,47.193],[7.3655,47.1945],[7.3629,47.1934],[7.3545,47.1915],[7.3468,47.2072],[7.3457,47.2071],[7.3448,47.2072],[7.342,47.2124],[7.3404,47.2176],[7.3432,47.2179],[7.3463,47.2192],[7.3477,47.2192],[7.3515,47.22],[7.3533,47.2203],[7.3548,47.2209],[7.3556,47.221],[7.3572,47.221],[7.3577,47.2202],[7.3593,47.2196],[7.3622,47.2196],[7.3644,47.2206],[7.3654,47.2208],[7.3657,47.2213],[7.3672,47.2223],[7.3705,47.2239],[7.3732,47.226],[7.3745,47.2269],[7.3763,47.2274],[7.3782,47.2276],[7.3803,47.2288],[7.3819,47.2293],[7.385,47.2298],[7.3875,47.2307],[7.3884,47.2308],[7.3906,47.2312],[7.3927,47.2321],[7.3956,47.2327],[7.3981,47.2335],[7.3991,47.234],[7.4017,47.2349],[7.4031,47.2357],[7.4068,47.2382],[7.4079,47.2391],[7.4118,47.2406],[7.4127,47.2407],[7.4142,47.2406],[7.4155,47.2402],[7.4209,47.2429],[7.42,47.2439],[7.4182,47.2454],[7.4172,47.2476],[7.4164,47.2503],[7.4162,47.2506],[7.4163,47.2522],[7.4174,47.2538],[7.4182,47.2539],[7.4188,47.2546],[7.4268,47.2561],[7.4336,47.259],[7.436,47.2602],[7.4362,47.2606],[7.4366,47.2607],[7.4387,47.2621],[7.441,47.2629],[7.4459,47.2631],[7.4472,47.2629],[7.4481,47.263],[7.4486,47.2629],[7.4508,47.2632],[7.451,47.263],[7.4519,47.2634],[7.4559,47.2637],[7.4607,47.2645],[7.4629,47.2644],[7.4633,47.2646],[7.4647,47.2645],[7.4658,47.2647],[7.4663,47.2651],[7.4679,47.2658],[7.4689,47.2665],[7.4716,47.2694],[7.472,47.2696],[7.4728,47.2713],[7.4736,47.2718],[7.4738,47.2727],[7.4741,47.2731],[7.474,47.2733],[7.4747,47.2745],[7.4753,47.2751],[7.4759,47.2763],[7.4771,47.2773],[7.4785,47.2789],[7.4817,47.281],[7.4854,47.2843],[7.4872,47.2839],[7.4885,47.2845],[7.4944,47.2864],[7.4953,47.2869],[7.4947,47.2882],[7.4954,47.2879],[7.4967,47.2884],[7.4983,47.2884],[7.5021,47.2898],[7.5054,47.2909],[7.5055,47.2905],[7.506,47.2901],[7.5138,47.2925],[7.5153,47.2927],[7.52,47.2938],[7.5225,47.294],[7.5246,47.2938],[7.528,47.2942],[7.5316,47.2943],[7.5329,47.2945],[7.5379,47.2971],[7.5386,47.2976],[7.5395,47.2986],[7.5395,47.2991],[7.5399,47.2999],[7.5391,47.302],[7.5428,47.3036],[7.5445,47.3048],[7.5469,47.3061],[7.5462,47.3074],[7.5468,47.3076],[7.5474,47.3091],[7.5483,47.3164],[7.5583,47.3224]]]]}}