{"type":"Feature","bbox":[8.7957,46.8729,9.6741,47.5497],"properties":{"iso":"CH","code":"SG","name":"Sankt Gallen","name_de":"Kanton St. Gallen","source":"swisstopo","key":"CH-SG"},"geometry":{"type":"Polygon","coordinates":[[[9.4758,47.0517],[9.4773,47.0491],[9.4784,47.0475],[9.4815,47.0441],[9.5061,47.0187],[9.5071,47.0174],[9.5084,47.0156],[9.5083,47.0151],[9.5105,47.0094],[9.5116,47.0081],[9.5186,47.0005],[9.5216,46.9976],[9.5456,46.9766],[9.5422,46.9746],[9.5412,46.9743],[9.5401,46.9746],[9.5358,46.9745],[9.5349,46.9746],[9.5322,46.974],[9.5314,46.9739],[9.5302,46.9741],[9.5287,46.9739],[9.5277,46.9729],[9.5271,46.973],[9.5262,46.9724],[9.5252,46.9724],[9.523,46.9726],[9.5215,46.972],[9.5209,46.9714],[9.5203,46.9714],[9.52,46.971],[9.519,46.9704],[9.5189,46.97],[9.5179,46.9691],[9.5174,46.9684],[9.5177,46.9679],[9.5173,46.9674],[9.5187,46.9651],[9.5184,46.9642],[9.518,46.9641],[9.5177,46.9636],[9.5186,46.9626],[9.5181,46.9605],[9.5185,46.958],[9.5185,46.9572],[9.5188,46.9565],[9.5185,46.9559],[9.5183,46.9556],[9.5176,46.9556],[9.5155,46.955],[9.5135,46.955],[9.5134,46.9548],[9.5112,46.9548],[9.5105,46.9546],[9.5075,46.9544],[9.5059,46.9542],[9.5051,46.9537],[9.5046,46.9537],[9.504,46.9521],[9.504,46.9516],[9.5032,46.9505],[9.5034,46.9499],[9.5032,46.9497],[9.5032,46.9495],[9.5029,46.9493],[9.501,46.9493],[9.5002,46.9496],[9.4996,46.9479],[9.4986,46.947],[9.4988,46.9469],[9.4986,46.9451],[9.4984,46.945],[9.4984,46.9448],[9.4974,46.9444],[9.4971,46.9441],[9.497,46.9432],[9.4963,46.9427],[9.4965,46.9421],[9.4959,46.9421],[9.4957,46.9418],[9.4959,46.9408],[9.4961,46.9403],[9.4943,46.9403],[9.4929,46.9392],[9.4937,46.9377],[9.4865,46.9355],[9.4867,46.9332],[9.4858,46.9311],[9.4857,46.9304],[9.4833,46.9277],[9.4804,46.926],[9.4791,46.9222],[9.4782,46.9207],[9.4778,46.9206],[9.4782,46.918],[9.4787,46.9166],[9.4786,46.9157],[9.48,46.9154],[9.482,46.9143],[9.488,46.9123],[9.4823,46.9082],[9.4801,46.9075],[9.4775,46.9071],[9.4754,46.9064],[9.4748,46.9054],[9.4723,46.9041],[9.4721,46.9033],[9.4714,46.9026],[9.471,46.9014],[9.4673,46.8999],[9.4674,46.898],[9.4678,46.8963],[9.4685,46.8957],[9.4688,46.8951],[9.4686,46.8942],[9.4697,46.8915],[9.4691,46.8914],[9.4688,46.8908],[9.4687,46.8899],[9.4688,46.8893],[9.4678,46.8873],[9.467,46.8866],[9.4668,46.8861],[9.4661,46.8859],[9.4642,46.8864],[9.4621,46.8866],[9.4605,46.8864],[9.4583,46.8866],[9.4559,46.8864],[9.4557,46.886],[9.4553,46.8862],[9.4543,46.8861],[9.4541,46.8849],[9.4552,46.884],[9.4557,46.883],[9.4554,46.8824],[9.4559,46.8812],[9.4558,46.8803],[9.4547,46.8782],[9.4543,46.8769],[9.4531,46.876],[9.4527,46.8754],[9.4526,46.8746],[9.4508,46.8741],[9.4489,46.8729],[9.4482,46.8735],[9.4459,46.8751],[9.445,46.8759],[9.4437,46.8764],[9.4419,46.8776],[9.4412,46.8781],[9.4407,46.8788],[9.4378,46.8797],[9.4372,46.8807],[9.4365,46.8815],[9.4358,46.8817],[9.4352,46.8829],[9.4342,46.8833],[9.4333,46.8846],[9.4327,46.8848],[9.4316,46.8848],[9.4306,46.8852],[9.4298,46.8852],[9.4294,46.8855],[9.4286,46.8854],[9.4282,46.8855],[9.4253,46.8877],[9.4223,46.8887],[9.4219,46.8886],[9.4214,46.889],[9.4204,46.8892],[9.4199,46.8896],[9.419,46.8895],[9.4179,46.8898],[9.4165,46.8899],[9.4159,46.8901],[9.4139,46.8912],[9.4111,46.8914],[9.4099,46.892],[9.408,46.8922],[9.4073,46.8921],[9.4051,46.8924],[9.4006,46.8923],[9.4,46.8921],[9.3994,46.8921],[9.3989,46.8926],[9.3943,46.8934],[9.3928,46.8939],[9.3918,46.8948],[9.391,46.8949],[9.3895,46.8958],[9.3873,46.8966],[9.3817,46.8976],[9.3797,46.8976],[9.3779,46.8973],[9.3758,46.8974],[9.3747,46.8973],[9.368,46.8977],[9.3677,46.8974],[9.3665,46.8974],[9.3655,46.8969],[9.3649,46.8972],[9.362,46.8974],[9.3612,46.8973],[9.3555,46.8981],[9.3532,46.8986],[9.3523,46.8992],[9.3516,46.8992],[9.3511,46.8989],[9.349,46.8995],[9.347,46.8997],[9.3461,46.8995],[9.3457,46.8993],[9.3454,46.899],[9.3448,46.899],[9.3445,46.8987],[9.344,46.8988],[9.3431,46.8985],[9.3431,46.8983],[9.3387,46.902],[9.3375,46.9019],[9.3346,46.9021],[9.3331,46.9018],[9.3291,46.9017],[9.3258,46.9012],[9.3248,46.9004],[9.3238,46.9009],[9.3219,46.9006],[9.3207,46.9009],[9.3176,46.9012],[9.3167,46.9018],[9.3164,46.9022],[9.3152,46.9028],[9.3127,46.9047],[9.3099,46.9058],[9.3054,46.9056],[9.3035,46.9059],[9.3011,46.9055],[9.2987,46.9061],[9.2953,46.9064],[9.2946,46.9069],[9.2933,46.9071],[9.2921,46.9069],[9.2907,46.907],[9.2891,46.9063],[9.2884,46.9058],[9.2869,46.9051],[9.2831,46.906],[9.2822,46.9064],[9.282,46.9067],[9.2805,46.9072],[9.2769,46.9073],[9.2735,46.9065],[9.2712,46.9052],[9.2689,46.9042],[9.2682,46.9033],[9.2669,46.9032],[9.2634,46.9055],[9.2618,46.9059],[9.2575,46.9084],[9.2568,46.9092],[9.2544,46.9132],[9.2489,46.9163],[9.2488,46.9168],[9.2495,46.919],[9.2499,46.9197],[9.2514,46.9216],[9.2515,46.9221],[9.2515,46.923],[9.2502,46.9242],[9.2512,46.9253],[9.2517,46.9256],[9.2526,46.927],[9.2525,46.9279],[9.2519,46.9281],[9.2519,46.9287],[9.2513,46.9293],[9.2515,46.9297],[9.2513,46.93],[9.2515,46.9304],[9.2513,46.9309],[9.2515,46.9312],[9.2513,46.9317],[9.2509,46.9319],[9.2507,46.9334],[9.2503,46.9346],[9.2488,46.9356],[9.248,46.9359],[9.2477,46.9362],[9.2413,46.9384],[9.2403,46.939],[9.2391,46.9394],[9.2394,46.9398],[9.2393,46.9406],[9.2398,46.9408],[9.2389,46.9414],[9.2385,46.9422],[9.2382,46.9424],[9.2382,46.9427],[9.2377,46.9435],[9.2377,46.9438],[9.2363,46.9448],[9.2364,46.9461],[9.2372,46.9478],[9.2371,46.9485],[9.2367,46.9492],[9.2367,46.9499],[9.237,46.9507],[9.2368,46.9515],[9.2369,46.9522],[9.2366,46.9528],[9.2368,46.9546],[9.2375,46.9549],[9.2434,46.956],[9.2447,46.9565],[9.2461,46.9587],[9.2459,46.9598],[9.2451,46.961],[9.2446,46.9615],[9.2444,46.9623],[9.2439,46.9629],[9.2427,46.9658],[9.243,46.967],[9.2433,46.9674],[9.2432,46.9676],[9.2435,46.9687],[9.2439,46.9692],[9.2441,46.9712],[9.2451,46.9717],[9.2452,46.9732],[9.246,46.9736],[9.246,46.974],[9.2468,46.9756],[9.2464,46.9778],[9.2465,46.9787],[9.2453,46.9794],[9.2442,46.9806],[9.2439,46.9809],[9.2436,46.9824],[9.244,46.9824],[9.2443,46.9832],[9.2449,46.9836],[9.2452,46.985],[9.2457,46.9855],[9.246,46.9855],[9.246,46.986],[9.2466,46.987],[9.2466,46.9877],[9.2457,46.9886],[9.2459,46.9896],[9.2457,46.99],[9.2458,46.9907],[9.2453,46.991],[9.2455,46.9912],[9.2454,46.9916],[9.2456,46.9922],[9.2463,46.9931],[9.2469,46.9934],[9.2475,46.9946],[9.2499,46.9952],[9.2495,46.996],[9.2497,46.9972],[9.2497,46.998],[9.2486,46.9993],[9.2482,47.0003],[9.2473,47.001],[9.246,47.0029],[9.2448,47.0036],[9.2446,47.0049],[9.2434,47.006],[9.2431,47.0069],[9.2428,47.0073],[9.2429,47.008],[9.2423,47.0087],[9.2424,47.0093],[9.2422,47.0102],[9.2424,47.0113],[9.2423,47.0127],[9.2428,47.0147],[9.2427,47.0152],[9.2418,47.0163],[9.2419,47.0165],[9.2411,47.0178],[9.2405,47.0178],[9.2401,47.0181],[9.2403,47.0183],[9.2399,47.0189],[9.2389,47.0197],[9.2389,47.0203],[9.2367,47.0218],[9.2364,47.0224],[9.2365,47.023],[9.2364,47.024],[9.2344,47.0242],[9.2324,47.0251],[9.23,47.0258],[9.2295,47.0264],[9.2285,47.027],[9.2282,47.0276],[9.2283,47.0281],[9.2281,47.0284],[9.2254,47.0298],[9.2242,47.031],[9.2226,47.0318],[9.2219,47.0326],[9.2211,47.0326],[9.22,47.0331],[9.2189,47.0329],[9.2177,47.0332],[9.2161,47.0328],[9.2145,47.0331],[9.2129,47.0336],[9.2126,47.0338],[9.2126,47.0342],[9.212,47.0343],[9.2115,47.0348],[9.2107,47.0349],[9.2103,47.0351],[9.2098,47.035],[9.2092,47.0356],[9.2083,47.0358],[9.2067,47.0356],[9.2062,47.0353],[9.2055,47.035],[9.2053,47.0347],[9.2044,47.0347],[9.2017,47.0351],[9.1969,47.0332],[9.1953,47.0329],[9.1948,47.0322],[9.1919,47.0312],[9.1916,47.0309],[9.1904,47.0304],[9.19,47.03],[9.1896,47.0299],[9.1888,47.0293],[9.187,47.0288],[9.1868,47.0285],[9.1859,47.0283],[9.1852,47.0277],[9.1845,47.0275],[9.1836,47.027],[9.1805,47.0259],[9.1786,47.0263],[9.1774,47.0269],[9.1768,47.0275],[9.1752,47.0288],[9.1741,47.0285],[9.1716,47.0273],[9.1696,47.0266],[9.1683,47.0266],[9.1671,47.0269],[9.1657,47.0269],[9.1655,47.0273],[9.1645,47.0274],[9.1642,47.0281],[9.1605,47.0296],[9.1603,47.0299],[9.159,47.0301],[9.1579,47.0306],[9.1574,47.0306],[9.1569,47.03],[9.1563,47.0302],[9.1381,47.0391],[9.1491,47.0447],[9.1494,47.0449],[9.15,47.0456],[9.1515,47.0464],[9.1528,47.0467],[9.1534,47.0473],[9.156,47.0479],[9.1587,47.0482],[9.1597,47.0491],[9.1609,47.0493],[9.1655,47.0499],[9.1674,47.0494],[9.1689,47.05],[9.1695,47.0506],[9.1697,47.0513],[9.1713,47.0526],[9.1735,47.0526],[9.1745,47.0529],[9.1766,47.0547],[9.1773,47.055],[9.1774,47.0553],[9.1792,47.0564],[9.1793,47.0567],[9.1801,47.0573],[9.1815,47.0579],[9.1818,47.0578],[9.1819,47.0581],[9.1822,47.0582],[9.1823,47.0588],[9.1828,47.059],[9.1838,47.0596],[9.1842,47.0605],[9.1843,47.0612],[9.1847,47.0616],[9.1848,47.062],[9.1851,47.0623],[9.1847,47.0626],[9.1851,47.0634],[9.1853,47.0642],[9.1868,47.0651],[9.1872,47.0654],[9.1903,47.0699],[9.1909,47.0721],[9.1918,47.0726],[9.1919,47.0728],[9.1917,47.0732],[9.192,47.0735],[9.1906,47.0739],[9.1908,47.0744],[9.1907,47.0746],[9.1908,47.0776],[9.1892,47.0831],[9.1888,47.0855],[9.1891,47.0866],[9.1897,47.0876],[9.1896,47.0883],[9.1902,47.0901],[9.1905,47.0905],[9.1909,47.0905],[9.1912,47.091],[9.1904,47.0911],[9.1894,47.0909],[9.1887,47.0927],[9.1879,47.0938],[9.1876,47.0938],[9.1872,47.096],[9.1863,47.0975],[9.1864,47.0983],[9.1863,47.0999],[9.1868,47.1008],[9.1867,47.1012],[9.1869,47.1022],[9.1879,47.1029],[9.188,47.1033],[9.1886,47.1039],[9.1888,47.1054],[9.189,47.106],[9.1883,47.1069],[9.1883,47.1074],[9.1885,47.1078],[9.1896,47.1089],[9.19,47.1099],[9.1899,47.1106],[9.189,47.1119],[9.1892,47.1121],[9.1889,47.1148],[9.1891,47.1151],[9.1886,47.1153],[9.1888,47.1153],[9.1899,47.1237],[9.1477,47.1289],[9.1359,47.132],[9.1154,47.1328],[9.1098,47.1314],[9.1082,47.1313],[9.1068,47.1315],[9.1052,47.1319],[9.1019,47.1332],[9.1013,47.1333],[9.1,47.1328],[9.0939,47.1318],[9.0695,47.1298],[9.0681,47.13],[9.0662,47.1309],[9.0642,47.133],[9.0631,47.1337],[9.0538,47.1392],[9.0056,47.174],[9.0047,47.1733],[9.0026,47.1748],[9.002,47.1743],[8.9964,47.1765],[8.9976,47.1779],[8.9955,47.1789],[8.9916,47.1805],[8.9912,47.1805],[8.9909,47.1808],[8.9879,47.1817],[8.9845,47.1826],[8.9801,47.1833],[8.9796,47.1832],[8.9789,47.1827],[8.9774,47.1827],[8.9771,47.1818],[8.974,47.1823],[8.9733,47.1803],[8.9711,47.1806],[8.9704,47.1788],[8.962,47.1795],[8.9614,47.1825],[8.9619,47.1837],[8.9618,47.1844],[8.9609,47.1854],[8.9603,47.1888],[8.9575,47.1994],[8.9653,47.1982],[8.9692,47.2118],[8.9697,47.2118],[8.9699,47.2115],[8.9743,47.2128],[8.9726,47.2154],[8.9716,47.2163],[8.9704,47.2169],[8.9687,47.2174],[8.9668,47.2175],[8.9571,47.2164],[8.9555,47.2163],[8.9414,47.2181],[8.9376,47.2177],[8.9367,47.2179],[8.9364,47.2176],[8.8469,47.2084],[8.8412,47.2082],[8.8377,47.2083],[8.8342,47.2087],[8.8307,47.2093],[8.8274,47.2101],[8.8242,47.211],[8.821,47.2122],[8.8158,47.2147],[8.8132,47.2164],[8.8108,47.2181],[8.8086,47.2201],[8.7957,47.2391],[8.7957,47.24],[8.796,47.2401],[8.7959,47.2402],[8.7963,47.2408],[8.7965,47.2421],[8.7963,47.2422],[8.7965,47.2425],[8.7993,47.2421],[8.7991,47.2431],[8.7996,47.2431],[8.8004,47.2437],[8.8006,47.2445],[8.8019,47.245],[8.8023,47.2448],[8.8026,47.245],[8.8028,47.2454],[8.8025,47.2467],[8.8027,47.2467],[8.8086,47.2477],[8.809,47.248],[8.8119,47.2484],[8.813,47.2488],[8.8158,47.249],[8.8167,47.2497],[8.8185,47.2498],[8.8206,47.2503],[8.8216,47.2508],[8.8268,47.2515],[8.8272,47.2513],[8.8279,47.2504],[8.8283,47.2505],[8.829,47.2499],[8.8295,47.2499],[8.8301,47.2502],[8.8305,47.25],[8.832,47.25],[8.832,47.2498],[8.8331,47.2495],[8.8335,47.2491],[8.834,47.2494],[8.8347,47.2494],[8.8352,47.249],[8.8356,47.2478],[8.8369,47.248],[8.8373,47.2477],[8.8375,47.2471],[8.8384,47.247],[8.8447,47.247],[8.8447,47.2473],[8.845,47.2479],[8.8447,47.2486],[8.847,47.2495],[8.8469,47.2496],[8.8507,47.2506],[8.8517,47.2511],[8.8521,47.2508],[8.8519,47.2493],[8.8529,47.2493],[8.8528,47.2485],[8.853,47.2478],[8.8525,47.2469],[8.8527,47.2466],[8.8534,47.2466],[8.8544,47.246],[8.8542,47.2454],[8.8547,47.2451],[8.8552,47.2444],[8.8556,47.2444],[8.8563,47.2448],[8.8569,47.245],[8.8578,47.2444],[8.8587,47.2445],[8.8593,47.2443],[8.86,47.244],[8.8601,47.2438],[8.8599,47.2436],[8.86,47.2436],[8.8603,47.2435],[8.8607,47.2433],[8.8621,47.244],[8.8663,47.2449],[8.8666,47.244],[8.8698,47.245],[8.8705,47.2455],[8.871,47.2459],[8.8709,47.2466],[8.8703,47.2467],[8.8708,47.247],[8.8738,47.2477],[8.8736,47.248],[8.8739,47.2481],[8.8738,47.2487],[8.8739,47.2497],[8.8734,47.2509],[8.8735,47.252],[8.8749,47.2522],[8.8781,47.2522],[8.879,47.2524],[8.8846,47.2527],[8.8917,47.2534],[8.8951,47.2542],[8.8972,47.2543],[8.8973,47.2542],[8.8977,47.2542],[8.8991,47.2547],[8.899,47.255],[8.8997,47.2552],[8.9051,47.2557],[8.9083,47.2567],[8.9083,47.2562],[8.9088,47.2555],[8.908,47.2552],[8.9086,47.2544],[8.9092,47.2545],[8.9133,47.2552],[8.917,47.2563],[8.9173,47.2563],[8.9174,47.2562],[8.9205,47.2568],[8.9202,47.2571],[8.922,47.2573],[8.9249,47.2583],[8.9284,47.2589],[8.9286,47.2596],[8.9291,47.26],[8.9299,47.2597],[8.9305,47.2597],[8.9317,47.2591],[8.9331,47.2589],[8.9341,47.26],[8.9349,47.2603],[8.9354,47.2604],[8.9358,47.2603],[8.9365,47.261],[8.9371,47.2612],[8.9371,47.2616],[8.9359,47.2619],[8.937,47.2622],[8.937,47.2625],[8.9375,47.2626],[8.9376,47.2633],[8.9381,47.2634],[8.9382,47.2636],[8.9377,47.2636],[8.9377,47.2643],[8.9402,47.2653],[8.9405,47.2657],[8.9407,47.2655],[8.9409,47.266],[8.9401,47.266],[8.9403,47.2664],[8.9406,47.2665],[8.9403,47.2673],[8.9429,47.2674],[8.9431,47.268],[8.9436,47.2684],[8.9445,47.2695],[8.9427,47.2699],[8.9426,47.2705],[8.9409,47.2717],[8.9412,47.2722],[8.9424,47.2724],[8.9437,47.273],[8.9439,47.2733],[8.9448,47.2739],[8.9449,47.2742],[8.9461,47.2744],[8.9471,47.2749],[8.9475,47.2755],[8.9474,47.2759],[8.9477,47.2761],[8.9476,47.2767],[8.948,47.2778],[8.9477,47.279],[8.9482,47.2797],[8.9481,47.2803],[8.9487,47.2805],[8.9488,47.2809],[8.9481,47.2812],[8.9475,47.2818],[8.9456,47.282],[8.9436,47.2796],[8.9426,47.2795],[8.9414,47.2799],[8.9412,47.2801],[8.9414,47.2805],[8.9417,47.2805],[8.9419,47.2818],[8.9418,47.2819],[8.942,47.2821],[8.9417,47.2823],[8.9417,47.2827],[8.9412,47.2832],[8.9412,47.2834],[8.9409,47.2836],[8.9404,47.2837],[8.9406,47.2844],[8.9381,47.2855],[8.9376,47.2861],[8.9369,47.2866],[8.9365,47.2872],[8.9352,47.2878],[8.9344,47.2878],[8.9337,47.2883],[8.9348,47.2886],[8.9355,47.2892],[8.9361,47.2892],[8.9365,47.2891],[8.9368,47.2893],[8.9371,47.2892],[8.9379,47.2893],[8.9384,47.2896],[8.9408,47.29],[8.9415,47.2903],[8.9423,47.291],[8.943,47.2913],[8.9436,47.2908],[8.9443,47.2909],[8.9447,47.2908],[8.9449,47.2909],[8.9453,47.2909],[8.9452,47.2911],[8.9456,47.2911],[8.9456,47.2912],[8.9464,47.2914],[8.9467,47.2916],[8.9472,47.2916],[8.9475,47.2918],[8.9489,47.2922],[8.9484,47.2933],[8.949,47.2944],[8.9509,47.2953],[8.9519,47.2965],[8.9519,47.2978],[8.9524,47.2989],[8.9526,47.299],[8.9531,47.2988],[8.9548,47.3018],[8.9553,47.3031],[8.9565,47.3043],[8.9576,47.3048],[8.9608,47.3057],[8.9644,47.3063],[8.967,47.3058],[8.975,47.307],[8.9753,47.3078],[8.9763,47.3087],[8.9776,47.3105],[8.9778,47.311],[8.9802,47.3134],[8.9817,47.3151],[8.9822,47.3165],[8.9842,47.3188],[8.985,47.3194],[8.9841,47.3206],[8.9809,47.3227],[8.9797,47.3241],[8.9798,47.3255],[8.9782,47.3266],[8.9776,47.3268],[8.9773,47.3272],[8.9772,47.3282],[8.9767,47.3293],[8.9767,47.3295],[8.9771,47.3305],[8.9773,47.3326],[8.9785,47.3339],[8.9791,47.3351],[8.9789,47.3356],[8.9793,47.3379],[8.9774,47.3383],[8.9747,47.3394],[8.9731,47.3399],[8.974,47.3414],[8.9742,47.3422],[8.9739,47.3428],[8.9738,47.3449],[8.9733,47.3462],[8.9736,47.3468],[8.9744,47.3474],[8.9723,47.3504],[8.9716,47.3519],[8.9718,47.3525],[8.9709,47.3523],[8.9698,47.3525],[8.9692,47.3529],[8.9689,47.3537],[8.967,47.3543],[8.9663,47.3542],[8.9656,47.3544],[8.9634,47.3545],[8.9609,47.354],[8.9603,47.3537],[8.9598,47.3543],[8.96,47.3552],[8.9606,47.3557],[8.9602,47.3559],[8.9598,47.3563],[8.9593,47.3577],[8.9585,47.3583],[8.9579,47.3586],[8.958,47.3591],[8.957,47.3597],[8.9569,47.36],[8.956,47.3608],[8.9561,47.3612],[8.9557,47.3615],[8.9557,47.3617],[8.9551,47.3627],[8.9546,47.364],[8.9547,47.3641],[8.9534,47.3654],[8.9534,47.3656],[8.9524,47.3669],[8.9523,47.3673],[8.9524,47.3674],[8.9524,47.3677],[8.9518,47.3684],[8.9519,47.3688],[8.9515,47.3701],[8.9516,47.3707],[8.9512,47.3717],[8.9504,47.3725],[8.9495,47.3729],[8.9492,47.3732],[8.949,47.3739],[8.9483,47.3747],[8.9476,47.3748],[8.9474,47.375],[8.9466,47.375],[8.9455,47.3747],[8.9448,47.375],[8.9436,47.3758],[8.9448,47.378],[8.945,47.3782],[8.9458,47.3781],[8.9469,47.3785],[8.9474,47.379],[8.9472,47.3792],[8.9486,47.3799],[8.9504,47.38],[8.9519,47.3805],[8.9538,47.3809],[8.9546,47.3814],[8.9549,47.3815],[8.9545,47.3819],[8.955,47.3827],[8.9558,47.3835],[8.9562,47.3835],[8.9562,47.3838],[8.9569,47.3848],[8.9571,47.3857],[8.9574,47.3864],[8.9599,47.386],[8.9615,47.3853],[8.9626,47.386],[8.9638,47.386],[8.964,47.3859],[8.965,47.3848],[8.9659,47.3853],[8.9664,47.3857],[8.9665,47.3866],[8.9663,47.3884],[8.9664,47.3888],[8.9671,47.3895],[8.9675,47.3905],[8.9681,47.3913],[8.9688,47.3916],[8.9703,47.3912],[8.9715,47.3913],[8.9717,47.3917],[8.9716,47.3929],[8.9722,47.3936],[8.9724,47.3943],[8.9732,47.3951],[8.9737,47.3963],[8.9737,47.397],[8.9742,47.3975],[8.9743,47.3981],[8.9757,47.3992],[8.9752,47.4005],[8.9747,47.4007],[8.9744,47.401],[8.9744,47.4017],[8.9739,47.4025],[8.9731,47.4027],[8.9731,47.4031],[8.9723,47.4037],[8.9722,47.4043],[8.9725,47.4048],[8.9729,47.4049],[8.9726,47.4051],[8.9726,47.4052],[8.9743,47.4058],[8.9748,47.4073],[8.9752,47.4078],[8.975,47.4083],[8.9759,47.4093],[8.9768,47.4096],[8.9762,47.4099],[8.9766,47.4107],[8.9777,47.4109],[8.9788,47.4108],[8.9788,47.411],[8.9792,47.4111],[8.9788,47.4119],[8.979,47.4121],[8.981,47.4121],[8.9818,47.4125],[8.9833,47.4114],[8.9842,47.4115],[8.9847,47.4112],[8.9855,47.4115],[8.9871,47.4113],[8.9887,47.4113],[8.9886,47.4119],[8.989,47.4126],[8.9893,47.4131],[8.9898,47.4129],[8.9904,47.4138],[8.9896,47.4142],[8.9893,47.4142],[8.9898,47.4145],[8.9901,47.4153],[8.9906,47.4159],[8.9909,47.4171],[8.9911,47.4186],[8.9915,47.4195],[8.9918,47.4198],[8.9916,47.4199],[8.992,47.4204],[8.9912,47.4209],[8.9917,47.4215],[8.9919,47.4215],[8.992,47.4217],[8.9927,47.4218],[8.9929,47.4225],[8.9935,47.4225],[8.9941,47.4222],[8.9943,47.4223],[8.9935,47.4229],[8.9914,47.4233],[8.9912,47.4235],[8.9917,47.4241],[8.9895,47.425],[8.99,47.4254],[8.9902,47.4254],[8.9912,47.4265],[8.9901,47.4271],[8.9908,47.4281],[8.9899,47.4284],[8.9899,47.4289],[8.99,47.4292],[8.9895,47.4292],[8.9895,47.4294],[8.9891,47.4295],[8.9877,47.4292],[8.9873,47.4294],[8.9875,47.4297],[8.989,47.4299],[8.9903,47.4298],[8.9904,47.4304],[8.9918,47.4302],[8.992,47.4297],[8.9929,47.4298],[8.9943,47.4298],[8.9942,47.4305],[8.9954,47.4306],[8.997,47.4313],[8.9999,47.4321],[8.9985,47.4339],[8.9987,47.4343],[8.9986,47.435],[8.9992,47.4351],[8.9997,47.4347],[9.0004,47.4349],[9.0007,47.4347],[9.0015,47.4347],[9.0029,47.4343],[9.0033,47.434],[9.0042,47.4344],[9.0045,47.4348],[9.0054,47.4341],[9.0072,47.4345],[9.0082,47.4343],[9.0086,47.4344],[9.0101,47.4353],[9.0105,47.4344],[9.011,47.4341],[9.011,47.4334],[9.012,47.4335],[9.0125,47.4337],[9.0129,47.4342],[9.0133,47.4342],[9.0138,47.4353],[9.0143,47.4351],[9.0172,47.4365],[9.0188,47.4368],[9.0187,47.4372],[9.019,47.4375],[9.0194,47.439],[9.0202,47.4399],[9.0197,47.4403],[9.0212,47.4409],[9.0211,47.4412],[9.0213,47.4415],[9.0222,47.4417],[9.0253,47.4391],[9.0253,47.4387],[9.0265,47.4372],[9.0272,47.4373],[9.0278,47.4371],[9.0305,47.4376],[9.0316,47.4376],[9.0324,47.4382],[9.0328,47.4387],[9.0329,47.4397],[9.0333,47.4399],[9.0335,47.4396],[9.0346,47.4391],[9.035,47.4392],[9.0368,47.4376],[9.0364,47.437],[9.0349,47.4365],[9.0337,47.4359],[9.034,47.4355],[9.0345,47.4357],[9.0352,47.4358],[9.0369,47.4363],[9.0383,47.4371],[9.0386,47.4381],[9.038,47.4383],[9.0381,47.4386],[9.0371,47.4391],[9.0366,47.4395],[9.0372,47.4396],[9.0377,47.4395],[9.0382,47.4398],[9.0381,47.4414],[9.0393,47.4412],[9.0404,47.4407],[9.0427,47.4401],[9.0431,47.4403],[9.0439,47.4409],[9.0442,47.4418],[9.0453,47.4417],[9.0455,47.4415],[9.0451,47.4407],[9.0463,47.4417],[9.0451,47.4429],[9.0454,47.4431],[9.0474,47.4429],[9.0476,47.4438],[9.0474,47.444],[9.0475,47.4442],[9.053,47.4426],[9.0517,47.4442],[9.0529,47.4439],[9.0539,47.4432],[9.0543,47.4432],[9.0544,47.4434],[9.0547,47.4435],[9.0573,47.4429],[9.059,47.4432],[9.0588,47.4442],[9.0586,47.4445],[9.057,47.4456],[9.0591,47.4461],[9.0599,47.4459],[9.0596,47.4455],[9.0607,47.4452],[9.0626,47.4462],[9.0622,47.4465],[9.0588,47.4473],[9.058,47.448],[9.0546,47.4485],[9.0543,47.4506],[9.0532,47.451],[9.0504,47.4529],[9.0498,47.4528],[9.0497,47.4531],[9.0477,47.453],[9.0476,47.4535],[9.0417,47.454],[9.0386,47.4547],[9.0358,47.4555],[9.0354,47.4551],[9.0344,47.4558],[9.0336,47.4561],[9.0274,47.4577],[9.0272,47.4577],[9.0275,47.4588],[9.0264,47.4601],[9.028,47.4605],[9.0275,47.4609],[9.0307,47.4618],[9.03,47.4621],[9.0292,47.4626],[9.0284,47.4639],[9.0284,47.4653],[9.0288,47.466],[9.0295,47.4667],[9.0266,47.4678],[9.0242,47.4684],[9.024,47.4687],[9.0235,47.4686],[9.0215,47.4691],[9.0175,47.4696],[9.0102,47.4716],[9.0082,47.4724],[9.0091,47.4735],[9.012,47.4753],[9.0105,47.4753],[9.0087,47.4758],[9.0086,47.476],[9.009,47.4772],[9.0088,47.4798],[9.0073,47.4795],[9.0061,47.4802],[9.0063,47.4808],[9.0037,47.4809],[9.0036,47.4812],[9.0068,47.4828],[9.0065,47.4836],[9.0068,47.4842],[9.0081,47.4836],[9.0083,47.4838],[9.01,47.4848],[9.0102,47.4854],[9.0108,47.4855],[9.0108,47.4863],[9.0116,47.4869],[9.0102,47.4877],[9.0107,47.4885],[9.0119,47.4893],[9.0125,47.49],[9.0145,47.4896],[9.0148,47.4901],[9.0161,47.49],[9.0175,47.4901],[9.018,47.4897],[9.0181,47.4893],[9.019,47.4889],[9.0196,47.4889],[9.0202,47.4883],[9.0213,47.4889],[9.0238,47.4889],[9.0248,47.4891],[9.0263,47.4901],[9.0274,47.4895],[9.0283,47.4887],[9.0301,47.4898],[9.0302,47.4904],[9.0351,47.4922],[9.036,47.4914],[9.0366,47.4918],[9.0364,47.4924],[9.0378,47.4933],[9.0411,47.4947],[9.0405,47.4954],[9.0402,47.4956],[9.0403,47.4958],[9.0421,47.4958],[9.0421,47.4954],[9.0424,47.4947],[9.0428,47.4947],[9.0442,47.4928],[9.0457,47.4933],[9.0469,47.4929],[9.0476,47.4918],[9.0481,47.492],[9.0498,47.4918],[9.0511,47.4922],[9.0512,47.492],[9.0508,47.4918],[9.0504,47.4918],[9.0501,47.4916],[9.0502,47.4913],[9.0512,47.4915],[9.0516,47.4899],[9.0519,47.49],[9.0521,47.4896],[9.054,47.4897],[9.0549,47.4888],[9.0554,47.4879],[9.0558,47.4874],[9.0578,47.4878],[9.0592,47.4883],[9.0595,47.4888],[9.0588,47.4894],[9.0585,47.4902],[9.0593,47.4906],[9.0599,47.4912],[9.0608,47.4907],[9.061,47.4911],[9.0618,47.4911],[9.0624,47.4923],[9.0627,47.4925],[9.0629,47.4925],[9.064,47.4916],[9.0648,47.4917],[9.0647,47.491],[9.0643,47.4908],[9.0644,47.4908],[9.0655,47.4911],[9.0662,47.4916],[9.0668,47.4916],[9.0673,47.4914],[9.0679,47.4916],[9.0693,47.4917],[9.0707,47.4928],[9.0711,47.4928],[9.0714,47.4926],[9.0728,47.4936],[9.0735,47.493],[9.074,47.4931],[9.074,47.4927],[9.0743,47.4927],[9.0745,47.4923],[9.0762,47.4927],[9.0769,47.4931],[9.0773,47.4937],[9.0789,47.4943],[9.0797,47.4945],[9.0796,47.4949],[9.0805,47.4951],[9.0811,47.4949],[9.0824,47.4952],[9.0824,47.4939],[9.0836,47.4938],[9.0837,47.4925],[9.0846,47.4921],[9.0844,47.4917],[9.0838,47.4911],[9.0847,47.4908],[9.0844,47.4905],[9.0851,47.4902],[9.0845,47.4899],[9.0848,47.4895],[9.0843,47.4894],[9.0836,47.489],[9.0844,47.4889],[9.0864,47.4883],[9.0863,47.488],[9.0874,47.4869],[9.0878,47.4862],[9.0882,47.4863],[9.0885,47.4844],[9.089,47.484],[9.0891,47.4835],[9.0894,47.4835],[9.0899,47.4828],[9.091,47.4828],[9.091,47.4831],[9.0919,47.4835],[9.0923,47.4833],[9.0931,47.4835],[9.0935,47.4834],[9.095,47.4839],[9.0953,47.4837],[9.0964,47.4839],[9.0966,47.4837],[9.0975,47.484],[9.0978,47.4839],[9.0978,47.4847],[9.0983,47.4851],[9.0986,47.4856],[9.0992,47.4854],[9.0994,47.4852],[9.103,47.4847],[9.1038,47.4843],[9.1048,47.4846],[9.1062,47.4845],[9.1065,47.4848],[9.1069,47.4844],[9.1075,47.4843],[9.109,47.4843],[9.1092,47.484],[9.1104,47.484],[9.1104,47.4845],[9.1114,47.484],[9.1129,47.4844],[9.1131,47.4842],[9.1127,47.484],[9.1125,47.4832],[9.1144,47.4829],[9.114,47.4823],[9.1146,47.4822],[9.115,47.4817],[9.1151,47.4812],[9.1154,47.4813],[9.1157,47.481],[9.1159,47.481],[9.1157,47.4808],[9.1161,47.4801],[9.1159,47.48],[9.116,47.4797],[9.1185,47.4797],[9.1211,47.4802],[9.122,47.4806],[9.1227,47.4807],[9.1241,47.4814],[9.1246,47.4817],[9.1243,47.4825],[9.1239,47.4829],[9.1243,47.4832],[9.1241,47.4836],[9.1252,47.4837],[9.1254,47.4841],[9.1261,47.484],[9.129,47.4846],[9.1294,47.4845],[9.1303,47.4849],[9.1307,47.4846],[9.1313,47.4848],[9.1317,47.4855],[9.1323,47.4854],[9.1324,47.485],[9.1328,47.4852],[9.133,47.485],[9.135,47.4853],[9.1352,47.4849],[9.1357,47.485],[9.1361,47.4856],[9.1369,47.4856],[9.1373,47.4858],[9.1377,47.4854],[9.138,47.4853],[9.139,47.4854],[9.1397,47.4852],[9.1394,47.4848],[9.1403,47.4846],[9.1403,47.4844],[9.1414,47.4848],[9.142,47.4844],[9.1434,47.4854],[9.1462,47.4863],[9.1463,47.4866],[9.148,47.4867],[9.1485,47.4871],[9.1492,47.4871],[9.1497,47.4873],[9.1502,47.4872],[9.1512,47.4875],[9.1516,47.4872],[9.152,47.4872],[9.1528,47.4876],[9.1533,47.4875],[9.1534,47.487],[9.1537,47.4869],[9.1539,47.487],[9.154,47.4873],[9.1544,47.4875],[9.1554,47.4877],[9.1563,47.4882],[9.1564,47.4886],[9.1572,47.4887],[9.1579,47.4891],[9.1586,47.4899],[9.1581,47.4901],[9.1587,47.4909],[9.1587,47.4915],[9.1595,47.4925],[9.1598,47.4926],[9.1602,47.4931],[9.1607,47.4935],[9.1605,47.4937],[9.1605,47.494],[9.1615,47.4956],[9.1626,47.4965],[9.1627,47.4969],[9.1626,47.4972],[9.1605,47.4987],[9.1606,47.4991],[9.1605,47.4991],[9.1607,47.5],[9.1623,47.5004],[9.1623,47.5005],[9.1622,47.5008],[9.1625,47.5012],[9.163,47.5014],[9.163,47.5015],[9.1634,47.5015],[9.1634,47.5017],[9.1638,47.5018],[9.1642,47.5021],[9.1646,47.5027],[9.1653,47.5033],[9.1652,47.5033],[9.1654,47.5033],[9.1655,47.5037],[9.1659,47.5041],[9.1675,47.5035],[9.167,47.5026],[9.1672,47.5021],[9.1667,47.5017],[9.168,47.5013],[9.168,47.5014],[9.1684,47.5015],[9.1684,47.5019],[9.1686,47.5023],[9.169,47.5038],[9.1692,47.504],[9.172,47.5033],[9.1696,47.4993],[9.1692,47.4983],[9.1701,47.4978],[9.1699,47.4976],[9.1707,47.4972],[9.1711,47.4974],[9.1717,47.4972],[9.1717,47.497],[9.1722,47.4968],[9.1724,47.4965],[9.1728,47.4964],[9.1731,47.496],[9.1729,47.4954],[9.1734,47.4954],[9.1737,47.4945],[9.1749,47.4953],[9.1774,47.4948],[9.1786,47.4961],[9.1776,47.497],[9.1804,47.497],[9.181,47.4974],[9.1811,47.4965],[9.1816,47.4949],[9.1817,47.4937],[9.1829,47.4913],[9.1862,47.4921],[9.1874,47.4925],[9.1874,47.4927],[9.1883,47.4926],[9.1888,47.4931],[9.1934,47.4912],[9.1923,47.4896],[9.1931,47.4889],[9.1968,47.4905],[9.1988,47.489],[9.2001,47.4896],[9.2005,47.4892],[9.2016,47.4888],[9.2031,47.4892],[9.2049,47.4888],[9.206,47.489],[9.2076,47.4886],[9.2088,47.4889],[9.2099,47.4893],[9.2094,47.4888],[9.2083,47.4881],[9.2081,47.4876],[9.2064,47.4867],[9.2064,47.4862],[9.2068,47.4859],[9.2068,47.4852],[9.2072,47.485],[9.2077,47.4845],[9.2077,47.484],[9.2079,47.4832],[9.2069,47.4829],[9.2064,47.4825],[9.2076,47.4826],[9.2084,47.4823],[9.2099,47.482],[9.209,47.4802],[9.2095,47.4801],[9.2097,47.4799],[9.2108,47.4798],[9.2114,47.4795],[9.2132,47.4789],[9.2137,47.4799],[9.2133,47.4804],[9.2146,47.4819],[9.2148,47.4817],[9.2183,47.4838],[9.2197,47.4833],[9.2201,47.4833],[9.2207,47.4834],[9.2218,47.4839],[9.2247,47.4846],[9.2268,47.4841],[9.2279,47.4834],[9.2289,47.4842],[9.2323,47.4832],[9.2322,47.4811],[9.2371,47.4809],[9.2374,47.4814],[9.2379,47.4818],[9.2398,47.4806],[9.2409,47.4802],[9.2433,47.48],[9.2446,47.4803],[9.2457,47.479],[9.2455,47.479],[9.2456,47.4787],[9.2453,47.4786],[9.2452,47.4783],[9.2462,47.4773],[9.2471,47.4758],[9.2486,47.4754],[9.2512,47.4745],[9.2517,47.4749],[9.2523,47.4756],[9.254,47.4751],[9.2593,47.4746],[9.261,47.4748],[9.2619,47.4745],[9.2635,47.4747],[9.2647,47.4751],[9.2671,47.4767],[9.2683,47.4769],[9.2702,47.4777],[9.2724,47.4776],[9.2726,47.4785],[9.2749,47.4791],[9.2784,47.4794],[9.2788,47.4797],[9.2791,47.4815],[9.2802,47.4825],[9.2812,47.4831],[9.2842,47.4823],[9.2859,47.4825],[9.287,47.4822],[9.2868,47.4819],[9.2869,47.4815],[9.2878,47.4799],[9.2891,47.48],[9.2889,47.4795],[9.2943,47.4789],[9.2949,47.4787],[9.2951,47.4783],[9.2962,47.4787],[9.297,47.4784],[9.2987,47.4772],[9.2996,47.4777],[9.3012,47.478],[9.3027,47.4788],[9.3043,47.4794],[9.3052,47.4805],[9.3072,47.4813],[9.3079,47.4818],[9.3085,47.482],[9.3083,47.4823],[9.3085,47.4825],[9.3084,47.4832],[9.3092,47.4841],[9.309,47.4842],[9.3151,47.4863],[9.316,47.4872],[9.3156,47.4878],[9.3168,47.4882],[9.3167,47.4887],[9.3165,47.4889],[9.3173,47.4891],[9.319,47.4905],[9.3196,47.4908],[9.321,47.4908],[9.3205,47.4918],[9.3193,47.4935],[9.3193,47.4938],[9.3194,47.4949],[9.32,47.4965],[9.32,47.4971],[9.3185,47.4994],[9.3174,47.5004],[9.3163,47.5008],[9.3153,47.5008],[9.3135,47.5002],[9.3095,47.4977],[9.309,47.4976],[9.3085,47.4977],[9.3081,47.4982],[9.3084,47.499],[9.309,47.5],[9.3092,47.5008],[9.3091,47.5011],[9.3084,47.5015],[9.3092,47.5033],[9.3079,47.504],[9.3081,47.5048],[9.3084,47.5053],[9.31,47.5062],[9.3102,47.5076],[9.3126,47.507],[9.3132,47.507],[9.3141,47.5077],[9.3147,47.507],[9.3151,47.5069],[9.316,47.5087],[9.317,47.5086],[9.3166,47.5096],[9.3153,47.5096],[9.3127,47.51],[9.3117,47.5104],[9.31,47.5112],[9.3075,47.5131],[9.3048,47.514],[9.3049,47.5147],[9.3034,47.5157],[9.3029,47.515],[9.3019,47.5141],[9.3033,47.5136],[9.3026,47.5123],[9.3014,47.5127],[9.301,47.5124],[9.3009,47.5118],[9.2994,47.5121],[9.2977,47.5092],[9.2965,47.5093],[9.2954,47.5096],[9.2935,47.5087],[9.292,47.5081],[9.2916,47.5067],[9.2895,47.5071],[9.2892,47.5074],[9.2881,47.5073],[9.2876,47.5074],[9.2873,47.5076],[9.2864,47.5076],[9.2864,47.5068],[9.2834,47.5061],[9.2835,47.5059],[9.2821,47.506],[9.281,47.5057],[9.2809,47.5064],[9.2786,47.5064],[9.2779,47.5068],[9.2745,47.5068],[9.2742,47.5071],[9.2736,47.507],[9.2732,47.5081],[9.2716,47.5078],[9.271,47.5094],[9.2706,47.5101],[9.2689,47.5103],[9.2684,47.5109],[9.2687,47.5112],[9.2688,47.5117],[9.2702,47.5124],[9.2715,47.5114],[9.2721,47.5115],[9.2724,47.512],[9.2735,47.5123],[9.2735,47.5126],[9.2743,47.5127],[9.2754,47.5132],[9.2759,47.5127],[9.2764,47.5126],[9.277,47.5119],[9.2778,47.5119],[9.278,47.5103],[9.2783,47.5101],[9.2794,47.5099],[9.2804,47.5101],[9.2805,47.5113],[9.2796,47.5118],[9.28,47.5135],[9.2795,47.514],[9.2827,47.5146],[9.2825,47.5154],[9.2828,47.5166],[9.284,47.5179],[9.2848,47.5185],[9.2823,47.5207],[9.2935,47.5229],[9.2953,47.5227],[9.2963,47.5237],[9.2963,47.5245],[9.2978,47.5243],[9.2996,47.5244],[9.3014,47.5241],[9.3024,47.5257],[9.3028,47.5264],[9.307,47.5258],[9.3084,47.5254],[9.3096,47.5245],[9.31,47.5235],[9.3128,47.5221],[9.3135,47.5234],[9.3137,47.5248],[9.3133,47.5264],[9.3128,47.5267],[9.3127,47.5271],[9.3123,47.5276],[9.3132,47.5279],[9.3141,47.5285],[9.3166,47.5287],[9.316,47.5298],[9.3157,47.5299],[9.3153,47.5303],[9.3175,47.5309],[9.3173,47.5313],[9.3185,47.5317],[9.3187,47.5315],[9.3213,47.5312],[9.3218,47.5309],[9.3222,47.5311],[9.3221,47.5314],[9.3222,47.5317],[9.3229,47.5319],[9.3235,47.5316],[9.3232,47.5309],[9.3233,47.5307],[9.3232,47.5306],[9.3233,47.5304],[9.3231,47.5302],[9.3241,47.5293],[9.3253,47.529],[9.3252,47.5289],[9.3261,47.529],[9.3261,47.5289],[9.3288,47.5284],[9.3296,47.5291],[9.3297,47.5296],[9.331,47.5295],[9.3311,47.5296],[9.3316,47.5296],[9.3369,47.5287],[9.3383,47.5289],[9.3386,47.53],[9.3389,47.53],[9.3388,47.5303],[9.3391,47.5305],[9.339,47.5308],[9.3391,47.531],[9.3393,47.5314],[9.3396,47.5315],[9.34,47.5299],[9.34,47.5282],[9.3403,47.5275],[9.3402,47.5264],[9.339,47.5249],[9.3394,47.5245],[9.3412,47.524],[9.3412,47.5231],[9.3414,47.5224],[9.3422,47.5216],[9.3439,47.5208],[9.3437,47.5202],[9.3438,47.52],[9.3445,47.5198],[9.3454,47.5202],[9.3465,47.5204],[9.3507,47.5199],[9.3532,47.5192],[9.3542,47.5193],[9.3548,47.5197],[9.3559,47.5199],[9.3563,47.5197],[9.3564,47.5195],[9.3558,47.5164],[9.3552,47.5163],[9.3546,47.5157],[9.3547,47.5153],[9.3538,47.5153],[9.3536,47.5149],[9.3534,47.5149],[9.3524,47.515],[9.352,47.5152],[9.3518,47.5154],[9.3505,47.5154],[9.35,47.5148],[9.35,47.5142],[9.3489,47.5138],[9.3484,47.514],[9.3475,47.5131],[9.3471,47.5132],[9.3469,47.5128],[9.3458,47.5118],[9.3476,47.5116],[9.3485,47.5112],[9.3481,47.5098],[9.3472,47.5099],[9.3471,47.5091],[9.3462,47.508],[9.3454,47.5079],[9.3443,47.5083],[9.3433,47.5064],[9.3424,47.5064],[9.3406,47.5069],[9.3383,47.5068],[9.3383,47.5062],[9.338,47.506],[9.3376,47.505],[9.3376,47.5043],[9.337,47.5038],[9.3364,47.5025],[9.3364,47.5023],[9.3369,47.5013],[9.3377,47.5008],[9.338,47.5009],[9.339,47.5017],[9.3389,47.5023],[9.3397,47.5032],[9.3403,47.503],[9.3408,47.5034],[9.3418,47.5037],[9.3433,47.5031],[9.3452,47.5026],[9.3466,47.5019],[9.3477,47.5019],[9.3495,47.5014],[9.352,47.5014],[9.3545,47.5009],[9.3559,47.5009],[9.3564,47.502],[9.3561,47.5034],[9.3569,47.5034],[9.3599,47.5029],[9.3616,47.5025],[9.3619,47.5029],[9.3656,47.5015],[9.3678,47.5004],[9.3681,47.5004],[9.3684,47.5009],[9.3689,47.5012],[9.3722,47.5009],[9.3736,47.5003],[9.374,47.5004],[9.3745,47.4997],[9.3742,47.4986],[9.3744,47.4983],[9.3742,47.4977],[9.3745,47.497],[9.3741,47.4965],[9.3743,47.4962],[9.3741,47.4954],[9.3737,47.4948],[9.3731,47.4944],[9.3715,47.4943],[9.37,47.4945],[9.3698,47.4943],[9.3689,47.494],[9.3692,47.4936],[9.3686,47.4928],[9.3684,47.4921],[9.3728,47.4905],[9.3723,47.4897],[9.3716,47.4893],[9.3715,47.4889],[9.3705,47.4892],[9.3682,47.488],[9.3668,47.4862],[9.3665,47.4855],[9.3672,47.4853],[9.3682,47.4847],[9.3707,47.4854],[9.3731,47.4853],[9.374,47.4864],[9.375,47.4871],[9.3779,47.4872],[9.3791,47.487],[9.3792,47.4873],[9.3808,47.4873],[9.3799,47.4857],[9.3795,47.4856],[9.3796,47.4855],[9.3813,47.485],[9.3822,47.4845],[9.3823,47.4839],[9.3836,47.4834],[9.385,47.4821],[9.3856,47.482],[9.3874,47.482],[9.3888,47.4816],[9.3898,47.4806],[9.3906,47.4795],[9.3916,47.4789],[9.3916,47.4786],[9.3912,47.4773],[9.3932,47.476],[9.3945,47.4759],[9.397,47.475],[9.3963,47.4764],[9.3964,47.4773],[9.3964,47.4778],[9.3972,47.4778],[9.3984,47.4781],[9.3993,47.4779],[9.4006,47.4793],[9.4007,47.4798],[9.4004,47.4802],[9.4012,47.4808],[9.4008,47.4825],[9.4004,47.4826],[9.4011,47.4832],[9.4018,47.4834],[9.4021,47.4849],[9.4004,47.4861],[9.4009,47.4865],[9.4032,47.4872],[9.4036,47.4876],[9.4037,47.4882],[9.4033,47.4887],[9.4046,47.4892],[9.4055,47.4908],[9.4062,47.4912],[9.4059,47.4914],[9.4058,47.4916],[9.4065,47.4925],[9.406,47.4932],[9.4061,47.4937],[9.4065,47.4941],[9.4086,47.4934],[9.4096,47.4934],[9.4103,47.4939],[9.4105,47.4946],[9.4116,47.4953],[9.4119,47.4957],[9.4128,47.4955],[9.4135,47.4975],[9.4163,47.4974],[9.4161,47.4977],[9.4174,47.4981],[9.4188,47.4968],[9.4213,47.4962],[9.423,47.4991],[9.4245,47.5006],[9.4251,47.5015],[9.4273,47.5023],[9.4296,47.5034],[9.4305,47.5047],[9.4315,47.5051],[9.4334,47.5052],[9.4335,47.5053],[9.4333,47.5055],[9.4332,47.506],[9.4356,47.5065],[9.447,47.5113],[9.5069,47.5497],[9.5587,47.5419],[9.5618,47.5046],[9.5613,47.5001],[9.5613,47.4985],[9.562,47.4963],[9.5635,47.4942],[9.5656,47.4925],[9.5792,47.4851],[9.5806,47.4841],[9.5819,47.4831],[9.5835,47.4811],[9.593,47.4658],[9.5951,47.4634],[9.5968,47.4624],[9.6005,47.4616],[9.6017,47.4616],[9.603,47.4621],[9.6042,47.4629],[9.605,47.464],[9.6059,47.4664],[9.6066,47.4698],[9.607,47.4702],[9.6077,47.4705],[9.6092,47.4705],[9.6105,47.4701],[9.6118,47.4692],[9.617,47.4619],[9.6207,47.4584],[9.6224,47.4575],[9.6245,47.4569],[9.6263,47.4567],[9.6391,47.4562],[9.6457,47.4557],[9.6554,47.454],[9.6581,47.453],[9.659,47.4522],[9.6594,47.4514],[9.659,47.4491],[9.658,47.4478],[9.65,47.442],[9.6478,47.4406],[9.6466,47.4397],[9.6453,47.4381],[9.6447,47.4369],[9.6443,47.4357],[9.6444,47.4341],[9.6452,47.4318],[9.6491,47.4245],[9.6503,47.4211],[9.6511,47.4164],[9.6519,47.4087],[9.6519,47.4067],[9.6516,47.4046],[9.6544,47.4044],[9.6573,47.4002],[9.6587,47.3986],[9.6601,47.3975],[9.6624,47.3964],[9.6706,47.3937],[9.6725,47.3926],[9.6734,47.3915],[9.6741,47.3901],[9.6738,47.3839],[9.6731,47.3811],[9.6706,47.3778],[9.6646,47.3727],[9.6624,47.3711],[9.6604,47.3701],[9.6567,47.3688],[9.6539,47.3681],[9.6505,47.3675],[9.6475,47.3673],[9.6395,47.3675],[9.6354,47.3674],[9.6304,47.3664],[9.6284,47.3659],[9.6263,47.3651],[9.6245,47.3661],[9.6058,47.3519],[9.6042,47.3505],[9.6006,47.3468],[9.5995,47.3451],[9.5948,47.3337],[9.5892,47.3191],[9.5887,47.318],[9.588,47.3172],[9.5836,47.3127],[9.5816,47.3112],[9.5788,47.3098],[9.5656,47.3041],[9.5564,47.2984],[9.5553,47.2972],[9.5546,47.2959],[9.5521,47.2884],[9.5513,47.2867],[9.5493,47.284],[9.5462,47.28],[9.5455,47.2795],[9.5402,47.2765],[9.5329,47.273],[9.5319,47.2721],[9.5309,47.2709],[9.5304,47.2697],[9.5303,47.2634],[9.5301,47.2625],[9.5205,47.244],[9.518,47.2406],[9.5046,47.2251],[9.5035,47.2235],[9.5016,47.2202],[9.4996,47.2113],[9.4951,47.2046],[9.4906,47.1982],[9.4898,47.1965],[9.4882,47.1912],[9.4863,47.1841],[9.4858,47.1814],[9.486,47.1805],[9.4893,47.1689],[9.4907,47.1645],[9.4913,47.163],[9.4933,47.1596],[9.4997,47.1498],[9.5058,47.1439],[9.5072,47.1424],[9.5086,47.1399],[9.5118,47.132],[9.5189,47.1055],[9.5196,47.1001],[9.5196,47.0983],[9.5193,47.0966],[9.5188,47.0948],[9.5156,47.0879],[9.5144,47.0863],[9.5135,47.0856],[9.4923,47.0738],[9.4751,47.067],[9.4732,47.0657],[9.4724,47.065],[9.4719,47.0642],[9.4717,47.0633],[9.4718,47.0615],[9.4758,47.0517]],[[9.4494,47.4922],[9.4537,47.4916],[9.4529,47.491],[9.453,47.49],[9.4561,47.4897],[9.4591,47.4892],[9.4592,47.4894],[9.4626,47.4882],[9.463,47.4891],[9.4657,47.488],[9.4645,47.487],[9.4643,47.4867],[9.4642,47.4863],[9.4644,47.4859],[9.4642,47.4853],[9.4638,47.485],[9.4644,47.4841],[9.4673,47.4856],[9.4784,47.4903],[9.4835,47.4938],[9.472,47.5017],[9.4576,47.5072],[9.4485,47.5007],[9.4494,47.4996],[9.4481,47.498],[9.4504,47.497],[9.4482,47.4936],[9.4498,47.4932],[9.4494,47.4922]],[[9.3433,47.2494],[9.3431,47.2491],[9.3431,47.2488],[9.3437,47.2477],[9.3459,47.2465],[9.3477,47.246],[9.3478,47.2458],[9.3484,47.2455],[9.3486,47.2452],[9.351,47.2444],[9.3547,47.2442],[9.3555,47.2444],[9.3586,47.2443],[9.3607,47.2441],[9.3615,47.2437],[9.3626,47.2437],[9.363,47.2435],[9.3639,47.2436],[9.3649,47.2433],[9.3656,47.2425],[9.3658,47.242],[9.3674,47.2413],[9.3677,47.241],[9.3678,47.2408],[9.3687,47.2409],[9.3697,47.2406],[9.3712,47.2396],[9.3719,47.2396],[9.372,47.2393],[9.3738,47.2384],[9.3749,47.2371],[9.3756,47.2368],[9.3784,47.2361],[9.382,47.234],[9.3842,47.2346],[9.385,47.2346],[9.387,47.2351],[9.3886,47.2355],[9.3897,47.2361],[9.3921,47.2367],[9.3962,47.2374],[9.3989,47.2374],[9.4024,47.2377],[9.4039,47.2383],[9.4042,47.2386],[9.4051,47.2392],[9.4052,47.2396],[9.4064,47.241],[9.4074,47.2417],[9.4099,47.2439],[9.4113,47.2447],[9.4142,47.2457],[9.4148,47.2465],[9.4167,47.2468],[9.4189,47.2476],[9.4262,47.2471],[9.4265,47.2476],[9.4272,47.2475],[9.4282,47.2484],[9.4288,47.2485],[9.4298,47.2492],[9.4321,47.2499],[9.4332,47.2505],[9.4343,47.2508],[9.4367,47.251],[9.4378,47.2507],[9.4378,47.2511],[9.4382,47.2516],[9.4397,47.2529],[9.442,47.2533],[9.4428,47.2539],[9.4449,47.2548],[9.4451,47.2551],[9.4459,47.2558],[9.4472,47.2558],[9.4475,47.2563],[9.4474,47.2566],[9.4501,47.2584],[9.4503,47.259],[9.4511,47.26],[9.4533,47.2606],[9.4549,47.2615],[9.457,47.2623],[9.4578,47.263],[9.4577,47.2635],[9.4581,47.2632],[9.4588,47.2632],[9.4612,47.2641],[9.4621,47.2649],[9.4643,47.2658],[9.4643,47.266],[9.4649,47.2666],[9.4657,47.2669],[9.4661,47.2673],[9.4666,47.2682],[9.467,47.2685],[9.4676,47.2685],[9.4682,47.269],[9.4697,47.2695],[9.4705,47.2702],[9.4719,47.271],[9.4729,47.2712],[9.4729,47.2717],[9.4739,47.2723],[9.4737,47.2725],[9.4744,47.2736],[9.4753,47.2741],[9.476,47.2748],[9.476,47.2756],[9.4765,47.2761],[9.4765,47.2767],[9.4774,47.2774],[9.4781,47.2776],[9.4786,47.2781],[9.4787,47.2786],[9.4798,47.2792],[9.4798,47.2796],[9.4802,47.2801],[9.4802,47.2805],[9.4805,47.2807],[9.481,47.2817],[9.4824,47.2825],[9.4833,47.2827],[9.485,47.2837],[9.4878,47.2883],[9.4878,47.2891],[9.4867,47.2897],[9.4868,47.2907],[9.4883,47.2933],[9.4893,47.2947],[9.4893,47.2963],[9.4896,47.2977],[9.4895,47.2979],[9.4899,47.2981],[9.49,47.2986],[9.4905,47.2995],[9.4904,47.2995],[9.4906,47.2998],[9.4902,47.3002],[9.4907,47.3008],[9.49,47.3014],[9.4889,47.3018],[9.4903,47.3025],[9.4908,47.3034],[9.4912,47.3038],[9.492,47.304],[9.4931,47.3047],[9.4936,47.3047],[9.4947,47.305],[9.4963,47.306],[9.4954,47.3081],[9.4938,47.3101],[9.4929,47.3107],[9.493,47.3111],[9.4925,47.3129],[9.4934,47.3145],[9.4941,47.3148],[9.495,47.3156],[9.4969,47.3164],[9.4962,47.3172],[9.4967,47.3177],[9.4967,47.318],[9.4981,47.3182],[9.498,47.3185],[9.4984,47.3187],[9.4985,47.3212],[9.4991,47.3214],[9.5005,47.3264],[9.4997,47.3267],[9.4998,47.3273],[9.5011,47.3282],[9.5003,47.3294],[9.5007,47.3297],[9.501,47.3296],[9.5022,47.3297],[9.5018,47.3303],[9.502,47.3308],[9.5015,47.3311],[9.5015,47.3313],[9.5023,47.3315],[9.502,47.3321],[9.5023,47.3323],[9.5019,47.3325],[9.5021,47.3326],[9.5017,47.3329],[9.5021,47.3333],[9.5019,47.3334],[9.5027,47.3336],[9.5029,47.3337],[9.5027,47.3344],[9.503,47.3449],[9.5028,47.3478],[9.503,47.3492],[9.5029,47.3507],[9.5031,47.3509],[9.5025,47.3518],[9.5022,47.352],[9.5026,47.3538],[9.5022,47.3544],[9.5015,47.3545],[9.5,47.3601],[9.501,47.3609],[9.5007,47.3611],[9.4996,47.3611],[9.4993,47.3616],[9.499,47.3617],[9.5001,47.3623],[9.5005,47.3627],[9.4995,47.363],[9.4989,47.3636],[9.5011,47.3681],[9.499,47.3693],[9.5007,47.3703],[9.5013,47.3712],[9.5007,47.3716],[9.5009,47.3718],[9.5018,47.3724],[9.5041,47.3736],[9.5054,47.3745],[9.5049,47.375],[9.5039,47.3751],[9.503,47.375],[9.5033,47.3809],[9.5034,47.3815],[9.5041,47.3826],[9.504,47.3834],[9.5026,47.384],[9.5042,47.3844],[9.5041,47.3846],[9.5046,47.3863],[9.5052,47.3876],[9.5042,47.3884],[9.5058,47.3892],[9.5054,47.3897],[9.5053,47.39],[9.5056,47.3902],[9.5065,47.3903],[9.507,47.3907],[9.5079,47.393],[9.5091,47.3946],[9.5112,47.3951],[9.5133,47.3951],[9.5134,47.3954],[9.5166,47.396],[9.5177,47.396],[9.5176,47.3961],[9.5188,47.3958],[9.5187,47.3962],[9.5189,47.3966],[9.5196,47.3967],[9.5196,47.3965],[9.5204,47.3969],[9.5207,47.3963],[9.5209,47.3966],[9.5219,47.3968],[9.5255,47.3971],[9.5271,47.3975],[9.5295,47.3976],[9.5366,47.3994],[9.538,47.3992],[9.5419,47.3996],[9.5423,47.3997],[9.5426,47.4003],[9.5432,47.4],[9.5432,47.3989],[9.5452,47.3988],[9.5454,47.3985],[9.5445,47.3968],[9.5445,47.3964],[9.5441,47.3961],[9.5443,47.396],[9.5432,47.395],[9.5451,47.3953],[9.5454,47.3943],[9.5459,47.3945],[9.5462,47.3943],[9.547,47.3944],[9.5477,47.3934],[9.5476,47.3932],[9.549,47.3935],[9.5489,47.3933],[9.5493,47.3931],[9.5507,47.3936],[9.5511,47.3934],[9.5513,47.3936],[9.5516,47.3934],[9.5519,47.3935],[9.5517,47.3938],[9.5526,47.3943],[9.5533,47.394],[9.5535,47.3942],[9.5538,47.3946],[9.5531,47.3947],[9.5533,47.3952],[9.5537,47.3952],[9.5538,47.3956],[9.5549,47.3955],[9.5554,47.3959],[9.5553,47.3966],[9.5554,47.3968],[9.556,47.3969],[9.5562,47.3968],[9.5565,47.3963],[9.557,47.3967],[9.558,47.397],[9.5586,47.3978],[9.5602,47.3984],[9.5612,47.399],[9.5642,47.3987],[9.5651,47.3992],[9.5643,47.3995],[9.5656,47.4004],[9.5672,47.4004],[9.5679,47.4008],[9.5681,47.4012],[9.5678,47.4016],[9.5679,47.4019],[9.5683,47.402],[9.569,47.4019],[9.5694,47.4023],[9.5695,47.4021],[9.5711,47.4026],[9.571,47.4029],[9.5721,47.403],[9.5719,47.4033],[9.5733,47.4041],[9.5739,47.4039],[9.5739,47.4041],[9.5753,47.4042],[9.5754,47.404],[9.5764,47.4042],[9.5761,47.4043],[9.5757,47.4047],[9.5755,47.4051],[9.5744,47.4056],[9.5755,47.4058],[9.5758,47.4059],[9.5757,47.4062],[9.5764,47.4063],[9.577,47.4067],[9.5776,47.407],[9.5788,47.4071],[9.5797,47.4076],[9.581,47.408],[9.5815,47.4084],[9.5817,47.4084],[9.5827,47.4088],[9.583,47.4091],[9.5829,47.4093],[9.5831,47.4094],[9.583,47.4096],[9.5835,47.4098],[9.5857,47.4106],[9.5873,47.4109],[9.5886,47.4109],[9.5895,47.4113],[9.5899,47.4117],[9.5904,47.4118],[9.5907,47.4114],[9.5914,47.4112],[9.5928,47.4116],[9.5963,47.4115],[9.5994,47.4126],[9.6003,47.4132],[9.6004,47.4135],[9.602,47.4138],[9.6023,47.4141],[9.6046,47.414],[9.6048,47.4144],[9.6013,47.4163],[9.5995,47.4169],[9.5958,47.4173],[9.5966,47.4178],[9.5963,47.418],[9.5971,47.4183],[9.5971,47.4184],[9.5955,47.4187],[9.5936,47.4188],[9.5936,47.4191],[9.594,47.4195],[9.5909,47.4207],[9.5905,47.4205],[9.5899,47.4212],[9.5897,47.4209],[9.5888,47.4216],[9.5898,47.4225],[9.5893,47.4233],[9.5885,47.424],[9.589,47.4247],[9.5886,47.4249],[9.5887,47.4253],[9.5883,47.4254],[9.59,47.4256],[9.5899,47.4258],[9.59,47.4259],[9.595,47.4277],[9.5983,47.4292],[9.601,47.4296],[9.6029,47.4305],[9.6047,47.431],[9.6062,47.4315],[9.6074,47.4317],[9.607,47.4321],[9.6072,47.4323],[9.6078,47.4325],[9.6077,47.4327],[9.608,47.4327],[9.6085,47.4333],[9.6089,47.4335],[9.6094,47.4335],[9.6129,47.4342],[9.6128,47.4344],[9.6134,47.4347],[9.6137,47.4345],[9.6142,47.4351],[9.6149,47.4352],[9.6146,47.4357],[9.6163,47.4361],[9.6165,47.4366],[9.6173,47.4368],[9.6174,47.4366],[9.6184,47.4366],[9.6178,47.4377],[9.6206,47.4381],[9.6231,47.4383],[9.625,47.4388],[9.625,47.4389],[9.6261,47.439],[9.6265,47.4393],[9.6279,47.4393],[9.6297,47.4398],[9.6302,47.4414],[9.6299,47.4417],[9.6309,47.4417],[9.6308,47.4421],[9.631,47.4421],[9.631,47.4422],[9.6304,47.4423],[9.6305,47.4426],[9.6307,47.4426],[9.6301,47.4439],[9.6297,47.4444],[9.6273,47.445],[9.6256,47.4457],[9.6251,47.4461],[9.6233,47.4463],[9.6231,47.4466],[9.6228,47.4465],[9.6216,47.447],[9.6206,47.4479],[9.6184,47.4478],[9.6144,47.4483],[9.6116,47.4494],[9.6109,47.4499],[9.6108,47.4498],[9.6089,47.4508],[9.6087,47.4516],[9.6073,47.4516],[9.6068,47.452],[9.6059,47.4523],[9.6053,47.4522],[9.6047,47.4524],[9.5998,47.4553],[9.5994,47.4552],[9.5992,47.4555],[9.5991,47.4555],[9.5992,47.4558],[9.5986,47.4558],[9.5969,47.4565],[9.5966,47.4569],[9.5969,47.4571],[9.5965,47.4573],[9.5964,47.4577],[9.5962,47.4576],[9.5962,47.4585],[9.596,47.4587],[9.595,47.4588],[9.5932,47.4586],[9.5903,47.4577],[9.5897,47.4574],[9.5893,47.4574],[9.5893,47.4577],[9.589,47.4579],[9.5892,47.4582],[9.589,47.4591],[9.5891,47.4592],[9.5888,47.4593],[9.5888,47.4597],[9.5876,47.4594],[9.5874,47.46],[9.5853,47.4605],[9.583,47.4614],[9.5831,47.4616],[9.583,47.4617],[9.5814,47.4618],[9.581,47.462],[9.5814,47.4622],[9.5806,47.4621],[9.5806,47.4625],[9.5799,47.4625],[9.5797,47.4627],[9.5775,47.4624],[9.5768,47.4625],[9.5768,47.4626],[9.5765,47.4627],[9.5766,47.4629],[9.5744,47.4629],[9.5742,47.4627],[9.5725,47.4632],[9.5722,47.4629],[9.5716,47.4633],[9.5701,47.4635],[9.5699,47.4634],[9.5666,47.4635],[9.5634,47.4629],[9.5634,47.4631],[9.5621,47.4629],[9.5622,47.463],[9.5622,47.4632],[9.5619,47.4635],[9.5589,47.4645],[9.5572,47.4649],[9.5566,47.4648],[9.5541,47.4638],[9.5531,47.4638],[9.5529,47.464],[9.5528,47.4645],[9.5503,47.4642],[9.5492,47.4639],[9.5481,47.4633],[9.5466,47.4629],[9.5457,47.4638],[9.5457,47.4642],[9.5462,47.4643],[9.5467,47.4646],[9.5471,47.4653],[9.5473,47.4654],[9.5467,47.4659],[9.5469,47.4661],[9.5465,47.4665],[9.5467,47.4667],[9.5466,47.4668],[9.5472,47.467],[9.5468,47.4675],[9.5463,47.4673],[9.5444,47.4673],[9.5443,47.4677],[9.5434,47.4684],[9.5434,47.4687],[9.5433,47.4689],[9.5424,47.469],[9.542,47.4687],[9.541,47.4687],[9.5395,47.4682],[9.5392,47.4679],[9.5384,47.4683],[9.5374,47.4685],[9.5325,47.4678],[9.5303,47.4663],[9.5311,47.4656],[9.5306,47.4654],[9.5293,47.4653],[9.5295,47.4652],[9.5295,47.465],[9.53,47.465],[9.5282,47.4639],[9.5274,47.4627],[9.5268,47.4622],[9.5267,47.4623],[9.5263,47.462],[9.5256,47.4614],[9.526,47.4608],[9.5264,47.4606],[9.526,47.4604],[9.5261,47.4602],[9.5268,47.4594],[9.527,47.4595],[9.5274,47.4592],[9.5266,47.4587],[9.5271,47.4584],[9.5267,47.4578],[9.5271,47.4577],[9.527,47.4575],[9.5275,47.4565],[9.5295,47.455],[9.531,47.4543],[9.5305,47.4535],[9.5297,47.4535],[9.5281,47.4539],[9.5264,47.4535],[9.5254,47.4529],[9.5254,47.4523],[9.5248,47.4521],[9.5248,47.452],[9.5239,47.4514],[9.5223,47.4514],[9.5213,47.4517],[9.5209,47.4516],[9.5195,47.4518],[9.5189,47.4517],[9.518,47.4515],[9.5174,47.4506],[9.5159,47.4504],[9.5142,47.4493],[9.5126,47.4496],[9.5118,47.4496],[9.5113,47.45],[9.5108,47.4496],[9.51,47.4495],[9.5097,47.4496],[9.5091,47.4494],[9.509,47.4493],[9.5084,47.4492],[9.5085,47.4489],[9.5079,47.4489],[9.5078,47.4484],[9.5074,47.4483],[9.5068,47.4476],[9.5063,47.4475],[9.5063,47.4473],[9.5059,47.4473],[9.5051,47.4467],[9.5046,47.4466],[9.5044,47.4461],[9.5036,47.4454],[9.4995,47.4438],[9.4995,47.4436],[9.4985,47.4433],[9.4982,47.4438],[9.4978,47.4437],[9.4951,47.4423],[9.4931,47.4421],[9.4916,47.4418],[9.4868,47.4413],[9.4859,47.441],[9.4855,47.4406],[9.4849,47.4407],[9.484,47.4404],[9.484,47.4403],[9.4836,47.4402],[9.4837,47.4399],[9.4835,47.4398],[9.4828,47.4397],[9.483,47.4395],[9.4829,47.4394],[9.4826,47.4396],[9.4821,47.4394],[9.4815,47.4396],[9.4813,47.4393],[9.4806,47.4391],[9.4804,47.439],[9.4798,47.4391],[9.4796,47.4392],[9.4791,47.4391],[9.4783,47.4395],[9.4779,47.4394],[9.4774,47.4391],[9.4768,47.4391],[9.4765,47.4388],[9.476,47.4389],[9.4755,47.4387],[9.473,47.439],[9.4726,47.4388],[9.4722,47.4389],[9.4713,47.4388],[9.4708,47.4389],[9.4697,47.4387],[9.4684,47.4383],[9.4675,47.4375],[9.4665,47.4371],[9.4661,47.4368],[9.4656,47.4367],[9.4654,47.4366],[9.4654,47.4363],[9.465,47.436],[9.4649,47.4358],[9.4639,47.4353],[9.4595,47.4343],[9.4587,47.4339],[9.4577,47.434],[9.4567,47.4336],[9.4565,47.4333],[9.4546,47.4328],[9.4531,47.4327],[9.4526,47.4322],[9.4531,47.4315],[9.4526,47.4311],[9.4516,47.4312],[9.4511,47.4309],[9.4505,47.4309],[9.4494,47.4314],[9.4483,47.4327],[9.4475,47.4328],[9.4467,47.4335],[9.4459,47.4333],[9.445,47.4335],[9.4442,47.434],[9.4425,47.4338],[9.4414,47.4333],[9.4408,47.4335],[9.4393,47.4337],[9.4387,47.4343],[9.4377,47.4345],[9.435,47.4343],[9.4347,47.4338],[9.4352,47.4335],[9.4349,47.433],[9.435,47.4326],[9.4347,47.4321],[9.434,47.4318],[9.434,47.4316],[9.4336,47.4313],[9.4336,47.4311],[9.4333,47.431],[9.4328,47.4304],[9.4327,47.4297],[9.4325,47.4295],[9.4331,47.4293],[9.4329,47.4289],[9.4331,47.4287],[9.4332,47.4284],[9.434,47.4274],[9.4342,47.4273],[9.4344,47.4266],[9.4347,47.4264],[9.4344,47.4262],[9.4348,47.426],[9.4347,47.4257],[9.435,47.4254],[9.4351,47.4247],[9.4346,47.4241],[9.4349,47.4236],[9.4346,47.4234],[9.4344,47.4225],[9.4347,47.4222],[9.4346,47.4219],[9.435,47.4208],[9.4338,47.4207],[9.4339,47.42],[9.4329,47.4194],[9.4333,47.4187],[9.4303,47.4182],[9.43,47.4178],[9.4302,47.4176],[9.4304,47.4171],[9.4308,47.4172],[9.4309,47.417],[9.431,47.4164],[9.4316,47.4156],[9.4314,47.4152],[9.432,47.4152],[9.432,47.4142],[9.433,47.414],[9.4326,47.4133],[9.432,47.4126],[9.4305,47.4115],[9.4286,47.4127],[9.4285,47.4126],[9.4292,47.4121],[9.4279,47.4115],[9.428,47.4111],[9.4279,47.4105],[9.4284,47.4105],[9.4286,47.4099],[9.4291,47.4102],[9.43,47.4104],[9.4297,47.4101],[9.4299,47.4096],[9.4279,47.4089],[9.4269,47.4081],[9.4265,47.4075],[9.4246,47.4068],[9.4219,47.4061],[9.4197,47.4059],[9.4166,47.4051],[9.4141,47.4049],[9.4141,47.4051],[9.4132,47.4055],[9.4128,47.4054],[9.4129,47.4046],[9.4112,47.4041],[9.4111,47.4036],[9.4107,47.4031],[9.4092,47.4032],[9.4092,47.4025],[9.4071,47.4022],[9.4059,47.4023],[9.4054,47.4022],[9.4049,47.402],[9.404,47.4013],[9.4019,47.4008],[9.4006,47.401],[9.3998,47.4008],[9.399,47.4014],[9.3979,47.4014],[9.398,47.4007],[9.3974,47.4006],[9.3966,47.4009],[9.3951,47.4012],[9.3928,47.401],[9.3919,47.4013],[9.3916,47.4017],[9.3908,47.402],[9.3905,47.4024],[9.3905,47.4026],[9.3903,47.4029],[9.3904,47.4033],[9.3897,47.4045],[9.3893,47.4045],[9.3885,47.405],[9.3869,47.4056],[9.3851,47.4057],[9.3846,47.4059],[9.3831,47.4063],[9.3815,47.4062],[9.381,47.4065],[9.3801,47.4066],[9.3798,47.4068],[9.3792,47.4067],[9.3785,47.4073],[9.3772,47.4075],[9.376,47.4073],[9.3755,47.4076],[9.3751,47.4077],[9.3727,47.4071],[9.3723,47.4075],[9.3717,47.4077],[9.3691,47.4068],[9.3687,47.4064],[9.3687,47.4062],[9.3679,47.4059],[9.3673,47.4052],[9.3663,47.4047],[9.3651,47.4046],[9.3646,47.4047],[9.3641,47.4044],[9.3635,47.4046],[9.3598,47.4034],[9.3596,47.403],[9.3596,47.4027],[9.3586,47.402],[9.3579,47.4022],[9.3574,47.4021],[9.357,47.4024],[9.3563,47.4023],[9.356,47.4026],[9.3553,47.4028],[9.3548,47.4034],[9.3543,47.4034],[9.354,47.4032],[9.3511,47.4021],[9.3485,47.4013],[9.3477,47.4013],[9.3467,47.4009],[9.3454,47.4005],[9.3425,47.4],[9.3405,47.4001],[9.3397,47.3996],[9.339,47.4],[9.3381,47.4002],[9.3374,47.3999],[9.3366,47.3993],[9.3358,47.3991],[9.3354,47.3992],[9.3347,47.3998],[9.3343,47.3999],[9.3326,47.3995],[9.3322,47.4],[9.3324,47.4002],[9.3323,47.4004],[9.332,47.4006],[9.3303,47.4008],[9.3293,47.4013],[9.3278,47.4013],[9.3257,47.4007],[9.3254,47.4006],[9.3253,47.4004],[9.3247,47.4007],[9.323,47.3996],[9.3212,47.399],[9.3203,47.3982],[9.3184,47.3979],[9.3184,47.3977],[9.3181,47.3978],[9.3184,47.3973],[9.3181,47.3973],[9.3177,47.3977],[9.3167,47.3978],[9.3148,47.3976],[9.3124,47.397],[9.3105,47.3968],[9.3103,47.3965],[9.3086,47.3966],[9.3068,47.3961],[9.3067,47.3959],[9.3059,47.3959],[9.3053,47.3957],[9.3053,47.3958],[9.303,47.3952],[9.3022,47.3955],[9.302,47.3952],[9.3006,47.3953],[9.2984,47.3962],[9.2963,47.3964],[9.2948,47.3962],[9.2947,47.3964],[9.2951,47.3966],[9.295,47.3967],[9.2942,47.3964],[9.2942,47.397],[9.2937,47.3972],[9.2897,47.3978],[9.2892,47.3981],[9.289,47.3978],[9.2872,47.3981],[9.2857,47.3979],[9.284,47.3983],[9.2838,47.3985],[9.2833,47.3987],[9.282,47.3984],[9.2806,47.3985],[9.2794,47.3982],[9.2789,47.3993],[9.279,47.3996],[9.2782,47.3998],[9.2768,47.3997],[9.2756,47.4001],[9.2751,47.4001],[9.2749,47.4003],[9.2747,47.4006],[9.2735,47.4007],[9.2719,47.401],[9.2705,47.4],[9.2694,47.3993],[9.2678,47.3995],[9.267,47.3998],[9.267,47.4003],[9.2659,47.4011],[9.2647,47.4012],[9.2643,47.401],[9.262,47.4004],[9.2618,47.4002],[9.2615,47.3996],[9.2612,47.3995],[9.2608,47.4],[9.2595,47.3995],[9.2589,47.3989],[9.2576,47.3987],[9.2564,47.4006],[9.256,47.4009],[9.2556,47.4009],[9.255,47.4004],[9.2544,47.4003],[9.2535,47.4007],[9.2527,47.4005],[9.2523,47.4007],[9.2519,47.4007],[9.2517,47.4004],[9.2504,47.4003],[9.2493,47.3996],[9.2487,47.3992],[9.2476,47.399],[9.2475,47.3988],[9.2468,47.3985],[9.2457,47.399],[9.2453,47.399],[9.2448,47.3993],[9.2444,47.3993],[9.2427,47.3985],[9.2416,47.3983],[9.2411,47.3979],[9.2376,47.3964],[9.2362,47.3962],[9.2354,47.3968],[9.2348,47.3971],[9.2342,47.3971],[9.234,47.3964],[9.2337,47.396],[9.2329,47.396],[9.2328,47.3963],[9.2332,47.3966],[9.2327,47.3971],[9.2326,47.398],[9.2318,47.3974],[9.2309,47.3972],[9.2305,47.397],[9.2307,47.3966],[9.2323,47.396],[9.2322,47.3951],[9.2323,47.3947],[9.2326,47.3945],[9.2324,47.3944],[9.2319,47.3944],[9.2318,47.3942],[9.2327,47.3929],[9.2325,47.392],[9.2326,47.391],[9.2332,47.3904],[9.2325,47.3898],[9.2324,47.3895],[9.2326,47.3888],[9.2325,47.3884],[9.2318,47.3878],[9.2316,47.3877],[9.231,47.3881],[9.2307,47.388],[9.2309,47.3874],[9.2305,47.3871],[9.2297,47.3873],[9.2292,47.3869],[9.2278,47.3876],[9.2271,47.3875],[9.2268,47.3877],[9.2257,47.387],[9.2247,47.3868],[9.2242,47.3868],[9.2235,47.3872],[9.2233,47.3873],[9.2234,47.3875],[9.2231,47.3876],[9.2222,47.3868],[9.2207,47.3857],[9.2188,47.3848],[9.2188,47.3843],[9.2191,47.3837],[9.2188,47.3829],[9.2196,47.3826],[9.2194,47.3824],[9.2195,47.3823],[9.2205,47.3823],[9.2199,47.3817],[9.2195,47.382],[9.2193,47.382],[9.2193,47.3818],[9.22,47.3812],[9.22,47.3809],[9.2201,47.3807],[9.2214,47.3793],[9.2217,47.3786],[9.222,47.3783],[9.2218,47.3779],[9.2198,47.3768],[9.22,47.3765],[9.2198,47.376],[9.22,47.3758],[9.2205,47.3757],[9.2203,47.3752],[9.2206,47.3748],[9.2209,47.3745],[9.221,47.3741],[9.2208,47.3737],[9.221,47.3732],[9.2205,47.3728],[9.2199,47.3727],[9.2198,47.3729],[9.2187,47.373],[9.2185,47.372],[9.2184,47.3721],[9.2184,47.3717],[9.2181,47.3711],[9.2174,47.3703],[9.2168,47.3701],[9.2165,47.3697],[9.2153,47.3697],[9.2147,47.369],[9.2132,47.3682],[9.213,47.3679],[9.2134,47.367],[9.2138,47.3668],[9.2139,47.3665],[9.2136,47.3663],[9.213,47.3651],[9.2118,47.3644],[9.2109,47.3641],[9.2102,47.3631],[9.2023,47.3619],[9.2003,47.3619],[9.1991,47.3614],[9.1958,47.3623],[9.1949,47.3623],[9.1927,47.3626],[9.1919,47.3624],[9.1911,47.3625],[9.1926,47.3616],[9.1925,47.3611],[9.1928,47.3602],[9.1944,47.359],[9.1953,47.3563],[9.1955,47.356],[9.1953,47.3559],[9.1961,47.3547],[9.1962,47.3543],[9.1956,47.3535],[9.1966,47.3536],[9.1975,47.3542],[9.1994,47.3543],[9.2001,47.3545],[9.2012,47.3551],[9.2018,47.3559],[9.2023,47.3561],[9.2035,47.3559],[9.204,47.3561],[9.2042,47.3563],[9.2047,47.3576],[9.2067,47.3561],[9.2075,47.3561],[9.2074,47.3557],[9.2062,47.355],[9.2053,47.3546],[9.2044,47.3546],[9.2027,47.3519],[9.2019,47.3504],[9.2016,47.3502],[9.2015,47.3503],[9.2005,47.3497],[9.2005,47.3491],[9.199,47.3483],[9.1986,47.3478],[9.199,47.3469],[9.2003,47.3466],[9.2003,47.3463],[9.2006,47.3459],[9.2013,47.3459],[9.2025,47.3453],[9.2028,47.3446],[9.2032,47.3444],[9.2032,47.3441],[9.2037,47.3434],[9.2039,47.3428],[9.2044,47.3425],[9.2051,47.3425],[9.2057,47.3423],[9.206,47.3416],[9.2058,47.3406],[9.2062,47.3399],[9.2061,47.3395],[9.2063,47.3391],[9.2065,47.339],[9.2071,47.3395],[9.2077,47.3397],[9.2081,47.3396],[9.2086,47.3401],[9.2089,47.3401],[9.2093,47.3405],[9.2103,47.3406],[9.211,47.3411],[9.2119,47.3406],[9.2132,47.3404],[9.2134,47.3406],[9.2142,47.3408],[9.2144,47.3412],[9.2151,47.3416],[9.2201,47.3423],[9.2204,47.3429],[9.2223,47.3433],[9.2226,47.343],[9.2231,47.3428],[9.2249,47.3424],[9.2255,47.3416],[9.2255,47.3411],[9.2259,47.3405],[9.2263,47.3401],[9.2266,47.3396],[9.2268,47.3395],[9.2274,47.3386],[9.229,47.3377],[9.2289,47.3375],[9.2294,47.3369],[9.2292,47.3368],[9.2294,47.3367],[9.2294,47.3366],[9.23,47.3367],[9.2306,47.3363],[9.2311,47.3358],[9.2311,47.3354],[9.2316,47.3351],[9.2316,47.3348],[9.2317,47.3346],[9.2323,47.3344],[9.2322,47.3341],[9.2326,47.3339],[9.2326,47.3335],[9.2329,47.3333],[9.2329,47.3325],[9.2333,47.3321],[9.2331,47.3316],[9.2332,47.3313],[9.2327,47.3309],[9.2292,47.3293],[9.2278,47.3294],[9.2275,47.3291],[9.2271,47.3284],[9.2266,47.3284],[9.2264,47.3288],[9.2261,47.3287],[9.2262,47.3283],[9.2256,47.3282],[9.2256,47.328],[9.2253,47.3278],[9.2245,47.3275],[9.2245,47.327],[9.2235,47.3272],[9.2232,47.3271],[9.2232,47.3268],[9.2227,47.326],[9.2219,47.3261],[9.2212,47.3258],[9.2208,47.3262],[9.2205,47.3262],[9.2198,47.3256],[9.2191,47.3257],[9.2183,47.3253],[9.218,47.325],[9.2181,47.3248],[9.2171,47.3244],[9.2161,47.3249],[9.2149,47.324],[9.2148,47.3239],[9.215,47.3235],[9.2149,47.3229],[9.2147,47.3228],[9.2139,47.323],[9.2131,47.3226],[9.2123,47.3226],[9.2118,47.3222],[9.2116,47.3218],[9.2112,47.3221],[9.2105,47.3218],[9.2104,47.3217],[9.2107,47.3213],[9.2098,47.3209],[9.2103,47.3205],[9.213,47.3197],[9.2129,47.3195],[9.2133,47.3189],[9.213,47.3183],[9.2133,47.3179],[9.2134,47.3175],[9.2139,47.3173],[9.2138,47.3171],[9.2139,47.3169],[9.2138,47.3167],[9.214,47.3165],[9.2139,47.3156],[9.2147,47.3144],[9.2147,47.3141],[9.2143,47.3133],[9.2146,47.3126],[9.215,47.3122],[9.215,47.3115],[9.2155,47.3113],[9.2159,47.3106],[9.2163,47.3104],[9.2178,47.308],[9.2178,47.3072],[9.2175,47.307],[9.2179,47.3067],[9.2175,47.3059],[9.2174,47.3047],[9.2168,47.3044],[9.2169,47.3038],[9.2166,47.3036],[9.2168,47.3034],[9.216,47.3025],[9.216,47.3023],[9.2164,47.3023],[9.2168,47.3018],[9.2169,47.3012],[9.2173,47.3003],[9.2171,47.2997],[9.218,47.2996],[9.2187,47.2988],[9.2197,47.2986],[9.2205,47.2972],[9.2205,47.297],[9.221,47.2969],[9.2213,47.2966],[9.222,47.2964],[9.2217,47.296],[9.2225,47.2952],[9.2227,47.2948],[9.2239,47.2938],[9.2241,47.2936],[9.2238,47.2931],[9.2243,47.2929],[9.224,47.2924],[9.2233,47.2918],[9.2228,47.2919],[9.2219,47.2917],[9.2216,47.2911],[9.2222,47.2902],[9.2224,47.2895],[9.2212,47.2883],[9.2199,47.2874],[9.2192,47.2873],[9.2185,47.2863],[9.2176,47.2855],[9.2171,47.2845],[9.2166,47.2842],[9.2159,47.2842],[9.2133,47.2834],[9.2135,47.2827],[9.2128,47.2826],[9.212,47.2821],[9.2116,47.2823],[9.2109,47.282],[9.2102,47.2812],[9.2082,47.2801],[9.2075,47.2792],[9.2071,47.279],[9.2068,47.2786],[9.2066,47.2776],[9.2067,47.2773],[9.2064,47.2769],[9.2063,47.2764],[9.2075,47.276],[9.2082,47.2756],[9.2086,47.2757],[9.209,47.2752],[9.2099,47.2746],[9.2109,47.2743],[9.2113,47.274],[9.2117,47.2741],[9.2127,47.2733],[9.2137,47.2731],[9.214,47.2725],[9.2146,47.2726],[9.2149,47.2725],[9.215,47.2722],[9.2156,47.2721],[9.2159,47.2718],[9.2164,47.2717],[9.2163,47.2714],[9.2164,47.2712],[9.2173,47.2707],[9.218,47.271],[9.2183,47.271],[9.2197,47.2702],[9.2201,47.2702],[9.2221,47.269],[9.2225,47.2691],[9.2245,47.2682],[9.2252,47.2683],[9.2254,47.268],[9.2263,47.2677],[9.2268,47.2674],[9.2278,47.2676],[9.2292,47.2672],[9.2293,47.267],[9.2299,47.267],[9.2313,47.2661],[9.2327,47.2656],[9.2366,47.2652],[9.2388,47.2646],[9.2395,47.2648],[9.2414,47.2647],[9.2425,47.2648],[9.2453,47.2655],[9.2463,47.2659],[9.2475,47.2661],[9.248,47.2658],[9.2488,47.2656],[9.2514,47.2657],[9.2516,47.2652],[9.2528,47.2651],[9.254,47.2645],[9.2549,47.2647],[9.2564,47.2633],[9.2573,47.2632],[9.2584,47.2639],[9.26,47.2642],[9.2603,47.2648],[9.2608,47.2648],[9.2611,47.2651],[9.262,47.2654],[9.2628,47.2654],[9.2631,47.2656],[9.2635,47.2667],[9.2634,47.2668],[9.2635,47.267],[9.2648,47.2676],[9.2657,47.2678],[9.2672,47.2685],[9.2693,47.2689],[9.27,47.2686],[9.271,47.2685],[9.2713,47.2685],[9.2718,47.2688],[9.2725,47.2687],[9.2736,47.27],[9.2738,47.27],[9.2755,47.2685],[9.2786,47.2672],[9.2791,47.2667],[9.2751,47.2657],[9.2762,47.2653],[9.2794,47.265],[9.2815,47.2651],[9.2841,47.2657],[9.2845,47.2654],[9.2859,47.2634],[9.2869,47.2628],[9.2867,47.2626],[9.2881,47.2624],[9.2887,47.2613],[9.2897,47.2603],[9.2917,47.2601],[9.2931,47.2604],[9.2972,47.2574],[9.2988,47.258],[9.3005,47.2583],[9.3037,47.2596],[9.3047,47.2598],[9.3056,47.2595],[9.3062,47.2597],[9.3064,47.2595],[9.3068,47.2597],[9.308,47.2596],[9.3088,47.2589],[9.309,47.258],[9.3087,47.2577],[9.3083,47.2564],[9.3079,47.2559],[9.3081,47.2555],[9.3079,47.2553],[9.3104,47.2533],[9.3144,47.2521],[9.3178,47.2485],[9.3186,47.2479],[9.3238,47.247],[9.3247,47.2476],[9.3264,47.2478],[9.3271,47.2486],[9.3303,47.249],[9.3324,47.2496],[9.3408,47.249],[9.3421,47.2492],[9.3424,47.2494],[9.3433,47.2494]]]}}