{"type":"Feature","bbox":[8.4046,47.5524,8.8762,47.8085],"properties":{"iso":"CH","code":"SH","name":"Schaffhausen","name_de":"Kanton Schaffhausen","source":"swisstopo","key":"CH-SH"},"geometry":{"type":"MultiPolygon","coordinates":[[[[8.5631,47.5994],[8.564,47.5985],[8.5666,47.5971],[8.5676,47.5976],[8.5698,47.5981],[8.5715,47.5981],[8.5722,47.5978],[8.5737,47.5967],[8.5749,47.5955],[8.5769,47.5968],[8.5826,47.5961],[8.5833,47.5971],[8.5843,47.5998],[8.5852,47.6003],[8.5859,47.6009],[8.5878,47.6017],[8.5891,47.6016],[8.5902,47.6012],[8.5913,47.6023],[8.5912,47.6029],[8.592,47.6042],[8.5927,47.6062],[8.5957,47.6056],[8.5952,47.6046],[8.5943,47.6014],[8.5944,47.6004],[8.5951,47.5981],[8.5948,47.5971],[8.5943,47.5964],[8.5935,47.5959],[8.5925,47.5955],[8.5853,47.5939],[8.5828,47.5929],[8.5802,47.5913],[8.579,47.5901],[8.578,47.5888],[8.5772,47.587],[8.5771,47.5856],[8.5772,47.5845],[8.5774,47.5835],[8.5782,47.5817],[8.5801,47.5785],[8.5802,47.5776],[8.5799,47.5768],[8.5793,47.5763],[8.5787,47.5761],[8.5741,47.5755],[8.5731,47.5751],[8.572,47.5744],[8.5707,47.5725],[8.57,47.5711],[8.5697,47.5701],[8.5692,47.5663],[8.5677,47.563],[8.5671,47.5619],[8.5646,47.5592],[8.561,47.555],[8.5591,47.5532],[8.5577,47.5525],[8.5558,47.5524],[8.5544,47.5529],[8.5517,47.5553],[8.551,47.556],[8.5506,47.5569],[8.5505,47.5595],[8.5497,47.562],[8.5482,47.5645],[8.5465,47.5665],[8.5456,47.5673],[8.5416,47.5699],[8.5425,47.5705],[8.5431,47.5706],[8.5444,47.5712],[8.5462,47.5713],[8.5468,47.5723],[8.5463,47.5725],[8.5457,47.5729],[8.5465,47.5737],[8.5464,47.5742],[8.5445,47.5749],[8.543,47.5745],[8.5405,47.5748],[8.5396,47.5744],[8.535,47.5753],[8.5348,47.5755],[8.535,47.5758],[8.5369,47.5768],[8.5368,47.5774],[8.5374,47.5776],[8.5376,47.578],[8.5399,47.5776],[8.5401,47.5782],[8.5395,47.5786],[8.5367,47.5794],[8.5366,47.5796],[8.536,47.5794],[8.5358,47.5808],[8.5347,47.5811],[8.5346,47.5812],[8.5347,47.5817],[8.5336,47.5822],[8.5342,47.5829],[8.537,47.5834],[8.5366,47.5846],[8.5363,47.5844],[8.536,47.5858],[8.5354,47.5871],[8.537,47.5874],[8.5382,47.5883],[8.5394,47.5887],[8.541,47.5901],[8.5443,47.5912],[8.5467,47.5924],[8.5478,47.5927],[8.5505,47.5923],[8.5529,47.593],[8.5553,47.5941],[8.5555,47.594],[8.5559,47.5946],[8.5558,47.5967],[8.5563,47.5976],[8.5566,47.5978],[8.5568,47.5975],[8.557,47.5975],[8.5585,47.5984],[8.5604,47.5992],[8.5619,47.5991],[8.5631,47.5994]]],[[[8.8754,47.6549],[8.8724,47.6539],[8.8671,47.656],[8.8653,47.6561],[8.8607,47.6539],[8.8606,47.6536],[8.8595,47.6523],[8.8597,47.6522],[8.8579,47.6501],[8.8517,47.6512],[8.8501,47.6519],[8.8494,47.651],[8.8463,47.6523],[8.8465,47.6527],[8.8456,47.6531],[8.8477,47.6538],[8.8468,47.6546],[8.8475,47.6554],[8.8487,47.6549],[8.8517,47.6578],[8.8521,47.6581],[8.8527,47.6589],[8.8529,47.6588],[8.8535,47.6595],[8.8537,47.6595],[8.8546,47.6607],[8.8533,47.6613],[8.8504,47.662],[8.848,47.663],[8.8423,47.6642],[8.8413,47.6646],[8.8407,47.6652],[8.8399,47.6664],[8.8394,47.6687],[8.8391,47.6694],[8.8384,47.6702],[8.8356,47.6721],[8.8309,47.6743],[8.8293,47.6748],[8.8263,47.675],[8.8219,47.6766],[8.8168,47.6778],[8.8145,47.6778],[8.8089,47.6768],[8.8078,47.6771],[8.8054,47.6781],[8.8042,47.6784],[8.8022,47.6781],[8.7982,47.6759],[8.7961,47.6753],[8.7938,47.6788],[8.7935,47.6801],[8.7949,47.6828],[8.7951,47.6838],[8.796,47.6844],[8.7962,47.686],[8.7967,47.6867],[8.7968,47.6871],[8.7967,47.6875],[8.7971,47.6884],[8.7986,47.6902],[8.7998,47.6911],[8.7998,47.6916],[8.8001,47.6919],[8.803,47.6922],[8.8054,47.6915],[8.8062,47.6916],[8.8076,47.692],[8.8101,47.6934],[8.8081,47.6953],[8.8063,47.6965],[8.8041,47.6963],[8.7976,47.6972],[8.7981,47.6978],[8.7986,47.6989],[8.7985,47.7004],[8.7977,47.7021],[8.7976,47.7028],[8.7968,47.7027],[8.7963,47.7029],[8.7959,47.7031],[8.7957,47.7035],[8.7952,47.7034],[8.7942,47.7038],[8.794,47.7042],[8.7927,47.7044],[8.7923,47.7045],[8.792,47.7049],[8.7907,47.7053],[8.7884,47.7047],[8.7866,47.7046],[8.7841,47.705],[8.7821,47.7051],[8.7798,47.7057],[8.7742,47.7059],[8.7733,47.7064],[8.7717,47.7066],[8.7714,47.7069],[8.7701,47.7067],[8.7693,47.7068],[8.7698,47.7078],[8.7697,47.7092],[8.7715,47.7101],[8.7712,47.7105],[8.7714,47.712],[8.7719,47.7127],[8.7729,47.7132],[8.7703,47.715],[8.7707,47.7155],[8.771,47.7156],[8.771,47.716],[8.77,47.716],[8.7703,47.7169],[8.7697,47.7178],[8.7698,47.7184],[8.7701,47.7191],[8.7722,47.7182],[8.7748,47.7191],[8.7765,47.7208],[8.7774,47.7209],[8.7762,47.7223],[8.7763,47.7227],[8.7783,47.7224],[8.7794,47.7219],[8.7795,47.7221],[8.7808,47.7217],[8.7823,47.7233],[8.7825,47.7242],[8.7834,47.7244],[8.7832,47.7249],[8.7839,47.7249],[8.7836,47.7262],[8.7847,47.7268],[8.7843,47.727],[8.7848,47.7273],[8.7866,47.7263],[8.788,47.7274],[8.7884,47.7273],[8.7887,47.7278],[8.7907,47.7273],[8.7918,47.7288],[8.7992,47.7271],[8.7991,47.7289],[8.7984,47.7301],[8.7966,47.7345],[8.7998,47.7353],[8.7994,47.7361],[8.8046,47.7367],[8.8045,47.7374],[8.8054,47.7376],[8.8053,47.7383],[8.8067,47.7383],[8.8076,47.7371],[8.8071,47.7347],[8.8074,47.7334],[8.8083,47.7323],[8.8085,47.7312],[8.8107,47.7309],[8.8122,47.7304],[8.8109,47.7297],[8.8115,47.7293],[8.8115,47.7288],[8.8109,47.7282],[8.8098,47.7276],[8.8056,47.7259],[8.8049,47.7253],[8.8048,47.7245],[8.8085,47.7246],[8.8107,47.7244],[8.8127,47.7238],[8.8165,47.7202],[8.8185,47.7176],[8.8254,47.7187],[8.8263,47.7179],[8.8256,47.717],[8.8229,47.7155],[8.8222,47.7148],[8.8212,47.7145],[8.8189,47.7133],[8.8191,47.7128],[8.8235,47.7122],[8.823,47.7116],[8.8238,47.711],[8.8255,47.711],[8.8301,47.7119],[8.8299,47.7123],[8.8317,47.7138],[8.8336,47.7146],[8.8341,47.7138],[8.8354,47.7138],[8.8377,47.7132],[8.8407,47.7128],[8.841,47.7121],[8.8432,47.7122],[8.8458,47.7112],[8.8459,47.7086],[8.8461,47.7072],[8.8465,47.7072],[8.8471,47.7057],[8.848,47.7045],[8.8483,47.7034],[8.8497,47.7037],[8.8501,47.704],[8.8523,47.7042],[8.8534,47.7047],[8.8547,47.7049],[8.8564,47.7045],[8.8578,47.7046],[8.8586,47.7043],[8.861,47.7041],[8.8635,47.7049],[8.8642,47.7052],[8.8666,47.7055],[8.8675,47.7053],[8.8683,47.7054],[8.8686,47.7052],[8.8692,47.7047],[8.8697,47.7046],[8.8707,47.7046],[8.8712,47.7048],[8.8727,47.7041],[8.873,47.7038],[8.8723,47.7031],[8.8697,47.7019],[8.87,47.7015],[8.871,47.7015],[8.8715,47.7],[8.8721,47.7002],[8.8729,47.699],[8.8738,47.6982],[8.8762,47.6968],[8.8762,47.6966],[8.8755,47.696],[8.8747,47.6945],[8.8734,47.694],[8.8711,47.6934],[8.8698,47.694],[8.8692,47.6937],[8.8667,47.694],[8.8661,47.6938],[8.8644,47.6927],[8.8633,47.6924],[8.8627,47.6928],[8.8628,47.6932],[8.8641,47.6941],[8.8639,47.6947],[8.8652,47.6948],[8.8663,47.6964],[8.8632,47.6984],[8.8624,47.6972],[8.8609,47.6969],[8.8606,47.6963],[8.8602,47.6965],[8.8602,47.6982],[8.8595,47.698],[8.8581,47.6987],[8.8568,47.6978],[8.8559,47.6973],[8.8548,47.697],[8.8536,47.6971],[8.8526,47.6973],[8.8521,47.6976],[8.8515,47.6976],[8.8518,47.6967],[8.851,47.6961],[8.8508,47.6947],[8.8527,47.6942],[8.8532,47.6945],[8.8547,47.6945],[8.8577,47.6926],[8.8576,47.692],[8.8569,47.6913],[8.8564,47.6898],[8.8558,47.6899],[8.8564,47.6891],[8.8542,47.6883],[8.8534,47.6878],[8.8527,47.6865],[8.8533,47.6862],[8.8528,47.6859],[8.852,47.6856],[8.8511,47.6856],[8.8511,47.685],[8.8505,47.6826],[8.8515,47.6827],[8.8517,47.6825],[8.8504,47.6818],[8.8506,47.6812],[8.8536,47.6809],[8.8563,47.6803],[8.8596,47.6805],[8.8606,47.6803],[8.8644,47.6782],[8.8679,47.6759],[8.8684,47.6747],[8.8707,47.6717],[8.8717,47.671],[8.8734,47.6702],[8.8738,47.6695],[8.8739,47.6686],[8.8762,47.6604],[8.8755,47.6604],[8.8754,47.6549]]],[[[8.6641,47.687],[8.6631,47.6853],[8.6612,47.6857],[8.6593,47.6864],[8.6542,47.6889],[8.6512,47.6908],[8.646,47.6936],[8.6449,47.694],[8.6433,47.6944],[8.6415,47.6944],[8.6374,47.6931],[8.6307,47.692],[8.627,47.6918],[8.6257,47.6913],[8.6251,47.6917],[8.6242,47.6908],[8.6241,47.6897],[8.6264,47.6828],[8.6272,47.6813],[8.6273,47.6806],[8.6272,47.6794],[8.6263,47.6778],[8.6255,47.6771],[8.6243,47.6765],[8.6203,47.6752],[8.6193,47.6751],[8.6184,47.6752],[8.6177,47.6756],[8.617,47.6764],[8.6168,47.677],[8.6157,47.678],[8.6149,47.6781],[8.6142,47.6786],[8.6136,47.6785],[8.6108,47.6757],[8.6103,47.6746],[8.6096,47.672],[8.6084,47.6723],[8.6081,47.6726],[8.6073,47.6711],[8.6065,47.6702],[8.6061,47.6691],[8.6063,47.6689],[8.6062,47.6687],[8.6058,47.6694],[8.606,47.6705],[8.6062,47.6706],[8.6066,47.6721],[8.603,47.6726],[8.598,47.6727],[8.5959,47.6692],[8.5956,47.6694],[8.594,47.6672],[8.5937,47.6673],[8.5933,47.6668],[8.5914,47.6675],[8.5873,47.6663],[8.5803,47.6628],[8.5788,47.6619],[8.5777,47.6615],[8.5772,47.662],[8.5761,47.6625],[8.5738,47.6628],[8.5729,47.6636],[8.5718,47.6643],[8.5716,47.6642],[8.5709,47.6649],[8.5708,47.6648],[8.5705,47.6648],[8.5692,47.6642],[8.5672,47.6649],[8.5662,47.6657],[8.5648,47.6653],[8.5634,47.6681],[8.5637,47.67],[8.5609,47.6703],[8.5593,47.6701],[8.5583,47.6696],[8.5569,47.6693],[8.5544,47.6694],[8.5523,47.6689],[8.5496,47.6674],[8.5477,47.6671],[8.5471,47.6671],[8.5468,47.6675],[8.5423,47.6653],[8.54,47.6651],[8.5397,47.6641],[8.5389,47.6635],[8.5389,47.6628],[8.5392,47.6624],[8.5391,47.6622],[8.54,47.6613],[8.5409,47.6588],[8.5415,47.658],[8.5416,47.6568],[8.541,47.6568],[8.5402,47.6575],[8.5366,47.6584],[8.5345,47.6594],[8.5337,47.66],[8.5342,47.6612],[8.5341,47.6618],[8.5335,47.6631],[8.5325,47.6628],[8.5314,47.6621],[8.5301,47.6614],[8.5269,47.6605],[8.528,47.658],[8.5291,47.6577],[8.53,47.657],[8.5294,47.6563],[8.529,47.6555],[8.5291,47.655],[8.5301,47.6541],[8.5309,47.6538],[8.5317,47.6527],[8.5316,47.6523],[8.5319,47.652],[8.533,47.6514],[8.5335,47.651],[8.5335,47.6505],[8.5338,47.6501],[8.5346,47.6497],[8.5337,47.6492],[8.5333,47.6485],[8.5334,47.6479],[8.5318,47.6457],[8.5298,47.6459],[8.523,47.6449],[8.5205,47.6453],[8.5158,47.6469],[8.5133,47.6475],[8.5113,47.6474],[8.511,47.6473],[8.5108,47.647],[8.5102,47.6472],[8.509,47.6467],[8.5032,47.6473],[8.4996,47.6473],[8.5002,47.6462],[8.4992,47.6464],[8.494,47.6466],[8.4933,47.6469],[8.4936,47.6462],[8.4938,47.6437],[8.494,47.6431],[8.4937,47.643],[8.4944,47.6421],[8.4924,47.6421],[8.4917,47.6429],[8.4905,47.6424],[8.4896,47.6425],[8.4898,47.6429],[8.4888,47.6444],[8.4874,47.6451],[8.4852,47.6439],[8.4828,47.6441],[8.4823,47.6448],[8.4815,47.6456],[8.4814,47.6462],[8.4819,47.6466],[8.4822,47.6474],[8.4812,47.6478],[8.4806,47.6484],[8.4804,47.6492],[8.4764,47.6501],[8.4737,47.6497],[8.473,47.6491],[8.4731,47.6483],[8.4734,47.6473],[8.4739,47.647],[8.4763,47.6466],[8.4774,47.646],[8.4778,47.6449],[8.4777,47.6447],[8.4748,47.6433],[8.4727,47.6428],[8.4716,47.6427],[8.471,47.6424],[8.4712,47.6419],[8.4719,47.6411],[8.4727,47.6409],[8.4751,47.641],[8.4758,47.6405],[8.478,47.6398],[8.4769,47.6395],[8.4741,47.6393],[8.4735,47.6384],[8.4722,47.6386],[8.47,47.6393],[8.4671,47.6415],[8.4665,47.6424],[8.466,47.644],[8.4653,47.645],[8.4649,47.6466],[8.4637,47.6485],[8.4644,47.6501],[8.466,47.6529],[8.4671,47.656],[8.466,47.6572],[8.4655,47.6566],[8.4643,47.6557],[8.4636,47.6563],[8.4624,47.6556],[8.46,47.6537],[8.4595,47.6538],[8.4581,47.6532],[8.4582,47.653],[8.4573,47.6527],[8.457,47.6531],[8.4537,47.6548],[8.4521,47.6548],[8.4505,47.655],[8.4451,47.6539],[8.4429,47.6551],[8.4414,47.6558],[8.4395,47.6564],[8.4386,47.6574],[8.4366,47.6574],[8.4353,47.6595],[8.4333,47.6609],[8.432,47.6621],[8.4264,47.6652],[8.4251,47.6657],[8.4236,47.6669],[8.415,47.6662],[8.4122,47.6663],[8.4096,47.6692],[8.4078,47.6716],[8.4062,47.673],[8.4056,47.6742],[8.4064,47.6762],[8.408,47.6782],[8.409,47.6788],[8.4108,47.6792],[8.4148,47.6796],[8.4159,47.68],[8.4162,47.6798],[8.4176,47.6812],[8.4184,47.6828],[8.4208,47.6839],[8.419,47.686],[8.4182,47.6882],[8.412,47.6944],[8.4104,47.6948],[8.4094,47.6953],[8.4077,47.6956],[8.4064,47.6956],[8.4053,47.6977],[8.4046,47.698],[8.4081,47.7021],[8.4094,47.7033],[8.4143,47.7068],[8.4171,47.7102],[8.4179,47.7098],[8.4192,47.7102],[8.4201,47.7095],[8.4253,47.7117],[8.4261,47.7113],[8.4296,47.7135],[8.4317,47.7146],[8.4325,47.7155],[8.4339,47.7163],[8.4352,47.7176],[8.4371,47.7184],[8.4381,47.7185],[8.4417,47.7179],[8.4419,47.7186],[8.4402,47.7197],[8.4416,47.7211],[8.4453,47.7231],[8.4463,47.7232],[8.4476,47.7232],[8.4549,47.7225],[8.4553,47.7231],[8.4543,47.7235],[8.4547,47.7259],[8.4546,47.7271],[8.457,47.7292],[8.4571,47.7302],[8.4564,47.7305],[8.4554,47.7304],[8.4537,47.7305],[8.4526,47.7308],[8.4526,47.7314],[8.4514,47.7332],[8.4499,47.7375],[8.4498,47.7381],[8.4508,47.7402],[8.4528,47.7416],[8.4546,47.7421],[8.4558,47.7428],[8.4553,47.7442],[8.4562,47.745],[8.4565,47.7459],[8.456,47.7473],[8.4559,47.7481],[8.4562,47.7488],[8.4571,47.7499],[8.458,47.7504],[8.4625,47.7515],[8.4655,47.7529],[8.4662,47.7533],[8.4668,47.754],[8.4673,47.7547],[8.4681,47.7574],[8.4691,47.7593],[8.4706,47.7613],[8.4725,47.7634],[8.4735,47.7643],[8.4766,47.7655],[8.4796,47.7674],[8.4815,47.7683],[8.4831,47.7703],[8.4849,47.7714],[8.4867,47.7719],[8.489,47.7732],[8.4903,47.772],[8.491,47.7717],[8.494,47.7712],[8.4954,47.7707],[8.4965,47.7709],[8.4972,47.7712],[8.4984,47.7725],[8.5023,47.7736],[8.5034,47.7732],[8.5053,47.774],[8.5087,47.7742],[8.5096,47.7746],[8.5103,47.7762],[8.5164,47.7733],[8.5181,47.7714],[8.5195,47.7706],[8.5202,47.7705],[8.5205,47.7717],[8.5211,47.7722],[8.5219,47.7739],[8.5227,47.775],[8.5235,47.7757],[8.5256,47.777],[8.5265,47.778],[8.5285,47.7779],[8.5325,47.778],[8.5356,47.7798],[8.5414,47.7815],[8.5438,47.7817],[8.5456,47.7826],[8.5504,47.7836],[8.5529,47.7846],[8.5563,47.7839],[8.5573,47.7835],[8.5591,47.7823],[8.56,47.7819],[8.5619,47.7805],[8.5633,47.7806],[8.5634,47.7797],[8.5629,47.7779],[8.5661,47.7783],[8.5664,47.7779],[8.5688,47.779],[8.574,47.7804],[8.5773,47.7817],[8.5764,47.7831],[8.576,47.7851],[8.5745,47.7869],[8.575,47.7896],[8.5721,47.7906],[8.5688,47.7911],[8.5637,47.7924],[8.5627,47.7919],[8.562,47.7926],[8.5625,47.7966],[8.5623,47.7989],[8.5625,47.8023],[8.5631,47.8038],[8.5638,47.8054],[8.5659,47.8066],[8.568,47.8085],[8.5689,47.8072],[8.5704,47.8062],[8.5722,47.8063],[8.5731,47.8061],[8.5736,47.8048],[8.5749,47.8037],[8.5752,47.8022],[8.5759,47.8017],[8.5753,47.7998],[8.5754,47.7996],[8.5799,47.8001],[8.5877,47.8027],[8.5902,47.8004],[8.5918,47.7996],[8.5929,47.7987],[8.5983,47.8024],[8.6009,47.803],[8.6047,47.8025],[8.6075,47.8024],[8.6114,47.8019],[8.6139,47.8012],[8.6159,47.7996],[8.6186,47.7983],[8.6189,47.7976],[8.618,47.7965],[8.6179,47.796],[8.6202,47.7957],[8.6222,47.7949],[8.6207,47.7908],[8.6205,47.7889],[8.6189,47.7878],[8.6163,47.7871],[8.6158,47.7871],[8.6151,47.7849],[8.6151,47.784],[8.6157,47.7827],[8.6173,47.7809],[8.6177,47.7801],[8.6184,47.7802],[8.6188,47.7793],[8.6188,47.7781],[8.6234,47.7773],[8.6231,47.7764],[8.6223,47.7751],[8.621,47.7718],[8.62,47.7708],[8.6194,47.7698],[8.6194,47.7677],[8.625,47.7639],[8.626,47.7618],[8.6277,47.7594],[8.6283,47.7592],[8.6294,47.7591],[8.6317,47.7582],[8.6339,47.7602],[8.6362,47.7615],[8.6375,47.7625],[8.6406,47.7643],[8.6416,47.7646],[8.6424,47.7652],[8.6445,47.7643],[8.6476,47.767],[8.6457,47.7681],[8.6453,47.7685],[8.6493,47.7704],[8.653,47.7734],[8.6522,47.774],[8.6511,47.7743],[8.6496,47.7744],[8.6481,47.7741],[8.6483,47.7762],[8.6491,47.7775],[8.6501,47.7813],[8.6498,47.7833],[8.6492,47.7843],[8.6474,47.7854],[8.6455,47.7872],[8.6457,47.7907],[8.6466,47.7925],[8.6466,47.7937],[8.6469,47.7947],[8.6489,47.795],[8.649,47.7962],[8.6489,47.7973],[8.6491,47.7978],[8.6496,47.7985],[8.6533,47.7999],[8.6569,47.8004],[8.6584,47.7983],[8.6603,47.7963],[8.6603,47.7949],[8.66,47.794],[8.6584,47.7931],[8.6574,47.7917],[8.6604,47.792],[8.6623,47.7918],[8.6633,47.791],[8.6653,47.7904],[8.6653,47.7897],[8.6668,47.7886],[8.6676,47.7877],[8.6701,47.7874],[8.6711,47.7876],[8.6745,47.7866],[8.6762,47.7858],[8.6771,47.7857],[8.6776,47.7863],[8.6784,47.7868],[8.6792,47.7868],[8.681,47.7866],[8.68,47.7853],[8.6815,47.7846],[8.6824,47.7837],[8.6821,47.7835],[8.6818,47.7829],[8.6833,47.7805],[8.6833,47.7796],[8.6829,47.7789],[8.6832,47.7773],[8.6842,47.7762],[8.6853,47.7755],[8.6886,47.7735],[8.688,47.7733],[8.687,47.7722],[8.6836,47.7706],[8.6859,47.7672],[8.6868,47.7653],[8.6877,47.7621],[8.6884,47.7619],[8.6886,47.7616],[8.6885,47.7612],[8.6878,47.7603],[8.688,47.7593],[8.6887,47.7584],[8.6928,47.7562],[8.6951,47.7557],[8.6954,47.7559],[8.6959,47.7568],[8.6968,47.7565],[8.6973,47.7566],[8.6986,47.7582],[8.6991,47.7593],[8.6991,47.7596],[8.7007,47.7603],[8.7015,47.7609],[8.7016,47.7602],[8.7047,47.762],[8.7046,47.7622],[8.707,47.7637],[8.7095,47.7631],[8.7118,47.7648],[8.7132,47.7651],[8.7141,47.7654],[8.7167,47.7646],[8.7187,47.7643],[8.7214,47.7631],[8.7223,47.764],[8.7236,47.7634],[8.7233,47.7629],[8.7273,47.7623],[8.7288,47.7608],[8.7308,47.7596],[8.729,47.758],[8.7336,47.7559],[8.735,47.7552],[8.7364,47.7541],[8.74,47.753],[8.7411,47.752],[8.7408,47.7496],[8.7414,47.7482],[8.7405,47.7476],[8.7395,47.7465],[8.7343,47.7466],[8.731,47.7458],[8.7302,47.7458],[8.7281,47.7461],[8.7266,47.745],[8.7236,47.7456],[8.7216,47.744],[8.7208,47.7425],[8.7202,47.741],[8.7146,47.7386],[8.7146,47.7376],[8.7142,47.7363],[8.713,47.7344],[8.7125,47.7322],[8.7118,47.7306],[8.7112,47.7301],[8.7118,47.729],[8.713,47.7284],[8.7138,47.7277],[8.7166,47.7233],[8.7179,47.7216],[8.72,47.7215],[8.7215,47.7217],[8.7231,47.7212],[8.7248,47.7213],[8.7247,47.7201],[8.7258,47.72],[8.7283,47.7192],[8.7309,47.719],[8.733,47.7185],[8.7356,47.7171],[8.7363,47.7163],[8.7349,47.7153],[8.734,47.7139],[8.7322,47.7118],[8.7319,47.7112],[8.7319,47.7101],[8.7315,47.7092],[8.7308,47.7083],[8.7311,47.7076],[8.7285,47.7024],[8.7277,47.7004],[8.7265,47.6966],[8.7269,47.6948],[8.728,47.6928],[8.7253,47.6926],[8.7227,47.6922],[8.7202,47.6916],[8.7179,47.6907],[8.7173,47.6916],[8.717,47.6925],[8.7176,47.6928],[8.7176,47.6949],[8.7167,47.6949],[8.7114,47.6963],[8.7117,47.6975],[8.7119,47.7011],[8.7116,47.7016],[8.7118,47.7017],[8.7089,47.7041],[8.7078,47.7078],[8.707,47.7096],[8.7062,47.7096],[8.706,47.7101],[8.7066,47.7102],[8.7064,47.7111],[8.706,47.7116],[8.7056,47.7118],[8.7046,47.7134],[8.703,47.7146],[8.7013,47.7152],[8.7006,47.715],[8.6986,47.715],[8.6974,47.7138],[8.6897,47.7117],[8.6899,47.7108],[8.6903,47.7103],[8.6903,47.7094],[8.6873,47.7089],[8.6863,47.7086],[8.6838,47.7087],[8.6835,47.709],[8.6811,47.7098],[8.6799,47.7106],[8.6803,47.7115],[8.6814,47.7118],[8.6815,47.7122],[8.6813,47.7124],[8.6778,47.7129],[8.6778,47.7132],[8.6742,47.7127],[8.6733,47.7123],[8.6722,47.7114],[8.6714,47.711],[8.6691,47.7115],[8.6673,47.7124],[8.6647,47.7134],[8.666,47.7079],[8.6736,47.7049],[8.6764,47.6981],[8.6763,47.6976],[8.6741,47.6979],[8.6741,47.6966],[8.6739,47.6956],[8.6736,47.6951],[8.6728,47.6947],[8.6724,47.695],[8.6697,47.6936],[8.6681,47.6932],[8.6684,47.6921],[8.6654,47.692],[8.6599,47.6913],[8.6589,47.6915],[8.6586,47.6913],[8.6586,47.6906],[8.66,47.6906],[8.6597,47.6895],[8.6625,47.6883],[8.6641,47.6881],[8.6641,47.687]]]]}}