{"type":"Feature","bbox":[8.3888,46.8853,9.0047,47.2226],"properties":{"iso":"CH","code":"SZ","name":"Schwyz","name_de":"Kanton Schwyz","source":"swisstopo","key":"CH-SZ"},"geometry":{"type":"Polygon","coordinates":[[[8.936,46.9203],[8.9347,46.9193],[8.9343,46.9195],[8.9335,46.9193],[8.933,46.919],[8.9325,46.9188],[8.932,46.9183],[8.9302,46.9178],[8.9297,46.9173],[8.9288,46.9173],[8.9265,46.916],[8.9252,46.9159],[8.9248,46.9156],[8.9247,46.9153],[8.9228,46.9157],[8.9216,46.9149],[8.9214,46.9145],[8.9215,46.9141],[8.9211,46.9136],[8.9208,46.9139],[8.9195,46.9141],[8.9172,46.9128],[8.9169,46.9121],[8.916,46.9118],[8.9159,46.9114],[8.9153,46.9114],[8.915,46.9111],[8.9141,46.9116],[8.9134,46.9112],[8.9123,46.9111],[8.9113,46.9107],[8.9112,46.9101],[8.9103,46.9096],[8.9103,46.9094],[8.9101,46.9094],[8.9103,46.9092],[8.9098,46.9088],[8.9096,46.9087],[8.9089,46.9089],[8.9074,46.9089],[8.9073,46.9087],[8.9075,46.9083],[8.9074,46.9079],[8.9076,46.9076],[8.9075,46.9075],[8.906,46.9082],[8.906,46.9083],[8.9053,46.9084],[8.9042,46.9084],[8.904,46.9082],[8.903,46.9082],[8.9017,46.9078],[8.9011,46.9074],[8.8988,46.9063],[8.8992,46.9058],[8.8987,46.9054],[8.8989,46.9051],[8.899,46.9047],[8.8986,46.9047],[8.8984,46.9045],[8.8974,46.9048],[8.8973,46.9043],[8.896,46.9045],[8.8956,46.9041],[8.8956,46.9037],[8.8954,46.9036],[8.8954,46.9033],[8.8952,46.9029],[8.8933,46.9028],[8.891,46.9031],[8.891,46.9028],[8.8904,46.9026],[8.8901,46.9028],[8.8895,46.9027],[8.8894,46.9025],[8.8886,46.9026],[8.887,46.9024],[8.8835,46.9008],[8.8825,46.8991],[8.881,46.8979],[8.8744,46.895],[8.8714,46.8945],[8.8711,46.894],[8.8685,46.8942],[8.8666,46.8949],[8.8658,46.8949],[8.8655,46.8951],[8.8637,46.895],[8.8635,46.8949],[8.8618,46.8947],[8.8617,46.8945],[8.8613,46.8945],[8.8621,46.8938],[8.8615,46.8936],[8.861,46.8931],[8.8612,46.8918],[8.8614,46.8916],[8.8609,46.8913],[8.8604,46.8905],[8.8595,46.89],[8.8593,46.8897],[8.8589,46.8894],[8.8562,46.8886],[8.8554,46.8882],[8.8555,46.8879],[8.8545,46.8871],[8.8546,46.8869],[8.8544,46.8866],[8.8547,46.8861],[8.8548,46.8857],[8.8542,46.8856],[8.8536,46.8853],[8.8532,46.8854],[8.8496,46.8882],[8.8478,46.891],[8.8478,46.893],[8.8485,46.8954],[8.8492,46.9001],[8.849,46.9003],[8.849,46.9009],[8.8482,46.9024],[8.8486,46.9035],[8.8483,46.904],[8.8482,46.9052],[8.8484,46.9059],[8.8488,46.9065],[8.8487,46.9069],[8.849,46.9073],[8.8489,46.9077],[8.8494,46.9087],[8.8495,46.9096],[8.8493,46.9103],[8.8495,46.9105],[8.8494,46.9111],[8.8488,46.9122],[8.8488,46.9128],[8.8481,46.9131],[8.848,46.9135],[8.8471,46.9138],[8.8469,46.9135],[8.8471,46.9132],[8.8468,46.913],[8.8467,46.9126],[8.8462,46.9121],[8.8455,46.9119],[8.8451,46.9115],[8.8442,46.9113],[8.8438,46.9111],[8.8438,46.9108],[8.8432,46.9102],[8.8426,46.91],[8.8425,46.9097],[8.8427,46.9095],[8.8396,46.9083],[8.8361,46.9077],[8.8353,46.9097],[8.8334,46.9114],[8.8301,46.9167],[8.8287,46.9179],[8.8278,46.9193],[8.8275,46.9224],[8.8288,46.9229],[8.8298,46.9241],[8.8284,46.925],[8.8287,46.9265],[8.8292,46.9273],[8.8292,46.9277],[8.8296,46.928],[8.8299,46.9293],[8.8298,46.9298],[8.8301,46.9305],[8.8298,46.9316],[8.8287,46.9328],[8.8272,46.9337],[8.8273,46.9341],[8.8268,46.9357],[8.8211,46.9362],[8.8201,46.9374],[8.8142,46.9386],[8.8107,46.9415],[8.8088,46.9403],[8.8042,46.9383],[8.8033,46.9383],[8.8013,46.9377],[8.8014,46.9376],[8.8013,46.9375],[8.8,46.9374],[8.798,46.9367],[8.796,46.9355],[8.7963,46.9352],[8.7962,46.9347],[8.7947,46.9333],[8.7918,46.9317],[8.792,46.9308],[8.7877,46.9304],[8.7863,46.931],[8.785,46.9311],[8.7834,46.9317],[8.783,46.9316],[8.7811,46.9324],[8.7793,46.9325],[8.7785,46.9328],[8.7781,46.9332],[8.7778,46.9331],[8.7743,46.9383],[8.7745,46.9397],[8.7709,46.9415],[8.7689,46.9404],[8.7666,46.9401],[8.7662,46.9394],[8.7652,46.9387],[8.7623,46.9384],[8.7614,46.9377],[8.7609,46.9376],[8.7608,46.9373],[8.7595,46.9372],[8.7589,46.9375],[8.7586,46.9367],[8.7581,46.937],[8.7574,46.9366],[8.7572,46.9366],[8.7568,46.9362],[8.7566,46.9363],[8.7563,46.9366],[8.7538,46.9357],[8.7529,46.9352],[8.7523,46.9351],[8.7523,46.935],[8.7512,46.9344],[8.7491,46.9337],[8.747,46.9346],[8.7461,46.9349],[8.746,46.9353],[8.7451,46.9352],[8.7451,46.9335],[8.7449,46.9333],[8.7448,46.933],[8.7436,46.9324],[8.7421,46.932],[8.7416,46.9325],[8.7407,46.9326],[8.74,46.932],[8.7394,46.9318],[8.7385,46.9323],[8.7378,46.9325],[8.7374,46.9324],[8.7365,46.9315],[8.7363,46.9309],[8.7367,46.9306],[8.7358,46.9303],[8.7346,46.9303],[8.7344,46.9301],[8.7338,46.9302],[8.7336,46.93],[8.7326,46.9297],[8.7326,46.9295],[8.732,46.929],[8.7317,46.9289],[8.7314,46.9284],[8.7308,46.9281],[8.7285,46.9284],[8.729,46.9279],[8.7287,46.9269],[8.728,46.9268],[8.7281,46.9265],[8.7275,46.9262],[8.7272,46.9263],[8.7264,46.9258],[8.7258,46.926],[8.7254,46.926],[8.7254,46.9253],[8.7249,46.9254],[8.7246,46.9252],[8.7247,46.9244],[8.7242,46.9246],[8.724,46.9244],[8.724,46.924],[8.7237,46.924],[8.7237,46.9237],[8.7226,46.9231],[8.7226,46.9226],[8.7219,46.9221],[8.7213,46.9219],[8.7207,46.922],[8.7205,46.9218],[8.7205,46.9211],[8.7204,46.9211],[8.7206,46.9205],[8.7202,46.9201],[8.7196,46.9199],[8.7194,46.9196],[8.7186,46.9194],[8.7186,46.9192],[8.7179,46.9192],[8.7177,46.9185],[8.7167,46.9186],[8.7163,46.9186],[8.7164,46.9183],[8.7155,46.9181],[8.7146,46.9184],[8.7126,46.9186],[8.7121,46.9183],[8.7116,46.9184],[8.7115,46.9181],[8.7109,46.918],[8.7107,46.9177],[8.71,46.9176],[8.7099,46.9174],[8.7093,46.9176],[8.7089,46.9175],[8.7088,46.9171],[8.7077,46.9172],[8.7075,46.9175],[8.7066,46.9187],[8.7058,46.9194],[8.7059,46.9196],[8.7054,46.92],[8.7048,46.9201],[8.7041,46.9208],[8.7039,46.9208],[8.7037,46.9213],[8.7021,46.9219],[8.7009,46.9226],[8.7008,46.9224],[8.6996,46.923],[8.6992,46.9238],[8.6986,46.9243],[8.6983,46.9257],[8.6976,46.9264],[8.6977,46.927],[8.6974,46.9275],[8.6973,46.9279],[8.6965,46.9288],[8.7003,46.9326],[8.6999,46.9334],[8.6998,46.9348],[8.6977,46.9387],[8.6974,46.9396],[8.6966,46.9403],[8.6969,46.9416],[8.6969,46.9422],[8.6964,46.943],[8.6949,46.9436],[8.6941,46.9444],[8.6939,46.9452],[8.6933,46.9458],[8.693,46.947],[8.691,46.9469],[8.6901,46.9471],[8.6843,46.9454],[8.6832,46.9456],[8.6827,46.9458],[8.6816,46.9459],[8.6812,46.9461],[8.6802,46.9459],[8.6793,46.946],[8.6771,46.9457],[8.6765,46.9453],[8.676,46.9452],[8.6753,46.9449],[8.6736,46.945],[8.6721,46.9444],[8.671,46.9444],[8.6707,46.9441],[8.6696,46.9441],[8.6686,46.9443],[8.668,46.9446],[8.6665,46.9449],[8.6652,46.9454],[8.665,46.9456],[8.6647,46.9455],[8.6621,46.9457],[8.6619,46.9459],[8.6602,46.946],[8.66,46.9462],[8.6588,46.9464],[8.6579,46.946],[8.6569,46.9459],[8.6559,46.9464],[8.6551,46.9465],[8.6528,46.9471],[8.6525,46.947],[8.652,46.9472],[8.6506,46.9475],[8.65,46.9478],[8.6483,46.948],[8.6454,46.949],[8.644,46.949],[8.6429,46.9493],[8.6418,46.949],[8.6414,46.9494],[8.6408,46.9496],[8.6382,46.9495],[8.6367,46.9498],[8.6358,46.9496],[8.6348,46.9499],[8.6334,46.9497],[8.6325,46.9498],[8.6318,46.9501],[8.6314,46.9499],[8.6297,46.9502],[8.6292,46.9502],[8.6289,46.9499],[8.6282,46.95],[8.6278,46.9498],[8.6274,46.9498],[8.6277,46.9503],[8.6273,46.9509],[8.6237,46.9525],[8.6224,46.9527],[8.6212,46.9525],[8.6044,46.952],[8.6035,46.9686],[8.6012,46.9752],[8.6041,46.9823],[8.6031,46.9868],[8.5971,46.9902],[8.5824,46.9934],[8.571,46.9902],[8.5427,46.9796],[8.5194,46.9798],[8.4966,46.9764],[8.4652,46.9843],[8.4682,46.9965],[8.4736,46.9955],[8.4754,46.9959],[8.479,46.9962],[8.481,46.9966],[8.4814,46.9967],[8.4831,46.9967],[8.4907,46.9992],[8.4924,46.9993],[8.4949,47.0005],[8.4986,47.0007],[8.499,47.0009],[8.5008,47.0009],[8.5035,47.0032],[8.5045,47.0036],[8.5051,47.0038],[8.5057,47.0037],[8.5064,47.0041],[8.5091,47.0045],[8.5091,47.005],[8.5093,47.0054],[8.5109,47.0061],[8.5108,47.0066],[8.5105,47.0068],[8.5108,47.0078],[8.5112,47.0084],[8.5113,47.009],[8.5125,47.0102],[8.5129,47.0113],[8.5135,47.0126],[8.5135,47.0161],[8.5141,47.0175],[8.514,47.0201],[8.5137,47.0207],[8.5137,47.0213],[8.5135,47.0217],[8.5105,47.0234],[8.5081,47.0241],[8.505,47.0245],[8.5031,47.0241],[8.5013,47.0243],[8.5006,47.0247],[8.4987,47.0271],[8.4979,47.0273],[8.4974,47.0277],[8.497,47.0286],[8.4965,47.0288],[8.4944,47.0291],[8.4917,47.0312],[8.4904,47.0318],[8.4897,47.0334],[8.4882,47.0345],[8.4863,47.0351],[8.4838,47.038],[8.4829,47.0384],[8.4816,47.0387],[8.4789,47.04],[8.4699,47.0475],[8.4684,47.0482],[8.4649,47.0484],[8.4536,47.0552],[8.4498,47.0569],[8.4459,47.0583],[8.4445,47.0593],[8.446,47.0603],[8.4414,47.0631],[8.4394,47.0637],[8.4386,47.0636],[8.4377,47.0638],[8.4375,47.0636],[8.4371,47.0637],[8.4364,47.0634],[8.4353,47.064],[8.4341,47.0639],[8.4337,47.0643],[8.4336,47.0648],[8.432,47.0655],[8.4302,47.0654],[8.3992,47.0594],[8.3982,47.06],[8.3922,47.0608],[8.3905,47.0613],[8.3906,47.0621],[8.3908,47.0624],[8.3903,47.0629],[8.3901,47.0634],[8.3898,47.0663],[8.3895,47.0674],[8.3896,47.0677],[8.3892,47.0687],[8.389,47.0695],[8.3888,47.0697],[8.3889,47.0704],[8.3892,47.0707],[8.3901,47.071],[8.3923,47.0721],[8.3948,47.0727],[8.3955,47.0734],[8.3957,47.0739],[8.3971,47.0745],[8.3982,47.0753],[8.3998,47.0753],[8.4054,47.0786],[8.4065,47.0789],[8.4071,47.0795],[8.4071,47.0807],[8.408,47.0813],[8.4081,47.0812],[8.4084,47.0813],[8.4086,47.0817],[8.4085,47.0819],[8.4091,47.0824],[8.4088,47.0825],[8.4088,47.0827],[8.4093,47.0835],[8.4091,47.0839],[8.4092,47.0847],[8.4099,47.085],[8.4107,47.0859],[8.4101,47.0866],[8.4097,47.0885],[8.4091,47.0889],[8.4096,47.0893],[8.4095,47.0895],[8.4101,47.0908],[8.4098,47.0908],[8.4095,47.0914],[8.4095,47.0917],[8.4092,47.0919],[8.4094,47.0927],[8.41,47.0935],[8.4136,47.0955],[8.4147,47.0963],[8.4153,47.097],[8.4164,47.0979],[8.4173,47.0991],[8.4187,47.1004],[8.4204,47.1017],[8.4209,47.102],[8.4213,47.102],[8.4226,47.103],[8.4235,47.1033],[8.4242,47.1038],[8.4257,47.1041],[8.4263,47.1044],[8.4278,47.1045],[8.429,47.1051],[8.4296,47.105],[8.4297,47.1052],[8.4311,47.1054],[8.4315,47.1058],[8.4322,47.1058],[8.4325,47.1057],[8.4328,47.1059],[8.4326,47.1061],[8.4331,47.1061],[8.4337,47.1057],[8.4337,47.1059],[8.4341,47.1059],[8.4343,47.1061],[8.435,47.106],[8.4353,47.1065],[8.4356,47.1064],[8.4362,47.1065],[8.4363,47.1063],[8.4367,47.1063],[8.437,47.1062],[8.4374,47.1063],[8.4373,47.1066],[8.4377,47.1067],[8.4371,47.1071],[8.4372,47.1073],[8.4371,47.1074],[8.4369,47.1074],[8.4368,47.1076],[8.437,47.1079],[8.4369,47.1081],[8.4372,47.1089],[8.4375,47.1093],[8.4379,47.1096],[8.4383,47.1095],[8.4388,47.11],[8.4391,47.1098],[8.4393,47.1101],[8.44,47.1103],[8.44,47.1107],[8.4404,47.1106],[8.4405,47.1108],[8.4409,47.1106],[8.4419,47.1114],[8.4428,47.1114],[8.4429,47.1116],[8.4435,47.1114],[8.4449,47.1115],[8.4456,47.1112],[8.4474,47.1111],[8.4483,47.1112],[8.4486,47.1114],[8.4493,47.1134],[8.45,47.1144],[8.4531,47.114],[8.4548,47.1134],[8.4554,47.1134],[8.4569,47.1129],[8.4573,47.1124],[8.4592,47.1131],[8.4596,47.1127],[8.4599,47.1119],[8.4612,47.1122],[8.4613,47.112],[8.4616,47.1121],[8.4614,47.1114],[8.4628,47.1113],[8.4643,47.111],[8.4663,47.1114],[8.4706,47.1128],[8.4708,47.1121],[8.4711,47.1121],[8.4712,47.1117],[8.4726,47.112],[8.4731,47.1122],[8.4737,47.1122],[8.4754,47.1114],[8.4754,47.1109],[8.4753,47.11],[8.4754,47.108],[8.476,47.1071],[8.4763,47.1061],[8.5219,47.0899],[8.5232,47.0905],[8.5242,47.0903],[8.5251,47.0913],[8.5257,47.0917],[8.5301,47.0917],[8.5309,47.0915],[8.5316,47.0917],[8.5335,47.0918],[8.5338,47.092],[8.5343,47.0921],[8.5356,47.0921],[8.5363,47.0918],[8.5369,47.0918],[8.5393,47.0921],[8.5399,47.092],[8.5408,47.0923],[8.5409,47.0927],[8.5428,47.0938],[8.5432,47.0938],[8.5435,47.0941],[8.5442,47.0945],[8.5455,47.0943],[8.5459,47.0944],[8.5463,47.0943],[8.5463,47.0941],[8.5472,47.0937],[8.5499,47.0937],[8.5527,47.094],[8.556,47.0934],[8.5584,47.094],[8.5615,47.0937],[8.5625,47.0938],[8.5636,47.092],[8.5639,47.0886],[8.5643,47.0876],[8.5649,47.0873],[8.5648,47.0867],[8.5639,47.0858],[8.5635,47.0851],[8.5631,47.0839],[8.5628,47.0838],[8.5627,47.0831],[8.5625,47.0829],[8.563,47.0819],[8.5634,47.0816],[8.5657,47.081],[8.5696,47.0812],[8.5703,47.0817],[8.5716,47.082],[8.5735,47.082],[8.5743,47.0823],[8.5776,47.0845],[8.5786,47.0841],[8.5811,47.084],[8.5835,47.0847],[8.5852,47.0855],[8.5873,47.0857],[8.5901,47.0864],[8.5909,47.0889],[8.5924,47.0896],[8.5938,47.0906],[8.5949,47.0909],[8.5955,47.0913],[8.5962,47.0915],[8.5982,47.0906],[8.5999,47.0905],[8.6075,47.092],[8.6087,47.0945],[8.6118,47.095],[8.623,47.0947],[8.6259,47.0939],[8.63,47.0938],[8.6303,47.0936],[8.6319,47.0936],[8.6346,47.0933],[8.6373,47.0933],[8.6407,47.0945],[8.6414,47.0944],[8.6422,47.095],[8.6449,47.0959],[8.6455,47.0996],[8.6538,47.1079],[8.6557,47.1085],[8.6581,47.1102],[8.6598,47.1109],[8.6606,47.1118],[8.6606,47.1123],[8.6602,47.1132],[8.6598,47.1147],[8.6609,47.115],[8.6627,47.1152],[8.6639,47.115],[8.6654,47.115],[8.6671,47.1157],[8.6714,47.1158],[8.6718,47.1157],[8.6718,47.1161],[8.6713,47.116],[8.6715,47.1164],[8.671,47.1168],[8.6713,47.1169],[8.672,47.1168],[8.6715,47.1172],[8.6717,47.1173],[8.6714,47.1176],[8.6717,47.1176],[8.6717,47.1178],[8.6712,47.1179],[8.6717,47.1181],[8.6715,47.1182],[8.6712,47.1183],[8.671,47.1181],[8.6705,47.1182],[8.6706,47.1184],[8.6712,47.1184],[8.6707,47.1191],[8.6718,47.119],[8.6719,47.1192],[8.6723,47.1193],[8.672,47.1198],[8.6725,47.1201],[8.6726,47.1205],[8.6735,47.1207],[8.6735,47.1209],[8.6742,47.1207],[8.6744,47.1211],[8.6748,47.1211],[8.6747,47.1214],[8.6757,47.1212],[8.676,47.1215],[8.6757,47.1218],[8.676,47.1221],[8.6764,47.1221],[8.6763,47.1224],[8.6771,47.1223],[8.6772,47.1224],[8.6773,47.1223],[8.6777,47.1223],[8.6768,47.1231],[8.6776,47.1231],[8.6773,47.1239],[8.6783,47.1245],[8.6787,47.1246],[8.679,47.1243],[8.6795,47.1242],[8.68,47.1248],[8.6813,47.1248],[8.6818,47.125],[8.6815,47.1254],[8.6815,47.1256],[8.6823,47.1258],[8.6824,47.126],[8.6823,47.1263],[8.6826,47.1265],[8.6822,47.1269],[8.6826,47.1272],[8.6824,47.1276],[8.6828,47.128],[8.683,47.128],[8.6831,47.1284],[8.6835,47.1285],[8.6833,47.129],[8.6841,47.1296],[8.6848,47.1299],[8.6848,47.13],[8.6844,47.1302],[8.6846,47.1305],[8.684,47.1308],[8.6845,47.1309],[8.6855,47.1307],[8.6861,47.1313],[8.6858,47.1314],[8.6854,47.1313],[8.6851,47.1317],[8.6844,47.1318],[8.6845,47.132],[8.6849,47.132],[8.6851,47.1322],[8.6849,47.1325],[8.6846,47.1325],[8.6844,47.1331],[8.6848,47.1333],[8.6853,47.1332],[8.6851,47.1338],[8.6854,47.134],[8.6854,47.1343],[8.6858,47.1345],[8.6858,47.1347],[8.686,47.1348],[8.6874,47.1344],[8.6875,47.1345],[8.6872,47.1348],[8.6872,47.1353],[8.6867,47.1356],[8.6863,47.1359],[8.6864,47.1361],[8.6871,47.1363],[8.6876,47.1371],[8.6873,47.1372],[8.6864,47.1371],[8.6853,47.1375],[8.6851,47.1384],[8.6845,47.1389],[8.6842,47.1402],[8.6843,47.1409],[8.6848,47.1419],[8.6857,47.1423],[8.6868,47.1441],[8.6879,47.1451],[8.6883,47.1459],[8.6901,47.147],[8.6906,47.1478],[8.6926,47.1481],[8.6934,47.1489],[8.6953,47.1495],[8.6959,47.1501],[8.6976,47.1503],[8.698,47.1501],[8.6983,47.1496],[8.6985,47.1495],[8.6988,47.1497],[8.6991,47.1505],[8.7005,47.151],[8.7012,47.1509],[8.7009,47.1514],[8.6993,47.1522],[8.6988,47.1529],[8.6986,47.1537],[8.6992,47.155],[8.6987,47.1563],[8.6981,47.1568],[8.6981,47.1578],[8.6983,47.1585],[8.6981,47.1588],[8.6971,47.1591],[8.6967,47.1595],[8.6967,47.1606],[8.6958,47.1629],[8.6936,47.1634],[8.6922,47.1634],[8.692,47.1645],[8.6921,47.1667],[8.6917,47.1668],[8.6912,47.1682],[8.6914,47.169],[8.6897,47.1701],[8.6859,47.1715],[8.6831,47.1735],[8.6824,47.1743],[8.6824,47.1746],[8.6827,47.1751],[8.6825,47.1757],[8.6822,47.1759],[8.6821,47.1765],[8.6816,47.177],[8.6812,47.1779],[8.6804,47.1787],[8.6804,47.179],[8.6804,47.1799],[8.6813,47.1816],[8.6811,47.1841],[8.6822,47.185],[8.6835,47.1859],[8.6856,47.1865],[8.6876,47.1885],[8.6942,47.1964],[8.6959,47.1967],[8.6979,47.1966],[8.6981,47.1968],[8.6996,47.197],[8.7006,47.1975],[8.701,47.1974],[8.7015,47.1978],[8.7026,47.1981],[8.7029,47.1985],[8.7029,47.1987],[8.7034,47.1991],[8.703,47.1994],[8.7028,47.1997],[8.703,47.2003],[8.7028,47.2007],[8.703,47.2009],[8.7029,47.2015],[8.7031,47.2017],[8.7037,47.2017],[8.7041,47.2023],[8.7051,47.2025],[8.7061,47.2023],[8.707,47.2016],[8.7083,47.2009],[8.7101,47.2004],[8.7104,47.201],[8.7107,47.2009],[8.7109,47.201],[8.7131,47.203],[8.717,47.2035],[8.7405,47.2116],[8.7772,47.2188],[8.7934,47.2226],[8.8086,47.2201],[8.8122,47.2171],[8.8163,47.2144],[8.821,47.2122],[8.826,47.2104],[8.8301,47.2094],[8.8335,47.2088],[8.837,47.2084],[8.8412,47.2082],[8.8455,47.2083],[8.8484,47.2085],[8.9364,47.2176],[8.9367,47.2179],[8.9376,47.2177],[8.9414,47.2181],[8.9557,47.2163],[8.9664,47.2175],[8.9679,47.2175],[8.9694,47.2173],[8.9707,47.2168],[8.9721,47.2159],[8.9729,47.215],[8.9743,47.2128],[8.9699,47.2115],[8.9697,47.2118],[8.9692,47.2118],[8.9653,47.1982],[8.9575,47.1994],[8.9603,47.1888],[8.9609,47.1854],[8.9618,47.1844],[8.9619,47.1837],[8.9614,47.1825],[8.962,47.1795],[8.9704,47.1788],[8.9711,47.1806],[8.9733,47.1803],[8.974,47.1823],[8.9771,47.1818],[8.9774,47.1827],[8.9789,47.1827],[8.98,47.1833],[8.9824,47.183],[8.9879,47.1817],[8.9909,47.1808],[8.9912,47.1805],[8.9916,47.1805],[8.9949,47.1792],[8.9976,47.1779],[8.9964,47.1765],[9.002,47.1743],[9.0026,47.1748],[9.0047,47.1733],[8.9933,47.1638],[8.9916,47.1622],[8.9753,47.1439],[8.9753,47.1436],[8.9744,47.1432],[8.9748,47.1422],[8.9744,47.1412],[8.974,47.1409],[8.974,47.1407],[8.9738,47.1404],[8.9727,47.1396],[8.9725,47.1392],[8.9718,47.1386],[8.9706,47.1382],[8.9674,47.1366],[8.9684,47.1358],[8.9694,47.1345],[8.969,47.134],[8.9685,47.1338],[8.9682,47.1335],[8.9682,47.1329],[8.9684,47.1327],[8.9684,47.1323],[8.9686,47.1319],[8.9686,47.1314],[8.9692,47.1308],[8.9693,47.1305],[8.9684,47.1296],[8.9682,47.1287],[8.9679,47.1283],[8.9678,47.1275],[8.9676,47.1272],[8.9677,47.1265],[8.967,47.1256],[8.9663,47.1249],[8.9658,47.1239],[8.9659,47.1233],[8.9652,47.1221],[8.9653,47.1215],[8.9671,47.1192],[8.9678,47.1191],[8.9683,47.1187],[8.9688,47.1187],[8.9701,47.1182],[8.9719,47.1181],[8.973,47.1168],[8.9737,47.1151],[8.9731,47.1138],[8.9727,47.1136],[8.9719,47.1128],[8.971,47.1124],[8.9712,47.112],[8.971,47.1116],[8.9711,47.11],[8.9703,47.1092],[8.9692,47.1087],[8.9703,47.107],[8.9707,47.1069],[8.9709,47.1063],[8.9707,47.106],[8.9713,47.1046],[8.9706,47.1038],[8.9693,47.1035],[8.9674,47.1027],[8.9645,47.1021],[8.9636,47.1014],[8.9634,47.101],[8.9628,47.1011],[8.9603,47.1003],[8.9597,47.1002],[8.9594,47.0997],[8.9589,47.0994],[8.9586,47.0984],[8.9581,47.0979],[8.9577,47.0979],[8.9577,47.0977],[8.9572,47.0976],[8.9574,47.0974],[8.957,47.0972],[8.9572,47.0966],[8.9568,47.0963],[8.9568,47.0958],[8.9558,47.0953],[8.9551,47.0945],[8.9542,47.0943],[8.9539,47.0915],[8.9546,47.0906],[8.955,47.0905],[8.9566,47.0907],[8.9573,47.0898],[8.9608,47.0895],[8.9612,47.0893],[8.9625,47.089],[8.9645,47.0882],[8.9655,47.0881],[8.9671,47.0875],[8.9686,47.0871],[8.97,47.0871],[8.9726,47.0868],[8.9734,47.0868],[8.9736,47.0864],[8.9741,47.0862],[8.9752,47.0863],[8.976,47.0857],[8.9757,47.0854],[8.9751,47.0854],[8.975,47.0851],[8.9734,47.0848],[8.9733,47.0846],[8.9701,47.0829],[8.9696,47.0826],[8.9695,47.0823],[8.968,47.0815],[8.9664,47.0814],[8.9668,47.081],[8.9663,47.0808],[8.9667,47.0802],[8.9668,47.0798],[8.9653,47.0786],[8.9651,47.0782],[8.9622,47.0765],[8.9612,47.0764],[8.9608,47.0763],[8.9621,47.0747],[8.9618,47.0744],[8.962,47.0732],[8.9616,47.0725],[8.9615,47.0716],[8.9618,47.0714],[8.9611,47.0706],[8.9606,47.0708],[8.96,47.0707],[8.9595,47.0705],[8.9593,47.07],[8.9591,47.0699],[8.9588,47.0689],[8.958,47.0676],[8.9577,47.0676],[8.9573,47.067],[8.9562,47.0658],[8.9544,47.0653],[8.9543,47.0651],[8.9545,47.0646],[8.9538,47.0643],[8.9537,47.0641],[8.9539,47.064],[8.9536,47.0639],[8.9534,47.0638],[8.9535,47.0637],[8.9529,47.0631],[8.9531,47.0629],[8.9525,47.0623],[8.9525,47.0614],[8.9518,47.061],[8.9511,47.0609],[8.9509,47.0599],[8.9504,47.0592],[8.9505,47.0589],[8.9501,47.0584],[8.9503,47.058],[8.9496,47.0576],[8.9496,47.0573],[8.9491,47.0565],[8.9496,47.0561],[8.9495,47.0553],[8.9497,47.055],[8.9493,47.0548],[8.9494,47.0545],[8.9491,47.0538],[8.9488,47.0537],[8.949,47.0519],[8.9487,47.0511],[8.9485,47.0509],[8.9484,47.0498],[8.9481,47.0494],[8.9472,47.049],[8.9465,47.0492],[8.9455,47.0491],[8.9451,47.049],[8.9451,47.0487],[8.9448,47.0487],[8.9442,47.0484],[8.9436,47.0483],[8.942,47.0477],[8.9409,47.0476],[8.9405,47.0472],[8.9402,47.0472],[8.94,47.0468],[8.9386,47.0457],[8.9387,47.0456],[8.9384,47.0448],[8.9376,47.0446],[8.9376,47.0443],[8.9373,47.0442],[8.9373,47.044],[8.9369,47.0437],[8.9347,47.0431],[8.9343,47.0429],[8.9343,47.0427],[8.9306,47.0421],[8.9304,47.0419],[8.9291,47.0416],[8.9269,47.0406],[8.9265,47.0406],[8.9246,47.0398],[8.9235,47.0388],[8.922,47.0383],[8.9181,47.0379],[8.9179,47.0383],[8.9153,47.0385],[8.9146,47.0399],[8.9133,47.0396],[8.9132,47.0394],[8.912,47.0393],[8.9104,47.0395],[8.9101,47.0394],[8.91,47.0396],[8.9094,47.0397],[8.9077,47.0393],[8.9072,47.0388],[8.9061,47.0384],[8.9049,47.0385],[8.904,47.0387],[8.9031,47.0385],[8.9018,47.0379],[8.9009,47.0371],[8.9006,47.0365],[8.9005,47.0355],[8.9008,47.0341],[8.9013,47.0331],[8.9012,47.0325],[8.9008,47.032],[8.9031,47.0297],[8.9033,47.0291],[8.9031,47.0288],[8.9036,47.0273],[8.9007,47.0261],[8.8979,47.0259],[8.8954,47.0253],[8.8955,47.0248],[8.8953,47.024],[8.893,47.0236],[8.8932,47.0229],[8.8939,47.0224],[8.8943,47.0217],[8.8949,47.0214],[8.8949,47.0209],[8.8967,47.0211],[8.8973,47.0206],[8.8981,47.0206],[8.9001,47.021],[8.9013,47.0205],[8.9017,47.0205],[8.9024,47.02],[8.9054,47.0187],[8.9105,47.017],[8.9107,47.0167],[8.9112,47.0153],[8.9112,47.015],[8.9108,47.0149],[8.9107,47.0143],[8.9116,47.0098],[8.9115,47.0094],[8.912,47.0091],[8.9116,47.0089],[8.9116,47.0088],[8.9139,47.0081],[8.9142,47.0077],[8.9151,47.0076],[8.9155,47.0074],[8.916,47.0066],[8.917,47.0059],[8.9171,47.0054],[8.9169,47.0043],[8.9171,47.0034],[8.9189,47.0016],[8.9202,47.0008],[8.921,47.0],[8.9215,47.0014],[8.9221,47.0013],[8.9229,47.0009],[8.9232,47.0004],[8.9235,47.0004],[8.9258,46.9988],[8.9276,46.998],[8.9287,46.9973],[8.9302,46.9956],[8.9305,46.9946],[8.931,46.9938],[8.9314,46.9936],[8.9317,46.9925],[8.9322,46.9918],[8.9323,46.9914],[8.9322,46.9911],[8.9337,46.9904],[8.934,46.9898],[8.9339,46.9895],[8.9348,46.9891],[8.9351,46.9887],[8.9361,46.989],[8.9364,46.9888],[8.9364,46.988],[8.9377,46.9864],[8.9379,46.9864],[8.9386,46.9874],[8.9399,46.9875],[8.9402,46.9873],[8.9407,46.9874],[8.941,46.9879],[8.9415,46.9876],[8.9416,46.987],[8.9413,46.9859],[8.9414,46.9856],[8.9409,46.9847],[8.939,46.984],[8.9347,46.983],[8.9337,46.9826],[8.9323,46.9823],[8.9353,46.979],[8.9457,46.9672],[8.9476,46.9682],[8.9488,46.9691],[8.9499,46.9695],[8.9496,46.9686],[8.9487,46.9682],[8.9497,46.968],[8.9499,46.9677],[8.95,46.967],[8.9506,46.9668],[8.951,46.9669],[8.9518,46.9661],[8.953,46.9658],[8.9532,46.9651],[8.9538,46.9646],[8.9539,46.9641],[8.9557,46.9629],[8.9563,46.9629],[8.9574,46.9622],[8.9587,46.9621],[8.9607,46.9614],[8.9615,46.9615],[8.9621,46.9612],[8.9632,46.9609],[8.9654,46.961],[8.9659,46.9605],[8.9663,46.9604],[8.9668,46.9605],[8.9669,46.9602],[8.9683,46.9597],[8.9695,46.9599],[8.9705,46.9596],[8.971,46.9598],[8.9716,46.9599],[8.971,46.9584],[8.9705,46.9584],[8.9704,46.9582],[8.9691,46.9579],[8.9682,46.9573],[8.9673,46.9576],[8.9664,46.9565],[8.9649,46.956],[8.9643,46.9551],[8.963,46.9546],[8.9633,46.9544],[8.9624,46.9538],[8.9624,46.9535],[8.9621,46.9529],[8.9619,46.952],[8.962,46.9514],[8.9619,46.9502],[8.9615,46.948],[8.9612,46.9477],[8.9613,46.9473],[8.9609,46.947],[8.9599,46.9468],[8.96,46.9463],[8.9597,46.9458],[8.9583,46.9444],[8.9574,46.9429],[8.9576,46.9426],[8.9566,46.9408],[8.9566,46.9401],[8.9553,46.9389],[8.956,46.9378],[8.956,46.9368],[8.9577,46.9358],[8.9584,46.9345],[8.9568,46.9346],[8.9572,46.9338],[8.9599,46.9312],[8.9611,46.9317],[8.9627,46.931],[8.964,46.929],[8.9641,46.9283],[8.9638,46.9275],[8.9632,46.9267],[8.9626,46.9264],[8.9618,46.9263],[8.961,46.9265],[8.9606,46.9264],[8.9595,46.926],[8.9587,46.926],[8.9586,46.9263],[8.9578,46.9263],[8.9579,46.9259],[8.9573,46.9255],[8.9558,46.9261],[8.9543,46.9259],[8.9539,46.9257],[8.9538,46.9254],[8.9532,46.9252],[8.9526,46.9251],[8.9519,46.9252],[8.9515,46.925],[8.9504,46.9254],[8.9482,46.9254],[8.9481,46.9246],[8.9476,46.9241],[8.9463,46.9236],[8.946,46.9239],[8.9458,46.9237],[8.9443,46.9231],[8.9432,46.9221],[8.9419,46.9221],[8.9407,46.9224],[8.9403,46.9224],[8.9401,46.9222],[8.9399,46.9223],[8.939,46.9218],[8.9389,46.9212],[8.9379,46.9212],[8.9376,46.9206],[8.9377,46.9203],[8.937,46.9203],[8.9368,46.9201],[8.936,46.9203]]]}}