{"type":"Feature","bbox":[8.3846,45.8207,9.1638,46.6323],"properties":{"iso":"CH","code":"TI","name":"Ticino","name_de":"Kanton Tessin","key":"CH-TI"},"geometry":{"type":"Polygon","coordinates":[[[8.7322,46.1074],[8.7239,46.1095],[8.7177,46.1075],[8.7022,46.098],[8.6951,46.0952],[8.6775,46.0958],[8.6309,46.1147],[8.6115,46.1194],[8.6018,46.1228],[8.5387,46.1876],[8.5103,46.2079],[8.4827,46.2175],[8.4565,46.2248],[8.4381,46.2354],[8.4272,46.2514],[8.4232,46.2758],[8.4266,46.3016],[8.4429,46.3534],[8.4463,46.3822],[8.4458,46.4124],[8.4416,46.4349],[8.4279,46.4487],[8.3992,46.4522],[8.3859,46.4502],[8.3846,46.4621],[8.3871,46.4685],[8.3913,46.4757],[8.3964,46.4824],[8.397,46.4846],[8.3955,46.4885],[8.396,46.4909],[8.3992,46.4932],[8.408,46.495],[8.431,46.497],[8.4476,46.5046],[8.4769,46.5318],[8.5098,46.5509],[8.5238,46.5785],[8.5297,46.5831],[8.5371,46.5845],[8.5487,46.585],[8.6363,46.5712],[8.6779,46.5836],[8.7112,46.573],[8.7884,46.5681],[8.8473,46.5752],[8.8981,46.5892],[8.9077,46.5942],[8.9099,46.5975],[8.9093,46.6007],[8.9071,46.6038],[8.906,46.6083],[8.9076,46.6133],[8.9148,46.6204],[8.9296,46.6251],[8.9392,46.6266],[8.9474,46.6321],[8.953,46.6323],[8.956,46.6306],[8.9571,46.6254],[8.9598,46.6204],[8.9648,46.6148],[8.9988,46.6125],[9.0221,46.6049],[9.0352,46.5962],[9.0377,46.5938],[9.0385,46.5907],[9.0256,46.5713],[9.0228,46.564],[9.0191,46.5459],[9.0152,46.5335],[9.0214,46.5142],[9.027,46.5043],[9.0377,46.4918],[9.0486,46.4809],[9.0556,46.4787],[9.0623,46.4808],[9.0773,46.4823],[9.0888,46.4674],[9.0886,46.4533],[9.0866,46.4424],[9.0883,46.434],[9.092,46.427],[9.097,46.4202],[9.0978,46.4161],[9.0954,46.4118],[9.0922,46.4021],[9.088,46.3939],[9.0891,46.3637],[9.0855,46.3568],[9.0702,46.3368],[9.0685,46.3301],[9.071,46.3172],[9.0692,46.3123],[9.0652,46.3058],[9.057,46.299],[9.0565,46.2949],[9.0581,46.29],[9.0661,46.276],[9.0765,46.2616],[9.0775,46.2529],[9.0745,46.2401],[9.0764,46.2348],[9.0796,46.2296],[9.0875,46.2206],[9.0942,46.2165],[9.1107,46.2085],[9.1316,46.1908],[9.1403,46.1849],[9.1638,46.173],[9.0906,46.1382],[9.0721,46.1189],[9.0682,46.106],[9.0703,46.0834],[9.0671,46.0711],[9.0592,46.0618],[9.0497,46.0579],[9.0277,46.0531],[9.0021,46.0393],[8.9978,46.0279],[9.0156,45.9931],[8.9827,45.972],[8.9805,45.9695],[8.9798,45.9669],[8.9805,45.9644],[8.9827,45.9618],[8.9934,45.9543],[9.0017,45.9361],[9.0108,45.9267],[9.0205,45.9228],[9.0423,45.9197],[9.0517,45.9155],[9.0631,45.899],[9.0593,45.882],[9.0344,45.8481],[9.0024,45.8207],[8.9724,45.8246],[8.9396,45.8348],[8.9,45.8264],[8.9037,45.8418],[8.9097,45.8537],[8.9138,45.8661],[8.9121,45.8834],[8.9065,45.8965],[8.8981,45.9096],[8.8808,45.9311],[8.871,45.9471],[8.8645,45.9534],[8.8577,45.9571],[8.8004,45.9785],[8.7851,45.9823],[8.7679,45.9831],[8.7734,45.9906],[8.791,46.0187],[8.8196,46.0429],[8.8344,46.0664],[8.8089,46.0897],[8.7939,46.0934],[8.7632,46.0929],[8.7471,46.0944],[8.7395,46.0981],[8.7322,46.1074]]]}}