{"type":"Feature","bbox":[8.739,47.38,9.5531,47.6823],"properties":{"iso":"CH","code":"TG","name":"Thurgau","name_de":"Kanton Thurgau","key":"CH-TG"},"geometry":{"type":"Polygon","coordinates":[[[8.8519,47.6713],[8.8817,47.6561],[8.9062,47.6518],[8.9454,47.6543],[8.9818,47.6622],[8.9977,47.6738],[9.0166,47.6789],[9.1281,47.6704],[9.1834,47.6704],[9.1969,47.6561],[9.2344,47.6562],[9.2732,47.6501],[9.5475,47.5345],[9.5531,47.5169],[9.4597,47.4964],[9.4559,47.4966],[9.446,47.5001],[9.444,47.5029],[9.4485,47.5122],[9.4384,47.5167],[9.3874,47.4907],[9.3805,47.4814],[9.374,47.4831],[9.3653,47.488],[9.343,47.5075],[9.3407,47.5122],[9.3439,47.5176],[9.3444,47.5254],[9.3351,47.5354],[9.3209,47.5351],[9.3159,47.5341],[9.3113,47.5327],[9.3063,47.5295],[9.3034,47.5287],[9.2952,47.5284],[9.2832,47.526],[9.2737,47.5204],[9.2699,47.5212],[9.268,47.5207],[9.2663,47.5194],[9.2664,47.5168],[9.2702,47.5152],[9.2808,47.5142],[9.2924,47.5165],[9.2998,47.5158],[9.3049,47.5008],[9.3012,47.493],[9.2989,47.49],[9.2952,47.4861],[9.2897,47.4834],[9.2829,47.4819],[9.2746,47.4833],[9.2688,47.4829],[9.2557,47.4774],[9.2381,47.4791],[9.1991,47.485],[9.1664,47.4956],[9.1515,47.5076],[9.1425,47.4965],[9.1378,47.4927],[9.1299,47.4896],[9.1133,47.4879],[9.1009,47.4878],[9.0883,47.4901],[9.0756,47.4891],[9.0727,47.4896],[9.0657,47.4957],[9.0624,47.4961],[9.0452,47.4943],[9.0391,47.4944],[9.0312,47.4964],[9.0276,47.4957],[9.0193,47.4897],[9.0036,47.4862],[9.0004,47.4819],[9.0013,47.4768],[9.0035,47.4735],[9.0312,47.4601],[9.0326,47.4464],[9.0321,47.443],[9.0303,47.4405],[9.0267,47.4389],[9.0143,47.4375],[9.0008,47.4335],[8.9936,47.4346],[8.9891,47.4335],[8.9854,47.4299],[8.9743,47.4127],[8.9645,47.4049],[8.9507,47.3879],[8.9425,47.3804],[8.9324,47.38],[8.8925,47.4086],[8.9001,47.4156],[8.9041,47.4233],[8.9055,47.4303],[8.9114,47.435],[8.9114,47.4364],[8.9034,47.4395],[8.8934,47.4461],[8.8886,47.4666],[8.8788,47.4708],[8.8766,47.4737],[8.8743,47.4795],[8.8754,47.4845],[8.8816,47.4879],[8.8855,47.4921],[8.8855,47.4953],[8.8844,47.4984],[8.8911,47.5249],[8.8885,47.5282],[8.8815,47.532],[8.8518,47.5402],[8.8418,47.5441],[8.8359,47.5488],[8.832,47.5578],[8.8385,47.5662],[8.8275,47.5756],[8.7638,47.5968],[8.7517,47.5995],[8.7393,47.6106],[8.739,47.6128],[8.7412,47.6149],[8.7472,47.6183],[8.7544,47.62],[8.7615,47.6193],[8.776,47.6143],[8.7859,47.608],[8.7933,47.6075],[8.7995,47.6153],[8.8082,47.6219],[8.82,47.6362],[8.8217,47.6411],[8.8202,47.6453],[8.8088,47.6541],[8.805,47.6674],[8.7885,47.6626],[8.8003,47.6818],[8.8099,47.6788],[8.8215,47.6823],[8.8519,47.6713]]]}}