{"type":"Feature","bbox":[6.7706,45.8582,8.4785,46.654],"properties":{"iso":"CH","code":"VS","name":"Valais","name_de":"Kanton Wallis","source":"swisstopo","key":"CH-VS"},"geometry":{"type":"Polygon","coordinates":[[[8.4776,46.5276],[8.4775,46.5274],[8.4776,46.5272],[8.4785,46.5268],[8.4785,46.5256],[8.478,46.5249],[8.4768,46.5243],[8.4749,46.524],[8.4739,46.5235],[8.4728,46.5232],[8.4721,46.5222],[8.4716,46.5221],[8.4714,46.5215],[8.471,46.5213],[8.4706,46.5207],[8.4711,46.5202],[8.4707,46.5199],[8.4686,46.5186],[8.4676,46.5185],[8.4672,46.5181],[8.4668,46.518],[8.4661,46.5176],[8.466,46.5172],[8.4662,46.5168],[8.4649,46.5161],[8.4627,46.5144],[8.4618,46.5126],[8.4604,46.5113],[8.4587,46.5101],[8.4549,46.5079],[8.4543,46.5077],[8.453,46.5081],[8.4517,46.5078],[8.4494,46.5045],[8.4458,46.4987],[8.4449,46.4977],[8.4448,46.4975],[8.4451,46.4969],[8.4439,46.4961],[8.4431,46.4954],[8.442,46.4956],[8.4405,46.4961],[8.4389,46.496],[8.4376,46.4962],[8.4361,46.4968],[8.4345,46.4971],[8.4317,46.497],[8.4302,46.4959],[8.4286,46.4955],[8.4275,46.495],[8.4264,46.4949],[8.4235,46.4943],[8.4197,46.4926],[8.4186,46.4928],[8.4177,46.4932],[8.4172,46.4938],[8.4166,46.4938],[8.4154,46.4942],[8.4148,46.4947],[8.4144,46.4947],[8.412,46.4939],[8.4116,46.4937],[8.4111,46.4928],[8.4094,46.4926],[8.4056,46.4927],[8.4014,46.4924],[8.4005,46.4927],[8.3999,46.4935],[8.3988,46.4942],[8.396,46.4941],[8.3948,46.4939],[8.3946,46.4941],[8.3937,46.4943],[8.3932,46.4943],[8.3924,46.4946],[8.3922,46.4941],[8.3917,46.4935],[8.3916,46.4919],[8.394,46.4884],[8.3943,46.4877],[8.3942,46.4874],[8.3946,46.486],[8.3947,46.485],[8.3943,46.4837],[8.3938,46.4834],[8.3922,46.483],[8.3915,46.4826],[8.3913,46.4817],[8.39,46.4802],[8.3871,46.4779],[8.3883,46.4777],[8.3883,46.4774],[8.3876,46.4771],[8.3865,46.477],[8.3864,46.4767],[8.3864,46.4764],[8.3868,46.4761],[8.386,46.4757],[8.3874,46.4745],[8.388,46.4744],[8.389,46.4735],[8.3896,46.4726],[8.3893,46.4708],[8.39,46.4697],[8.3909,46.4695],[8.3923,46.4696],[8.3923,46.4687],[8.3925,46.468],[8.3904,46.4673],[8.3885,46.4673],[8.3868,46.4664],[8.3855,46.4656],[8.386,46.4648],[8.3864,46.4632],[8.3857,46.4618],[8.3834,46.4602],[8.3823,46.4599],[8.3822,46.4593],[8.3833,46.4566],[8.3839,46.4543],[8.3842,46.4538],[8.3843,46.4527],[8.3847,46.4523],[8.3847,46.4522],[8.3833,46.4513],[8.3825,46.4512],[8.3822,46.4509],[8.3818,46.4509],[8.3798,46.4509],[8.3793,46.4508],[8.3785,46.451],[8.3778,46.4509],[8.3778,46.4512],[8.3774,46.4515],[8.3773,46.4519],[8.3771,46.4521],[8.3762,46.4519],[8.3762,46.4521],[8.3758,46.4523],[8.376,46.4524],[8.3759,46.4526],[8.3756,46.4526],[8.3753,46.4531],[8.3669,46.4519],[8.3558,46.447],[8.3555,46.4465],[8.3548,46.4462],[8.3542,46.4455],[8.354,46.4449],[8.3536,46.4444],[8.3537,46.4439],[8.3525,46.4416],[8.352,46.4414],[8.3508,46.4415],[8.3509,46.4413],[8.3504,46.4411],[8.3504,46.4408],[8.3495,46.4405],[8.3489,46.4401],[8.349,46.4399],[8.3462,46.4385],[8.3463,46.4383],[8.3459,46.4382],[8.3459,46.4379],[8.3452,46.4375],[8.3439,46.4372],[8.3429,46.4367],[8.3422,46.4358],[8.3406,46.435],[8.3404,46.4345],[8.3405,46.4344],[8.3395,46.4333],[8.3386,46.4329],[8.338,46.4324],[8.3369,46.432],[8.3368,46.4317],[8.3356,46.4314],[8.3355,46.431],[8.3338,46.4303],[8.3315,46.4297],[8.3296,46.4281],[8.3287,46.4279],[8.328,46.4283],[8.3283,46.4278],[8.3274,46.4274],[8.3271,46.4269],[8.3266,46.4268],[8.3262,46.4265],[8.3262,46.4262],[8.3257,46.426],[8.3254,46.4257],[8.3245,46.4254],[8.3204,46.4248],[8.315,46.4236],[8.3129,46.4237],[8.3096,46.4243],[8.3077,46.4259],[8.3075,46.4259],[8.3074,46.4253],[8.3067,46.4244],[8.3053,46.4243],[8.3047,46.4236],[8.3038,46.4233],[8.3035,46.4226],[8.3029,46.422],[8.303,46.4219],[8.3029,46.4208],[8.3023,46.4203],[8.3019,46.4196],[8.3013,46.4193],[8.3013,46.4191],[8.3006,46.4186],[8.3006,46.4185],[8.2999,46.4182],[8.2989,46.4174],[8.2989,46.4173],[8.2996,46.4166],[8.2986,46.416],[8.299,46.4156],[8.2986,46.4155],[8.2987,46.4153],[8.2986,46.4152],[8.299,46.4146],[8.2989,46.4142],[8.2976,46.4134],[8.2973,46.4129],[8.2957,46.4119],[8.2951,46.4118],[8.2951,46.4114],[8.2924,46.4105],[8.2919,46.41],[8.2913,46.409],[8.2889,46.4083],[8.2889,46.4081],[8.2891,46.4079],[8.2897,46.4074],[8.2897,46.4072],[8.291,46.4073],[8.2921,46.4065],[8.293,46.4065],[8.293,46.4063],[8.2934,46.406],[8.2938,46.4054],[8.2944,46.4051],[8.2956,46.4047],[8.2972,46.4047],[8.2991,46.4049],[8.2994,46.4046],[8.3035,46.4025],[8.3046,46.4025],[8.3066,46.402],[8.3081,46.4027],[8.3083,46.403],[8.3097,46.404],[8.3096,46.4038],[8.3102,46.4024],[8.3115,46.4016],[8.3114,46.4013],[8.3125,46.4009],[8.3134,46.4],[8.3147,46.3992],[8.3157,46.399],[8.3159,46.3986],[8.3158,46.398],[8.316,46.397],[8.317,46.3957],[8.3172,46.3951],[8.3171,46.395],[8.3173,46.394],[8.3172,46.3937],[8.3169,46.3935],[8.3147,46.3922],[8.3146,46.3913],[8.3141,46.3907],[8.3142,46.3903],[8.3142,46.3898],[8.3145,46.3894],[8.3146,46.389],[8.3148,46.3886],[8.3161,46.3884],[8.3173,46.3871],[8.3184,46.387],[8.3186,46.3869],[8.3187,46.3861],[8.3181,46.3858],[8.3168,46.3845],[8.316,46.3841],[8.3149,46.3839],[8.3149,46.3831],[8.3146,46.3825],[8.3139,46.3818],[8.3148,46.3806],[8.3146,46.3805],[8.3146,46.3801],[8.3138,46.3793],[8.3138,46.379],[8.3127,46.3782],[8.3128,46.3777],[8.3125,46.3776],[8.3129,46.3771],[8.3108,46.3765],[8.3104,46.3765],[8.3091,46.3763],[8.3075,46.3754],[8.3064,46.3752],[8.304,46.3752],[8.3026,46.3746],[8.3,46.3741],[8.2988,46.3729],[8.298,46.3728],[8.2971,46.372],[8.2955,46.3715],[8.2956,46.3712],[8.2951,46.3705],[8.293,46.3698],[8.2915,46.3699],[8.2903,46.3694],[8.2905,46.3693],[8.2898,46.3691],[8.2898,46.3689],[8.2893,46.3681],[8.2876,46.3674],[8.2875,46.3671],[8.287,46.367],[8.2869,46.3668],[8.287,46.3667],[8.2854,46.366],[8.2852,46.365],[8.2847,46.3644],[8.2847,46.3641],[8.2843,46.3636],[8.2838,46.3635],[8.2831,46.3636],[8.2826,46.3641],[8.2818,46.3645],[8.2803,46.3643],[8.2792,46.3648],[8.2784,46.3649],[8.2781,46.3651],[8.2777,46.3651],[8.2769,46.3654],[8.2753,46.3654],[8.2751,46.366],[8.2747,46.3661],[8.2747,46.3664],[8.2731,46.3669],[8.2727,46.3668],[8.2715,46.3662],[8.2693,46.3658],[8.2686,46.3654],[8.2673,46.365],[8.2657,46.3648],[8.2654,46.3643],[8.2645,46.3644],[8.2638,46.364],[8.2635,46.3634],[8.2629,46.363],[8.2627,46.3625],[8.2623,46.3624],[8.2623,46.3619],[8.2613,46.3611],[8.2608,46.3608],[8.2607,46.3605],[8.2611,46.3599],[8.2625,46.359],[8.2628,46.3585],[8.2633,46.3583],[8.2642,46.3583],[8.2643,46.3579],[8.265,46.3571],[8.2644,46.356],[8.2648,46.3546],[8.2648,46.3536],[8.2652,46.3532],[8.2653,46.3528],[8.2659,46.3518],[8.2639,46.3512],[8.2637,46.3514],[8.2628,46.351],[8.2626,46.3503],[8.2621,46.3504],[8.2617,46.3502],[8.2613,46.3497],[8.26,46.3489],[8.2599,46.3487],[8.2609,46.3481],[8.2624,46.3478],[8.2628,46.347],[8.2627,46.3468],[8.2628,46.3466],[8.2632,46.3464],[8.263,46.3463],[8.2629,46.346],[8.2599,46.3452],[8.2595,46.3454],[8.2594,46.3461],[8.259,46.3464],[8.2581,46.3463],[8.2571,46.3465],[8.2567,46.3464],[8.2556,46.3465],[8.2545,46.3461],[8.2535,46.3465],[8.2529,46.3464],[8.2528,46.3461],[8.2519,46.3459],[8.2511,46.3449],[8.2509,46.3428],[8.2505,46.3424],[8.25,46.3408],[8.2487,46.3404],[8.2475,46.3404],[8.2471,46.3401],[8.2461,46.3401],[8.2453,46.3398],[8.2444,46.3401],[8.243,46.34],[8.2414,46.3396],[8.2404,46.3396],[8.24,46.3401],[8.2394,46.3403],[8.2386,46.3402],[8.2382,46.3404],[8.2374,46.3406],[8.2365,46.3406],[8.2354,46.3404],[8.2353,46.3402],[8.2344,46.3399],[8.2341,46.3396],[8.2333,46.339],[8.2325,46.3381],[8.2308,46.3375],[8.2302,46.3371],[8.2293,46.3369],[8.2284,46.3363],[8.228,46.3357],[8.224,46.3344],[8.2237,46.3341],[8.224,46.3334],[8.225,46.3329],[8.2245,46.3323],[8.2245,46.3319],[8.2239,46.3317],[8.2241,46.3315],[8.224,46.3313],[8.2234,46.3311],[8.2229,46.3306],[8.2216,46.3302],[8.2219,46.33],[8.2219,46.3298],[8.223,46.3295],[8.2235,46.329],[8.2233,46.3286],[8.2234,46.3283],[8.223,46.328],[8.223,46.3279],[8.2235,46.3276],[8.2229,46.3269],[8.223,46.3267],[8.2243,46.3268],[8.2248,46.3264],[8.2251,46.3264],[8.2239,46.3254],[8.2234,46.3243],[8.222,46.3235],[8.2217,46.323],[8.2201,46.3227],[8.2195,46.3222],[8.2186,46.3218],[8.2173,46.3207],[8.2161,46.3203],[8.2153,46.3203],[8.2147,46.3197],[8.2148,46.3188],[8.2145,46.3186],[8.2145,46.3184],[8.2149,46.3162],[8.2142,46.3155],[8.2138,46.3153],[8.2134,46.3149],[8.2127,46.3146],[8.2119,46.3138],[8.212,46.3136],[8.2116,46.3136],[8.2115,46.3133],[8.2117,46.3128],[8.2112,46.3126],[8.2115,46.3118],[8.2116,46.3106],[8.212,46.3098],[8.2122,46.3096],[8.212,46.3093],[8.2116,46.3093],[8.2102,46.3088],[8.199,46.3026],[8.1988,46.3023],[8.198,46.3021],[8.1962,46.3023],[8.195,46.3029],[8.1944,46.3034],[8.1933,46.3028],[8.192,46.3024],[8.1901,46.3023],[8.1885,46.3013],[8.1859,46.3009],[8.1841,46.2997],[8.1834,46.2997],[8.1834,46.2993],[8.1832,46.2992],[8.1825,46.299],[8.1807,46.2983],[8.1801,46.2977],[8.1789,46.2974],[8.1774,46.2975],[8.1769,46.2978],[8.1762,46.2975],[8.175,46.2978],[8.1747,46.2977],[8.1747,46.2975],[8.175,46.297],[8.17,46.2971],[8.1684,46.2966],[8.1666,46.297],[8.1653,46.2969],[8.164,46.2964],[8.1623,46.2963],[8.1614,46.2959],[8.161,46.2959],[8.1587,46.2962],[8.156,46.2971],[8.1555,46.2974],[8.1555,46.2978],[8.155,46.2982],[8.1529,46.2991],[8.1525,46.2995],[8.1499,46.2998],[8.1499,46.3003],[8.1496,46.3006],[8.1482,46.3012],[8.1473,46.3013],[8.147,46.3015],[8.1451,46.3019],[8.1427,46.3019],[8.141,46.3021],[8.1394,46.3019],[8.1384,46.3019],[8.1374,46.3017],[8.1369,46.3014],[8.1369,46.3012],[8.1363,46.301],[8.1361,46.3007],[8.1348,46.2998],[8.134,46.299],[8.1333,46.299],[8.1329,46.2982],[8.1309,46.2973],[8.1301,46.2962],[8.1293,46.2959],[8.129,46.2956],[8.1289,46.2948],[8.1252,46.2945],[8.1243,46.2942],[8.1228,46.293],[8.1219,46.2927],[8.1218,46.2924],[8.1209,46.2919],[8.121,46.2912],[8.1195,46.29],[8.1188,46.2891],[8.1187,46.2889],[8.1189,46.2885],[8.1187,46.2879],[8.1187,46.2877],[8.1185,46.2876],[8.1187,46.2868],[8.1184,46.2866],[8.1183,46.286],[8.1181,46.2858],[8.1173,46.2857],[8.1166,46.2851],[8.1154,46.2835],[8.115,46.2824],[8.1136,46.2811],[8.1115,46.2802],[8.1107,46.2802],[8.1103,46.2805],[8.1097,46.2804],[8.1096,46.2802],[8.1091,46.2801],[8.1089,46.2798],[8.1055,46.2796],[8.1053,46.2795],[8.1051,46.279],[8.1048,46.2785],[8.1041,46.278],[8.1043,46.2777],[8.1037,46.2765],[8.102,46.2756],[8.1019,46.275],[8.1012,46.2746],[8.1005,46.2737],[8.0994,46.2732],[8.0982,46.273],[8.0973,46.2723],[8.0967,46.2712],[8.0959,46.2709],[8.0952,46.271],[8.0947,46.2705],[8.0939,46.2703],[8.0937,46.2696],[8.0929,46.2691],[8.09,46.2677],[8.0875,46.2674],[8.0859,46.2666],[8.0866,46.2663],[8.0865,46.2659],[8.0869,46.2656],[8.0867,46.2651],[8.0863,46.265],[8.0862,46.2646],[8.0863,46.2637],[8.0861,46.2629],[8.0863,46.2626],[8.0861,46.2621],[8.0849,46.2615],[8.085,46.2614],[8.0843,46.261],[8.0804,46.2606],[8.0816,46.2576],[8.0826,46.2565],[8.0835,46.2561],[8.0854,46.2558],[8.0861,46.2556],[8.0863,46.2552],[8.0862,46.2547],[8.0862,46.2543],[8.0877,46.2538],[8.0899,46.2534],[8.0936,46.253],[8.097,46.2525],[8.0977,46.2526],[8.0983,46.2532],[8.0985,46.2532],[8.0991,46.2531],[8.0999,46.2525],[8.1014,46.2524],[8.1018,46.2522],[8.1021,46.2507],[8.1016,46.2495],[8.1054,46.2501],[8.1072,46.25],[8.1074,46.2499],[8.1102,46.2495],[8.1116,46.2468],[8.112,46.2453],[8.1116,46.2443],[8.1118,46.2434],[8.1114,46.2426],[8.1116,46.2413],[8.1115,46.2411],[8.1126,46.2404],[8.1129,46.2394],[8.1129,46.239],[8.113,46.2387],[8.114,46.2381],[8.1149,46.2378],[8.115,46.2365],[8.1153,46.236],[8.1176,46.2366],[8.1195,46.2364],[8.1205,46.236],[8.1205,46.2358],[8.1208,46.2357],[8.1206,46.2353],[8.1215,46.2345],[8.1216,46.2342],[8.122,46.2339],[8.1224,46.2331],[8.1229,46.2328],[8.123,46.2323],[8.1234,46.2321],[8.1234,46.2319],[8.1242,46.2314],[8.1239,46.231],[8.1244,46.2305],[8.1243,46.2296],[8.1252,46.2296],[8.1263,46.2293],[8.1265,46.2289],[8.1273,46.2283],[8.1303,46.228],[8.1336,46.2265],[8.1389,46.2261],[8.1435,46.2116],[8.1459,46.2091],[8.1492,46.2051],[8.1498,46.2049],[8.1501,46.2046],[8.1514,46.2028],[8.1514,46.2022],[8.1515,46.2019],[8.1514,46.2008],[8.1515,46.1989],[8.1518,46.1986],[8.1522,46.1975],[8.1521,46.1971],[8.1513,46.1961],[8.1523,46.1958],[8.153,46.1934],[8.1533,46.1911],[8.1572,46.1895],[8.165,46.1829],[8.1655,46.1822],[8.166,46.1805],[8.1654,46.1793],[8.1655,46.1791],[8.1651,46.1784],[8.1651,46.1779],[8.1654,46.1776],[8.1651,46.1773],[8.1653,46.1769],[8.164,46.1767],[8.1632,46.1761],[8.1622,46.1761],[8.162,46.1756],[8.1613,46.1755],[8.161,46.1751],[8.1604,46.1752],[8.1601,46.1749],[8.1598,46.1749],[8.1586,46.1741],[8.1576,46.1728],[8.1569,46.1708],[8.1567,46.1693],[8.1557,46.168],[8.1549,46.1678],[8.1537,46.1668],[8.1525,46.1663],[8.1511,46.1653],[8.1506,46.1644],[8.1503,46.1627],[8.1499,46.1625],[8.1499,46.162],[8.1496,46.1615],[8.1498,46.1609],[8.1495,46.1606],[8.1494,46.1598],[8.1497,46.159],[8.1496,46.1586],[8.1498,46.1581],[8.1497,46.1573],[8.1497,46.1569],[8.1506,46.1561],[8.1506,46.1559],[8.1515,46.1549],[8.1523,46.1548],[8.1531,46.154],[8.1529,46.1529],[8.1534,46.1526],[8.1532,46.1521],[8.1536,46.1516],[8.1534,46.1511],[8.1534,46.1503],[8.1531,46.15],[8.1532,46.1494],[8.1536,46.1487],[8.1532,46.1485],[8.1553,46.1476],[8.154,46.147],[8.1539,46.146],[8.1534,46.1454],[8.1527,46.145],[8.1523,46.1443],[8.1514,46.1434],[8.1511,46.1425],[8.1509,46.1424],[8.1502,46.1415],[8.15,46.1407],[8.1493,46.1405],[8.1482,46.1398],[8.1463,46.1378],[8.1449,46.1373],[8.1444,46.1368],[8.1434,46.1368],[8.1422,46.136],[8.1384,46.1358],[8.1375,46.1362],[8.1373,46.1364],[8.137,46.1365],[8.1363,46.137],[8.1356,46.137],[8.1344,46.1367],[8.1334,46.1367],[8.1321,46.1361],[8.1303,46.136],[8.1266,46.1355],[8.1254,46.1351],[8.1252,46.1353],[8.1245,46.1346],[8.1234,46.1348],[8.1233,46.1346],[8.1233,46.1342],[8.1218,46.1327],[8.1211,46.1325],[8.1207,46.1322],[8.1201,46.1322],[8.1189,46.132],[8.1183,46.1313],[8.1175,46.1309],[8.1154,46.1303],[8.1149,46.1297],[8.1146,46.1295],[8.1153,46.1293],[8.1153,46.1284],[8.1154,46.1283],[8.1153,46.1281],[8.1159,46.1274],[8.116,46.1271],[8.1157,46.127],[8.1155,46.1265],[8.1155,46.1261],[8.1142,46.1241],[8.1145,46.1234],[8.1153,46.1222],[8.1146,46.1213],[8.1145,46.1205],[8.1137,46.1197],[8.1138,46.1174],[8.1129,46.1162],[8.1119,46.1158],[8.1107,46.1156],[8.1098,46.115],[8.1095,46.114],[8.1099,46.1136],[8.1099,46.1132],[8.1091,46.1124],[8.1082,46.1116],[8.1061,46.1117],[8.105,46.1115],[8.1047,46.1113],[8.1041,46.1113],[8.1026,46.1108],[8.102,46.1104],[8.1015,46.1104],[8.1003,46.111],[8.0999,46.111],[8.0994,46.1108],[8.0994,46.1102],[8.0985,46.1096],[8.0979,46.1089],[8.0971,46.1084],[8.0968,46.1085],[8.0943,46.1081],[8.0936,46.1082],[8.0914,46.1076],[8.0905,46.1076],[8.0895,46.1072],[8.0891,46.1069],[8.0885,46.1068],[8.0874,46.107],[8.0866,46.1069],[8.0856,46.1065],[8.0853,46.1061],[8.084,46.1061],[8.0818,46.1054],[8.0805,46.1053],[8.0789,46.106],[8.0777,46.1059],[8.0773,46.1063],[8.074,46.1061],[8.0728,46.1063],[8.0726,46.1064],[8.0722,46.1063],[8.0719,46.106],[8.0698,46.1058],[8.0692,46.106],[8.0682,46.1054],[8.0646,46.1048],[8.064,46.1049],[8.062,46.1039],[8.0604,46.1034],[8.0602,46.1032],[8.0589,46.1026],[8.058,46.1024],[8.0578,46.1021],[8.0549,46.1016],[8.0543,46.1013],[8.0537,46.1013],[8.0524,46.102],[8.051,46.1019],[8.0491,46.1023],[8.048,46.1014],[8.0476,46.1014],[8.0475,46.1012],[8.0441,46.1001],[8.0431,46.0999],[8.041,46.1007],[8.0405,46.1004],[8.0396,46.1003],[8.0388,46.1],[8.0365,46.1008],[8.0358,46.1008],[8.0355,46.1007],[8.0348,46.1008],[8.0347,46.1003],[8.0342,46.1001],[8.034,46.0996],[8.0337,46.0995],[8.0338,46.0994],[8.0336,46.0992],[8.0335,46.0986],[8.0335,46.0979],[8.0338,46.0973],[8.0337,46.097],[8.0334,46.0968],[8.0339,46.0953],[8.0336,46.0951],[8.0334,46.0945],[8.0324,46.0939],[8.0321,46.0934],[8.032,46.0929],[8.0312,46.0924],[8.0309,46.0919],[8.0307,46.0918],[8.0309,46.0915],[8.0307,46.0906],[8.0296,46.0896],[8.0296,46.089],[8.0298,46.0889],[8.0298,46.0884],[8.0304,46.0875],[8.03,46.0865],[8.0303,46.086],[8.0303,46.0854],[8.0298,46.0849],[8.0298,46.0843],[8.0296,46.0842],[8.0298,46.084],[8.0297,46.0837],[8.0299,46.0832],[8.0295,46.0828],[8.0293,46.0818],[8.0289,46.0815],[8.0291,46.0812],[8.0291,46.0809],[8.0287,46.0804],[8.027,46.0798],[8.0272,46.0796],[8.027,46.0794],[8.0265,46.0795],[8.0262,46.079],[8.026,46.0784],[8.0254,46.078],[8.025,46.0773],[8.0246,46.077],[8.0241,46.0763],[8.0234,46.076],[8.0235,46.0752],[8.0225,46.0747],[8.0224,46.0742],[8.0231,46.0726],[8.023,46.0719],[8.0228,46.0717],[8.0227,46.0711],[8.0223,46.0707],[8.0218,46.0697],[8.0219,46.0696],[8.0217,46.0694],[8.0218,46.0687],[8.0225,46.0684],[8.0234,46.0678],[8.0246,46.0675],[8.0246,46.0673],[8.0242,46.0668],[8.0244,46.0663],[8.0244,46.0658],[8.0247,46.0654],[8.0241,46.0647],[8.0239,46.0641],[8.0239,46.063],[8.0248,46.0625],[8.0252,46.0621],[8.0255,46.0615],[8.0253,46.061],[8.0259,46.0604],[8.0263,46.059],[8.0261,46.0587],[8.0267,46.0585],[8.0269,46.058],[8.0275,46.0574],[8.0278,46.0568],[8.0284,46.0563],[8.0285,46.0558],[8.0289,46.0553],[8.0305,46.0529],[8.0307,46.0519],[8.0303,46.0515],[8.0306,46.0509],[8.0305,46.0506],[8.0312,46.0501],[8.0315,46.0493],[8.0316,46.0487],[8.0322,46.048],[8.0321,46.0478],[8.034,46.0462],[8.0339,46.046],[8.0343,46.0457],[8.0342,46.045],[8.0348,46.0445],[8.0348,46.0443],[8.0354,46.044],[8.0352,46.0438],[8.0322,46.0422],[8.0321,46.042],[8.031,46.0416],[8.028,46.0411],[8.0258,46.0403],[8.0244,46.04],[8.0231,46.0394],[8.0228,46.0391],[8.0221,46.039],[8.0218,46.0388],[8.0219,46.0387],[8.0205,46.0377],[8.0202,46.0377],[8.0199,46.0371],[8.0195,46.0372],[8.0193,46.0368],[8.0188,46.0365],[8.0181,46.0352],[8.0168,46.0344],[8.016,46.0335],[8.014,46.0324],[8.0131,46.0323],[8.0119,46.0312],[8.0142,46.0301],[8.0148,46.029],[8.0156,46.0283],[8.0164,46.0264],[8.0175,46.0247],[8.0145,46.0223],[8.0133,46.0219],[8.0127,46.0215],[8.0125,46.0213],[8.0116,46.0195],[8.0108,46.0189],[8.0109,46.0186],[8.0123,46.018],[8.0126,46.017],[8.013,46.0165],[8.0132,46.0159],[8.0131,46.0138],[8.0123,46.0122],[8.0124,46.012],[8.0094,46.0115],[8.0064,46.0114],[8.0046,46.0117],[8.0027,46.0117],[8.0011,46.0122],[8.0007,46.0118],[7.9999,46.0101],[8.0,46.0092],[8.0001,46.009],[7.9998,46.0085],[7.9991,46.0079],[7.9991,46.0077],[7.9988,46.0075],[7.9989,46.0074],[7.9985,46.0073],[7.9974,46.0061],[7.9972,46.0053],[7.9968,46.0049],[7.9968,46.0046],[7.9962,46.0037],[7.9954,46.0036],[7.9946,46.0027],[7.994,46.0022],[7.994,46.0018],[7.9942,46.0015],[7.9941,46.0008],[7.9944,46.0005],[7.9939,45.9999],[7.9929,45.9989],[7.9924,45.9988],[7.9923,45.9985],[7.9915,45.9984],[7.9905,45.9973],[7.9896,45.9969],[7.9895,45.9963],[7.9891,45.9959],[7.9859,45.9963],[7.9831,45.9973],[7.983,45.9975],[7.9827,45.9974],[7.9827,45.9979],[7.9824,45.998],[7.9821,45.9979],[7.9811,45.9983],[7.9805,45.9983],[7.9803,45.9984],[7.9803,45.9985],[7.9801,45.9985],[7.9799,45.9987],[7.9796,45.9992],[7.9771,45.9995],[7.975,45.9992],[7.9742,45.9988],[7.973,45.9989],[7.9717,45.9985],[7.9708,45.9981],[7.9697,45.9981],[7.9678,45.9978],[7.9654,45.997],[7.9638,45.9972],[7.9627,45.9972],[7.9622,45.9971],[7.9613,45.9967],[7.9592,45.9966],[7.9583,45.9962],[7.9573,45.9961],[7.9563,45.9963],[7.9556,45.9968],[7.9545,45.9971],[7.9537,45.9971],[7.9527,45.9974],[7.9515,45.9972],[7.9507,45.9972],[7.9495,45.9976],[7.9478,45.9975],[7.9443,45.9976],[7.9431,45.9974],[7.9415,45.9974],[7.9401,45.9972],[7.9397,45.9969],[7.9376,45.997],[7.9353,45.9967],[7.933,45.9962],[7.9326,45.996],[7.9311,45.9966],[7.9302,45.9966],[7.9296,45.997],[7.9276,45.9972],[7.9245,45.9972],[7.9234,45.9971],[7.9226,45.9969],[7.9214,45.9964],[7.92,45.9963],[7.919,45.9959],[7.9171,45.9963],[7.9166,45.9963],[7.9163,45.9965],[7.9155,45.9963],[7.9132,45.9964],[7.9114,45.9968],[7.9087,45.9969],[7.9083,45.9962],[7.9072,45.9953],[7.9062,45.9939],[7.9061,45.9926],[7.9059,45.9924],[7.9059,45.992],[7.9057,45.9919],[7.9048,45.9902],[7.904,45.9893],[7.904,45.9891],[7.9035,45.9887],[7.9016,45.9884],[7.9008,45.9878],[7.9005,45.9873],[7.9015,45.9865],[7.9011,45.9857],[7.9004,45.9853],[7.8995,45.9851],[7.898,45.9843],[7.8972,45.9842],[7.8963,45.9834],[7.8958,45.9824],[7.8951,45.9817],[7.8941,45.9803],[7.8938,45.9786],[7.8936,45.9786],[7.8935,45.9784],[7.8928,45.9781],[7.8923,45.9775],[7.8913,45.9773],[7.8906,45.9775],[7.89,45.9771],[7.8881,45.9769],[7.8871,45.9767],[7.8864,45.9761],[7.886,45.976],[7.8856,45.976],[7.885,45.9758],[7.8845,45.9755],[7.8844,45.9752],[7.8839,45.975],[7.8828,45.9753],[7.88,45.9742],[7.8792,45.9737],[7.8774,45.9739],[7.8771,45.9727],[7.8772,45.9723],[7.8776,45.972],[7.8774,45.9716],[7.8776,45.9713],[7.8798,45.9699],[7.8802,45.9694],[7.8802,45.9688],[7.8815,45.9678],[7.8815,45.967],[7.8808,45.9668],[7.8805,45.9664],[7.8805,45.9659],[7.8812,45.9646],[7.8818,45.964],[7.88,45.9631],[7.8786,45.9622],[7.8776,45.9614],[7.8774,45.9608],[7.8778,45.9598],[7.8778,45.9591],[7.8761,45.9587],[7.8753,45.9585],[7.8749,45.9581],[7.8749,45.9579],[7.8754,45.957],[7.8758,45.9565],[7.8763,45.9561],[7.8769,45.9559],[7.8772,45.9556],[7.8772,45.9552],[7.8775,45.9549],[7.8787,45.9545],[7.8789,45.9543],[7.878,45.9536],[7.8777,45.953],[7.8773,45.9528],[7.8772,45.9522],[7.8774,45.9516],[7.8774,45.9508],[7.8775,45.9502],[7.8771,45.949],[7.8765,45.9488],[7.8752,45.9487],[7.8732,45.9481],[7.8719,45.9481],[7.8704,45.9474],[7.8701,45.9426],[7.8692,45.9403],[7.869,45.9382],[7.8686,45.9376],[7.8686,45.9374],[7.8691,45.9372],[7.869,45.9369],[7.8684,45.9367],[7.8697,45.9357],[7.871,45.9349],[7.8712,45.9341],[7.8714,45.9321],[7.8727,45.9318],[7.874,45.9312],[7.8741,45.9302],[7.8771,45.9272],[7.875,45.9244],[7.8737,45.9223],[7.8731,45.9205],[7.8721,45.9198],[7.8704,45.9194],[7.8663,45.9196],[7.8652,45.9177],[7.8641,45.9168],[7.8609,45.9179],[7.8604,45.9193],[7.8597,45.9203],[7.8585,45.9209],[7.8559,45.9212],[7.8507,45.9206],[7.8475,45.9208],[7.8429,45.922],[7.8407,45.922],[7.8367,45.9217],[7.8356,45.9224],[7.8339,45.923],[7.8328,45.9245],[7.8314,45.925],[7.829,45.9253],[7.8266,45.9261],[7.8241,45.9263],[7.8218,45.927],[7.8204,45.927],[7.8192,45.9266],[7.8149,45.9242],[7.8142,45.9236],[7.8131,45.9234],[7.8118,45.9235],[7.8099,45.923],[7.8087,45.9223],[7.8054,45.9192],[7.8015,45.9175],[7.7995,45.9171],[7.7991,45.9175],[7.794,45.92],[7.7932,45.9208],[7.7932,45.9218],[7.7923,45.9224],[7.7917,45.9233],[7.7917,45.9242],[7.7908,45.9249],[7.7891,45.9256],[7.7862,45.9276],[7.7848,45.9278],[7.7819,45.9291],[7.7791,45.93],[7.7766,45.9311],[7.7762,45.9313],[7.7752,45.9328],[7.7745,45.9327],[7.7736,45.9329],[7.7718,45.934],[7.7713,45.9346],[7.7709,45.9347],[7.7705,45.9357],[7.7701,45.936],[7.7702,45.9361],[7.7695,45.9366],[7.7693,45.9371],[7.7665,45.9376],[7.7647,45.9377],[7.7619,45.9382],[7.7606,45.9387],[7.7571,45.9387],[7.7544,45.9395],[7.7534,45.94],[7.7501,45.9401],[7.7478,45.941],[7.7478,45.9392],[7.7472,45.9374],[7.7458,45.9349],[7.7436,45.9326],[7.7421,45.9316],[7.7403,45.9307],[7.7387,45.9297],[7.7369,45.9283],[7.7362,45.9275],[7.7347,45.9248],[7.7349,45.9242],[7.7351,45.924],[7.7347,45.9241],[7.7223,45.9235],[7.7205,45.9238],[7.7189,45.9242],[7.7184,45.9246],[7.7173,45.9257],[7.7163,45.9277],[7.7135,45.9279],[7.7127,45.9282],[7.7128,45.929],[7.7128,45.9298],[7.7113,45.9329],[7.7109,45.9332],[7.7093,45.9339],[7.7086,45.9338],[7.7084,45.9335],[7.7073,45.9349],[7.7092,45.9416],[7.7086,45.9444],[7.7089,45.9452],[7.7092,45.9453],[7.7096,45.9458],[7.7097,45.9462],[7.7096,45.9466],[7.7099,45.9472],[7.7099,45.9481],[7.7092,45.9487],[7.7086,45.949],[7.7084,45.9493],[7.7075,45.9493],[7.7057,45.9496],[7.7057,45.9498],[7.7048,45.9505],[7.7041,45.9506],[7.7029,45.9513],[7.7027,45.9517],[7.7006,45.9525],[7.7002,45.9528],[7.6997,45.9534],[7.6998,45.9537],[7.6994,45.9539],[7.6997,45.9541],[7.6988,45.9545],[7.6961,45.9549],[7.6944,45.9546],[7.693,45.9548],[7.6903,45.9545],[7.6888,45.9549],[7.687,45.955],[7.6848,45.956],[7.684,45.9566],[7.6825,45.9568],[7.6822,45.9567],[7.681,45.957],[7.6783,45.9588],[7.6781,45.9596],[7.6783,45.9601],[7.6779,45.9609],[7.6781,45.9615],[7.6776,45.962],[7.6778,45.9626],[7.6775,45.9632],[7.6775,45.9633],[7.6771,45.964],[7.6773,45.9647],[7.6771,45.9651],[7.6757,45.9654],[7.6748,45.9658],[7.6743,45.9662],[7.6737,45.9669],[7.6738,45.9675],[7.6735,45.9685],[7.6727,45.9693],[7.6722,45.9693],[7.6706,45.9699],[7.6702,45.9708],[7.6693,45.9717],[7.6689,45.9724],[7.6684,45.9732],[7.6683,45.9738],[7.6657,45.9742],[7.6648,45.9751],[7.6646,45.975],[7.6643,45.9757],[7.6585,45.9764],[7.6578,45.9767],[7.657,45.9766],[7.6565,45.9763],[7.655,45.9758],[7.6549,45.9754],[7.6537,45.9743],[7.6527,45.9741],[7.6508,45.9742],[7.6495,45.974],[7.6486,45.9736],[7.6485,45.9736],[7.648,45.9731],[7.6461,45.9726],[7.6449,45.9717],[7.6441,45.9717],[7.6434,45.9712],[7.6405,45.9705],[7.6395,45.9701],[7.6384,45.9702],[7.6372,45.97],[7.6333,45.9705],[7.6325,45.9705],[7.6323,45.9703],[7.6297,45.9709],[7.6267,45.9709],[7.6252,45.9714],[7.6232,45.9715],[7.6196,45.9724],[7.6188,45.9723],[7.6179,45.9717],[7.6176,45.9717],[7.6173,45.9713],[7.6171,45.9713],[7.6163,45.9715],[7.6149,45.9714],[7.6135,45.9706],[7.6118,45.9703],[7.611,45.9699],[7.6103,45.9693],[7.6082,45.9694],[7.6067,45.9699],[7.605,45.9699],[7.604,45.9704],[7.6028,45.9701],[7.6004,45.97],[7.5949,45.9707],[7.5923,45.9708],[7.5921,45.9706],[7.5908,45.9708],[7.5886,45.9705],[7.5873,45.9708],[7.5858,45.9715],[7.585,45.9716],[7.5844,45.9721],[7.5835,45.9723],[7.5829,45.9734],[7.5826,45.9735],[7.5826,45.9738],[7.5817,45.9744],[7.5817,45.9746],[7.5813,45.9751],[7.5812,45.9756],[7.5816,45.9762],[7.5821,45.9767],[7.5823,45.9779],[7.5786,45.986],[7.5766,45.9868],[7.5757,45.987],[7.5747,45.9876],[7.5712,45.9872],[7.5685,45.9877],[7.5662,45.9867],[7.5648,45.9864],[7.5634,45.9865],[7.562,45.9857],[7.5608,45.9862],[7.5501,45.9866],[7.549,45.9862],[7.5484,45.9855],[7.5474,45.9847],[7.5457,45.9838],[7.5456,45.9832],[7.5458,45.9827],[7.5455,45.9822],[7.5458,45.9817],[7.5455,45.9815],[7.5456,45.9814],[7.545,45.9805],[7.545,45.9803],[7.5444,45.9796],[7.5435,45.9791],[7.5424,45.978],[7.5415,45.9762],[7.5421,45.975],[7.5423,45.974],[7.5428,45.9731],[7.5427,45.9725],[7.5425,45.9724],[7.5433,45.9697],[7.5446,45.9686],[7.5444,45.9684],[7.5447,45.9681],[7.5449,45.9674],[7.5447,45.9672],[7.5447,45.9668],[7.545,45.9666],[7.5453,45.9653],[7.5455,45.9636],[7.5466,45.963],[7.5463,45.9625],[7.5461,45.9614],[7.5453,45.9603],[7.5453,45.9597],[7.5442,45.9589],[7.544,45.9585],[7.5427,45.957],[7.5416,45.9565],[7.5411,45.9566],[7.5406,45.9562],[7.5398,45.956],[7.5384,45.9549],[7.5366,45.9563],[7.5355,45.9569],[7.5305,45.9567],[7.5294,45.9564],[7.528,45.9565],[7.5272,45.957],[7.5254,45.9575],[7.5249,45.9578],[7.5247,45.9581],[7.5211,45.9594],[7.5195,45.9603],[7.5191,45.9612],[7.5181,45.9617],[7.5181,45.9627],[7.5176,45.9623],[7.516,45.9624],[7.5148,45.962],[7.5138,45.9611],[7.5121,45.9605],[7.5119,45.9593],[7.5075,45.958],[7.5072,45.958],[7.5067,45.9586],[7.5049,45.9591],[7.503,45.9604],[7.4992,45.9624],[7.4976,45.9616],[7.4975,45.9609],[7.4972,45.9606],[7.4962,45.9603],[7.496,45.96],[7.4958,45.9598],[7.4959,45.9583],[7.4958,45.9573],[7.4945,45.9567],[7.4934,45.9557],[7.4918,45.9553],[7.4874,45.9558],[7.4844,45.9541],[7.483,45.954],[7.4811,45.953],[7.4793,45.9527],[7.4777,45.9523],[7.4773,45.9521],[7.4769,45.9515],[7.4756,45.9504],[7.4745,45.9491],[7.4727,45.9481],[7.4714,45.9472],[7.4713,45.9465],[7.4719,45.9459],[7.4722,45.9451],[7.4724,45.9449],[7.4723,45.9444],[7.4725,45.9435],[7.4734,45.9422],[7.4734,45.942],[7.4738,45.9417],[7.4739,45.9412],[7.4743,45.9406],[7.4742,45.9402],[7.4745,45.9396],[7.4744,45.9391],[7.4745,45.9382],[7.4749,45.9372],[7.475,45.9366],[7.4747,45.9362],[7.4747,45.9358],[7.4732,45.9351],[7.4715,45.934],[7.4696,45.9338],[7.4664,45.9344],[7.4644,45.9354],[7.459,45.9356],[7.4581,45.9353],[7.4576,45.9348],[7.4572,45.9342],[7.4574,45.9341],[7.4573,45.9338],[7.4568,45.9334],[7.4564,45.9324],[7.454,45.9328],[7.4526,45.9326],[7.4507,45.9325],[7.4497,45.9321],[7.4477,45.9317],[7.4469,45.9313],[7.4446,45.9317],[7.4444,45.9316],[7.4437,45.9308],[7.4436,45.9304],[7.4426,45.9301],[7.4418,45.9295],[7.4419,45.929],[7.4415,45.9281],[7.4417,45.9279],[7.4414,45.9274],[7.4415,45.9271],[7.4394,45.9258],[7.4394,45.9256],[7.439,45.925],[7.4381,45.9249],[7.4366,45.9238],[7.4353,45.9222],[7.4351,45.9221],[7.4351,45.9214],[7.4343,45.9209],[7.4344,45.9203],[7.4328,45.9195],[7.4318,45.9183],[7.431,45.9181],[7.4306,45.9176],[7.4295,45.9171],[7.4286,45.9163],[7.4274,45.9159],[7.4271,45.9155],[7.4254,45.9148],[7.4233,45.9144],[7.4223,45.9147],[7.4214,45.9136],[7.4212,45.9125],[7.4209,45.9122],[7.4205,45.912],[7.4195,45.9119],[7.4181,45.9114],[7.416,45.9114],[7.4153,45.911],[7.4142,45.9107],[7.4141,45.9103],[7.4131,45.91],[7.4125,45.9096],[7.4126,45.9095],[7.4124,45.9092],[7.4113,45.9089],[7.4108,45.9086],[7.4096,45.9087],[7.4076,45.9085],[7.4066,45.909],[7.4055,45.9091],[7.4049,45.9093],[7.4034,45.9103],[7.4024,45.9112],[7.4018,45.9115],[7.4013,45.9109],[7.4001,45.9098],[7.3993,45.9094],[7.3991,45.9091],[7.3978,45.9084],[7.3979,45.9067],[7.3978,45.9056],[7.3971,45.9048],[7.3962,45.9042],[7.3957,45.9036],[7.3933,45.9017],[7.3921,45.9005],[7.3913,45.9],[7.391,45.8993],[7.3889,45.8981],[7.387,45.8975],[7.3863,45.8971],[7.3824,45.8965],[7.3817,45.897],[7.3807,45.8973],[7.3799,45.8984],[7.379,45.8988],[7.3783,45.8988],[7.3775,45.8996],[7.3767,45.9],[7.3757,45.9008],[7.3747,45.9009],[7.374,45.9003],[7.3738,45.9008],[7.3727,45.9012],[7.3716,45.9019],[7.3705,45.9024],[7.3682,45.903],[7.3661,45.9041],[7.3638,45.9033],[7.3628,45.9032],[7.3612,45.9033],[7.3607,45.9038],[7.3603,45.9038],[7.36,45.9041],[7.3594,45.9056],[7.3582,45.906],[7.3575,45.9066],[7.3574,45.9069],[7.3565,45.9072],[7.3563,45.9076],[7.3564,45.9089],[7.3562,45.9097],[7.3565,45.9106],[7.3552,45.9113],[7.3532,45.9109],[7.3505,45.9116],[7.3467,45.9134],[7.3443,45.9152],[7.3427,45.9144],[7.3413,45.9138],[7.3402,45.9138],[7.3395,45.9134],[7.3393,45.9135],[7.3384,45.9134],[7.3382,45.9132],[7.3379,45.9132],[7.3375,45.9127],[7.3364,45.9127],[7.3351,45.9121],[7.3325,45.9115],[7.332,45.9109],[7.3307,45.9105],[7.3292,45.9106],[7.3271,45.9105],[7.3267,45.9103],[7.3259,45.9102],[7.3239,45.9102],[7.3224,45.9107],[7.3218,45.9112],[7.3187,45.9115],[7.3181,45.9116],[7.3178,45.912],[7.3178,45.9129],[7.3174,45.9138],[7.3174,45.9145],[7.3163,45.9165],[7.3148,45.9168],[7.3125,45.9163],[7.3115,45.9166],[7.309,45.9168],[7.3067,45.9176],[7.3041,45.9175],[7.3033,45.9172],[7.3018,45.9172],[7.3008,45.9175],[7.2996,45.919],[7.2985,45.9193],[7.2969,45.9211],[7.2956,45.9212],[7.2947,45.9215],[7.2944,45.9218],[7.2937,45.9216],[7.2933,45.9212],[7.2933,45.9211],[7.2927,45.9208],[7.2912,45.9207],[7.2903,45.9201],[7.2895,45.9176],[7.2889,45.9172],[7.2883,45.9173],[7.2868,45.9167],[7.2858,45.9162],[7.2858,45.9159],[7.2853,45.9157],[7.2853,45.9153],[7.2852,45.9152],[7.285,45.9152],[7.2848,45.9148],[7.2849,45.9146],[7.2847,45.9142],[7.285,45.914],[7.2846,45.9131],[7.2847,45.9128],[7.2835,45.912],[7.2835,45.9115],[7.283,45.9113],[7.2828,45.9109],[7.2826,45.9108],[7.2822,45.9102],[7.2822,45.9099],[7.2819,45.9098],[7.282,45.9096],[7.2813,45.909],[7.2813,45.9088],[7.2809,45.9081],[7.2803,45.9078],[7.2804,45.9076],[7.28,45.9071],[7.28,45.9065],[7.2796,45.9059],[7.2791,45.9057],[7.2792,45.9052],[7.2784,45.9042],[7.2785,45.9039],[7.2783,45.9037],[7.2783,45.903],[7.2774,45.9019],[7.2769,45.9007],[7.2759,45.9003],[7.2743,45.9004],[7.2729,45.9],[7.2715,45.9],[7.27,45.8981],[7.2692,45.898],[7.2689,45.8977],[7.2685,45.8975],[7.2684,45.8971],[7.2678,45.8968],[7.2666,45.8965],[7.2667,45.8953],[7.2662,45.8948],[7.2654,45.8945],[7.2648,45.8937],[7.264,45.8937],[7.2632,45.8934],[7.2604,45.8913],[7.2591,45.8897],[7.259,45.8892],[7.2577,45.8889],[7.2568,45.8882],[7.2563,45.8882],[7.2557,45.8879],[7.2546,45.8879],[7.2531,45.8885],[7.2528,45.8893],[7.2524,45.8897],[7.2517,45.8917],[7.2504,45.8929],[7.2495,45.8931],[7.2474,45.893],[7.2462,45.8923],[7.246,45.8921],[7.2462,45.892],[7.2456,45.8918],[7.245,45.8912],[7.2427,45.891],[7.2422,45.8909],[7.2422,45.8908],[7.2415,45.8905],[7.2412,45.8903],[7.2398,45.89],[7.2394,45.8899],[7.2389,45.8902],[7.237,45.89],[7.2357,45.8901],[7.2353,45.8902],[7.235,45.8906],[7.234,45.8907],[7.2339,45.8907],[7.2339,45.8909],[7.2332,45.8912],[7.2314,45.8917],[7.2283,45.892],[7.2268,45.891],[7.2267,45.8907],[7.2258,45.8898],[7.2246,45.8897],[7.2244,45.8899],[7.2236,45.89],[7.223,45.8903],[7.2199,45.8892],[7.2164,45.8888],[7.2162,45.8871],[7.2158,45.8865],[7.2159,45.886],[7.2155,45.8856],[7.2157,45.8852],[7.2155,45.884],[7.2157,45.8839],[7.2145,45.8835],[7.2143,45.8833],[7.2136,45.8832],[7.2129,45.8827],[7.2111,45.8821],[7.2108,45.8819],[7.2108,45.8816],[7.2106,45.8811],[7.2099,45.8806],[7.2094,45.8806],[7.2079,45.8802],[7.2061,45.8802],[7.2057,45.8798],[7.2057,45.8795],[7.2054,45.879],[7.2048,45.8787],[7.2042,45.8774],[7.2035,45.8764],[7.2025,45.8761],[7.2016,45.8755],[7.2009,45.8754],[7.2001,45.8755],[7.2003,45.8752],[7.2,45.8749],[7.2,45.8747],[7.1996,45.8734],[7.1989,45.872],[7.1986,45.8719],[7.1982,45.8714],[7.1976,45.8703],[7.1978,45.8701],[7.1977,45.8699],[7.1979,45.8694],[7.1985,45.8685],[7.1985,45.868],[7.1982,45.8676],[7.1982,45.8665],[7.1984,45.8659],[7.1993,45.8652],[7.2002,45.8635],[7.2006,45.8631],[7.2008,45.8631],[7.1993,45.8625],[7.1974,45.861],[7.1974,45.8608],[7.1965,45.8603],[7.1939,45.8599],[7.1925,45.8595],[7.1922,45.8592],[7.1915,45.8592],[7.1906,45.8587],[7.1903,45.8588],[7.1883,45.859],[7.1864,45.8602],[7.1857,45.8603],[7.1851,45.86],[7.1844,45.86],[7.1827,45.861],[7.1823,45.8616],[7.1813,45.862],[7.1803,45.8629],[7.179,45.8637],[7.1765,45.8634],[7.1753,45.8629],[7.1619,45.8713],[7.1616,45.8716],[7.1612,45.8722],[7.1613,45.8723],[7.1624,45.8728],[7.1636,45.873],[7.1642,45.8736],[7.1645,45.8746],[7.1643,45.8752],[7.1646,45.8757],[7.164,45.8764],[7.1641,45.8768],[7.1629,45.8769],[7.1627,45.8772],[7.1616,45.878],[7.1616,45.8781],[7.1603,45.8787],[7.159,45.8786],[7.1578,45.8789],[7.1571,45.8789],[7.1566,45.8792],[7.1535,45.8793],[7.1532,45.8787],[7.1524,45.8782],[7.1505,45.8776],[7.1487,45.8774],[7.1485,45.8772],[7.1478,45.877],[7.1479,45.8767],[7.147,45.8765],[7.1469,45.8761],[7.1452,45.876],[7.1445,45.8758],[7.144,45.8755],[7.1432,45.8754],[7.1427,45.8756],[7.142,45.8754],[7.1408,45.8753],[7.1403,45.8749],[7.1399,45.8744],[7.1399,45.8741],[7.1396,45.8739],[7.1384,45.8736],[7.1376,45.8732],[7.1362,45.8731],[7.1352,45.8727],[7.1342,45.8715],[7.1335,45.871],[7.1335,45.8705],[7.1339,45.8699],[7.1339,45.8693],[7.1335,45.8686],[7.1329,45.8682],[7.1323,45.8674],[7.1317,45.8672],[7.1312,45.8668],[7.1297,45.8664],[7.1287,45.8654],[7.1267,45.8645],[7.1266,45.864],[7.1257,45.8639],[7.1248,45.8641],[7.1244,45.864],[7.1239,45.8635],[7.123,45.8633],[7.1205,45.8615],[7.1199,45.8608],[7.1185,45.8594],[7.1179,45.8593],[7.1171,45.8594],[7.1157,45.8593],[7.1152,45.8594],[7.1147,45.8596],[7.1135,45.8594],[7.1128,45.8596],[7.112,45.8594],[7.111,45.8588],[7.1088,45.8582],[7.1074,45.8584],[7.1068,45.8587],[7.1057,45.8588],[7.1039,45.8594],[7.1037,45.8593],[7.1032,45.8595],[7.1027,45.8592],[7.1015,45.8592],[7.1007,45.8596],[7.1005,45.86],[7.1005,45.8604],[7.1002,45.8605],[7.0999,45.861],[7.0988,45.8612],[7.0975,45.8624],[7.0975,45.8632],[7.0979,45.8634],[7.098,45.8638],[7.0978,45.8642],[7.0973,45.8646],[7.0974,45.865],[7.097,45.8655],[7.0971,45.866],[7.0969,45.8663],[7.0967,45.8664],[7.0966,45.8667],[7.0964,45.8668],[7.0965,45.8672],[7.0962,45.8679],[7.0964,45.8682],[7.0957,45.8686],[7.0952,45.8693],[7.0948,45.8695],[7.0945,45.8702],[7.0946,45.8705],[7.0939,45.8709],[7.0938,45.8713],[7.0921,45.8721],[7.0924,45.8727],[7.093,45.8734],[7.0935,45.8745],[7.0951,45.8758],[7.0954,45.8759],[7.0941,45.8766],[7.0934,45.8775],[7.0924,45.878],[7.0924,45.8782],[7.0914,45.8788],[7.0896,45.88],[7.0891,45.8807],[7.0873,45.8812],[7.0863,45.8822],[7.0857,45.8826],[7.0854,45.883],[7.0838,45.8836],[7.0818,45.884],[7.081,45.8845],[7.0806,45.8851],[7.0801,45.8851],[7.0792,45.8862],[7.0792,45.8873],[7.0788,45.8881],[7.0784,45.8884],[7.0782,45.8889],[7.0776,45.8891],[7.0764,45.8903],[7.0766,45.891],[7.0763,45.8916],[7.0767,45.8933],[7.0766,45.8952],[7.0742,45.895],[7.0715,45.896],[7.0708,45.8964],[7.0705,45.897],[7.0697,45.8974],[7.0698,45.898],[7.0685,45.8982],[7.0678,45.8989],[7.0642,45.9001],[7.0642,45.9025],[7.064,45.9029],[7.064,45.9036],[7.0643,45.9041],[7.0639,45.9049],[7.0639,45.9055],[7.0637,45.906],[7.0644,45.9077],[7.0645,45.9093],[7.0629,45.9105],[7.063,45.911],[7.0629,45.9112],[7.0622,45.9114],[7.0618,45.9118],[7.0615,45.912],[7.0606,45.9134],[7.0595,45.9135],[7.059,45.9136],[7.0582,45.9136],[7.0573,45.9141],[7.0561,45.9142],[7.0546,45.915],[7.0544,45.9152],[7.054,45.9152],[7.0531,45.9156],[7.053,45.9159],[7.051,45.9175],[7.0501,45.9177],[7.0494,45.9187],[7.0494,45.9189],[7.0475,45.9201],[7.0475,45.9209],[7.0472,45.9212],[7.0462,45.922],[7.0455,45.9221],[7.0454,45.9223],[7.0445,45.9225],[7.0437,45.9232],[7.0432,45.9249],[7.0435,45.926],[7.0435,45.9265],[7.0431,45.927],[7.0428,45.9278],[7.0425,45.9283],[7.0426,45.9285],[7.0424,45.9291],[7.0427,45.9297],[7.0422,45.9301],[7.0421,45.9304],[7.0417,45.9309],[7.0418,45.931],[7.0416,45.9311],[7.0416,45.9314],[7.0411,45.9319],[7.0402,45.932],[7.0396,45.9324],[7.0394,45.9328],[7.0384,45.9334],[7.0385,45.9338],[7.0381,45.9345],[7.0383,45.9348],[7.0373,45.9356],[7.0372,45.9362],[7.0369,45.9363],[7.0368,45.9368],[7.036,45.9375],[7.036,45.938],[7.0357,45.9383],[7.0361,45.9392],[7.0367,45.9398],[7.0367,45.9404],[7.0371,45.9409],[7.0371,45.9424],[7.0369,45.9424],[7.0373,45.9426],[7.0367,45.9435],[7.0375,45.9439],[7.0379,45.9445],[7.0382,45.9446],[7.0385,45.9451],[7.0386,45.9455],[7.0383,45.9458],[7.0386,45.9467],[7.0384,45.947],[7.0385,45.9476],[7.0376,45.9484],[7.0377,45.9486],[7.0375,45.9489],[7.0379,45.9495],[7.0376,45.9499],[7.0377,45.9508],[7.0371,45.9515],[7.0372,45.9519],[7.0368,45.9523],[7.0367,45.9527],[7.0371,45.9538],[7.0375,45.9543],[7.0374,45.9549],[7.037,45.9549],[7.0364,45.9555],[7.0349,45.9561],[7.0324,45.9566],[7.032,45.9565],[7.0308,45.9568],[7.0305,45.9567],[7.0296,45.9572],[7.0287,45.9573],[7.0285,45.9575],[7.0276,45.9574],[7.0273,45.9576],[7.026,45.9577],[7.0252,45.9581],[7.0246,45.9582],[7.0237,45.9583],[7.023,45.958],[7.0224,45.9585],[7.0205,45.9593],[7.0205,45.9595],[7.0199,45.9604],[7.0174,45.9604],[7.0173,45.9605],[7.0176,45.9608],[7.0174,45.9614],[7.0169,45.9619],[7.0154,45.9625],[7.0154,45.9627],[7.0147,45.9632],[7.0144,45.9639],[7.0137,45.9642],[7.0136,45.9646],[7.0131,45.9647],[7.0131,45.9649],[7.0122,45.9655],[7.0122,45.9658],[7.0117,45.9666],[7.0113,45.9668],[7.0106,45.968],[7.0106,45.9683],[7.0105,45.9684],[7.0094,45.9686],[7.0088,45.9691],[7.0085,45.969],[7.0092,45.9713],[7.01,45.972],[7.0101,45.9732],[7.0116,45.9734],[7.012,45.9739],[7.0124,45.9741],[7.0134,45.9742],[7.0136,45.9744],[7.0153,45.9752],[7.0164,45.9751],[7.0175,45.9755],[7.0194,45.9758],[7.02,45.976],[7.0202,45.9763],[7.0215,45.9764],[7.0217,45.9769],[7.0221,45.9769],[7.0226,45.9772],[7.0227,45.9776],[7.0236,45.9791],[7.0227,45.9799],[7.0223,45.9806],[7.0213,45.9811],[7.0211,45.9817],[7.02,45.9821],[7.0198,45.9823],[7.0196,45.9832],[7.0199,45.9839],[7.0183,45.9843],[7.0157,45.9868],[7.0151,45.987],[7.0146,45.9868],[7.0132,45.9869],[7.0125,45.9871],[7.0122,45.9873],[7.0117,45.9889],[7.0116,45.9899],[7.0123,45.9912],[7.0125,45.9921],[7.0119,45.9924],[7.0119,45.9926],[7.0117,45.9927],[7.0113,45.9936],[7.0103,45.9944],[7.0109,45.9948],[7.0112,45.9953],[7.0111,45.9955],[7.0107,45.9956],[7.0105,45.9968],[7.0107,45.9972],[7.0105,45.9974],[7.0099,45.9979],[7.0088,45.9984],[7.0082,45.9991],[7.0068,45.9996],[7.0057,46.0011],[7.0054,46.0013],[7.0041,46.0007],[7.003,45.9998],[7.0026,45.9998],[7.0025,45.9996],[7.0015,45.9991],[7.0006,45.9989],[6.9989,45.9994],[6.9964,45.9997],[6.9961,46.0],[6.9954,46.0001],[6.9948,46.0006],[6.9939,46.0011],[6.9928,46.0021],[6.9914,46.0024],[6.9901,46.0032],[6.9897,46.0032],[6.9887,46.0038],[6.9878,46.0035],[6.9872,46.004],[6.9855,46.0042],[6.985,46.0046],[6.9846,46.0051],[6.9843,46.006],[6.9841,46.0061],[6.9851,46.007],[6.9851,46.0076],[6.9845,46.0082],[6.9841,46.0083],[6.9842,46.0091],[6.9833,46.0099],[6.9835,46.0106],[6.9833,46.0107],[6.9834,46.0111],[6.9832,46.0115],[6.9835,46.0118],[6.9836,46.0127],[6.9825,46.0141],[6.9824,46.0153],[6.9815,46.0166],[6.981,46.0169],[6.9808,46.0176],[6.9809,46.0182],[6.9808,46.0187],[6.9813,46.0196],[6.9801,46.0206],[6.9783,46.0211],[6.9771,46.0216],[6.9761,46.0223],[6.9751,46.0236],[6.9742,46.0241],[6.9735,46.0243],[6.9723,46.0251],[6.971,46.0255],[6.9708,46.026],[6.9698,46.0268],[6.9665,46.0311],[6.9629,46.0304],[6.9545,46.0417],[6.9514,46.0499],[6.9501,46.0516],[6.9497,46.0516],[6.9484,46.0511],[6.9483,46.0513],[6.9476,46.0513],[6.9476,46.0514],[6.9472,46.0515],[6.9457,46.051],[6.9453,46.0506],[6.9445,46.0508],[6.9439,46.0506],[6.9432,46.0509],[6.9423,46.0516],[6.9419,46.0516],[6.9405,46.0523],[6.9404,46.0525],[6.9401,46.0525],[6.9393,46.0529],[6.9391,46.0533],[6.9384,46.0538],[6.9384,46.054],[6.938,46.0545],[6.9379,46.0548],[6.9373,46.0551],[6.9373,46.0553],[6.9363,46.0549],[6.9356,46.0554],[6.9354,46.0557],[6.935,46.056],[6.9347,46.0568],[6.9353,46.0579],[6.9349,46.0581],[6.9351,46.0586],[6.9362,46.0589],[6.9364,46.0592],[6.9365,46.0597],[6.9368,46.0599],[6.9367,46.0601],[6.9365,46.0603],[6.9365,46.0607],[6.9367,46.0609],[6.9366,46.0613],[6.9368,46.0617],[6.9364,46.0618],[6.9364,46.0619],[6.9365,46.062],[6.9363,46.0622],[6.9363,46.0625],[6.9367,46.0629],[6.9372,46.0628],[6.9381,46.0631],[6.9381,46.0633],[6.9373,46.0643],[6.9358,46.0647],[6.9355,46.0651],[6.9347,46.0654],[6.934,46.066],[6.932,46.0659],[6.9317,46.0654],[6.9286,46.0647],[6.9246,46.0652],[6.9203,46.0615],[6.9199,46.0615],[6.9196,46.0612],[6.9193,46.0607],[6.9187,46.0601],[6.9189,46.0597],[6.9188,46.0593],[6.918,46.0591],[6.9176,46.0587],[6.9173,46.0586],[6.9171,46.0588],[6.9165,46.0582],[6.9159,46.0582],[6.9156,46.0576],[6.9145,46.0568],[6.9144,46.0564],[6.9146,46.056],[6.9142,46.0556],[6.9128,46.0545],[6.9114,46.0543],[6.9108,46.0538],[6.911,46.0533],[6.9109,46.0527],[6.9111,46.0521],[6.9102,46.0518],[6.9099,46.0513],[6.9099,46.051],[6.9096,46.0508],[6.9092,46.0507],[6.9091,46.0504],[6.9086,46.0502],[6.9078,46.0502],[6.9065,46.0497],[6.9054,46.05],[6.9044,46.0493],[6.9035,46.049],[6.9025,46.0492],[6.9009,46.0488],[6.9001,46.0488],[6.9001,46.0487],[6.8992,46.0486],[6.8982,46.0487],[6.898,46.0485],[6.8967,46.0483],[6.8959,46.0485],[6.8954,46.0482],[6.8948,46.0481],[6.8942,46.0478],[6.8939,46.0473],[6.8927,46.0468],[6.8924,46.0465],[6.8923,46.0461],[6.8918,46.0457],[6.8917,46.0441],[6.8915,46.0437],[6.8913,46.0427],[6.8895,46.0425],[6.8882,46.0427],[6.8875,46.0436],[6.8867,46.0442],[6.8848,46.0447],[6.8834,46.0444],[6.8825,46.0447],[6.8821,46.0451],[6.8809,46.0453],[6.8806,46.0455],[6.8805,46.0454],[6.8791,46.046],[6.8784,46.0461],[6.8779,46.0464],[6.878,46.0466],[6.8776,46.047],[6.8757,46.0475],[6.8755,46.0481],[6.8759,46.0485],[6.8759,46.0491],[6.8754,46.0497],[6.8735,46.0506],[6.8717,46.0511],[6.8728,46.0519],[6.8727,46.0521],[6.873,46.0533],[6.8729,46.0549],[6.8733,46.0555],[6.8735,46.0562],[6.8751,46.0581],[6.8755,46.0596],[6.8754,46.0597],[6.8757,46.0599],[6.8759,46.0613],[6.8766,46.0624],[6.8764,46.0629],[6.8771,46.064],[6.879,46.0653],[6.8791,46.0665],[6.8795,46.0676],[6.8799,46.0681],[6.8803,46.0693],[6.8815,46.0699],[6.8831,46.0703],[6.8842,46.0709],[6.8846,46.0709],[6.8852,46.0715],[6.8877,46.0732],[6.8888,46.0736],[6.8918,46.0737],[6.891,46.0745],[6.8902,46.0762],[6.8902,46.0766],[6.8898,46.0768],[6.889,46.0776],[6.8882,46.0785],[6.8881,46.0791],[6.8883,46.0793],[6.8883,46.0798],[6.8904,46.0806],[6.8906,46.081],[6.8903,46.0812],[6.8905,46.0815],[6.8907,46.0818],[6.8907,46.082],[6.8912,46.0823],[6.8915,46.0832],[6.8916,46.084],[6.8914,46.0845],[6.8919,46.0851],[6.8916,46.0851],[6.8912,46.0854],[6.8905,46.0856],[6.8896,46.0865],[6.8888,46.0869],[6.8883,46.0878],[6.8883,46.0891],[6.8882,46.0892],[6.8878,46.0891],[6.8871,46.0897],[6.8865,46.0904],[6.8864,46.0906],[6.8865,46.0907],[6.8858,46.0912],[6.8856,46.0917],[6.8857,46.092],[6.8852,46.0923],[6.8848,46.093],[6.8842,46.0931],[6.8836,46.0935],[6.8829,46.0945],[6.8822,46.0952],[6.8844,46.0961],[6.8854,46.0968],[6.886,46.0973],[6.8861,46.0978],[6.887,46.0991],[6.8877,46.1006],[6.8901,46.1019],[6.8904,46.1025],[6.8913,46.1029],[6.8918,46.1037],[6.8922,46.1039],[6.8924,46.1044],[6.893,46.1048],[6.8932,46.1064],[6.8951,46.1081],[6.8955,46.1087],[6.8951,46.1089],[6.895,46.1091],[6.8945,46.1093],[6.894,46.1097],[6.8936,46.1098],[6.8935,46.1101],[6.8938,46.1105],[6.8936,46.1115],[6.893,46.1127],[6.8932,46.1133],[6.8931,46.1136],[6.894,46.115],[6.8949,46.1157],[6.8961,46.1173],[6.8965,46.1185],[6.897,46.119],[6.897,46.1202],[6.8978,46.1218],[6.8981,46.1223],[6.8985,46.1224],[6.8989,46.123],[6.8999,46.1239],[6.8991,46.1243],[6.8976,46.1246],[6.896,46.1238],[6.8951,46.1238],[6.8943,46.1241],[6.8933,46.1247],[6.8924,46.1251],[6.8923,46.125],[6.8919,46.1253],[6.8915,46.1253],[6.8907,46.1256],[6.8886,46.1246],[6.8858,46.1238],[6.8852,46.1239],[6.8836,46.1233],[6.8831,46.123],[6.8824,46.1229],[6.8821,46.1232],[6.8814,46.1234],[6.8799,46.1234],[6.8789,46.1236],[6.8781,46.1245],[6.8782,46.1247],[6.8774,46.1252],[6.8756,46.1257],[6.8736,46.126],[6.8712,46.1256],[6.8695,46.1251],[6.8684,46.1252],[6.8676,46.1257],[6.8663,46.1257],[6.8659,46.1256],[6.8642,46.1259],[6.8615,46.1261],[6.8594,46.1259],[6.8584,46.1262],[6.8561,46.1264],[6.8547,46.1268],[6.8535,46.1266],[6.8533,46.1264],[6.853,46.1265],[6.853,46.1266],[6.8524,46.1265],[6.8513,46.1267],[6.8499,46.1269],[6.8494,46.1271],[6.8481,46.1272],[6.8479,46.1275],[6.8473,46.1275],[6.8451,46.1283],[6.8448,46.1282],[6.8444,46.1284],[6.844,46.1289],[6.8433,46.1289],[6.8424,46.1295],[6.8425,46.1301],[6.8424,46.1303],[6.8414,46.1309],[6.8414,46.1312],[6.842,46.132],[6.8382,46.1329],[6.8379,46.1326],[6.837,46.1327],[6.8361,46.1326],[6.8352,46.1324],[6.8349,46.1321],[6.8343,46.1321],[6.8335,46.1325],[6.8329,46.1324],[6.832,46.1326],[6.8315,46.1325],[6.831,46.1326],[6.8295,46.1323],[6.8293,46.1321],[6.8286,46.1319],[6.8279,46.132],[6.8276,46.1319],[6.8263,46.1319],[6.8252,46.1317],[6.8249,46.1319],[6.8243,46.1317],[6.8238,46.1313],[6.8226,46.1312],[6.8209,46.1313],[6.8187,46.1311],[6.8179,46.1307],[6.818,46.1304],[6.8173,46.13],[6.8172,46.1298],[6.8151,46.1293],[6.8144,46.13],[6.8144,46.1302],[6.8137,46.1305],[6.8137,46.1312],[6.8139,46.1315],[6.8134,46.1319],[6.8127,46.1321],[6.8115,46.1323],[6.8107,46.1331],[6.811,46.1334],[6.8108,46.1337],[6.8104,46.1338],[6.8097,46.1342],[6.8096,46.1346],[6.8085,46.1356],[6.8079,46.1362],[6.8076,46.1362],[6.8072,46.1365],[6.8065,46.1364],[6.8062,46.1359],[6.8043,46.1359],[6.8036,46.1357],[6.8026,46.1357],[6.8014,46.1353],[6.7992,46.1358],[6.7989,46.1357],[6.7981,46.1362],[6.7973,46.1382],[6.7971,46.1384],[6.7965,46.1387],[6.7964,46.1394],[6.7966,46.1404],[6.7963,46.1409],[6.7964,46.1411],[6.7963,46.1422],[6.7949,46.1441],[6.7949,46.1448],[6.7947,46.1453],[6.7946,46.1463],[6.7948,46.1467],[6.7946,46.1476],[6.7934,46.149],[6.7932,46.1496],[6.792,46.1513],[6.7916,46.152],[6.7917,46.1522],[6.7908,46.1528],[6.7903,46.154],[6.7905,46.1545],[6.7903,46.1547],[6.7904,46.1554],[6.7908,46.1558],[6.7909,46.1561],[6.7908,46.1563],[6.7914,46.1565],[6.7912,46.1574],[6.7918,46.1576],[6.7918,46.1579],[6.792,46.158],[6.7916,46.1586],[6.7923,46.1592],[6.7926,46.1597],[6.7925,46.1607],[6.7923,46.161],[6.7917,46.1629],[6.7929,46.164],[6.7933,46.164],[6.7935,46.1645],[6.7942,46.1647],[6.7944,46.1655],[6.7946,46.1655],[6.7946,46.1658],[6.7955,46.166],[6.7958,46.1664],[6.7965,46.1665],[6.7966,46.1672],[6.7971,46.1676],[6.7976,46.1678],[6.7978,46.168],[6.7987,46.1684],[6.7998,46.1684],[6.8005,46.1691],[6.8005,46.1693],[6.8015,46.1699],[6.8017,46.1702],[6.8021,46.1703],[6.8019,46.1705],[6.8022,46.171],[6.8031,46.1718],[6.8053,46.1726],[6.8055,46.1727],[6.8053,46.1731],[6.8055,46.1739],[6.8062,46.1751],[6.806,46.1754],[6.8065,46.1758],[6.8065,46.176],[6.807,46.1768],[6.8067,46.1775],[6.807,46.1779],[6.8068,46.178],[6.807,46.1785],[6.8094,46.1794],[6.8095,46.1798],[6.8105,46.18],[6.8111,46.1806],[6.8116,46.1808],[6.8118,46.1811],[6.8126,46.1814],[6.8095,46.1891],[6.8087,46.1925],[6.8073,46.1953],[6.807,46.1963],[6.8033,46.2033],[6.8034,46.2036],[6.8036,46.2037],[6.8035,46.2046],[6.8038,46.2046],[6.804,46.205],[6.8042,46.205],[6.8042,46.2053],[6.8053,46.2065],[6.8061,46.207],[6.8062,46.2074],[6.8073,46.2079],[6.8075,46.2091],[6.8078,46.2095],[6.808,46.2108],[6.8087,46.2112],[6.809,46.2118],[6.81,46.212],[6.8097,46.2131],[6.8099,46.2138],[6.8111,46.2147],[6.8116,46.2146],[6.8117,46.2148],[6.8124,46.2148],[6.8135,46.2154],[6.8134,46.2154],[6.8138,46.2159],[6.8139,46.2162],[6.8142,46.2164],[6.8143,46.2167],[6.8142,46.2169],[6.8149,46.2173],[6.8149,46.2178],[6.8155,46.2184],[6.8156,46.2189],[6.8165,46.2192],[6.8165,46.2201],[6.8176,46.2207],[6.8191,46.221],[6.8192,46.2213],[6.8202,46.2216],[6.8207,46.2223],[6.8211,46.2225],[6.8216,46.2231],[6.8219,46.2249],[6.8217,46.2274],[6.8217,46.2276],[6.8219,46.2278],[6.8213,46.2287],[6.8211,46.2296],[6.8208,46.2299],[6.8206,46.2304],[6.8208,46.2314],[6.8212,46.2323],[6.8227,46.2329],[6.8238,46.233],[6.8241,46.2333],[6.8246,46.2333],[6.8256,46.2339],[6.8265,46.2339],[6.8268,46.2341],[6.8291,46.2338],[6.8307,46.2344],[6.8333,46.2366],[6.8344,46.2378],[6.8345,46.2386],[6.8351,46.2394],[6.8362,46.24],[6.8372,46.2408],[6.8374,46.2425],[6.838,46.244],[6.8378,46.2449],[6.8398,46.2482],[6.8429,46.2486],[6.852,46.2521],[6.8554,46.2552],[6.8545,46.2593],[6.8573,46.262],[6.8586,46.2636],[6.8602,46.2662],[6.8589,46.2739],[6.8608,46.2763],[6.8615,46.2766],[6.8629,46.2785],[6.8649,46.2802],[6.8649,46.2815],[6.8644,46.2831],[6.8619,46.2859],[6.8606,46.2863],[6.8591,46.2885],[6.8592,46.2903],[6.8578,46.2913],[6.8566,46.2917],[6.8553,46.2924],[6.8544,46.2925],[6.8541,46.2923],[6.8529,46.2921],[6.8521,46.2922],[6.8516,46.2916],[6.8513,46.2906],[6.8509,46.2903],[6.8493,46.2901],[6.8489,46.2899],[6.8485,46.2901],[6.848,46.2898],[6.8474,46.2899],[6.846,46.2906],[6.8453,46.2912],[6.8451,46.2917],[6.8448,46.2919],[6.8441,46.293],[6.8441,46.2937],[6.8439,46.2943],[6.8424,46.2943],[6.8416,46.2947],[6.8396,46.2951],[6.8389,46.2958],[6.8387,46.2958],[6.8384,46.2963],[6.8364,46.2973],[6.8348,46.2992],[6.8348,46.2998],[6.8343,46.2999],[6.834,46.2997],[6.831,46.2998],[6.83,46.3002],[6.8294,46.3009],[6.8288,46.3011],[6.8287,46.3015],[6.8284,46.3018],[6.8281,46.3025],[6.8284,46.3033],[6.83,46.3054],[6.8303,46.3061],[6.8295,46.3063],[6.8291,46.3066],[6.8285,46.3076],[6.8276,46.3086],[6.8273,46.3092],[6.8263,46.3099],[6.8257,46.3108],[6.8253,46.312],[6.8236,46.3125],[6.8226,46.3125],[6.8225,46.3126],[6.8215,46.313],[6.8207,46.3139],[6.8198,46.3152],[6.8198,46.3156],[6.8193,46.3155],[6.8189,46.3158],[6.8165,46.316],[6.8157,46.3159],[6.8133,46.3177],[6.813,46.3181],[6.8113,46.3187],[6.811,46.3192],[6.807,46.3207],[6.8061,46.3203],[6.8054,46.3204],[6.8052,46.3202],[6.804,46.32],[6.8035,46.3198],[6.8016,46.3196],[6.8012,46.3196],[6.8004,46.32],[6.7997,46.3209],[6.7994,46.3217],[6.7988,46.3223],[6.7974,46.3267],[6.799,46.3291],[6.7982,46.3296],[6.7978,46.3305],[6.7968,46.3308],[6.7966,46.331],[6.7964,46.3314],[6.7964,46.333],[6.7955,46.3328],[6.7952,46.3329],[6.7944,46.3327],[6.7937,46.3327],[6.7936,46.3326],[6.7925,46.3326],[6.7918,46.3324],[6.7893,46.3323],[6.7865,46.3321],[6.7863,46.3325],[6.7846,46.3326],[6.7843,46.3328],[6.7842,46.3331],[6.7848,46.3347],[6.7845,46.336],[6.7844,46.3365],[6.7846,46.3366],[6.7845,46.3368],[6.7827,46.338],[6.7823,46.3391],[6.7818,46.3395],[6.7813,46.3404],[6.7803,46.3413],[6.7801,46.3422],[6.7791,46.3435],[6.7791,46.3446],[6.7775,46.3461],[6.7768,46.3466],[6.7751,46.3473],[6.7747,46.3471],[6.7745,46.3473],[6.7739,46.3482],[6.7738,46.3488],[6.7731,46.3496],[6.7721,46.3503],[6.7718,46.3518],[6.7716,46.3523],[6.7715,46.3532],[6.771,46.3538],[6.771,46.3549],[6.7706,46.3554],[6.7708,46.3585],[6.7714,46.3611],[6.7724,46.3614],[6.7729,46.362],[6.7733,46.3621],[6.7747,46.3632],[6.7752,46.3633],[6.7754,46.3635],[6.7754,46.3637],[6.7758,46.3639],[6.7755,46.3644],[6.7761,46.3645],[6.7764,46.3649],[6.7779,46.3649],[6.7787,46.365],[6.7792,46.3655],[6.7793,46.3658],[6.7802,46.3661],[6.7801,46.3663],[6.7809,46.3666],[6.782,46.3666],[6.7844,46.3669],[6.7847,46.3665],[6.7851,46.3664],[6.7859,46.3665],[6.7866,46.3664],[6.7881,46.3668],[6.7889,46.3669],[6.7893,46.3667],[6.7911,46.3668],[6.7913,46.3671],[6.7925,46.3675],[6.7931,46.3678],[6.793,46.3681],[6.7937,46.3684],[6.7937,46.3686],[6.7942,46.3688],[6.7943,46.3691],[6.7947,46.3692],[6.7947,46.3695],[6.7951,46.3699],[6.7957,46.3701],[6.7962,46.3709],[6.7972,46.3715],[6.7973,46.3719],[6.7978,46.3723],[6.7977,46.3725],[6.7982,46.3731],[6.7984,46.3738],[6.7989,46.3741],[6.7988,46.3743],[6.7998,46.3748],[6.8007,46.3749],[6.8008,46.3752],[6.8015,46.3756],[6.8018,46.3759],[6.8029,46.3761],[6.8037,46.3765],[6.8043,46.3773],[6.8055,46.3785],[6.8063,46.3801],[6.8063,46.3805],[6.8058,46.3813],[6.8058,46.3817],[6.8065,46.383],[6.8063,46.3832],[6.8056,46.3836],[6.8042,46.3836],[6.8039,46.3837],[6.8035,46.3841],[6.8035,46.3844],[6.803,46.385],[6.8019,46.3858],[6.8021,46.3868],[6.8018,46.3879],[6.802,46.3881],[6.8018,46.3883],[6.8019,46.3889],[6.8021,46.3892],[6.8024,46.3894],[6.8024,46.3899],[6.8029,46.3904],[6.8029,46.3909],[6.8033,46.3912],[6.803,46.3915],[6.8032,46.3921],[6.8031,46.3924],[6.8036,46.393],[6.805,46.3936],[6.8053,46.3941],[6.8211,46.4272],[6.8217,46.427],[6.8249,46.4246],[6.8548,46.3984],[6.8547,46.3983],[6.8579,46.3957],[6.8625,46.391],[6.8688,46.3869],[6.8744,46.382],[6.8757,46.3812],[6.8791,46.38],[6.8804,46.3794],[6.8838,46.3769],[6.8848,46.3761],[6.8856,46.3747],[6.8862,46.3726],[6.8869,46.3676],[6.8869,46.3656],[6.8865,46.364],[6.8857,46.3622],[6.8819,46.3566],[6.8817,46.3556],[6.8818,46.3545],[6.8823,46.3535],[6.8832,46.3524],[6.8841,46.3518],[6.887,46.3503],[6.8883,46.3493],[6.8907,46.3466],[6.8935,46.3427],[6.8945,46.3416],[6.8958,46.3406],[6.8979,46.3396],[6.8997,46.3389],[6.9017,46.3386],[6.9044,46.3385],[6.9156,46.3396],[6.9173,46.3395],[6.9191,46.339],[6.9203,46.3385],[6.9213,46.3378],[6.9301,46.33],[6.9311,46.3283],[6.9324,46.3237],[6.9324,46.3222],[6.9318,46.3179],[6.9319,46.3161],[6.9333,46.3125],[6.9342,46.3083],[6.9358,46.3045],[6.936,46.3035],[6.936,46.3002],[6.9365,46.2985],[6.937,46.2976],[6.9384,46.2962],[6.9418,46.2943],[6.9475,46.2922],[6.9502,46.2909],[6.9585,46.2852],[6.9599,46.284],[6.9607,46.2829],[6.9611,46.2818],[6.9634,46.2743],[6.9643,46.2704],[6.9648,46.2693],[6.9656,46.2682],[6.9665,46.2673],[6.975,46.2601],[6.981,46.2562],[6.986,46.2536],[6.987,46.2528],[6.9877,46.2519],[6.9881,46.2512],[6.9889,46.2455],[6.9895,46.244],[6.994,46.2401],[6.9948,46.239],[6.9955,46.2372],[6.9962,46.2364],[6.9974,46.2356],[7.0002,46.2346],[7.0012,46.2339],[7.0021,46.233],[7.0025,46.2318],[7.0028,46.2293],[7.0024,46.2265],[7.0027,46.225],[7.0032,46.2239],[7.0039,46.223],[7.0047,46.2225],[7.0069,46.2217],[7.0075,46.2212],[7.008,46.2205],[7.0085,46.218],[7.0097,46.215],[7.0105,46.211],[7.0114,46.2088],[7.0114,46.2065],[7.0118,46.2056],[7.0129,46.2047],[7.0161,46.2037],[7.0204,46.2015],[7.025,46.1977],[7.0261,46.1964],[7.0277,46.1935],[7.0289,46.192],[7.0296,46.1914],[7.031,46.1906],[7.0316,46.1901],[7.0323,46.1881],[7.0332,46.1871],[7.034,46.1879],[7.0346,46.1881],[7.036,46.1879],[7.0375,46.188],[7.0384,46.1884],[7.0394,46.1886],[7.0397,46.1889],[7.0408,46.189],[7.0407,46.1894],[7.0412,46.1899],[7.0433,46.1899],[7.0455,46.1907],[7.0459,46.191],[7.0463,46.1911],[7.0465,46.1913],[7.0496,46.1927],[7.0519,46.193],[7.0521,46.1933],[7.0522,46.1937],[7.0527,46.1941],[7.0544,46.1947],[7.0562,46.1957],[7.0577,46.1957],[7.059,46.196],[7.0596,46.1963],[7.0599,46.1966],[7.0607,46.1977],[7.0645,46.1996],[7.0651,46.1996],[7.0712,46.201],[7.0722,46.2006],[7.0726,46.2006],[7.0729,46.2003],[7.0735,46.2001],[7.0738,46.1998],[7.0749,46.1996],[7.0755,46.1993],[7.0765,46.1994],[7.0764,46.199],[7.077,46.199],[7.0778,46.1991],[7.0782,46.1996],[7.0817,46.1998],[7.0832,46.2006],[7.0852,46.201],[7.086,46.2014],[7.0884,46.2016],[7.0895,46.2024],[7.0901,46.2025],[7.0933,46.2048],[7.0936,46.2048],[7.0944,46.2055],[7.0954,46.2069],[7.0963,46.2075],[7.0977,46.2078],[7.0986,46.2077],[7.0996,46.2079],[7.1012,46.209],[7.1012,46.2092],[7.1017,46.2096],[7.1027,46.2099],[7.103,46.2102],[7.1036,46.2102],[7.1063,46.211],[7.1067,46.2116],[7.1084,46.2122],[7.1086,46.2123],[7.1086,46.2127],[7.1102,46.2137],[7.1111,46.2139],[7.1114,46.2141],[7.1114,46.2147],[7.112,46.2151],[7.1128,46.2161],[7.1137,46.2164],[7.1139,46.2167],[7.1149,46.2171],[7.1157,46.2177],[7.1149,46.2184],[7.1168,46.2197],[7.1177,46.2201],[7.1183,46.2208],[7.119,46.2212],[7.1192,46.2216],[7.1189,46.2219],[7.1196,46.2222],[7.12,46.2228],[7.1225,46.2235],[7.1225,46.2238],[7.1219,46.224],[7.1218,46.2243],[7.1213,46.2249],[7.1215,46.2259],[7.1218,46.2264],[7.1218,46.2276],[7.1212,46.2293],[7.1218,46.2299],[7.1224,46.2312],[7.1234,46.2325],[7.1233,46.2332],[7.1238,46.2343],[7.1242,46.2359],[7.1256,46.237],[7.1265,46.2372],[7.1269,46.2371],[7.1274,46.2371],[7.1304,46.2368],[7.1351,46.2366],[7.1377,46.237],[7.141,46.2379],[7.1425,46.2389],[7.1438,46.2402],[7.1439,46.2408],[7.1447,46.2412],[7.1449,46.2414],[7.1475,46.2421],[7.1502,46.2431],[7.15,46.2435],[7.1514,46.2447],[7.1513,46.2455],[7.1516,46.2458],[7.1513,46.2464],[7.1518,46.2481],[7.1524,46.2493],[7.1534,46.2503],[7.1546,46.2521],[7.155,46.2524],[7.1552,46.2528],[7.1567,46.2527],[7.1576,46.253],[7.1606,46.2532],[7.1613,46.2535],[7.1615,46.2538],[7.1619,46.2539],[7.1628,46.2548],[7.1652,46.2563],[7.1661,46.2576],[7.1666,46.2579],[7.1673,46.2588],[7.1682,46.2594],[7.1685,46.2598],[7.1692,46.2603],[7.1704,46.2608],[7.1715,46.2611],[7.1718,46.2618],[7.172,46.2626],[7.1738,46.2644],[7.1745,46.2653],[7.1757,46.2658],[7.1761,46.2664],[7.1767,46.2667],[7.1771,46.2671],[7.1772,46.2677],[7.1781,46.2686],[7.1792,46.269],[7.1811,46.2684],[7.1816,46.2685],[7.1824,46.2684],[7.1837,46.2685],[7.1863,46.2694],[7.1884,46.2707],[7.1894,46.2729],[7.1893,46.2734],[7.1874,46.2784],[7.1863,46.2828],[7.1868,46.2836],[7.1888,46.2842],[7.1891,46.2845],[7.1903,46.285],[7.193,46.2849],[7.194,46.2852],[7.194,46.2857],[7.1948,46.2857],[7.1941,46.2871],[7.1939,46.2884],[7.1944,46.2891],[7.1969,46.2891],[7.1892,46.2952],[7.1891,46.3039],[7.2215,46.3292],[7.2241,46.3287],[7.2248,46.3284],[7.2251,46.3281],[7.2263,46.3278],[7.2284,46.3275],[7.2298,46.327],[7.2324,46.3265],[7.2346,46.3266],[7.2373,46.3272],[7.2383,46.327],[7.2408,46.327],[7.2417,46.3274],[7.2445,46.328],[7.2455,46.3279],[7.2461,46.3281],[7.2464,46.328],[7.2473,46.3288],[7.2476,46.3288],[7.2475,46.329],[7.2484,46.3293],[7.2496,46.3301],[7.2502,46.3302],[7.2522,46.33],[7.2545,46.3314],[7.2555,46.3325],[7.2575,46.3341],[7.2585,46.3356],[7.2591,46.3363],[7.2608,46.3372],[7.2618,46.3374],[7.2627,46.3386],[7.2611,46.3401],[7.2614,46.3411],[7.2613,46.343],[7.261,46.3433],[7.261,46.3436],[7.2602,46.3441],[7.2602,46.3444],[7.2604,46.3449],[7.2608,46.3453],[7.2608,46.3456],[7.2614,46.3459],[7.2616,46.3462],[7.261,46.3465],[7.2609,46.3471],[7.2612,46.3471],[7.2614,46.3475],[7.2609,46.3476],[7.2613,46.3486],[7.2615,46.349],[7.2625,46.3494],[7.2625,46.3496],[7.262,46.3498],[7.2612,46.3506],[7.2612,46.3514],[7.261,46.3515],[7.2616,46.3522],[7.2616,46.3526],[7.2609,46.3535],[7.2615,46.3538],[7.2606,46.3543],[7.2603,46.3543],[7.2602,46.3544],[7.2605,46.3545],[7.2604,46.3547],[7.2608,46.3549],[7.2609,46.3552],[7.2608,46.3554],[7.2612,46.3556],[7.261,46.3559],[7.2612,46.3562],[7.2611,46.3563],[7.2614,46.3564],[7.262,46.3573],[7.2623,46.3582],[7.288,46.3657],[7.2888,46.3664],[7.2905,46.3671],[7.2914,46.3667],[7.2933,46.3666],[7.2934,46.3665],[7.2955,46.3656],[7.2991,46.3664],[7.3103,46.3752],[7.3108,46.3746],[7.3116,46.3727],[7.3119,46.3724],[7.3119,46.3723],[7.3125,46.3715],[7.3124,46.3711],[7.3128,46.3709],[7.3128,46.3699],[7.3126,46.3697],[7.3127,46.3692],[7.3124,46.3689],[7.3123,46.3681],[7.3127,46.3669],[7.3124,46.3659],[7.3125,46.3657],[7.3127,46.3646],[7.3124,46.3636],[7.3125,46.3632],[7.3119,46.3629],[7.3109,46.3619],[7.3108,46.3613],[7.3104,46.361],[7.3102,46.3599],[7.3082,46.3588],[7.309,46.3574],[7.3096,46.3568],[7.3099,46.3563],[7.31,46.3557],[7.3092,46.3546],[7.3093,46.3542],[7.3087,46.3536],[7.3086,46.3532],[7.3081,46.3527],[7.3078,46.3521],[7.3082,46.3516],[7.3082,46.3509],[7.3087,46.3506],[7.3091,46.3501],[7.3098,46.3498],[7.3104,46.3493],[7.3104,46.3488],[7.3102,46.3485],[7.3105,46.3482],[7.3113,46.3477],[7.3117,46.3471],[7.3122,46.3468],[7.3129,46.3461],[7.315,46.3444],[7.3152,46.3439],[7.3158,46.3438],[7.3164,46.344],[7.3195,46.3439],[7.3208,46.3443],[7.3239,46.3443],[7.3263,46.3447],[7.3278,46.3455],[7.3301,46.346],[7.331,46.346],[7.3316,46.3464],[7.3326,46.3464],[7.3336,46.3462],[7.3366,46.347],[7.3381,46.347],[7.3411,46.3481],[7.3427,46.3483],[7.3449,46.3491],[7.3471,46.3501],[7.349,46.3502],[7.3509,46.351],[7.3527,46.3508],[7.3533,46.3504],[7.354,46.3505],[7.3549,46.3507],[7.3567,46.3522],[7.3577,46.3528],[7.359,46.3531],[7.3592,46.3535],[7.3594,46.3536],[7.3594,46.3537],[7.3601,46.3543],[7.3607,46.3545],[7.3609,46.3549],[7.3616,46.3557],[7.3623,46.356],[7.3626,46.3567],[7.3658,46.357],[7.3677,46.3575],[7.3691,46.3588],[7.37,46.359],[7.3702,46.3593],[7.3738,46.3604],[7.375,46.3613],[7.3767,46.3632],[7.3782,46.3641],[7.379,46.3638],[7.3801,46.3638],[7.3815,46.3644],[7.3821,46.3651],[7.384,46.3664],[7.3843,46.3669],[7.3845,46.367],[7.3847,46.3677],[7.3855,46.3684],[7.3862,46.3687],[7.3865,46.3691],[7.387,46.3692],[7.3884,46.3689],[7.3895,46.3698],[7.3901,46.371],[7.3913,46.3714],[7.3923,46.3721],[7.3926,46.3729],[7.3929,46.3732],[7.3939,46.3735],[7.3939,46.3738],[7.397,46.3749],[7.3994,46.3765],[7.3998,46.3765],[7.4003,46.3762],[7.4005,46.3759],[7.4003,46.3754],[7.401,46.3742],[7.4023,46.3748],[7.4021,46.3749],[7.4024,46.3754],[7.4035,46.3756],[7.4043,46.3761],[7.4092,46.3771],[7.4097,46.3775],[7.4104,46.3776],[7.4112,46.3784],[7.4116,46.3786],[7.413,46.3786],[7.4143,46.3788],[7.415,46.3788],[7.4161,46.3793],[7.4164,46.3798],[7.4169,46.3802],[7.4217,46.3805],[7.4226,46.3803],[7.4238,46.3805],[7.4248,46.381],[7.4261,46.3807],[7.4274,46.3806],[7.4285,46.381],[7.4306,46.3824],[7.4324,46.3843],[7.4329,46.3845],[7.4329,46.3846],[7.4334,46.3851],[7.435,46.3852],[7.4359,46.3854],[7.4361,46.3856],[7.4386,46.3861],[7.4398,46.3846],[7.4415,46.3836],[7.4424,46.3833],[7.444,46.3837],[7.4458,46.3836],[7.4464,46.3837],[7.4475,46.3833],[7.4481,46.3835],[7.4491,46.3834],[7.45,46.3835],[7.4506,46.3841],[7.4518,46.3835],[7.4543,46.3832],[7.4569,46.3819],[7.4575,46.3815],[7.4581,46.3815],[7.4584,46.3812],[7.4591,46.381],[7.4592,46.3804],[7.4591,46.3797],[7.4593,46.3794],[7.4588,46.3789],[7.459,46.3782],[7.4603,46.3773],[7.4621,46.3764],[7.4626,46.3767],[7.4636,46.3781],[7.4648,46.3781],[7.4658,46.3784],[7.468,46.3781],[7.4682,46.3779],[7.4692,46.3783],[7.4697,46.3781],[7.4703,46.3788],[7.4703,46.3792],[7.4706,46.3795],[7.4711,46.3803],[7.4727,46.3809],[7.4733,46.3816],[7.4733,46.3836],[7.4748,46.3839],[7.4764,46.3844],[7.4774,46.3845],[7.4794,46.3853],[7.4814,46.3842],[7.4846,46.3792],[7.4853,46.3769],[7.4851,46.3725],[7.4853,46.3719],[7.4869,46.3707],[7.4893,46.3703],[7.4904,46.3703],[7.4919,46.3712],[7.4947,46.372],[7.495,46.3718],[7.4951,46.3715],[7.4959,46.3713],[7.4972,46.3706],[7.4974,46.3707],[7.4984,46.3704],[7.4991,46.3699],[7.5006,46.37],[7.5025,46.3705],[7.5029,46.3716],[7.5033,46.3716],[7.5046,46.3725],[7.505,46.373],[7.5061,46.3735],[7.5061,46.3739],[7.5057,46.3743],[7.5057,46.3746],[7.5074,46.3759],[7.5096,46.3759],[7.5128,46.3762],[7.5153,46.3756],[7.5169,46.3756],[7.5181,46.3753],[7.5195,46.3753],[7.5208,46.3749],[7.5246,46.3749],[7.525,46.3747],[7.527,46.3746],[7.5292,46.3756],[7.5375,46.3771],[7.5388,46.3776],[7.5391,46.3778],[7.5386,46.379],[7.5386,46.3802],[7.5398,46.3827],[7.5407,46.3838],[7.5413,46.3841],[7.5553,46.389],[7.5544,46.3899],[7.5533,46.3904],[7.5521,46.3911],[7.5521,46.3913],[7.5486,46.393],[7.5482,46.3934],[7.547,46.394],[7.5448,46.3942],[7.5438,46.3941],[7.5408,46.3949],[7.5394,46.3955],[7.5339,46.3974],[7.5329,46.3978],[7.5304,46.3995],[7.5298,46.3995],[7.5286,46.4003],[7.5315,46.4051],[7.5318,46.4055],[7.5318,46.4059],[7.5321,46.4065],[7.5334,46.4068],[7.5336,46.4071],[7.5335,46.4073],[7.5326,46.4077],[7.5329,46.4079],[7.533,46.4081],[7.5328,46.4082],[7.5328,46.4087],[7.5335,46.409],[7.5336,46.4092],[7.5335,46.4094],[7.5339,46.4097],[7.5343,46.4099],[7.536,46.41],[7.5362,46.4101],[7.5362,46.4104],[7.5385,46.4106],[7.5394,46.4118],[7.5402,46.4118],[7.5403,46.4116],[7.5415,46.4117],[7.5421,46.4116],[7.5427,46.4119],[7.5433,46.4119],[7.5434,46.412],[7.5444,46.4122],[7.5477,46.4119],[7.5492,46.4121],[7.5513,46.412],[7.5528,46.4129],[7.5542,46.4136],[7.5546,46.4137],[7.558,46.4137],[7.5609,46.4133],[7.5624,46.4124],[7.5628,46.4128],[7.5626,46.4134],[7.5628,46.4135],[7.5638,46.4133],[7.5644,46.4138],[7.5655,46.4143],[7.5674,46.4142],[7.5692,46.4147],[7.5695,46.4145],[7.57,46.4148],[7.571,46.4146],[7.5721,46.4148],[7.5725,46.415],[7.573,46.4155],[7.5738,46.4158],[7.5742,46.4157],[7.5752,46.4163],[7.5761,46.4166],[7.5763,46.4169],[7.5769,46.4171],[7.5785,46.4173],[7.581,46.4169],[7.5815,46.4173],[7.5816,46.4176],[7.5835,46.4173],[7.5837,46.4169],[7.5841,46.4167],[7.5839,46.4164],[7.584,46.4158],[7.5849,46.4154],[7.5855,46.415],[7.5853,46.4146],[7.5855,46.4143],[7.5864,46.4137],[7.5876,46.4135],[7.5906,46.4125],[7.5924,46.4122],[7.5957,46.4112],[7.5962,46.4117],[7.596,46.4119],[7.5962,46.4124],[7.5967,46.4129],[7.5968,46.4136],[7.5975,46.4142],[7.5992,46.4151],[7.6002,46.416],[7.6001,46.4164],[7.6003,46.4169],[7.5995,46.4184],[7.5981,46.4194],[7.5976,46.4195],[7.5974,46.42],[7.5974,46.4207],[7.5985,46.4213],[7.5984,46.4215],[7.5993,46.4219],[7.5998,46.4225],[7.5997,46.4228],[7.5998,46.4229],[7.6005,46.4227],[7.6013,46.4232],[7.602,46.4229],[7.6022,46.4226],[7.6029,46.4226],[7.6032,46.4229],[7.6039,46.4229],[7.6062,46.4241],[7.6071,46.4248],[7.6075,46.4249],[7.608,46.4253],[7.6082,46.4259],[7.6089,46.4265],[7.6091,46.4271],[7.6089,46.4274],[7.6092,46.4279],[7.6102,46.4286],[7.6103,46.4289],[7.6098,46.4295],[7.6095,46.4304],[7.6096,46.4309],[7.61,46.4311],[7.61,46.4313],[7.6097,46.4319],[7.6091,46.4324],[7.6088,46.4329],[7.6087,46.4341],[7.6083,46.4346],[7.6098,46.4363],[7.6097,46.4367],[7.61,46.4369],[7.6112,46.4367],[7.6119,46.437],[7.6155,46.4379],[7.6166,46.4379],[7.6174,46.4381],[7.6178,46.438],[7.618,46.4381],[7.6185,46.4381],[7.6205,46.4392],[7.6212,46.4393],[7.6221,46.44],[7.6221,46.4404],[7.6228,46.4411],[7.6244,46.4417],[7.6246,46.4422],[7.6243,46.4424],[7.6247,46.4426],[7.6261,46.4451],[7.6329,46.4425],[7.6353,46.4412],[7.6372,46.4405],[7.6784,46.4289],[7.6788,46.4286],[7.6823,46.4272],[7.683,46.4272],[7.6838,46.427],[7.685,46.4264],[7.6861,46.4264],[7.6875,46.426],[7.6873,46.4258],[7.6888,46.4254],[7.6896,46.4254],[7.6903,46.4247],[7.6916,46.4248],[7.6926,46.4247],[7.6929,46.4249],[7.6936,46.4249],[7.6936,46.4246],[7.6941,46.4239],[7.6947,46.4232],[7.6961,46.4222],[7.6966,46.4217],[7.6966,46.4213],[7.6973,46.4206],[7.6989,46.4194],[7.6988,46.4192],[7.7013,46.4183],[7.704,46.417],[7.7085,46.4139],[7.7156,46.4148],[7.718,46.418],[7.7219,46.421],[7.7275,46.4215],[7.7314,46.4221],[7.7351,46.4233],[7.7355,46.4237],[7.7358,46.4247],[7.7361,46.4249],[7.7385,46.4253],[7.7394,46.4252],[7.7408,46.4257],[7.7409,46.426],[7.7414,46.4263],[7.7422,46.4265],[7.7423,46.4268],[7.7442,46.4284],[7.7466,46.4293],[7.7474,46.4301],[7.7489,46.4303],[7.7505,46.4311],[7.7516,46.4314],[7.7521,46.4318],[7.7526,46.4319],[7.7527,46.4321],[7.7534,46.4325],[7.7539,46.4325],[7.7549,46.4331],[7.755,46.4334],[7.7555,46.4338],[7.7556,46.4341],[7.7562,46.4345],[7.7562,46.4349],[7.7565,46.4351],[7.7567,46.435],[7.7574,46.4352],[7.758,46.435],[7.7596,46.4357],[7.7608,46.4359],[7.7614,46.4364],[7.7635,46.4372],[7.7638,46.4375],[7.7645,46.4379],[7.7654,46.4395],[7.766,46.44],[7.7667,46.4396],[7.7681,46.4394],[7.7688,46.4396],[7.7699,46.4401],[7.7705,46.4413],[7.7722,46.4423],[7.7727,46.4423],[7.7747,46.4429],[7.7755,46.4428],[7.7757,46.443],[7.778,46.4431],[7.7785,46.4433],[7.779,46.4443],[7.7783,46.4446],[7.7783,46.4449],[7.7794,46.446],[7.7794,46.4467],[7.7809,46.4471],[7.7813,46.4475],[7.7829,46.4484],[7.7845,46.4491],[7.7848,46.4497],[7.7854,46.4503],[7.786,46.4515],[7.7897,46.4533],[7.7915,46.4535],[7.7917,46.4537],[7.7926,46.4539],[7.7926,46.4541],[7.793,46.4543],[7.7941,46.4555],[7.7948,46.4558],[7.795,46.456],[7.7958,46.4562],[7.7966,46.4568],[7.797,46.4577],[7.7983,46.4588],[7.7996,46.459],[7.8255,46.4671],[7.8265,46.4678],[7.8266,46.4683],[7.8261,46.4684],[7.8259,46.4686],[7.8262,46.4691],[7.8275,46.47],[7.8279,46.4701],[7.8285,46.4709],[7.8313,46.4724],[7.8329,46.4726],[7.834,46.4731],[7.8351,46.4738],[7.8359,46.4739],[7.8362,46.4742],[7.8371,46.4743],[7.8374,46.4746],[7.8382,46.4748],[7.8384,46.4751],[7.8397,46.4757],[7.8401,46.4761],[7.8418,46.4769],[7.842,46.4773],[7.8424,46.4772],[7.8432,46.4776],[7.8435,46.4779],[7.8443,46.4781],[7.8447,46.4785],[7.8453,46.4784],[7.8458,46.4787],[7.8466,46.4789],[7.8482,46.4788],[7.849,46.4784],[7.8503,46.4773],[7.8531,46.4774],[7.8567,46.4779],[7.8598,46.4779],[7.8615,46.4782],[7.8637,46.4783],[7.8699,46.4778],[7.8729,46.4784],[7.8741,46.4785],[7.8754,46.4783],[7.8772,46.4786],[7.8784,46.4787],[7.88,46.4791],[7.8806,46.4795],[7.8812,46.4794],[7.8838,46.4803],[7.8871,46.4809],[7.8888,46.4823],[7.8896,46.4825],[7.8908,46.4833],[7.8953,46.4823],[7.8977,46.4824],[7.9009,46.4845],[7.9014,46.4846],[7.9023,46.4855],[7.9041,46.4859],[7.9058,46.4865],[7.906,46.4868],[7.9058,46.4871],[7.9068,46.4869],[7.9086,46.4871],[7.9101,46.487],[7.9111,46.4866],[7.9116,46.4867],[7.912,46.4869],[7.9119,46.487],[7.912,46.4875],[7.9128,46.4881],[7.913,46.4885],[7.9135,46.4885],[7.914,46.4888],[7.9155,46.4902],[7.9155,46.4904],[7.916,46.4911],[7.9168,46.4916],[7.9201,46.4918],[7.9223,46.4915],[7.9228,46.4915],[7.9236,46.4919],[7.9249,46.4931],[7.9249,46.4938],[7.9235,46.4951],[7.9253,46.496],[7.9259,46.4967],[7.9275,46.4973],[7.9299,46.4976],[7.9312,46.4981],[7.9326,46.4982],[7.9324,46.4987],[7.9326,46.4999],[7.9338,46.5011],[7.9337,46.5013],[7.9339,46.5021],[7.9345,46.5029],[7.9345,46.5033],[7.9381,46.5053],[7.9393,46.5056],[7.9409,46.5065],[7.9412,46.5073],[7.9418,46.5077],[7.945,46.508],[7.9464,46.5078],[7.9471,46.508],[7.9479,46.5079],[7.9494,46.5084],[7.9513,46.5087],[7.9521,46.5087],[7.9535,46.508],[7.958,46.5095],[7.9586,46.5101],[7.9613,46.5111],[7.962,46.5118],[7.9628,46.5121],[7.9636,46.5122],[7.964,46.5124],[7.9642,46.5127],[7.9676,46.5128],[7.9681,46.5141],[7.9705,46.5163],[7.9707,46.5174],[7.9704,46.5181],[7.9709,46.5182],[7.9713,46.5188],[7.9711,46.52],[7.9706,46.5211],[7.9729,46.5234],[7.9731,46.5238],[7.9729,46.5242],[7.9713,46.5254],[7.9706,46.5265],[7.9691,46.5269],[7.9688,46.5276],[7.9693,46.5284],[7.9685,46.5292],[7.9675,46.5296],[7.9665,46.5306],[7.9668,46.5309],[7.9668,46.5314],[7.9674,46.5323],[7.965,46.5335],[7.9645,46.5346],[7.9634,46.5353],[7.963,46.5363],[7.9626,46.5368],[7.9627,46.537],[7.9626,46.5375],[7.9629,46.5379],[7.9627,46.5382],[7.9628,46.5387],[7.9627,46.5388],[7.963,46.5394],[7.9637,46.5399],[7.9659,46.5405],[7.9678,46.5414],[7.9683,46.5428],[7.9689,46.5436],[7.9689,46.5439],[7.9698,46.5449],[7.9716,46.5453],[7.9719,46.5456],[7.9741,46.5465],[7.9762,46.547],[7.9782,46.5471],[7.9796,46.548],[7.981,46.548],[7.982,46.5477],[7.9843,46.5475],[7.9859,46.5477],[7.9877,46.549],[7.9883,46.5495],[7.9886,46.5503],[7.9888,46.5504],[7.9886,46.5506],[7.9902,46.5521],[7.9906,46.553],[7.9913,46.5533],[7.9926,46.5545],[7.9928,46.5548],[7.9933,46.5563],[7.9939,46.5565],[7.994,46.5566],[7.9973,46.5585],[8.0005,46.5577],[8.0014,46.558],[8.0026,46.5584],[8.003,46.5588],[8.0047,46.5589],[8.0074,46.5607],[8.0085,46.5611],[8.013,46.5623],[8.0148,46.5631],[8.0161,46.5633],[8.018,46.5628],[8.0191,46.5627],[8.022,46.5629],[8.0249,46.5619],[8.0259,46.562],[8.0266,46.5619],[8.0291,46.5624],[8.0326,46.5622],[8.0339,46.5616],[8.0339,46.5614],[8.0349,46.5606],[8.035,46.56],[8.0364,46.5596],[8.0431,46.5569],[8.0444,46.5566],[8.0462,46.5569],[8.0483,46.5565],[8.0493,46.5564],[8.0505,46.556],[8.0534,46.5561],[8.0547,46.5557],[8.0568,46.5542],[8.0568,46.554],[8.058,46.5537],[8.0583,46.5533],[8.0599,46.5527],[8.0604,46.5524],[8.0605,46.5521],[8.0604,46.552],[8.0615,46.5513],[8.0612,46.5518],[8.0621,46.5528],[8.0643,46.5533],[8.0658,46.5534],[8.0679,46.553],[8.0689,46.5533],[8.0707,46.5535],[8.0721,46.5538],[8.0758,46.5556],[8.0774,46.5552],[8.0783,46.5548],[8.0788,46.5545],[8.0788,46.5542],[8.0815,46.5529],[8.0837,46.5521],[8.0854,46.5517],[8.0857,46.5518],[8.087,46.5513],[8.0877,46.5513],[8.0886,46.5516],[8.0904,46.5511],[8.0937,46.5514],[8.0939,46.5507],[8.0948,46.5494],[8.0954,46.5489],[8.0977,46.5484],[8.0987,46.5484],[8.0996,46.5481],[8.1018,46.548],[8.105,46.5486],[8.1099,46.5474],[8.1132,46.5469],[8.1132,46.5468],[8.1134,46.5466],[8.1142,46.5467],[8.1155,46.546],[8.1157,46.5457],[8.1161,46.5456],[8.117,46.5444],[8.1171,46.544],[8.1175,46.5438],[8.1178,46.5432],[8.1204,46.542],[8.1207,46.5417],[8.1207,46.5413],[8.1212,46.541],[8.1227,46.5407],[8.1238,46.5393],[8.125,46.5388],[8.1264,46.5372],[8.1273,46.5371],[8.1295,46.5367],[8.1302,46.5368],[8.1325,46.5361],[8.1337,46.5361],[8.1348,46.5358],[8.1353,46.5351],[8.1366,46.5347],[8.1383,46.5346],[8.1398,46.535],[8.1405,46.535],[8.145,46.5333],[8.1477,46.5328],[8.1491,46.5321],[8.1498,46.5316],[8.1523,46.5318],[8.1531,46.5315],[8.1544,46.5315],[8.1548,46.5317],[8.1552,46.5315],[8.1564,46.5317],[8.1572,46.5315],[8.1582,46.5316],[8.1591,46.5312],[8.1606,46.5309],[8.1628,46.532],[8.1634,46.5321],[8.1657,46.5318],[8.1696,46.531],[8.1718,46.5314],[8.1719,46.5313],[8.1745,46.5314],[8.1742,46.53],[8.1743,46.5285],[8.1739,46.5278],[8.1741,46.5267],[8.1739,46.5264],[8.1743,46.5255],[8.1745,46.5242],[8.1752,46.5242],[8.1776,46.523],[8.179,46.5228],[8.1796,46.5218],[8.1805,46.5208],[8.1807,46.5203],[8.1821,46.5206],[8.1847,46.5204],[8.1883,46.5221],[8.1912,46.5231],[8.1964,46.5232],[8.1993,46.5239],[8.2006,46.524],[8.2028,46.5239],[8.2049,46.5229],[8.2055,46.523],[8.2062,46.5233],[8.2068,46.5239],[8.2085,46.5244],[8.2091,46.5248],[8.21,46.5248],[8.2103,46.525],[8.2105,46.5253],[8.2134,46.5257],[8.2154,46.5258],[8.2169,46.5263],[8.2194,46.5265],[8.2204,46.5264],[8.2207,46.5262],[8.2225,46.5263],[8.2237,46.5266],[8.2258,46.5269],[8.2266,46.5266],[8.2273,46.5266],[8.2278,46.5263],[8.2287,46.5264],[8.2298,46.5271],[8.2308,46.5271],[8.231,46.5269],[8.2315,46.527],[8.2321,46.5273],[8.2336,46.5267],[8.2345,46.5265],[8.2371,46.5268],[8.2383,46.5271],[8.2409,46.5265],[8.2418,46.5265],[8.2431,46.5268],[8.2447,46.5273],[8.2463,46.528],[8.2465,46.5283],[8.2474,46.5285],[8.2491,46.5286],[8.2502,46.5287],[8.2508,46.5292],[8.2514,46.5291],[8.2528,46.5296],[8.2581,46.5294],[8.2609,46.5312],[8.2622,46.5317],[8.262,46.5323],[8.263,46.5335],[8.2644,46.5335],[8.2671,46.5341],[8.2685,46.5342],[8.27,46.5349],[8.2699,46.5353],[8.2708,46.5354],[8.2722,46.5359],[8.2732,46.5365],[8.2737,46.5364],[8.2745,46.5366],[8.2754,46.5363],[8.2762,46.5365],[8.277,46.5362],[8.2783,46.5361],[8.2788,46.5359],[8.2796,46.5361],[8.2799,46.5367],[8.2804,46.5371],[8.283,46.5381],[8.284,46.5387],[8.2839,46.5388],[8.2841,46.5391],[8.2847,46.54],[8.2849,46.54],[8.285,46.5402],[8.2851,46.5408],[8.286,46.5411],[8.287,46.5423],[8.2874,46.5431],[8.2896,46.5433],[8.2927,46.544],[8.2939,46.545],[8.2945,46.545],[8.2962,46.5445],[8.297,46.5448],[8.2997,46.5448],[8.3033,46.5457],[8.3035,46.546],[8.3045,46.5463],[8.3051,46.5471],[8.3059,46.5476],[8.3061,46.5481],[8.3072,46.5483],[8.3081,46.5498],[8.309,46.5505],[8.3098,46.5508],[8.3102,46.5513],[8.3127,46.5525],[8.3126,46.5544],[8.3145,46.5564],[8.3154,46.5578],[8.3166,46.559],[8.3184,46.5597],[8.3214,46.5601],[8.3228,46.5598],[8.3242,46.5603],[8.3273,46.5599],[8.328,46.5602],[8.3326,46.5605],[8.3336,46.5611],[8.334,46.561],[8.3366,46.5611],[8.3374,46.5618],[8.3376,46.5617],[8.3391,46.5625],[8.3397,46.5626],[8.3439,46.5642],[8.346,46.5659],[8.3487,46.5679],[8.3506,46.5684],[8.3518,46.5695],[8.3515,46.5717],[8.3537,46.5731],[8.3537,46.5738],[8.3558,46.5747],[8.3575,46.5764],[8.3604,46.5778],[8.3647,46.5825],[8.3606,46.5863],[8.3616,46.5897],[8.3614,46.5899],[8.3624,46.591],[8.3633,46.5916],[8.3633,46.5923],[8.3635,46.5925],[8.3634,46.5932],[8.3629,46.5935],[8.3623,46.5943],[8.3622,46.5948],[8.3627,46.5959],[8.3623,46.5966],[8.3619,46.5968],[8.3618,46.5978],[8.3614,46.598],[8.3616,46.5982],[8.3617,46.5985],[8.3623,46.5997],[8.3619,46.6005],[8.3619,46.6018],[8.3625,46.6024],[8.3632,46.6026],[8.3651,46.604],[8.3653,46.605],[8.3651,46.6052],[8.3654,46.6054],[8.3654,46.6059],[8.3659,46.6063],[8.3658,46.6067],[8.3673,46.6078],[8.3685,46.6092],[8.3684,46.6098],[8.3688,46.6109],[8.3695,46.6119],[8.3693,46.6122],[8.3697,46.6131],[8.3705,46.6139],[8.3705,46.6143],[8.3706,46.6148],[8.3705,46.615],[8.3708,46.6153],[8.3708,46.6157],[8.3706,46.6159],[8.3707,46.6165],[8.3703,46.6167],[8.371,46.6178],[8.371,46.6189],[8.3703,46.6192],[8.3703,46.62],[8.3691,46.6203],[8.3687,46.6206],[8.3691,46.6208],[8.369,46.6213],[8.3693,46.6215],[8.3691,46.6217],[8.3691,46.6221],[8.3693,46.6225],[8.3691,46.623],[8.3688,46.6231],[8.3689,46.6235],[8.3685,46.6239],[8.3691,46.6244],[8.3693,46.6249],[8.3689,46.6255],[8.3691,46.6257],[8.3689,46.626],[8.3692,46.6264],[8.3693,46.6279],[8.3697,46.6282],[8.3693,46.6287],[8.3704,46.6299],[8.371,46.6302],[8.3711,46.6312],[8.3716,46.6316],[8.3724,46.633],[8.3719,46.6338],[8.3714,46.6341],[8.3727,46.6336],[8.3741,46.6328],[8.375,46.6331],[8.3759,46.6331],[8.3778,46.6336],[8.3792,46.6336],[8.3801,46.6342],[8.3832,46.6366],[8.3838,46.6381],[8.3848,46.6383],[8.3851,46.6385],[8.3856,46.6396],[8.3864,46.6401],[8.3877,46.6412],[8.3877,46.6417],[8.3901,46.6439],[8.3918,46.645],[8.3944,46.6457],[8.3948,46.6461],[8.395,46.6471],[8.399,46.654],[8.4182,46.6522],[8.4186,46.6519],[8.4188,46.6507],[8.4202,46.6491],[8.4205,46.6486],[8.422,46.6479],[8.4207,46.6466],[8.4214,46.6445],[8.4208,46.6422],[8.4209,46.6398],[8.4198,46.6381],[8.4199,46.6377],[8.4203,46.6372],[8.4188,46.6359],[8.4193,46.6352],[8.4194,46.6345],[8.4192,46.6341],[8.4194,46.6337],[8.42,46.6331],[8.4198,46.6315],[8.4199,46.6309],[8.4203,46.6301],[8.4207,46.6298],[8.4209,46.6295],[8.4208,46.6289],[8.4209,46.6283],[8.4211,46.6281],[8.4211,46.6278],[8.4224,46.6273],[8.4222,46.6269],[8.4207,46.6263],[8.4206,46.6258],[8.4204,46.6256],[8.4206,46.6253],[8.4203,46.6251],[8.4206,46.624],[8.4204,46.6233],[8.4207,46.623],[8.4205,46.6217],[8.421,46.6209],[8.4208,46.6204],[8.421,46.6201],[8.421,46.6197],[8.4204,46.619],[8.4207,46.6176],[8.4204,46.6163],[8.4195,46.6153],[8.4185,46.6147],[8.417,46.6126],[8.4172,46.6095],[8.4161,46.6068],[8.4151,46.6064],[8.4148,46.6058],[8.4149,46.6056],[8.4145,46.6053],[8.4141,46.6047],[8.4136,46.6046],[8.4133,46.6048],[8.411,46.6031],[8.4112,46.6027],[8.4105,46.6022],[8.408,46.6012],[8.4085,46.6011],[8.4076,46.5995],[8.4093,46.5975],[8.4103,46.5969],[8.4103,46.5964],[8.4101,46.5964],[8.409,46.5954],[8.4091,46.5952],[8.4087,46.5947],[8.4085,46.5937],[8.4088,46.5931],[8.4081,46.5916],[8.4081,46.5912],[8.4078,46.5904],[8.4081,46.5896],[8.4078,46.5893],[8.4079,46.589],[8.4076,46.5887],[8.4074,46.5877],[8.4071,46.5875],[8.4069,46.5868],[8.4061,46.586],[8.4063,46.5857],[8.4072,46.5853],[8.408,46.5845],[8.4079,46.5834],[8.4077,46.583],[8.4105,46.5797],[8.4104,46.5792],[8.4098,46.5788],[8.41,46.5775],[8.4124,46.5755],[8.4151,46.5727],[8.417,46.5711],[8.4192,46.5668],[8.4198,46.5662],[8.4192,46.5651],[8.4196,46.5636],[8.4202,46.5632],[8.4204,46.5625],[8.4213,46.5611],[8.4217,46.5607],[8.423,46.5604],[8.4233,46.5602],[8.4234,46.5597],[8.423,46.556],[8.4236,46.5548],[8.4236,46.554],[8.4239,46.5536],[8.4238,46.5533],[8.424,46.5532],[8.4239,46.5526],[8.4241,46.5518],[8.4247,46.5511],[8.4255,46.5508],[8.4261,46.5499],[8.4263,46.549],[8.4266,46.5486],[8.4266,46.5482],[8.4263,46.548],[8.4263,46.5473],[8.4267,46.5468],[8.4277,46.5463],[8.4281,46.5456],[8.4285,46.5454],[8.4285,46.5443],[8.4288,46.5436],[8.4293,46.5433],[8.4309,46.5433],[8.4329,46.5429],[8.4343,46.5418],[8.4347,46.541],[8.4356,46.5401],[8.4372,46.5397],[8.4382,46.5397],[8.4392,46.5401],[8.4406,46.5397],[8.4411,46.5397],[8.4426,46.5389],[8.4427,46.5387],[8.4434,46.5381],[8.4435,46.5377],[8.4437,46.5376],[8.4448,46.5376],[8.4453,46.5368],[8.452,46.535],[8.4529,46.535],[8.4548,46.5342],[8.4569,46.534],[8.4574,46.5337],[8.4582,46.5336],[8.4602,46.5338],[8.4613,46.5343],[8.4637,46.5358],[8.4644,46.5358],[8.4655,46.5355],[8.4661,46.535],[8.4666,46.534],[8.4671,46.5337],[8.4675,46.534],[8.468,46.5339],[8.4686,46.5331],[8.4694,46.5328],[8.4722,46.5304],[8.4735,46.5286],[8.4761,46.5278],[8.4776,46.5276]]]}}