{"type":"Feature","bbox":[8.3526,47.1634,8.9691,47.6963],"properties":{"iso":"CH","code":"ZH","name":"Zürich","name_de":"Kanton Zürich","key":"CH-ZH"},"geometry":{"type":"Polygon","coordinates":[[[8.6016,47.6326],[8.6073,47.6563],[8.5982,47.6569],[8.5936,47.6582],[8.6076,47.6708],[8.6247,47.6816],[8.6316,47.6906],[8.64,47.6963],[8.6832,47.6955],[8.68,47.6802],[8.6816,47.6643],[8.692,47.6522],[8.699,47.6492],[8.7078,47.6472],[8.7486,47.6461],[8.7547,47.6477],[8.7665,47.6543],[8.7777,47.6555],[8.7817,47.6575],[8.7885,47.6626],[8.805,47.6674],[8.8088,47.6541],[8.8202,47.6453],[8.8217,47.6411],[8.82,47.6362],[8.8082,47.6219],[8.7995,47.6153],[8.7933,47.6075],[8.7859,47.608],[8.776,47.6143],[8.7615,47.6193],[8.7544,47.62],[8.7472,47.6183],[8.7412,47.6149],[8.739,47.6128],[8.7393,47.6106],[8.7517,47.5995],[8.7638,47.5968],[8.8275,47.5756],[8.8385,47.5662],[8.832,47.5578],[8.8359,47.5488],[8.8418,47.5441],[8.8518,47.5402],[8.8815,47.532],[8.8885,47.5282],[8.8911,47.5249],[8.8844,47.4984],[8.8855,47.4953],[8.8855,47.4921],[8.8816,47.4879],[8.8754,47.4845],[8.8743,47.4795],[8.8766,47.4737],[8.8788,47.4708],[8.8886,47.4666],[8.8934,47.4461],[8.9034,47.4395],[8.9114,47.4364],[8.9114,47.435],[8.9055,47.4303],[8.9041,47.4233],[8.9001,47.4156],[8.8925,47.4086],[8.9324,47.38],[8.9367,47.3756],[8.9605,47.3465],[8.9662,47.3251],[8.9691,47.3173],[8.966,47.3134],[8.9598,47.3084],[8.947,47.3008],[8.9395,47.294],[8.9339,47.2878],[8.9347,47.2796],[8.93,47.2748],[8.9207,47.2691],[8.8618,47.2505],[8.8487,47.2497],[8.8076,47.2536],[8.7892,47.2437],[8.7754,47.2206],[8.7321,47.2146],[8.6931,47.1976],[8.6832,47.1915],[8.6773,47.1867],[8.675,47.1809],[8.6751,47.1783],[8.6762,47.1762],[8.6819,47.1708],[8.6835,47.1654],[8.6612,47.1634],[8.6316,47.1722],[8.6242,47.1761],[8.6177,47.184],[8.6062,47.1935],[8.5893,47.2035],[8.5708,47.2173],[8.5316,47.2218],[8.5032,47.218],[8.4845,47.2135],[8.4741,47.2134],[8.4624,47.2148],[8.4226,47.2237],[8.416,47.2266],[8.4133,47.2307],[8.4074,47.2455],[8.3849,47.278],[8.3825,47.2861],[8.391,47.2868],[8.3977,47.2886],[8.4149,47.2959],[8.4335,47.3123],[8.4427,47.3232],[8.4456,47.3328],[8.416,47.3264],[8.4042,47.3351],[8.402,47.3389],[8.4011,47.3422],[8.4034,47.3562],[8.4035,47.3625],[8.3991,47.3661],[8.3795,47.3729],[8.3708,47.3783],[8.3728,47.3837],[8.3994,47.4022],[8.4035,47.4104],[8.4011,47.4142],[8.3874,47.4264],[8.38,47.4419],[8.3579,47.4738],[8.3526,47.4876],[8.3531,47.4979],[8.3581,47.5168],[8.3748,47.535],[8.3964,47.5499],[8.4194,47.575],[8.4211,47.5811],[8.4489,47.5843],[8.4501,47.589],[8.4618,47.6061],[8.4924,47.6198],[8.5224,47.6219],[8.5378,47.6121],[8.5517,47.5969],[8.5303,47.5829],[8.5294,47.5754],[8.5336,47.5737],[8.5404,47.5692],[8.549,47.5614],[8.5525,47.5605],[8.5559,47.5607],[8.5637,47.5685],[8.5766,47.5915],[8.5763,47.595],[8.5806,47.6002],[8.5818,47.6077],[8.5813,47.6148],[8.5825,47.6216],[8.5821,47.625],[8.5781,47.6335],[8.5803,47.639],[8.584,47.6411],[8.5892,47.6425],[8.5936,47.6426],[8.5945,47.641],[8.5951,47.6348],[8.6016,47.6326]]]}}