{"type":"Feature","bbox":[8.3948,47.081,8.7012,47.2484],"properties":{"iso":"CH","code":"ZG","name":"Zug","name_de":"Kanton Zug","source":"swisstopo","key":"CH-ZG"},"geometry":{"type":"Polygon","coordinates":[[[8.4101,47.2484],[8.4111,47.2479],[8.4123,47.247],[8.413,47.2461],[8.4131,47.2452],[8.4134,47.2444],[8.4145,47.2428],[8.4158,47.2423],[8.416,47.2417],[8.4165,47.2413],[8.4165,47.2411],[8.4156,47.2401],[8.4144,47.2396],[8.4143,47.2394],[8.4143,47.2389],[8.4152,47.2384],[8.4165,47.237],[8.4162,47.2361],[8.4168,47.2353],[8.4166,47.2345],[8.417,47.2338],[8.4168,47.2321],[8.417,47.2307],[8.4174,47.2294],[8.4172,47.229],[8.418,47.2284],[8.4184,47.227],[8.4182,47.2266],[8.4185,47.2262],[8.4192,47.2263],[8.42,47.2258],[8.4209,47.2256],[8.4214,47.2247],[8.4217,47.2233],[8.4256,47.2238],[8.4298,47.2249],[8.4323,47.2241],[8.4355,47.2237],[8.4361,47.2238],[8.4372,47.2237],[8.4391,47.2239],[8.44,47.2243],[8.4411,47.2252],[8.4426,47.2236],[8.4429,47.2236],[8.4432,47.2231],[8.4438,47.2226],[8.4446,47.2231],[8.4466,47.2234],[8.4464,47.2221],[8.4477,47.2211],[8.4478,47.22],[8.4501,47.2201],[8.4503,47.2202],[8.4503,47.2195],[8.4521,47.2196],[8.453,47.2186],[8.4516,47.2184],[8.4526,47.2179],[8.453,47.2178],[8.4556,47.2185],[8.456,47.2184],[8.4567,47.2186],[8.4573,47.2177],[8.4578,47.2173],[8.4587,47.217],[8.4604,47.2153],[8.4614,47.2136],[8.462,47.2136],[8.4635,47.2139],[8.4655,47.214],[8.4669,47.2143],[8.4683,47.213],[8.4689,47.2132],[8.4701,47.2134],[8.4704,47.2119],[8.4715,47.212],[8.4723,47.2118],[8.4738,47.2106],[8.4729,47.2102],[8.473,47.2097],[8.4727,47.2096],[8.4733,47.2085],[8.4752,47.2089],[8.4755,47.2096],[8.4762,47.21],[8.4772,47.2093],[8.48,47.2086],[8.4834,47.2088],[8.4837,47.2085],[8.4838,47.2084],[8.4855,47.209],[8.4893,47.2109],[8.4918,47.2114],[8.4931,47.2119],[8.4954,47.2119],[8.4981,47.2123],[8.4984,47.2121],[8.5013,47.2118],[8.5033,47.2122],[8.5032,47.2124],[8.5039,47.2126],[8.5059,47.2139],[8.5051,47.2148],[8.5073,47.2144],[8.5086,47.2149],[8.5094,47.215],[8.5104,47.2157],[8.5123,47.2155],[8.5128,47.2165],[8.5126,47.2166],[8.5128,47.2171],[8.5124,47.2187],[8.5126,47.2194],[8.5175,47.2196],[8.5206,47.2193],[8.5212,47.2202],[8.5217,47.22],[8.5217,47.2197],[8.5214,47.2195],[8.5218,47.2193],[8.522,47.2189],[8.5229,47.2189],[8.5231,47.2187],[8.5232,47.2188],[8.5237,47.2189],[8.5243,47.2187],[8.5251,47.2188],[8.5254,47.2187],[8.5258,47.2189],[8.5259,47.2186],[8.5267,47.2187],[8.5288,47.2186],[8.53,47.2181],[8.5301,47.2178],[8.5311,47.2176],[8.5319,47.2183],[8.5317,47.2191],[8.5319,47.2201],[8.5325,47.2206],[8.5326,47.2214],[8.5325,47.2221],[8.5336,47.2215],[8.5364,47.2206],[8.5367,47.2212],[8.5367,47.2218],[8.5385,47.2224],[8.5391,47.2227],[8.5393,47.2231],[8.5432,47.2221],[8.5444,47.2219],[8.5451,47.2217],[8.5452,47.2215],[8.5459,47.2214],[8.547,47.222],[8.5487,47.222],[8.553,47.2217],[8.5538,47.2232],[8.5577,47.2216],[8.5582,47.2213],[8.5588,47.2203],[8.5604,47.2195],[8.5642,47.2196],[8.5663,47.219],[8.5671,47.2185],[8.5729,47.2184],[8.5744,47.2176],[8.5743,47.2171],[8.5746,47.217],[8.5766,47.2175],[8.5768,47.2179],[8.5767,47.2187],[8.5772,47.2187],[8.5775,47.2182],[8.5781,47.2179],[8.5792,47.2176],[8.5804,47.2175],[8.5822,47.2179],[8.5829,47.2179],[8.5834,47.2175],[8.5834,47.2169],[8.5814,47.2153],[8.581,47.2146],[8.5812,47.2139],[8.582,47.2126],[8.5824,47.2108],[8.5832,47.2105],[8.5851,47.2107],[8.5862,47.2112],[8.5875,47.2124],[8.5882,47.2126],[8.5889,47.2125],[8.59,47.2118],[8.5914,47.2115],[8.5932,47.2121],[8.5939,47.2121],[8.5945,47.2119],[8.5953,47.2112],[8.5961,47.2101],[8.5974,47.2093],[8.5977,47.2089],[8.5976,47.2083],[8.5967,47.2072],[8.5966,47.2068],[8.5973,47.2061],[8.5974,47.2057],[8.597,47.2055],[8.5966,47.2055],[8.5964,47.2053],[8.5963,47.2049],[8.5968,47.2037],[8.5974,47.2029],[8.5979,47.2027],[8.5982,47.202],[8.5986,47.2016],[8.5994,47.2014],[8.6,47.2016],[8.602,47.2028],[8.6031,47.203],[8.6044,47.2041],[8.6051,47.2049],[8.6061,47.2052],[8.6089,47.2044],[8.6093,47.2041],[8.6097,47.2034],[8.6102,47.203],[8.6108,47.2027],[8.6125,47.2022],[8.6129,47.2019],[8.613,47.2012],[8.6134,47.2006],[8.6146,47.1999],[8.6156,47.1989],[8.6163,47.1968],[8.6171,47.1956],[8.6181,47.1946],[8.6181,47.1939],[8.6173,47.1928],[8.6174,47.1923],[8.619,47.1912],[8.6209,47.1903],[8.621,47.1899],[8.6205,47.1887],[8.6206,47.1877],[8.6256,47.1822],[8.6261,47.1807],[8.6277,47.1799],[8.6281,47.1795],[8.628,47.1789],[8.627,47.1778],[8.6252,47.1766],[8.6246,47.1753],[8.624,47.1747],[8.6239,47.1736],[8.6241,47.1732],[8.6246,47.1728],[8.6258,47.1724],[8.6279,47.1721],[8.631,47.1722],[8.6338,47.1716],[8.6366,47.1717],[8.6391,47.1715],[8.6396,47.1714],[8.6398,47.1711],[8.6394,47.17],[8.6395,47.1695],[8.6399,47.1693],[8.6417,47.1689],[8.6428,47.169],[8.6459,47.1698],[8.6503,47.1703],[8.6523,47.171],[8.6529,47.171],[8.6549,47.17],[8.6557,47.1699],[8.6565,47.1699],[8.6585,47.1706],[8.6607,47.1703],[8.6604,47.1693],[8.6608,47.1687],[8.6609,47.1687],[8.6612,47.168],[8.6609,47.1674],[8.6608,47.1666],[8.661,47.1654],[8.6607,47.1645],[8.6608,47.1643],[8.6604,47.1639],[8.661,47.1624],[8.6612,47.1609],[8.6614,47.1608],[8.6623,47.1605],[8.6635,47.1605],[8.6647,47.1599],[8.6661,47.1596],[8.6682,47.1595],[8.6703,47.1597],[8.672,47.1597],[8.6726,47.1595],[8.675,47.1594],[8.6761,47.1601],[8.6764,47.1607],[8.6777,47.161],[8.6803,47.162],[8.6824,47.1621],[8.6847,47.1626],[8.6871,47.1626],[8.6888,47.1627],[8.6927,47.1635],[8.6952,47.1632],[8.6959,47.1628],[8.6967,47.1606],[8.6967,47.1595],[8.6971,47.1591],[8.6981,47.1588],[8.6983,47.1585],[8.6981,47.1578],[8.6981,47.1568],[8.6987,47.1563],[8.6992,47.155],[8.6986,47.1537],[8.699,47.1525],[8.7009,47.1514],[8.7012,47.1509],[8.7005,47.151],[8.6991,47.1505],[8.6988,47.1497],[8.6985,47.1495],[8.6983,47.1496],[8.698,47.1501],[8.6976,47.1503],[8.6959,47.1501],[8.6953,47.1495],[8.6934,47.1489],[8.6926,47.1481],[8.6906,47.1478],[8.6901,47.147],[8.6885,47.1461],[8.6879,47.1451],[8.6868,47.1441],[8.6857,47.1423],[8.6848,47.1419],[8.6843,47.1409],[8.6842,47.1402],[8.6845,47.1389],[8.6851,47.1384],[8.6853,47.1375],[8.6864,47.1371],[8.6873,47.1372],[8.6876,47.1371],[8.6871,47.1363],[8.6864,47.1361],[8.6863,47.1359],[8.6867,47.1356],[8.6872,47.1353],[8.6872,47.1348],[8.6875,47.1345],[8.6874,47.1344],[8.686,47.1348],[8.6858,47.1347],[8.6858,47.1345],[8.6854,47.1343],[8.6854,47.134],[8.6851,47.1338],[8.6853,47.1332],[8.6848,47.1333],[8.6844,47.1331],[8.6846,47.1325],[8.6849,47.1325],[8.6851,47.1322],[8.6849,47.132],[8.6845,47.132],[8.6844,47.1318],[8.6851,47.1317],[8.6854,47.1313],[8.6858,47.1314],[8.6861,47.1313],[8.6855,47.1307],[8.6845,47.1309],[8.684,47.1308],[8.6846,47.1305],[8.6844,47.1302],[8.6848,47.13],[8.6848,47.1299],[8.6841,47.1296],[8.6833,47.129],[8.6835,47.1285],[8.6831,47.1284],[8.683,47.128],[8.6828,47.128],[8.6824,47.1276],[8.6826,47.1272],[8.6822,47.1269],[8.6826,47.1265],[8.6823,47.1263],[8.6824,47.126],[8.6823,47.1258],[8.6815,47.1256],[8.6815,47.1254],[8.6818,47.125],[8.6813,47.1248],[8.68,47.1248],[8.6795,47.1242],[8.679,47.1243],[8.6787,47.1246],[8.6783,47.1245],[8.6773,47.1239],[8.6776,47.1231],[8.6768,47.1231],[8.6777,47.1223],[8.6773,47.1223],[8.6772,47.1224],[8.6771,47.1223],[8.6763,47.1224],[8.6764,47.1221],[8.676,47.1221],[8.6757,47.1218],[8.676,47.1215],[8.6757,47.1212],[8.6747,47.1214],[8.6748,47.1211],[8.6744,47.1211],[8.6742,47.1207],[8.6735,47.1209],[8.6735,47.1207],[8.6726,47.1205],[8.6725,47.1201],[8.672,47.1198],[8.6723,47.1193],[8.6719,47.1192],[8.6718,47.119],[8.6707,47.1191],[8.6712,47.1184],[8.6706,47.1184],[8.6705,47.1182],[8.671,47.1181],[8.6712,47.1183],[8.6715,47.1182],[8.6717,47.1181],[8.6712,47.1179],[8.6717,47.1178],[8.6717,47.1176],[8.6714,47.1176],[8.6717,47.1173],[8.6715,47.1172],[8.672,47.1168],[8.6713,47.1169],[8.671,47.1168],[8.6715,47.1164],[8.6713,47.116],[8.6718,47.1161],[8.6718,47.1157],[8.6714,47.1158],[8.6671,47.1157],[8.6654,47.115],[8.6639,47.115],[8.6627,47.1152],[8.6609,47.115],[8.6598,47.1147],[8.6602,47.1132],[8.6606,47.1123],[8.6606,47.1118],[8.6598,47.1109],[8.6581,47.1102],[8.6557,47.1085],[8.6538,47.1079],[8.6455,47.0996],[8.6449,47.0959],[8.6422,47.095],[8.6414,47.0944],[8.6407,47.0945],[8.6373,47.0933],[8.6346,47.0933],[8.6319,47.0936],[8.6303,47.0936],[8.63,47.0938],[8.6259,47.0939],[8.623,47.0947],[8.6118,47.095],[8.6087,47.0945],[8.6075,47.092],[8.5999,47.0905],[8.5982,47.0906],[8.5962,47.0915],[8.5955,47.0913],[8.5949,47.0909],[8.5932,47.0903],[8.5924,47.0896],[8.5909,47.0889],[8.5901,47.0864],[8.5873,47.0857],[8.5852,47.0855],[8.5835,47.0847],[8.5811,47.084],[8.5786,47.0841],[8.5776,47.0845],[8.5743,47.0823],[8.5735,47.082],[8.5709,47.0819],[8.57,47.0816],[8.5696,47.0812],[8.5686,47.0811],[8.5657,47.081],[8.5643,47.0815],[8.5637,47.0815],[8.563,47.0819],[8.5625,47.0829],[8.5627,47.0831],[8.5628,47.0838],[8.5631,47.0839],[8.5635,47.0851],[8.5639,47.0858],[8.5648,47.0867],[8.5649,47.0873],[8.5643,47.0876],[8.5639,47.0886],[8.5636,47.092],[8.5625,47.0938],[8.5615,47.0937],[8.5584,47.094],[8.556,47.0934],[8.5527,47.094],[8.5499,47.0937],[8.5472,47.0937],[8.5463,47.0941],[8.5463,47.0943],[8.5459,47.0944],[8.5455,47.0943],[8.5442,47.0945],[8.5435,47.0941],[8.5432,47.0938],[8.5428,47.0938],[8.5409,47.0927],[8.5408,47.0923],[8.5399,47.092],[8.5393,47.0921],[8.5369,47.0918],[8.5363,47.0918],[8.5356,47.0921],[8.5343,47.0921],[8.5338,47.092],[8.5335,47.0918],[8.5316,47.0917],[8.5309,47.0915],[8.5301,47.0917],[8.5257,47.0917],[8.5251,47.0913],[8.5242,47.0903],[8.5232,47.0905],[8.5219,47.0899],[8.4931,47.1002],[8.4937,47.1137],[8.4804,47.1263],[8.4671,47.1188],[8.4675,47.1186],[8.4669,47.1185],[8.4666,47.118],[8.4661,47.118],[8.4661,47.1177],[8.4663,47.1175],[8.4659,47.1173],[8.4659,47.1171],[8.4648,47.117],[8.4648,47.1168],[8.4643,47.1168],[8.4604,47.116],[8.4556,47.1134],[8.4549,47.1135],[8.4541,47.1137],[8.4534,47.1159],[8.4536,47.1159],[8.4533,47.1168],[8.4522,47.1197],[8.4519,47.12],[8.4517,47.121],[8.4516,47.121],[8.4516,47.1216],[8.4511,47.1235],[8.451,47.1235],[8.4508,47.1252],[8.4495,47.131],[8.4496,47.131],[8.4491,47.1309],[8.4475,47.1293],[8.4472,47.1295],[8.4454,47.1288],[8.4452,47.1291],[8.4435,47.1294],[8.4416,47.1295],[8.4415,47.1293],[8.4412,47.1293],[8.4413,47.1286],[8.4401,47.128],[8.4387,47.127],[8.4344,47.125],[8.4321,47.1246],[8.4319,47.1247],[8.4311,47.1243],[8.4318,47.1238],[8.4304,47.1233],[8.4295,47.1239],[8.429,47.1239],[8.4288,47.1242],[8.427,47.1233],[8.4267,47.1236],[8.4248,47.1236],[8.4247,47.1234],[8.4247,47.1229],[8.4238,47.1226],[8.4234,47.1235],[8.4228,47.1232],[8.4221,47.1235],[8.4203,47.1226],[8.419,47.1234],[8.4187,47.1234],[8.4183,47.1237],[8.4177,47.1232],[8.418,47.1228],[8.4178,47.1224],[8.4163,47.1238],[8.4154,47.1244],[8.4144,47.1262],[8.4143,47.1266],[8.4147,47.1275],[8.4157,47.1281],[8.4168,47.1306],[8.4155,47.1307],[8.4152,47.1315],[8.4156,47.1322],[8.416,47.1326],[8.4162,47.1331],[8.4152,47.1356],[8.4135,47.1382],[8.4122,47.1406],[8.4133,47.1417],[8.414,47.1428],[8.4146,47.1441],[8.4149,47.1453],[8.4149,47.1466],[8.4146,47.1479],[8.4122,47.1523],[8.412,47.1538],[8.4124,47.1551],[8.4145,47.1574],[8.4152,47.1586],[8.4154,47.1632],[8.4152,47.1646],[8.4121,47.1729],[8.4112,47.1742],[8.4101,47.175],[8.4087,47.1756],[8.403,47.1765],[8.4024,47.1768],[8.4021,47.1773],[8.4004,47.183],[8.4002,47.1845],[8.4003,47.1859],[8.4009,47.1881],[8.4014,47.1895],[8.4024,47.1908],[8.4048,47.1935],[8.4052,47.1944],[8.4053,47.1957],[8.4048,47.1971],[8.4023,47.2011],[8.4021,47.2019],[8.4017,47.2052],[8.4005,47.2083],[8.4005,47.2097],[8.401,47.2138],[8.4008,47.2151],[8.3998,47.2166],[8.3974,47.2184],[8.3968,47.2192],[8.3963,47.2205],[8.3948,47.2257],[8.3951,47.2268],[8.396,47.2289],[8.3975,47.2309],[8.399,47.2322],[8.4051,47.2361],[8.4061,47.2371],[8.4064,47.2379],[8.4065,47.2402],[8.4069,47.2411],[8.4102,47.2445],[8.4108,47.2455],[8.411,47.2463],[8.4109,47.247],[8.4106,47.2477],[8.4101,47.2484]]]}}