{"type":"Feature","bbox":[9.1911,47.247,9.631,47.469],"properties":{"iso":"CH","code":"AR","name":"Appenzell Ausserrhoden","name_de":"Kanton Appenzell Ausserrhoden","source":"swisstopo","key":"CH-AR"},"geometry":{"type":"Polygon","coordinates":[[[9.6206,47.4381],[9.6155,47.4373],[9.6142,47.4373],[9.6113,47.4367],[9.6085,47.4365],[9.6085,47.4366],[9.6073,47.4365],[9.607,47.4365],[9.607,47.4367],[9.6063,47.4368],[9.6049,47.4368],[9.6024,47.4364],[9.6018,47.436],[9.6002,47.4354],[9.5962,47.4344],[9.5946,47.4343],[9.5932,47.434],[9.593,47.434],[9.5927,47.4348],[9.5931,47.4351],[9.5931,47.4356],[9.5909,47.4352],[9.5886,47.4346],[9.5865,47.4347],[9.5831,47.4345],[9.5823,47.4347],[9.5816,47.4346],[9.5816,47.4344],[9.5794,47.4344],[9.5792,47.4341],[9.5793,47.4336],[9.5784,47.4338],[9.5775,47.4343],[9.5755,47.4343],[9.5756,47.4339],[9.5753,47.4339],[9.5736,47.4339],[9.572,47.4343],[9.5706,47.4343],[9.5705,47.4348],[9.5699,47.4347],[9.5699,47.4348],[9.5707,47.4359],[9.5699,47.4364],[9.5697,47.4369],[9.5692,47.4371],[9.5688,47.4375],[9.5689,47.4375],[9.5688,47.4379],[9.5691,47.4379],[9.5687,47.4385],[9.5674,47.4386],[9.5668,47.4384],[9.5664,47.4387],[9.5646,47.4381],[9.5645,47.4378],[9.5649,47.4375],[9.5648,47.4373],[9.565,47.4371],[9.5647,47.4368],[9.5644,47.4368],[9.5635,47.437],[9.5627,47.4367],[9.5624,47.4364],[9.5619,47.4363],[9.5617,47.4358],[9.5619,47.4354],[9.5618,47.435],[9.5601,47.4342],[9.5588,47.434],[9.5588,47.433],[9.5581,47.4328],[9.5587,47.4326],[9.5584,47.4325],[9.5589,47.4319],[9.5585,47.4317],[9.5597,47.4308],[9.5608,47.4313],[9.5614,47.431],[9.561,47.4302],[9.5626,47.4294],[9.5624,47.429],[9.5637,47.4289],[9.564,47.4295],[9.5648,47.4296],[9.5649,47.4289],[9.5665,47.429],[9.5677,47.4288],[9.5677,47.428],[9.5687,47.428],[9.5693,47.4277],[9.5696,47.4277],[9.5693,47.4287],[9.5699,47.429],[9.5706,47.4286],[9.5709,47.4279],[9.5712,47.4279],[9.5712,47.4277],[9.571,47.4276],[9.5711,47.4272],[9.5718,47.4273],[9.572,47.4266],[9.5723,47.4266],[9.5724,47.4264],[9.5732,47.4266],[9.5733,47.4263],[9.5741,47.4264],[9.5746,47.4257],[9.575,47.4259],[9.5753,47.4257],[9.5742,47.4253],[9.5732,47.4254],[9.5736,47.4245],[9.5736,47.4241],[9.5725,47.4238],[9.5721,47.4239],[9.5695,47.4236],[9.5691,47.4234],[9.5691,47.4227],[9.5681,47.4227],[9.5681,47.4223],[9.5673,47.4223],[9.5683,47.4211],[9.5689,47.4209],[9.5704,47.4212],[9.5723,47.4208],[9.5731,47.4209],[9.5734,47.4212],[9.5762,47.4214],[9.5766,47.4213],[9.5767,47.421],[9.5771,47.4208],[9.5782,47.4209],[9.5789,47.4207],[9.5791,47.4205],[9.5798,47.4204],[9.5804,47.4201],[9.5807,47.4197],[9.581,47.4197],[9.5811,47.42],[9.5822,47.4199],[9.5826,47.4201],[9.5829,47.4199],[9.5832,47.4201],[9.5836,47.4193],[9.5828,47.4192],[9.5829,47.4185],[9.5819,47.4183],[9.5819,47.4181],[9.5833,47.4182],[9.583,47.4164],[9.5814,47.4163],[9.5817,47.4151],[9.5824,47.4151],[9.5825,47.4149],[9.5838,47.415],[9.5855,47.4147],[9.5853,47.4133],[9.5858,47.4131],[9.5838,47.4116],[9.5823,47.4115],[9.5818,47.4113],[9.582,47.4108],[9.5803,47.4105],[9.5804,47.4104],[9.5819,47.4103],[9.5823,47.41],[9.5827,47.4099],[9.5831,47.4094],[9.5829,47.4093],[9.5829,47.4089],[9.5817,47.4084],[9.5815,47.4084],[9.581,47.408],[9.5797,47.4076],[9.5788,47.4071],[9.5776,47.407],[9.5767,47.4066],[9.5767,47.4065],[9.5764,47.4063],[9.5757,47.4062],[9.5758,47.4059],[9.5755,47.4058],[9.5744,47.4056],[9.5755,47.4051],[9.5757,47.4047],[9.5761,47.4043],[9.5764,47.4042],[9.5754,47.404],[9.5753,47.4042],[9.5739,47.4041],[9.5739,47.4039],[9.5733,47.4041],[9.5719,47.4033],[9.5721,47.403],[9.571,47.4029],[9.5711,47.4026],[9.5695,47.4021],[9.5694,47.4023],[9.569,47.4019],[9.5683,47.402],[9.5679,47.4019],[9.5678,47.4016],[9.5681,47.4012],[9.5679,47.4008],[9.5672,47.4004],[9.5656,47.4004],[9.5643,47.3995],[9.5651,47.3992],[9.5642,47.3987],[9.5612,47.399],[9.5602,47.3984],[9.5586,47.3978],[9.558,47.397],[9.557,47.3967],[9.5565,47.3963],[9.5562,47.3968],[9.5558,47.3969],[9.5553,47.3968],[9.5553,47.3964],[9.555,47.3965],[9.554,47.3974],[9.5535,47.3974],[9.5531,47.3977],[9.5532,47.3979],[9.5529,47.3981],[9.5528,47.3985],[9.5511,47.3991],[9.551,47.3996],[9.5505,47.4001],[9.5506,47.4004],[9.5498,47.4007],[9.5492,47.4014],[9.549,47.4021],[9.5482,47.4027],[9.548,47.4034],[9.5475,47.404],[9.5469,47.4043],[9.5465,47.4052],[9.5461,47.4055],[9.5459,47.4063],[9.5452,47.4064],[9.5445,47.4068],[9.5433,47.4071],[9.5428,47.4076],[9.5424,47.4082],[9.5446,47.4091],[9.5456,47.4093],[9.5463,47.4093],[9.5488,47.41],[9.5509,47.4097],[9.551,47.4094],[9.5513,47.41],[9.5517,47.4099],[9.5518,47.4094],[9.5528,47.4093],[9.5524,47.409],[9.553,47.4087],[9.5524,47.4081],[9.5532,47.4077],[9.5551,47.4078],[9.5567,47.4082],[9.557,47.4077],[9.5581,47.4082],[9.5577,47.4085],[9.5584,47.4091],[9.5589,47.4087],[9.5594,47.4085],[9.5602,47.4088],[9.5619,47.4084],[9.5624,47.4086],[9.5627,47.4085],[9.5637,47.408],[9.564,47.4064],[9.5645,47.406],[9.5649,47.4053],[9.5661,47.4056],[9.5667,47.4061],[9.567,47.4061],[9.5679,47.4062],[9.568,47.406],[9.5704,47.4064],[9.5712,47.4066],[9.5713,47.4069],[9.5716,47.4068],[9.5718,47.407],[9.5724,47.4073],[9.5727,47.4077],[9.5737,47.4074],[9.5738,47.4076],[9.5735,47.4085],[9.574,47.4091],[9.5735,47.4092],[9.5735,47.4121],[9.5724,47.4124],[9.5722,47.4132],[9.5728,47.4132],[9.5732,47.4135],[9.574,47.414],[9.5755,47.4145],[9.5758,47.4149],[9.5754,47.4151],[9.5755,47.4154],[9.5763,47.4154],[9.5763,47.4158],[9.5748,47.4159],[9.5711,47.4166],[9.5669,47.4163],[9.565,47.4165],[9.5638,47.4168],[9.5636,47.4178],[9.5634,47.4185],[9.5624,47.418],[9.5613,47.4177],[9.5605,47.4182],[9.5596,47.4181],[9.5588,47.4183],[9.559,47.4188],[9.5589,47.419],[9.557,47.4191],[9.556,47.4195],[9.5563,47.4204],[9.5556,47.4218],[9.5553,47.4221],[9.5558,47.4226],[9.5548,47.4233],[9.554,47.4234],[9.5546,47.4246],[9.5539,47.4251],[9.5546,47.4254],[9.555,47.4263],[9.5548,47.4268],[9.554,47.4264],[9.5535,47.4263],[9.5527,47.4274],[9.5505,47.4271],[9.5485,47.4277],[9.5487,47.4282],[9.5471,47.4287],[9.547,47.4289],[9.5469,47.4293],[9.5472,47.4298],[9.5462,47.4299],[9.5457,47.4303],[9.5457,47.4307],[9.5453,47.4308],[9.5448,47.4308],[9.5446,47.4304],[9.5444,47.4308],[9.5412,47.4316],[9.5411,47.4318],[9.5404,47.4318],[9.5401,47.4316],[9.5389,47.4317],[9.539,47.4314],[9.5387,47.4313],[9.5387,47.431],[9.5389,47.4305],[9.5392,47.4306],[9.5392,47.4299],[9.5389,47.4298],[9.539,47.4295],[9.5387,47.4292],[9.539,47.4286],[9.5384,47.4281],[9.5391,47.4279],[9.539,47.4273],[9.5387,47.4272],[9.5384,47.4275],[9.5371,47.4268],[9.5374,47.4258],[9.5365,47.4255],[9.5364,47.4253],[9.5355,47.4252],[9.5355,47.4249],[9.5342,47.4247],[9.534,47.4243],[9.5336,47.4242],[9.5324,47.4244],[9.5321,47.4243],[9.5324,47.4238],[9.531,47.424],[9.5309,47.4243],[9.5298,47.4241],[9.5296,47.4244],[9.5294,47.4242],[9.5285,47.4239],[9.5286,47.4235],[9.5265,47.4232],[9.5266,47.4229],[9.5246,47.4215],[9.5236,47.4216],[9.5238,47.4215],[9.5234,47.4214],[9.5237,47.421],[9.5241,47.4212],[9.5246,47.4208],[9.5244,47.4206],[9.5248,47.4202],[9.5247,47.42],[9.5253,47.4196],[9.5251,47.4188],[9.5243,47.4184],[9.5257,47.4176],[9.5267,47.4165],[9.5263,47.4163],[9.527,47.416],[9.5269,47.4157],[9.5271,47.415],[9.5249,47.415],[9.5245,47.4146],[9.5237,47.4142],[9.5229,47.414],[9.5241,47.4131],[9.5251,47.4132],[9.5253,47.4122],[9.5258,47.4121],[9.5263,47.4118],[9.5274,47.4122],[9.5276,47.412],[9.5276,47.4114],[9.5279,47.4109],[9.5282,47.4108],[9.5282,47.4107],[9.5275,47.4105],[9.5279,47.4104],[9.5282,47.4104],[9.5282,47.4106],[9.5286,47.4105],[9.5288,47.4108],[9.5289,47.4112],[9.5303,47.4115],[9.5313,47.411],[9.5318,47.4112],[9.5329,47.4107],[9.5327,47.4103],[9.5306,47.409],[9.5303,47.4089],[9.5302,47.4091],[9.5296,47.409],[9.5271,47.4078],[9.5244,47.407],[9.5231,47.4065],[9.5225,47.4071],[9.5218,47.4065],[9.5189,47.4056],[9.5175,47.4058],[9.5164,47.4056],[9.5127,47.4035],[9.5125,47.4032],[9.5107,47.4025],[9.5115,47.4022],[9.5112,47.4013],[9.5122,47.4001],[9.5118,47.3999],[9.5119,47.3997],[9.5118,47.3997],[9.5119,47.3994],[9.5115,47.3993],[9.5115,47.3991],[9.512,47.3989],[9.5112,47.3986],[9.5123,47.3975],[9.5115,47.3969],[9.5083,47.3956],[9.5082,47.3955],[9.5087,47.3948],[9.5096,47.3947],[9.5091,47.3946],[9.5079,47.393],[9.507,47.3907],[9.5065,47.3903],[9.5056,47.3902],[9.5053,47.39],[9.5054,47.3897],[9.5058,47.3892],[9.5042,47.3884],[9.5052,47.3876],[9.5046,47.3863],[9.5041,47.3846],[9.5042,47.3844],[9.5026,47.384],[9.504,47.3834],[9.5041,47.3826],[9.5034,47.3815],[9.5033,47.3809],[9.503,47.375],[9.5039,47.3751],[9.5049,47.375],[9.5054,47.3745],[9.5041,47.3736],[9.5018,47.3724],[9.5009,47.3718],[9.5007,47.3716],[9.5013,47.3712],[9.5007,47.3703],[9.499,47.3693],[9.5011,47.3681],[9.4989,47.3636],[9.4995,47.363],[9.5005,47.3627],[9.5001,47.3623],[9.499,47.3617],[9.4993,47.3616],[9.4996,47.3611],[9.5007,47.3611],[9.501,47.3609],[9.5,47.3601],[9.5015,47.3545],[9.5022,47.3544],[9.5026,47.3538],[9.5022,47.352],[9.5025,47.3518],[9.5031,47.3509],[9.5029,47.3507],[9.503,47.3492],[9.5028,47.3478],[9.5029,47.3474],[9.4872,47.3503],[9.4792,47.3472],[9.4719,47.347],[9.4658,47.3464],[9.4598,47.3501],[9.4559,47.3515],[9.45,47.3541],[9.45,47.3544],[9.4495,47.3547],[9.4482,47.3551],[9.447,47.356],[9.4455,47.3563],[9.4448,47.357],[9.4428,47.3564],[9.4424,47.356],[9.4401,47.3573],[9.4379,47.3565],[9.4331,47.3638],[9.433,47.3638],[9.4328,47.3642],[9.4323,47.3646],[9.4323,47.3655],[9.4321,47.3657],[9.4312,47.366],[9.4312,47.3666],[9.4307,47.3671],[9.4306,47.3677],[9.431,47.3679],[9.4316,47.3685],[9.4314,47.3686],[9.4311,47.3696],[9.4308,47.3698],[9.4304,47.3703],[9.4311,47.3705],[9.4309,47.3709],[9.4303,47.3708],[9.4303,47.371],[9.4301,47.371],[9.429,47.3708],[9.4234,47.3687],[9.423,47.3685],[9.4227,47.368],[9.4215,47.3681],[9.4212,47.3683],[9.4208,47.3693],[9.4201,47.3692],[9.4193,47.3696],[9.4177,47.3696],[9.4154,47.3689],[9.415,47.3686],[9.4146,47.3689],[9.4119,47.3688],[9.4086,47.3702],[9.4083,47.37],[9.4074,47.3707],[9.4078,47.3709],[9.4071,47.3711],[9.406,47.3713],[9.4063,47.3717],[9.4059,47.372],[9.4064,47.3724],[9.4062,47.3726],[9.4054,47.3726],[9.4045,47.3731],[9.4032,47.3734],[9.4026,47.3744],[9.4021,47.3749],[9.4019,47.3755],[9.4022,47.3758],[9.4032,47.3758],[9.4035,47.3761],[9.4028,47.3767],[9.4017,47.3766],[9.4004,47.3771],[9.4005,47.3776],[9.4013,47.3779],[9.4013,47.3782],[9.4011,47.3783],[9.4001,47.3781],[9.3995,47.3774],[9.3989,47.3774],[9.3978,47.3782],[9.3978,47.3784],[9.3982,47.3786],[9.3981,47.3789],[9.3966,47.3793],[9.3956,47.3791],[9.3955,47.3795],[9.3957,47.3799],[9.3955,47.38],[9.3936,47.3802],[9.393,47.38],[9.3913,47.379],[9.3904,47.3777],[9.3893,47.3775],[9.3876,47.3779],[9.3862,47.3771],[9.3857,47.3775],[9.3855,47.378],[9.3858,47.3789],[9.3855,47.3792],[9.3844,47.3795],[9.3832,47.3795],[9.3818,47.38],[9.3799,47.3804],[9.3787,47.3805],[9.3781,47.3808],[9.3779,47.3813],[9.3781,47.3817],[9.3791,47.3823],[9.3793,47.3827],[9.3788,47.3838],[9.3794,47.3841],[9.3795,47.3844],[9.3794,47.3864],[9.3791,47.3868],[9.3777,47.3863],[9.377,47.3872],[9.3753,47.3869],[9.3732,47.3864],[9.3728,47.3862],[9.3734,47.3851],[9.3728,47.3844],[9.3718,47.384],[9.371,47.384],[9.3702,47.3844],[9.3694,47.3846],[9.3684,47.3851],[9.368,47.3847],[9.3673,47.3846],[9.3662,47.3846],[9.3658,47.3849],[9.3655,47.3849],[9.3639,47.3843],[9.3631,47.3843],[9.3617,47.3847],[9.359,47.3851],[9.3575,47.3848],[9.3571,47.3838],[9.3565,47.3834],[9.3557,47.3835],[9.3545,47.3842],[9.3502,47.3831],[9.3512,47.3821],[9.3529,47.3818],[9.3536,47.3814],[9.3543,47.3805],[9.3552,47.3799],[9.3571,47.3787],[9.3583,47.3784],[9.3587,47.3781],[9.3586,47.3772],[9.3592,47.376],[9.3589,47.3743],[9.3595,47.3734],[9.3594,47.3732],[9.3571,47.372],[9.3568,47.3717],[9.3569,47.3713],[9.3582,47.3706],[9.3584,47.3702],[9.358,47.369],[9.3589,47.3683],[9.3594,47.3669],[9.3603,47.3665],[9.361,47.3666],[9.3613,47.3664],[9.3613,47.3659],[9.3602,47.3646],[9.3604,47.364],[9.361,47.3631],[9.3617,47.3627],[9.3621,47.3621],[9.3623,47.3612],[9.364,47.3601],[9.3642,47.3596],[9.3646,47.3594],[9.3648,47.3589],[9.3652,47.3587],[9.3654,47.3584],[9.3651,47.3581],[9.364,47.3579],[9.3639,47.3576],[9.3634,47.3575],[9.3629,47.3575],[9.3626,47.3573],[9.3621,47.3576],[9.362,47.3573],[9.3615,47.3573],[9.3609,47.357],[9.36,47.3569],[9.3597,47.357],[9.3591,47.3568],[9.3589,47.3568],[9.3589,47.3564],[9.3577,47.3559],[9.3572,47.3558],[9.3571,47.3555],[9.3547,47.3552],[9.3516,47.355],[9.3514,47.355],[9.3513,47.3547],[9.3504,47.3543],[9.347,47.354],[9.3455,47.3529],[9.3448,47.3527],[9.3447,47.3524],[9.3437,47.3522],[9.3437,47.3519],[9.3434,47.3513],[9.3435,47.3512],[9.3433,47.3512],[9.3435,47.3508],[9.3432,47.3502],[9.3444,47.3492],[9.3443,47.3488],[9.3446,47.3487],[9.3449,47.3481],[9.3448,47.3479],[9.3453,47.3473],[9.3455,47.3462],[9.3462,47.3449],[9.343,47.3447],[9.3394,47.3439],[9.3374,47.3427],[9.3347,47.3416],[9.3334,47.3408],[9.329,47.3308],[9.3271,47.3299],[9.3266,47.3302],[9.3255,47.3299],[9.3255,47.3296],[9.3232,47.3291],[9.3228,47.3291],[9.3222,47.329],[9.3223,47.3288],[9.3192,47.328],[9.3179,47.3274],[9.3161,47.3273],[9.3161,47.3272],[9.3142,47.3265],[9.3144,47.3262],[9.3113,47.3251],[9.3109,47.3241],[9.3101,47.3231],[9.3102,47.3228],[9.3099,47.3227],[9.3099,47.322],[9.3097,47.3219],[9.3098,47.3215],[9.3117,47.3213],[9.3137,47.3216],[9.314,47.3215],[9.3142,47.3211],[9.3137,47.3207],[9.3139,47.3206],[9.3141,47.3197],[9.3144,47.3192],[9.3158,47.318],[9.3161,47.3168],[9.3167,47.3162],[9.3168,47.3163],[9.317,47.3161],[9.317,47.316],[9.3166,47.3157],[9.3155,47.3153],[9.3162,47.3144],[9.3165,47.3138],[9.3155,47.3135],[9.3156,47.3132],[9.3167,47.3112],[9.3175,47.3102],[9.3183,47.3095],[9.3167,47.3085],[9.3159,47.3078],[9.315,47.3062],[9.3154,47.3048],[9.3171,47.3017],[9.3164,47.3013],[9.3161,47.3013],[9.3158,47.3002],[9.3147,47.2989],[9.3147,47.2978],[9.313,47.2961],[9.3132,47.2955],[9.3129,47.2953],[9.313,47.2951],[9.3128,47.2949],[9.313,47.2945],[9.3128,47.2945],[9.3129,47.2943],[9.3126,47.2939],[9.3128,47.2936],[9.3137,47.2929],[9.3134,47.2927],[9.3136,47.2914],[9.314,47.2911],[9.3144,47.291],[9.3144,47.2904],[9.3145,47.29],[9.3155,47.2893],[9.3158,47.2892],[9.3164,47.2894],[9.3166,47.2892],[9.3174,47.2892],[9.3178,47.2891],[9.318,47.2888],[9.3179,47.2887],[9.3185,47.2883],[9.3186,47.2882],[9.3183,47.288],[9.3185,47.2875],[9.3189,47.2871],[9.3187,47.2867],[9.3188,47.2858],[9.3196,47.2851],[9.3208,47.2843],[9.3215,47.2843],[9.3217,47.2838],[9.3236,47.2829],[9.3328,47.27],[9.3334,47.2659],[9.3331,47.2653],[9.3339,47.2639],[9.3339,47.2632],[9.3341,47.2627],[9.3346,47.2623],[9.3349,47.2613],[9.3357,47.2605],[9.3413,47.2519],[9.342,47.251],[9.3421,47.2507],[9.342,47.2503],[9.3424,47.2499],[9.3433,47.2494],[9.3424,47.2494],[9.3421,47.2492],[9.3408,47.249],[9.3324,47.2496],[9.3303,47.249],[9.3271,47.2486],[9.3264,47.2478],[9.3247,47.2476],[9.3238,47.247],[9.3186,47.2479],[9.3178,47.2485],[9.3144,47.2521],[9.3104,47.2533],[9.3079,47.2553],[9.3081,47.2555],[9.3079,47.2559],[9.3083,47.2564],[9.3087,47.2577],[9.309,47.258],[9.3088,47.2589],[9.308,47.2596],[9.3068,47.2597],[9.3064,47.2595],[9.3062,47.2597],[9.3056,47.2595],[9.3047,47.2598],[9.3037,47.2596],[9.3005,47.2583],[9.2988,47.258],[9.2972,47.2574],[9.2931,47.2604],[9.2917,47.2601],[9.2897,47.2603],[9.2887,47.2613],[9.2881,47.2624],[9.2867,47.2626],[9.2869,47.2628],[9.2859,47.2634],[9.2845,47.2654],[9.2841,47.2657],[9.2815,47.2651],[9.2794,47.265],[9.2762,47.2653],[9.2751,47.2657],[9.2791,47.2667],[9.2786,47.2672],[9.2755,47.2685],[9.2738,47.27],[9.2736,47.27],[9.2725,47.2687],[9.2718,47.2688],[9.2713,47.2685],[9.271,47.2685],[9.27,47.2686],[9.2693,47.2689],[9.2672,47.2685],[9.2657,47.2678],[9.2648,47.2676],[9.2635,47.267],[9.2634,47.2668],[9.2635,47.2667],[9.2631,47.2656],[9.2628,47.2654],[9.262,47.2654],[9.2611,47.2651],[9.2608,47.2648],[9.2603,47.2648],[9.26,47.2642],[9.2584,47.2639],[9.2573,47.2632],[9.2564,47.2633],[9.2549,47.2647],[9.254,47.2645],[9.2528,47.2651],[9.2516,47.2652],[9.2514,47.2657],[9.2488,47.2656],[9.248,47.2658],[9.2475,47.2661],[9.2463,47.2659],[9.2453,47.2655],[9.2425,47.2648],[9.2414,47.2647],[9.2395,47.2648],[9.2388,47.2646],[9.2366,47.2652],[9.2327,47.2656],[9.2313,47.2661],[9.2299,47.267],[9.2293,47.267],[9.2292,47.2672],[9.2278,47.2676],[9.2268,47.2674],[9.2263,47.2677],[9.2254,47.268],[9.2252,47.2683],[9.2245,47.2682],[9.2225,47.2691],[9.2221,47.269],[9.2201,47.2702],[9.2197,47.2702],[9.2183,47.271],[9.218,47.271],[9.2173,47.2707],[9.2164,47.2712],[9.2163,47.2714],[9.2164,47.2717],[9.2159,47.2718],[9.2156,47.2721],[9.215,47.2722],[9.2149,47.2725],[9.2146,47.2726],[9.214,47.2725],[9.2137,47.2731],[9.2127,47.2733],[9.2117,47.2741],[9.2113,47.274],[9.2109,47.2743],[9.2099,47.2746],[9.209,47.2752],[9.2086,47.2757],[9.2082,47.2756],[9.2075,47.276],[9.2063,47.2764],[9.2064,47.2769],[9.2067,47.2773],[9.2066,47.2776],[9.2068,47.2786],[9.2071,47.279],[9.2075,47.2792],[9.2082,47.2801],[9.2102,47.2812],[9.2109,47.282],[9.2116,47.2823],[9.212,47.2821],[9.2128,47.2826],[9.2135,47.2827],[9.2133,47.2834],[9.2159,47.2842],[9.2166,47.2842],[9.2171,47.2845],[9.2176,47.2855],[9.2185,47.2863],[9.2192,47.2873],[9.2199,47.2874],[9.2212,47.2883],[9.2224,47.2895],[9.2222,47.2902],[9.2216,47.2911],[9.2219,47.2917],[9.2228,47.2919],[9.2233,47.2918],[9.224,47.2924],[9.2243,47.2929],[9.2238,47.2931],[9.2241,47.2936],[9.2239,47.2938],[9.2227,47.2948],[9.2225,47.2952],[9.2217,47.296],[9.222,47.2964],[9.2213,47.2966],[9.221,47.2969],[9.2205,47.297],[9.2205,47.2972],[9.2197,47.2986],[9.2187,47.2988],[9.218,47.2996],[9.2171,47.2997],[9.2173,47.3003],[9.2169,47.3012],[9.2168,47.3018],[9.2164,47.3023],[9.216,47.3023],[9.216,47.3025],[9.2168,47.3034],[9.2166,47.3036],[9.2169,47.3038],[9.2168,47.3044],[9.2174,47.3047],[9.2175,47.3059],[9.2179,47.3067],[9.2175,47.307],[9.2178,47.3072],[9.2178,47.308],[9.2163,47.3104],[9.2159,47.3106],[9.2155,47.3113],[9.215,47.3115],[9.215,47.3122],[9.2146,47.3126],[9.2143,47.3133],[9.2147,47.3141],[9.2147,47.3144],[9.2139,47.3156],[9.214,47.3165],[9.2138,47.3167],[9.2139,47.3169],[9.2138,47.3171],[9.2139,47.3173],[9.2134,47.3175],[9.2133,47.3179],[9.213,47.3183],[9.2133,47.3189],[9.2129,47.3195],[9.213,47.3197],[9.2103,47.3205],[9.2098,47.3209],[9.2107,47.3213],[9.2104,47.3217],[9.2105,47.3218],[9.2112,47.3221],[9.2116,47.3218],[9.2118,47.3222],[9.2123,47.3226],[9.2131,47.3226],[9.2139,47.323],[9.2147,47.3228],[9.2149,47.3229],[9.215,47.3235],[9.2148,47.3239],[9.2149,47.324],[9.2161,47.3249],[9.2171,47.3244],[9.2181,47.3248],[9.218,47.325],[9.2183,47.3253],[9.2191,47.3257],[9.2198,47.3256],[9.2205,47.3262],[9.2208,47.3262],[9.2212,47.3258],[9.2219,47.3261],[9.2227,47.326],[9.2232,47.3268],[9.2232,47.3271],[9.2235,47.3272],[9.2245,47.327],[9.2245,47.3275],[9.2253,47.3278],[9.2256,47.328],[9.2256,47.3282],[9.2262,47.3283],[9.2261,47.3287],[9.2264,47.3288],[9.2266,47.3284],[9.2271,47.3284],[9.2275,47.3291],[9.2278,47.3294],[9.2292,47.3293],[9.2327,47.3309],[9.2332,47.3313],[9.2331,47.3316],[9.2333,47.3321],[9.2329,47.3325],[9.2329,47.3333],[9.2326,47.3335],[9.2326,47.3339],[9.2322,47.3341],[9.2323,47.3344],[9.2317,47.3346],[9.2316,47.3348],[9.2316,47.3351],[9.2311,47.3354],[9.2311,47.3358],[9.2306,47.3363],[9.23,47.3367],[9.2294,47.3366],[9.2294,47.3367],[9.2292,47.3368],[9.2294,47.3369],[9.2289,47.3375],[9.229,47.3377],[9.2274,47.3386],[9.2268,47.3395],[9.2266,47.3396],[9.2263,47.3401],[9.2259,47.3405],[9.2255,47.3411],[9.2255,47.3416],[9.2249,47.3424],[9.2231,47.3428],[9.2226,47.343],[9.2223,47.3433],[9.2204,47.3429],[9.2201,47.3423],[9.2151,47.3416],[9.2144,47.3412],[9.2142,47.3408],[9.2134,47.3406],[9.2132,47.3404],[9.2119,47.3406],[9.211,47.3411],[9.2103,47.3406],[9.2093,47.3405],[9.2089,47.3401],[9.2086,47.3401],[9.2081,47.3396],[9.2077,47.3397],[9.2071,47.3395],[9.2065,47.339],[9.2063,47.3391],[9.2061,47.3395],[9.2062,47.3399],[9.2058,47.3406],[9.206,47.3416],[9.2057,47.3423],[9.2051,47.3425],[9.2044,47.3425],[9.2039,47.3428],[9.2037,47.3434],[9.2032,47.3441],[9.2032,47.3444],[9.2028,47.3446],[9.2025,47.3453],[9.2013,47.3459],[9.2006,47.3459],[9.2003,47.3463],[9.2003,47.3466],[9.199,47.3469],[9.1986,47.3478],[9.199,47.3483],[9.2005,47.3491],[9.2005,47.3497],[9.2015,47.3503],[9.2016,47.3502],[9.2019,47.3504],[9.2027,47.3519],[9.2044,47.3546],[9.2053,47.3546],[9.2062,47.355],[9.2074,47.3557],[9.2075,47.3561],[9.2067,47.3561],[9.2047,47.3576],[9.2042,47.3563],[9.204,47.3561],[9.2035,47.3559],[9.2023,47.3561],[9.2018,47.3559],[9.2012,47.3551],[9.2001,47.3545],[9.1994,47.3543],[9.1975,47.3542],[9.1966,47.3536],[9.1956,47.3535],[9.1962,47.3543],[9.1961,47.3547],[9.1953,47.3559],[9.1955,47.356],[9.1953,47.3563],[9.1944,47.359],[9.1928,47.3602],[9.1925,47.3611],[9.1926,47.3616],[9.1911,47.3625],[9.1919,47.3624],[9.1927,47.3626],[9.1949,47.3623],[9.1958,47.3623],[9.1991,47.3614],[9.2003,47.3619],[9.2023,47.3619],[9.2102,47.3631],[9.2109,47.3641],[9.2118,47.3644],[9.213,47.3651],[9.2136,47.3663],[9.2139,47.3665],[9.2138,47.3668],[9.2134,47.367],[9.213,47.3679],[9.2132,47.3682],[9.2147,47.369],[9.2153,47.3697],[9.2165,47.3697],[9.2168,47.3701],[9.2174,47.3703],[9.2181,47.3711],[9.2184,47.3717],[9.2184,47.3721],[9.2185,47.372],[9.2187,47.373],[9.2198,47.3729],[9.2199,47.3727],[9.2205,47.3728],[9.221,47.3732],[9.2208,47.3737],[9.221,47.3741],[9.2209,47.3745],[9.2206,47.3748],[9.2203,47.3752],[9.2205,47.3757],[9.22,47.3758],[9.2198,47.376],[9.22,47.3765],[9.2198,47.3768],[9.2218,47.3779],[9.222,47.3783],[9.2217,47.3786],[9.2214,47.3793],[9.2201,47.3807],[9.22,47.3809],[9.22,47.3812],[9.2193,47.3818],[9.2193,47.382],[9.2195,47.382],[9.2199,47.3817],[9.2205,47.3823],[9.2195,47.3823],[9.2194,47.3824],[9.2196,47.3826],[9.2188,47.3829],[9.2191,47.3837],[9.2188,47.3843],[9.2188,47.3848],[9.2207,47.3857],[9.2222,47.3868],[9.2231,47.3876],[9.2234,47.3875],[9.2233,47.3873],[9.2235,47.3872],[9.2242,47.3868],[9.2247,47.3868],[9.2257,47.387],[9.2268,47.3877],[9.2271,47.3875],[9.2278,47.3876],[9.2292,47.3869],[9.2297,47.3873],[9.2305,47.3871],[9.2309,47.3874],[9.2307,47.388],[9.231,47.3881],[9.2316,47.3877],[9.2318,47.3878],[9.2325,47.3884],[9.2326,47.3888],[9.2324,47.3895],[9.2325,47.3898],[9.2332,47.3904],[9.2326,47.391],[9.2325,47.392],[9.2327,47.3929],[9.2318,47.3942],[9.2319,47.3944],[9.2324,47.3944],[9.2326,47.3945],[9.2323,47.3947],[9.2322,47.3951],[9.2323,47.396],[9.2307,47.3966],[9.2305,47.397],[9.2309,47.3972],[9.2318,47.3974],[9.2326,47.398],[9.2327,47.3971],[9.2332,47.3966],[9.2328,47.3963],[9.2329,47.396],[9.2337,47.396],[9.234,47.3964],[9.2342,47.3971],[9.2348,47.3971],[9.2354,47.3968],[9.2362,47.3962],[9.2376,47.3964],[9.2411,47.3979],[9.2416,47.3983],[9.2427,47.3985],[9.2444,47.3993],[9.2448,47.3993],[9.2453,47.399],[9.2457,47.399],[9.2468,47.3985],[9.2475,47.3988],[9.2476,47.399],[9.2487,47.3992],[9.2493,47.3996],[9.2504,47.4003],[9.2517,47.4004],[9.2519,47.4007],[9.2523,47.4007],[9.2527,47.4005],[9.2535,47.4007],[9.2544,47.4003],[9.255,47.4004],[9.2556,47.4009],[9.256,47.4009],[9.2564,47.4006],[9.2576,47.3987],[9.2589,47.3989],[9.2595,47.3995],[9.2608,47.4],[9.2612,47.3995],[9.2615,47.3996],[9.2618,47.4002],[9.262,47.4004],[9.2643,47.401],[9.2647,47.4012],[9.2659,47.4011],[9.267,47.4003],[9.267,47.3998],[9.2678,47.3995],[9.2694,47.3993],[9.2705,47.4],[9.2719,47.401],[9.2735,47.4007],[9.2747,47.4006],[9.2749,47.4003],[9.2751,47.4001],[9.2756,47.4001],[9.2768,47.3997],[9.2782,47.3998],[9.279,47.3996],[9.2789,47.3993],[9.2794,47.3982],[9.2806,47.3985],[9.282,47.3984],[9.2833,47.3987],[9.2838,47.3985],[9.284,47.3983],[9.2857,47.3979],[9.2872,47.3981],[9.289,47.3978],[9.2892,47.3981],[9.2897,47.3978],[9.2937,47.3972],[9.2942,47.397],[9.2942,47.3964],[9.295,47.3967],[9.2951,47.3966],[9.2947,47.3964],[9.2948,47.3962],[9.2963,47.3964],[9.2973,47.3963],[9.2984,47.3962],[9.3006,47.3953],[9.302,47.3952],[9.3023,47.3955],[9.303,47.3952],[9.3053,47.3958],[9.3053,47.3957],[9.3059,47.3959],[9.3067,47.3959],[9.3068,47.3961],[9.3086,47.3966],[9.3103,47.3965],[9.3105,47.3968],[9.3124,47.397],[9.3148,47.3976],[9.3167,47.3978],[9.3177,47.3977],[9.3181,47.3973],[9.3184,47.3973],[9.3181,47.3978],[9.3184,47.3977],[9.3184,47.3979],[9.3203,47.3982],[9.3212,47.399],[9.323,47.3996],[9.3247,47.4007],[9.3253,47.4004],[9.3254,47.4006],[9.3257,47.4007],[9.3278,47.4013],[9.3293,47.4013],[9.3303,47.4008],[9.332,47.4006],[9.3323,47.4004],[9.3324,47.4002],[9.3322,47.4],[9.3326,47.3995],[9.3343,47.3999],[9.3347,47.3998],[9.3354,47.3992],[9.3358,47.3991],[9.3366,47.3993],[9.3374,47.3999],[9.3381,47.4002],[9.339,47.4],[9.3397,47.3996],[9.3405,47.4001],[9.3425,47.4],[9.3454,47.4005],[9.3467,47.4009],[9.3477,47.4013],[9.3485,47.4013],[9.3511,47.4021],[9.354,47.4032],[9.3543,47.4034],[9.3548,47.4034],[9.3553,47.4028],[9.356,47.4026],[9.3563,47.4023],[9.357,47.4024],[9.3574,47.4021],[9.3579,47.4022],[9.3586,47.402],[9.3596,47.4027],[9.3596,47.403],[9.3598,47.4034],[9.3635,47.4046],[9.3641,47.4044],[9.3646,47.4047],[9.3651,47.4046],[9.3663,47.4047],[9.3673,47.4052],[9.3679,47.4059],[9.3687,47.4062],[9.3687,47.4064],[9.3691,47.4068],[9.3717,47.4077],[9.3723,47.4075],[9.3727,47.4071],[9.3751,47.4077],[9.3755,47.4076],[9.376,47.4073],[9.3772,47.4075],[9.3785,47.4073],[9.3792,47.4067],[9.3799,47.4068],[9.38,47.4066],[9.381,47.4065],[9.3815,47.4062],[9.3831,47.4063],[9.3846,47.4059],[9.3851,47.4057],[9.3861,47.4057],[9.3878,47.4053],[9.3893,47.4045],[9.3897,47.4045],[9.3904,47.4033],[9.3903,47.4029],[9.3908,47.402],[9.3916,47.4017],[9.3919,47.4013],[9.3927,47.401],[9.3951,47.4012],[9.3966,47.4009],[9.3974,47.4006],[9.398,47.4007],[9.3979,47.4014],[9.399,47.4014],[9.3998,47.4008],[9.4006,47.401],[9.4019,47.4008],[9.4038,47.4012],[9.4043,47.4014],[9.4051,47.4021],[9.4059,47.4023],[9.407,47.4021],[9.4082,47.4023],[9.4092,47.4025],[9.4092,47.4032],[9.4107,47.4031],[9.4111,47.4036],[9.4112,47.4041],[9.4129,47.4046],[9.4128,47.4054],[9.4135,47.4055],[9.4141,47.4051],[9.4141,47.4049],[9.4158,47.405],[9.4166,47.4051],[9.4197,47.4059],[9.4213,47.406],[9.4222,47.4061],[9.4265,47.4075],[9.4269,47.4081],[9.4279,47.4089],[9.4299,47.4096],[9.4297,47.4101],[9.43,47.4104],[9.4291,47.4102],[9.4286,47.4099],[9.4284,47.4105],[9.4279,47.4105],[9.428,47.4111],[9.4279,47.4115],[9.4292,47.4121],[9.4285,47.4126],[9.4286,47.4127],[9.4305,47.4115],[9.432,47.4126],[9.4326,47.4133],[9.433,47.414],[9.432,47.4142],[9.432,47.4152],[9.4314,47.4152],[9.4316,47.4156],[9.431,47.4164],[9.4309,47.417],[9.4308,47.4172],[9.4304,47.4171],[9.4302,47.4176],[9.43,47.4178],[9.4303,47.4182],[9.4333,47.4187],[9.4329,47.4194],[9.4339,47.42],[9.4338,47.4207],[9.435,47.4208],[9.4346,47.4219],[9.4347,47.4222],[9.4344,47.4225],[9.4346,47.4234],[9.4349,47.4236],[9.4346,47.4241],[9.4351,47.4247],[9.435,47.4254],[9.4347,47.4257],[9.4348,47.426],[9.4344,47.4262],[9.4347,47.4264],[9.4344,47.4266],[9.4342,47.4273],[9.434,47.4274],[9.4332,47.4284],[9.4331,47.4287],[9.4329,47.4289],[9.4331,47.4293],[9.4325,47.4295],[9.4327,47.4297],[9.4328,47.4304],[9.4333,47.431],[9.4336,47.4311],[9.4336,47.4313],[9.434,47.4316],[9.434,47.4318],[9.4347,47.4321],[9.435,47.4326],[9.4349,47.433],[9.4352,47.4335],[9.4347,47.4338],[9.435,47.4343],[9.4377,47.4345],[9.4387,47.4343],[9.4393,47.4337],[9.4408,47.4335],[9.4414,47.4333],[9.4425,47.4338],[9.4442,47.434],[9.445,47.4335],[9.4459,47.4333],[9.4467,47.4335],[9.4475,47.4328],[9.4483,47.4327],[9.4494,47.4314],[9.4505,47.4309],[9.4511,47.4309],[9.4516,47.4312],[9.4526,47.4311],[9.4531,47.4315],[9.4526,47.4322],[9.4531,47.4327],[9.4546,47.4328],[9.4565,47.4333],[9.4567,47.4336],[9.4577,47.434],[9.4587,47.4339],[9.4595,47.4343],[9.4639,47.4353],[9.4649,47.4358],[9.465,47.436],[9.4654,47.4363],[9.4654,47.4366],[9.4656,47.4367],[9.4661,47.4368],[9.4665,47.4371],[9.4675,47.4375],[9.4684,47.4383],[9.4697,47.4387],[9.4708,47.4389],[9.4713,47.4388],[9.4722,47.4389],[9.4726,47.4388],[9.473,47.439],[9.4755,47.4387],[9.476,47.4389],[9.4765,47.4388],[9.4768,47.4391],[9.4774,47.4391],[9.4779,47.4394],[9.4783,47.4395],[9.4791,47.4391],[9.4796,47.4392],[9.4798,47.4391],[9.4804,47.439],[9.4806,47.4391],[9.4813,47.4393],[9.4815,47.4396],[9.4821,47.4394],[9.4826,47.4396],[9.4829,47.4394],[9.483,47.4395],[9.4828,47.4397],[9.4835,47.4398],[9.4837,47.4399],[9.4836,47.4402],[9.484,47.4403],[9.484,47.4404],[9.4849,47.4407],[9.4855,47.4406],[9.4859,47.441],[9.4868,47.4413],[9.4916,47.4418],[9.4931,47.4421],[9.4951,47.4423],[9.4978,47.4437],[9.4982,47.4438],[9.4985,47.4433],[9.4995,47.4436],[9.4995,47.4438],[9.5036,47.4454],[9.5044,47.4461],[9.5046,47.4466],[9.5051,47.4467],[9.5059,47.4473],[9.5063,47.4473],[9.5063,47.4475],[9.5068,47.4476],[9.5074,47.4483],[9.5078,47.4484],[9.5079,47.4489],[9.5085,47.4489],[9.5084,47.4492],[9.509,47.4493],[9.5091,47.4494],[9.5097,47.4496],[9.51,47.4495],[9.5108,47.4496],[9.5113,47.45],[9.5118,47.4496],[9.5126,47.4496],[9.5142,47.4493],[9.5159,47.4504],[9.5174,47.4506],[9.518,47.4515],[9.5189,47.4517],[9.5195,47.4518],[9.5209,47.4516],[9.5213,47.4517],[9.5223,47.4514],[9.5239,47.4514],[9.5248,47.452],[9.5248,47.4521],[9.5254,47.4523],[9.5254,47.4529],[9.5264,47.4535],[9.5281,47.4539],[9.5297,47.4535],[9.5305,47.4535],[9.531,47.4543],[9.5295,47.455],[9.5275,47.4565],[9.527,47.4575],[9.5271,47.4577],[9.5267,47.4578],[9.5271,47.4584],[9.5266,47.4587],[9.5274,47.4592],[9.527,47.4595],[9.5268,47.4594],[9.5261,47.4602],[9.526,47.4604],[9.5264,47.4606],[9.526,47.4608],[9.5256,47.4614],[9.5263,47.462],[9.5267,47.4623],[9.5268,47.4622],[9.5274,47.4627],[9.5282,47.4639],[9.53,47.465],[9.5295,47.465],[9.5295,47.4652],[9.5293,47.4653],[9.5306,47.4654],[9.5311,47.4656],[9.5303,47.4663],[9.5325,47.4678],[9.5374,47.4685],[9.5384,47.4683],[9.5392,47.4679],[9.5395,47.4682],[9.541,47.4687],[9.542,47.4687],[9.5424,47.469],[9.5433,47.4689],[9.5434,47.4687],[9.5434,47.4684],[9.5443,47.4677],[9.5444,47.4673],[9.5463,47.4673],[9.5468,47.4675],[9.5472,47.467],[9.5466,47.4668],[9.5467,47.4667],[9.5465,47.4665],[9.5469,47.4661],[9.5467,47.4659],[9.5473,47.4654],[9.5471,47.4653],[9.5467,47.4646],[9.5462,47.4643],[9.5457,47.4642],[9.5457,47.4638],[9.5466,47.4629],[9.5481,47.4633],[9.5492,47.4639],[9.5503,47.4642],[9.5528,47.4645],[9.5529,47.464],[9.5531,47.4638],[9.5541,47.4638],[9.5566,47.4648],[9.5572,47.4649],[9.5589,47.4645],[9.5619,47.4635],[9.5622,47.4632],[9.5622,47.463],[9.5621,47.4629],[9.5634,47.4631],[9.5634,47.4629],[9.5666,47.4635],[9.5699,47.4634],[9.5701,47.4635],[9.5716,47.4633],[9.5722,47.4629],[9.5725,47.4632],[9.5742,47.4627],[9.5744,47.4629],[9.5766,47.4629],[9.5765,47.4627],[9.5768,47.4626],[9.5768,47.4625],[9.5775,47.4624],[9.5797,47.4627],[9.5799,47.4625],[9.5806,47.4625],[9.5806,47.4621],[9.5814,47.4622],[9.581,47.462],[9.5814,47.4618],[9.583,47.4617],[9.5831,47.4616],[9.583,47.4614],[9.5853,47.4605],[9.5874,47.46],[9.5876,47.4594],[9.5888,47.4597],[9.5888,47.4593],[9.5891,47.4592],[9.589,47.4591],[9.5892,47.4582],[9.589,47.4579],[9.5893,47.4577],[9.5893,47.4574],[9.5897,47.4574],[9.5903,47.4577],[9.5932,47.4586],[9.595,47.4588],[9.596,47.4587],[9.5962,47.4585],[9.5962,47.4576],[9.5964,47.4577],[9.5965,47.4573],[9.5969,47.4571],[9.5966,47.4569],[9.5969,47.4565],[9.5986,47.4558],[9.5992,47.4558],[9.5991,47.4555],[9.5992,47.4555],[9.5994,47.4552],[9.5998,47.4553],[9.6047,47.4524],[9.6053,47.4522],[9.6059,47.4523],[9.6068,47.452],[9.6073,47.4516],[9.6087,47.4516],[9.6089,47.4508],[9.6108,47.4498],[9.6109,47.4499],[9.6116,47.4494],[9.6144,47.4483],[9.6184,47.4478],[9.6206,47.4479],[9.6216,47.447],[9.6228,47.4465],[9.6231,47.4466],[9.6233,47.4463],[9.6251,47.4461],[9.6256,47.4457],[9.6273,47.445],[9.6297,47.4444],[9.6301,47.4439],[9.6307,47.4426],[9.6305,47.4426],[9.6304,47.4423],[9.631,47.4422],[9.631,47.4421],[9.6308,47.4421],[9.6309,47.4417],[9.6299,47.4417],[9.6302,47.4414],[9.6297,47.4398],[9.6295,47.4397],[9.6279,47.4393],[9.6265,47.4393],[9.6261,47.439],[9.625,47.4389],[9.625,47.4388],[9.6231,47.4383],[9.6206,47.4381]],[[9.6131,47.4437],[9.6121,47.4434],[9.613,47.4432],[9.613,47.4434],[9.6133,47.4434],[9.6131,47.4437]],[[9.3623,47.3869],[9.3618,47.3864],[9.3627,47.386],[9.3632,47.3864],[9.3623,47.3869]]]}}