{"type":"Feature","bbox":[9.3097,47.234,9.6184,47.4387],"properties":{"iso":"CH","code":"AI","name":"Appenzell Innerrhoden","name_de":"Kanton Appenzell Innerrhoden","source":"swisstopo","key":"CH-AI"},"geometry":{"type":"MultiPolygon","coordinates":[[[[9.6178,47.4377],[9.6184,47.4366],[9.6174,47.4366],[9.6173,47.4368],[9.6165,47.4366],[9.6163,47.4361],[9.6146,47.4357],[9.6149,47.4352],[9.6142,47.4351],[9.6137,47.4345],[9.6134,47.4347],[9.6128,47.4344],[9.6129,47.4342],[9.6094,47.4335],[9.6089,47.4335],[9.6085,47.4333],[9.608,47.4327],[9.6077,47.4327],[9.6078,47.4325],[9.6072,47.4323],[9.607,47.4321],[9.6074,47.4317],[9.6062,47.4315],[9.6047,47.431],[9.6029,47.4305],[9.601,47.4296],[9.5983,47.4292],[9.595,47.4277],[9.59,47.4259],[9.5899,47.4258],[9.59,47.4256],[9.5883,47.4254],[9.5887,47.4253],[9.5886,47.4249],[9.589,47.4247],[9.5885,47.424],[9.5893,47.4233],[9.5898,47.4225],[9.5888,47.4216],[9.5897,47.4209],[9.5899,47.4212],[9.5905,47.4205],[9.5909,47.4207],[9.594,47.4195],[9.5936,47.4191],[9.5936,47.4188],[9.5955,47.4187],[9.5971,47.4184],[9.5971,47.4183],[9.5963,47.418],[9.5966,47.4178],[9.5958,47.4173],[9.5995,47.4169],[9.6013,47.4163],[9.6048,47.4144],[9.6047,47.4141],[9.6044,47.414],[9.6023,47.4141],[9.602,47.4138],[9.6004,47.4135],[9.6003,47.4132],[9.5994,47.4126],[9.5963,47.4115],[9.5928,47.4116],[9.5914,47.4112],[9.5907,47.4114],[9.5904,47.4118],[9.5899,47.4117],[9.5895,47.4113],[9.5886,47.4109],[9.5873,47.4109],[9.5857,47.4106],[9.5831,47.4096],[9.5819,47.4103],[9.5804,47.4104],[9.5803,47.4105],[9.582,47.4108],[9.5818,47.4113],[9.5823,47.4115],[9.5838,47.4116],[9.5858,47.4131],[9.5853,47.4133],[9.5855,47.4147],[9.5838,47.415],[9.5825,47.4149],[9.5824,47.4151],[9.5817,47.4151],[9.5814,47.4163],[9.583,47.4164],[9.5833,47.4182],[9.5819,47.4181],[9.5819,47.4183],[9.5829,47.4185],[9.5828,47.4192],[9.5836,47.4193],[9.5832,47.4201],[9.5829,47.4199],[9.5826,47.4201],[9.5822,47.4199],[9.5811,47.42],[9.581,47.4197],[9.5807,47.4197],[9.5804,47.4201],[9.5798,47.4204],[9.5791,47.4205],[9.5789,47.4207],[9.5782,47.4209],[9.5771,47.4208],[9.5767,47.421],[9.5766,47.4213],[9.5762,47.4214],[9.5734,47.4212],[9.5731,47.4209],[9.5723,47.4208],[9.5715,47.4209],[9.5711,47.4212],[9.5706,47.4212],[9.5689,47.4209],[9.5684,47.4211],[9.5673,47.4223],[9.5681,47.4223],[9.5681,47.4227],[9.5691,47.4227],[9.5691,47.4234],[9.5695,47.4236],[9.5721,47.4239],[9.5725,47.4238],[9.5736,47.4241],[9.5736,47.4245],[9.5732,47.4254],[9.5742,47.4253],[9.5753,47.4257],[9.575,47.4259],[9.5746,47.4257],[9.5741,47.4264],[9.5733,47.4263],[9.5732,47.4266],[9.5724,47.4264],[9.5723,47.4266],[9.572,47.4266],[9.5718,47.4273],[9.5711,47.4272],[9.571,47.4276],[9.5712,47.4277],[9.5712,47.4279],[9.5709,47.4279],[9.5706,47.4286],[9.5699,47.429],[9.5693,47.4287],[9.5696,47.4277],[9.5693,47.4277],[9.5687,47.428],[9.5677,47.428],[9.5677,47.4288],[9.5665,47.429],[9.5649,47.4289],[9.5648,47.4296],[9.564,47.4295],[9.5637,47.4289],[9.5624,47.429],[9.5626,47.4294],[9.561,47.4302],[9.5614,47.431],[9.5608,47.4313],[9.5597,47.4308],[9.5585,47.4317],[9.5589,47.4319],[9.5584,47.4325],[9.5587,47.4326],[9.5581,47.4328],[9.5588,47.433],[9.5588,47.434],[9.5601,47.4342],[9.5618,47.435],[9.5619,47.4354],[9.5617,47.4358],[9.5619,47.4363],[9.5635,47.437],[9.5644,47.4368],[9.5647,47.4368],[9.565,47.4371],[9.5648,47.4373],[9.5649,47.4375],[9.5645,47.4378],[9.5646,47.4381],[9.5664,47.4387],[9.5668,47.4384],[9.5675,47.4386],[9.5688,47.4385],[9.5691,47.4379],[9.5688,47.4379],[9.5689,47.4375],[9.5688,47.4375],[9.5692,47.4371],[9.5697,47.4369],[9.5699,47.4364],[9.5707,47.4359],[9.5699,47.4348],[9.5699,47.4347],[9.5705,47.4348],[9.5706,47.4343],[9.572,47.4343],[9.5736,47.4339],[9.5753,47.4339],[9.5756,47.4339],[9.5755,47.4343],[9.5775,47.4343],[9.5784,47.4338],[9.5793,47.4336],[9.5792,47.4341],[9.5794,47.4344],[9.5816,47.4344],[9.5816,47.4346],[9.5823,47.4347],[9.5831,47.4345],[9.5865,47.4347],[9.5886,47.4346],[9.5909,47.4352],[9.5931,47.4356],[9.5931,47.4351],[9.5927,47.4348],[9.593,47.434],[9.5932,47.434],[9.5946,47.4343],[9.5962,47.4344],[9.6002,47.4354],[9.6018,47.436],[9.6024,47.4364],[9.6049,47.4368],[9.6063,47.4368],[9.607,47.4367],[9.607,47.4365],[9.6073,47.4365],[9.6085,47.4366],[9.6085,47.4365],[9.6113,47.4367],[9.6142,47.4373],[9.6155,47.4373],[9.6178,47.4377]]],[[[9.5553,47.3964],[9.5554,47.3959],[9.5549,47.3955],[9.5538,47.3956],[9.5537,47.3952],[9.5533,47.3952],[9.5531,47.3947],[9.5538,47.3946],[9.5533,47.394],[9.5526,47.3943],[9.5517,47.3938],[9.5519,47.3935],[9.5516,47.3934],[9.5513,47.3936],[9.5511,47.3934],[9.5507,47.3936],[9.5493,47.3931],[9.5489,47.3933],[9.549,47.3935],[9.5476,47.3932],[9.5477,47.3934],[9.547,47.3944],[9.5462,47.3943],[9.5459,47.3945],[9.5454,47.3943],[9.5451,47.3953],[9.5432,47.395],[9.5443,47.396],[9.5441,47.3961],[9.5445,47.3964],[9.5445,47.3968],[9.5454,47.3985],[9.5452,47.3988],[9.5432,47.3989],[9.5432,47.4],[9.5426,47.4003],[9.5423,47.3997],[9.5419,47.3996],[9.538,47.3992],[9.5366,47.3994],[9.5295,47.3976],[9.5271,47.3975],[9.5255,47.3971],[9.5219,47.3968],[9.5209,47.3966],[9.5207,47.3963],[9.5204,47.3969],[9.5196,47.3965],[9.5196,47.3967],[9.5189,47.3966],[9.5187,47.3962],[9.5188,47.3958],[9.5176,47.3961],[9.5177,47.396],[9.5166,47.396],[9.5134,47.3954],[9.5133,47.3951],[9.5112,47.3951],[9.5096,47.3947],[9.5087,47.3948],[9.5082,47.3955],[9.509,47.396],[9.5115,47.3969],[9.5123,47.3975],[9.5112,47.3986],[9.512,47.3989],[9.5115,47.3991],[9.5115,47.3993],[9.5119,47.3994],[9.5118,47.3997],[9.5119,47.3997],[9.5118,47.3999],[9.5122,47.4001],[9.5112,47.4013],[9.5115,47.4022],[9.5107,47.4025],[9.5125,47.4032],[9.5127,47.4035],[9.5164,47.4056],[9.5175,47.4058],[9.5189,47.4056],[9.5218,47.4065],[9.5225,47.4071],[9.5231,47.4065],[9.5244,47.407],[9.5271,47.4078],[9.5296,47.409],[9.5302,47.4091],[9.5303,47.4089],[9.5306,47.409],[9.5327,47.4103],[9.5329,47.4107],[9.5318,47.4112],[9.5313,47.411],[9.5303,47.4115],[9.5289,47.4112],[9.5288,47.4108],[9.5286,47.4105],[9.5282,47.4106],[9.5282,47.4104],[9.5279,47.4104],[9.5275,47.4105],[9.5282,47.4107],[9.5282,47.4108],[9.5279,47.4109],[9.5276,47.4114],[9.5276,47.412],[9.5274,47.4122],[9.5263,47.4118],[9.5258,47.4121],[9.5253,47.4122],[9.5251,47.4132],[9.5241,47.4131],[9.5229,47.414],[9.5237,47.4142],[9.5245,47.4146],[9.5249,47.415],[9.5271,47.415],[9.5269,47.4157],[9.527,47.416],[9.5263,47.4163],[9.5267,47.4165],[9.5257,47.4176],[9.5243,47.4184],[9.5251,47.4188],[9.5253,47.4196],[9.5247,47.42],[9.5248,47.4202],[9.5244,47.4206],[9.5246,47.4208],[9.5241,47.4212],[9.5237,47.421],[9.5234,47.4214],[9.5238,47.4215],[9.5236,47.4216],[9.5246,47.4215],[9.5266,47.4229],[9.5265,47.4232],[9.5286,47.4235],[9.5285,47.4239],[9.5294,47.4242],[9.5296,47.4244],[9.5298,47.4241],[9.5309,47.4243],[9.531,47.424],[9.5324,47.4238],[9.5321,47.4243],[9.5324,47.4244],[9.5336,47.4242],[9.534,47.4243],[9.5342,47.4247],[9.5355,47.4249],[9.5355,47.4252],[9.5364,47.4253],[9.5365,47.4255],[9.5374,47.4258],[9.5371,47.4268],[9.5384,47.4275],[9.5387,47.4272],[9.539,47.4273],[9.5391,47.4279],[9.5384,47.4281],[9.539,47.4286],[9.5387,47.4292],[9.539,47.4295],[9.5389,47.4298],[9.5392,47.4299],[9.5392,47.4306],[9.5389,47.4305],[9.5387,47.431],[9.5387,47.4313],[9.539,47.4314],[9.5389,47.4317],[9.5401,47.4316],[9.5404,47.4318],[9.5411,47.4318],[9.5412,47.4316],[9.5444,47.4308],[9.5446,47.4304],[9.5448,47.4308],[9.5453,47.4308],[9.5457,47.4307],[9.5457,47.4303],[9.5462,47.4299],[9.5472,47.4298],[9.5469,47.4293],[9.547,47.4289],[9.5471,47.4287],[9.5487,47.4282],[9.5485,47.4277],[9.5505,47.4271],[9.5527,47.4274],[9.5535,47.4263],[9.554,47.4264],[9.5548,47.4268],[9.555,47.4263],[9.5546,47.4254],[9.5539,47.4251],[9.5546,47.4246],[9.554,47.4234],[9.5548,47.4233],[9.5558,47.4226],[9.5553,47.4221],[9.5556,47.4218],[9.5563,47.4204],[9.556,47.4195],[9.557,47.4191],[9.5589,47.419],[9.559,47.4188],[9.5588,47.4183],[9.5596,47.4181],[9.5605,47.4182],[9.5613,47.4177],[9.5624,47.418],[9.5634,47.4185],[9.5636,47.4178],[9.5638,47.4168],[9.565,47.4165],[9.5669,47.4163],[9.5711,47.4166],[9.5748,47.4159],[9.5763,47.4158],[9.5763,47.4154],[9.5755,47.4154],[9.5754,47.4151],[9.5758,47.4149],[9.5755,47.4145],[9.574,47.414],[9.5732,47.4135],[9.5728,47.4132],[9.5722,47.4132],[9.5724,47.4124],[9.5735,47.4121],[9.5735,47.4092],[9.574,47.4091],[9.5735,47.4085],[9.5738,47.4076],[9.5737,47.4074],[9.5727,47.4077],[9.5724,47.4073],[9.5718,47.407],[9.5716,47.4068],[9.5713,47.4069],[9.5712,47.4066],[9.5704,47.4064],[9.568,47.406],[9.5679,47.4062],[9.567,47.4061],[9.5667,47.4061],[9.5661,47.4056],[9.5649,47.4053],[9.5645,47.406],[9.564,47.4064],[9.5637,47.408],[9.5627,47.4085],[9.5624,47.4086],[9.5619,47.4084],[9.5602,47.4088],[9.5594,47.4085],[9.5589,47.4087],[9.5584,47.4091],[9.5577,47.4085],[9.5581,47.4082],[9.557,47.4077],[9.5567,47.4082],[9.5551,47.4078],[9.5532,47.4077],[9.5524,47.4081],[9.553,47.4087],[9.5524,47.409],[9.5528,47.4093],[9.5518,47.4094],[9.5517,47.4099],[9.5513,47.41],[9.551,47.4094],[9.5509,47.4097],[9.5488,47.41],[9.5463,47.4093],[9.5456,47.4093],[9.5446,47.4091],[9.5424,47.4082],[9.5428,47.4076],[9.5433,47.4071],[9.5445,47.4068],[9.5452,47.4064],[9.5459,47.4063],[9.5461,47.4055],[9.5465,47.4052],[9.5469,47.4043],[9.5475,47.404],[9.548,47.4034],[9.5482,47.4027],[9.549,47.4021],[9.5492,47.4014],[9.5498,47.4007],[9.5506,47.4004],[9.5505,47.4001],[9.551,47.3996],[9.5511,47.3991],[9.5521,47.3986],[9.5527,47.3986],[9.5529,47.3981],[9.5532,47.3979],[9.5531,47.3977],[9.5535,47.3974],[9.554,47.3974],[9.555,47.3965],[9.5553,47.3964]]],[[[9.3433,47.2494],[9.3424,47.2499],[9.342,47.2503],[9.3421,47.2507],[9.342,47.251],[9.3413,47.2519],[9.3357,47.2605],[9.3349,47.2613],[9.3346,47.2623],[9.3341,47.2627],[9.3339,47.2632],[9.3339,47.2639],[9.3331,47.2653],[9.3334,47.2659],[9.3328,47.27],[9.3236,47.2829],[9.3217,47.2838],[9.3215,47.2843],[9.3208,47.2843],[9.3196,47.2851],[9.3188,47.2858],[9.3187,47.2867],[9.3189,47.2871],[9.3185,47.2875],[9.3183,47.288],[9.3186,47.2882],[9.3185,47.2883],[9.3179,47.2887],[9.318,47.2888],[9.3178,47.2891],[9.3174,47.2892],[9.3166,47.2892],[9.3164,47.2894],[9.3158,47.2892],[9.3155,47.2893],[9.3145,47.29],[9.3144,47.2904],[9.3144,47.291],[9.314,47.2911],[9.3136,47.2914],[9.3134,47.2927],[9.3137,47.2929],[9.3128,47.2936],[9.3126,47.2939],[9.3129,47.2943],[9.3128,47.2945],[9.313,47.2945],[9.3128,47.2949],[9.313,47.2951],[9.3129,47.2953],[9.3132,47.2955],[9.313,47.2961],[9.3147,47.2978],[9.3147,47.2989],[9.3158,47.3002],[9.3161,47.3013],[9.3164,47.3013],[9.3171,47.3017],[9.3154,47.3048],[9.315,47.3062],[9.3159,47.3078],[9.3167,47.3085],[9.3183,47.3095],[9.3175,47.3102],[9.3167,47.3112],[9.3156,47.3132],[9.3155,47.3135],[9.3165,47.3138],[9.3162,47.3144],[9.3155,47.3153],[9.3166,47.3157],[9.317,47.316],[9.317,47.3161],[9.3168,47.3163],[9.3167,47.3162],[9.3161,47.3168],[9.3158,47.318],[9.3144,47.3192],[9.3141,47.3197],[9.3139,47.3206],[9.3137,47.3207],[9.3142,47.3211],[9.314,47.3215],[9.3137,47.3216],[9.3117,47.3213],[9.3098,47.3215],[9.3097,47.3219],[9.3099,47.322],[9.3099,47.3227],[9.3102,47.3228],[9.3101,47.3231],[9.3109,47.3241],[9.3113,47.3251],[9.3144,47.3262],[9.3142,47.3265],[9.3161,47.3272],[9.3161,47.3273],[9.3179,47.3274],[9.3192,47.328],[9.3223,47.3288],[9.3222,47.329],[9.3228,47.3291],[9.3232,47.3291],[9.3255,47.3296],[9.3255,47.3299],[9.3266,47.3302],[9.3271,47.3299],[9.329,47.3308],[9.3334,47.3408],[9.3347,47.3416],[9.3374,47.3427],[9.3394,47.3439],[9.343,47.3447],[9.3462,47.3449],[9.3455,47.3462],[9.3453,47.3473],[9.3448,47.3479],[9.3449,47.3481],[9.3446,47.3487],[9.3443,47.3488],[9.3444,47.3492],[9.3432,47.3502],[9.3435,47.3508],[9.3433,47.3512],[9.3435,47.3512],[9.3434,47.3513],[9.3437,47.3519],[9.3437,47.3522],[9.3447,47.3524],[9.3448,47.3527],[9.3455,47.3529],[9.347,47.354],[9.3504,47.3543],[9.3513,47.3547],[9.3514,47.355],[9.3516,47.355],[9.3547,47.3552],[9.3571,47.3555],[9.3572,47.3558],[9.3577,47.3559],[9.3589,47.3564],[9.3589,47.3568],[9.3591,47.3568],[9.3597,47.357],[9.36,47.3569],[9.3609,47.357],[9.3615,47.3573],[9.362,47.3573],[9.3621,47.3576],[9.3626,47.3573],[9.3629,47.3575],[9.3634,47.3575],[9.3639,47.3576],[9.364,47.3579],[9.3651,47.3581],[9.3654,47.3584],[9.3652,47.3587],[9.3648,47.3589],[9.3646,47.3594],[9.3642,47.3596],[9.364,47.3601],[9.3623,47.3612],[9.3621,47.3621],[9.3617,47.3627],[9.361,47.3631],[9.3604,47.364],[9.3602,47.3646],[9.3613,47.3659],[9.3613,47.3664],[9.361,47.3666],[9.3603,47.3665],[9.3594,47.3669],[9.3589,47.3683],[9.358,47.369],[9.3584,47.3702],[9.3582,47.3706],[9.3569,47.3713],[9.3568,47.3717],[9.3571,47.372],[9.3594,47.3732],[9.3595,47.3734],[9.3589,47.3743],[9.3592,47.376],[9.3586,47.3772],[9.3587,47.3781],[9.3583,47.3784],[9.3571,47.3787],[9.3552,47.3799],[9.3543,47.3805],[9.3536,47.3814],[9.3529,47.3818],[9.3512,47.3821],[9.3502,47.3831],[9.3545,47.3842],[9.3557,47.3835],[9.3565,47.3834],[9.3571,47.3838],[9.3575,47.3848],[9.359,47.3851],[9.3617,47.3847],[9.3631,47.3843],[9.3639,47.3843],[9.3655,47.3849],[9.3658,47.3849],[9.3662,47.3846],[9.3673,47.3846],[9.368,47.3847],[9.3684,47.3851],[9.3694,47.3846],[9.3702,47.3844],[9.371,47.384],[9.3718,47.384],[9.3728,47.3844],[9.3734,47.3851],[9.3728,47.3862],[9.3732,47.3864],[9.3753,47.3869],[9.377,47.3872],[9.3777,47.3863],[9.3791,47.3868],[9.3794,47.3864],[9.3795,47.3844],[9.3794,47.3841],[9.3788,47.3838],[9.3793,47.3827],[9.3791,47.3823],[9.3781,47.3817],[9.3779,47.3813],[9.3781,47.3808],[9.3787,47.3805],[9.3799,47.3804],[9.3818,47.38],[9.3832,47.3795],[9.3844,47.3795],[9.3855,47.3792],[9.3858,47.3789],[9.3855,47.378],[9.3857,47.3775],[9.3862,47.3771],[9.3876,47.3779],[9.3893,47.3775],[9.3904,47.3777],[9.3913,47.379],[9.393,47.38],[9.3936,47.3802],[9.3955,47.38],[9.3957,47.3799],[9.3955,47.3795],[9.3956,47.3791],[9.3966,47.3793],[9.3981,47.3789],[9.3982,47.3786],[9.3978,47.3784],[9.3978,47.3782],[9.3989,47.3774],[9.3995,47.3774],[9.4001,47.3781],[9.4011,47.3783],[9.4013,47.3782],[9.4013,47.3779],[9.4005,47.3776],[9.4004,47.3771],[9.4017,47.3766],[9.4028,47.3767],[9.4035,47.3761],[9.4032,47.3758],[9.4022,47.3758],[9.4019,47.3755],[9.4021,47.3749],[9.4026,47.3744],[9.4032,47.3734],[9.4045,47.3731],[9.4054,47.3726],[9.4062,47.3726],[9.4064,47.3724],[9.4059,47.372],[9.4063,47.3717],[9.406,47.3713],[9.4071,47.3711],[9.4078,47.3709],[9.4074,47.3707],[9.4083,47.37],[9.4086,47.3702],[9.4119,47.3688],[9.4146,47.3689],[9.415,47.3686],[9.4154,47.3689],[9.4177,47.3696],[9.4193,47.3696],[9.4201,47.3692],[9.4208,47.3693],[9.4212,47.3683],[9.4215,47.3681],[9.4227,47.368],[9.423,47.3685],[9.4234,47.3687],[9.429,47.3708],[9.4301,47.371],[9.4303,47.371],[9.4303,47.3708],[9.4309,47.3709],[9.4311,47.3705],[9.4304,47.3703],[9.4308,47.3698],[9.4311,47.3696],[9.4314,47.3686],[9.4316,47.3685],[9.431,47.3679],[9.4306,47.3677],[9.4307,47.3671],[9.4312,47.3666],[9.4312,47.366],[9.4321,47.3657],[9.4323,47.3655],[9.4323,47.3646],[9.4328,47.3642],[9.433,47.3638],[9.4331,47.3638],[9.4379,47.3565],[9.4401,47.3573],[9.4424,47.356],[9.4428,47.3564],[9.4448,47.357],[9.4455,47.3563],[9.447,47.356],[9.4482,47.3551],[9.4495,47.3547],[9.45,47.3544],[9.45,47.3541],[9.4559,47.3515],[9.4598,47.3501],[9.4658,47.3464],[9.4719,47.347],[9.4792,47.3472],[9.4872,47.3503],[9.5029,47.3474],[9.503,47.3449],[9.5027,47.3344],[9.5029,47.3337],[9.5027,47.3336],[9.5019,47.3334],[9.5021,47.3333],[9.5017,47.3329],[9.5021,47.3326],[9.5019,47.3325],[9.5023,47.3323],[9.502,47.3321],[9.5023,47.3316],[9.5023,47.3315],[9.5015,47.3313],[9.5015,47.3311],[9.502,47.3308],[9.5018,47.3303],[9.5022,47.3297],[9.501,47.3296],[9.5007,47.3297],[9.5003,47.3295],[9.5007,47.3286],[9.5011,47.3282],[9.4998,47.3273],[9.4997,47.3267],[9.5005,47.3264],[9.4991,47.3214],[9.4985,47.3212],[9.4984,47.3187],[9.498,47.3185],[9.4981,47.3182],[9.4967,47.318],[9.4967,47.3177],[9.4962,47.3172],[9.4969,47.3164],[9.495,47.3156],[9.4941,47.3148],[9.4934,47.3145],[9.4925,47.3129],[9.493,47.3111],[9.4929,47.3107],[9.4938,47.3101],[9.4954,47.3081],[9.4963,47.306],[9.4947,47.305],[9.4936,47.3047],[9.4931,47.3047],[9.492,47.304],[9.4912,47.3038],[9.4908,47.3034],[9.4903,47.3025],[9.4889,47.3018],[9.49,47.3014],[9.4907,47.3008],[9.4902,47.3002],[9.4906,47.2998],[9.4904,47.2995],[9.4905,47.2995],[9.49,47.2986],[9.4899,47.2981],[9.4895,47.2979],[9.4896,47.2977],[9.4893,47.2963],[9.4893,47.2947],[9.4883,47.2933],[9.4868,47.2907],[9.4867,47.2897],[9.4878,47.2891],[9.4878,47.2883],[9.485,47.2837],[9.4833,47.2827],[9.4821,47.2824],[9.4808,47.2815],[9.4805,47.2807],[9.4803,47.2806],[9.4802,47.2801],[9.4798,47.2796],[9.4798,47.2792],[9.4787,47.2786],[9.4786,47.2781],[9.4781,47.2776],[9.4774,47.2774],[9.4765,47.2767],[9.4765,47.2761],[9.476,47.2756],[9.476,47.2748],[9.4753,47.2741],[9.4744,47.2736],[9.4737,47.2725],[9.4739,47.2723],[9.4729,47.2717],[9.4729,47.2712],[9.4719,47.271],[9.4705,47.2702],[9.4697,47.2695],[9.4682,47.269],[9.4676,47.2685],[9.467,47.2685],[9.4666,47.2682],[9.4661,47.2673],[9.4657,47.2669],[9.4649,47.2666],[9.4643,47.266],[9.4643,47.2658],[9.4625,47.2651],[9.4612,47.2641],[9.4596,47.2634],[9.4583,47.2632],[9.4577,47.2635],[9.4578,47.263],[9.457,47.2623],[9.4549,47.2615],[9.4533,47.2606],[9.4511,47.26],[9.4503,47.259],[9.4501,47.2584],[9.4474,47.2566],[9.4475,47.2563],[9.4472,47.2558],[9.4459,47.2558],[9.4451,47.2551],[9.4449,47.2548],[9.4428,47.2539],[9.442,47.2533],[9.4397,47.2529],[9.4382,47.2516],[9.4378,47.2511],[9.4378,47.2507],[9.4367,47.251],[9.4343,47.2508],[9.4332,47.2505],[9.4321,47.2499],[9.4298,47.2492],[9.4288,47.2485],[9.4282,47.2484],[9.4272,47.2475],[9.4265,47.2476],[9.4262,47.2471],[9.4189,47.2476],[9.4167,47.2468],[9.4148,47.2465],[9.4142,47.2457],[9.4113,47.2447],[9.4099,47.2439],[9.4074,47.2417],[9.4064,47.241],[9.4052,47.2396],[9.4051,47.2392],[9.4042,47.2386],[9.4039,47.2383],[9.4024,47.2377],[9.3989,47.2374],[9.3962,47.2374],[9.3921,47.2367],[9.3897,47.2361],[9.3886,47.2355],[9.387,47.2351],[9.385,47.2346],[9.3842,47.2346],[9.382,47.234],[9.3784,47.2361],[9.3756,47.2368],[9.3749,47.2371],[9.3738,47.2384],[9.372,47.2393],[9.3719,47.2396],[9.3712,47.2396],[9.3697,47.2406],[9.3687,47.2409],[9.3678,47.2408],[9.3677,47.241],[9.3674,47.2413],[9.3658,47.242],[9.3656,47.2425],[9.3649,47.2433],[9.3639,47.2436],[9.363,47.2435],[9.3626,47.2437],[9.3615,47.2437],[9.3607,47.2441],[9.3586,47.2443],[9.3555,47.2444],[9.3547,47.2442],[9.351,47.2444],[9.3486,47.2452],[9.3484,47.2455],[9.3478,47.2458],[9.3477,47.246],[9.3459,47.2465],[9.3437,47.2477],[9.3431,47.2488],[9.3431,47.2491],[9.3433,47.2494]]]]}}