{"type":"Feature","bbox":[7.7135,47.1375,8.4551,47.6211],"properties":{"iso":"CH","code":"AG","name":"Aargau","name_de":"Kanton Aargau","source":"swisstopo","key":"CH-AG"},"geometry":{"type":"Polygon","coordinates":[[[8.4101,47.2484],[8.4106,47.2477],[8.4109,47.247],[8.411,47.2463],[8.4108,47.2455],[8.4102,47.2445],[8.4069,47.2411],[8.4065,47.2402],[8.4064,47.2379],[8.4061,47.2371],[8.4051,47.2361],[8.399,47.2322],[8.3975,47.2309],[8.396,47.2289],[8.3951,47.2268],[8.3948,47.2257],[8.3963,47.2205],[8.3968,47.2192],[8.3974,47.2184],[8.3998,47.2166],[8.4008,47.2151],[8.401,47.2138],[8.4005,47.2097],[8.4005,47.2083],[8.4017,47.2052],[8.4021,47.2019],[8.4023,47.2011],[8.4048,47.1971],[8.4053,47.1957],[8.4052,47.1944],[8.4048,47.1935],[8.4024,47.1908],[8.4014,47.1895],[8.4009,47.1881],[8.4003,47.1859],[8.4002,47.1845],[8.4004,47.183],[8.4021,47.1773],[8.4024,47.1768],[8.403,47.1765],[8.4087,47.1756],[8.4101,47.175],[8.4112,47.1742],[8.4121,47.1729],[8.415,47.1655],[8.4153,47.1641],[8.4154,47.1628],[8.4152,47.1586],[8.4145,47.1574],[8.4124,47.1551],[8.412,47.1538],[8.4122,47.1523],[8.4142,47.1488],[8.4147,47.1475],[8.4149,47.1457],[8.4145,47.1439],[8.414,47.1428],[8.4133,47.1417],[8.4122,47.1406],[8.4112,47.1398],[8.4089,47.1386],[8.4053,47.1375],[8.4042,47.1382],[8.3982,47.138],[8.3976,47.1379],[8.3964,47.1388],[8.396,47.1387],[8.396,47.139],[8.3934,47.1385],[8.39,47.1398],[8.3896,47.1394],[8.3891,47.1393],[8.386,47.14],[8.384,47.1398],[8.3827,47.14],[8.3822,47.14],[8.3816,47.1397],[8.3801,47.1392],[8.3795,47.1395],[8.379,47.1393],[8.3787,47.1396],[8.3783,47.1397],[8.3761,47.1393],[8.3759,47.141],[8.3755,47.1416],[8.3748,47.143],[8.374,47.1431],[8.3684,47.1443],[8.3683,47.1447],[8.3675,47.145],[8.3664,47.1448],[8.3654,47.1452],[8.364,47.1459],[8.3632,47.1458],[8.3622,47.1461],[8.3611,47.1507],[8.3606,47.1523],[8.3609,47.1525],[8.3598,47.1533],[8.3584,47.1533],[8.3581,47.1559],[8.3584,47.1566],[8.3569,47.1577],[8.3552,47.1586],[8.3547,47.1597],[8.3541,47.1604],[8.3516,47.1629],[8.3495,47.1642],[8.3493,47.1641],[8.3476,47.1645],[8.3481,47.1649],[8.3478,47.1651],[8.3491,47.166],[8.3475,47.1675],[8.3465,47.1677],[8.3474,47.1684],[8.346,47.169],[8.3465,47.17],[8.3459,47.1701],[8.3443,47.1715],[8.3441,47.173],[8.3428,47.1735],[8.3409,47.1738],[8.3412,47.1741],[8.3413,47.1751],[8.3405,47.1755],[8.3396,47.1764],[8.3387,47.1783],[8.3389,47.1802],[8.3384,47.1808],[8.339,47.1817],[8.3386,47.1818],[8.3388,47.1821],[8.3387,47.1825],[8.3383,47.1832],[8.3385,47.1836],[8.338,47.184],[8.3385,47.1846],[8.3393,47.1843],[8.3398,47.1849],[8.3396,47.1851],[8.3397,47.1861],[8.3396,47.1863],[8.3386,47.1861],[8.3381,47.1863],[8.3383,47.1872],[8.3381,47.1876],[8.3382,47.1879],[8.338,47.1881],[8.3382,47.1886],[8.3358,47.191],[8.3338,47.1924],[8.3332,47.1936],[8.3309,47.1966],[8.3304,47.1974],[8.3299,47.1985],[8.3302,47.2006],[8.3301,47.2023],[8.3295,47.2035],[8.3285,47.2044],[8.3281,47.2056],[8.328,47.2062],[8.3283,47.2062],[8.3282,47.2065],[8.3287,47.2073],[8.3288,47.2079],[8.3287,47.2081],[8.328,47.2084],[8.3275,47.2085],[8.3272,47.2095],[8.3274,47.2102],[8.3273,47.2108],[8.3267,47.2108],[8.3264,47.211],[8.3252,47.2147],[8.3195,47.2156],[8.3192,47.2164],[8.3188,47.217],[8.3199,47.218],[8.3201,47.2186],[8.32,47.2197],[8.3204,47.2201],[8.3203,47.2206],[8.3207,47.2211],[8.3209,47.2211],[8.3207,47.2218],[8.3203,47.2222],[8.3194,47.2226],[8.3184,47.2235],[8.3181,47.2235],[8.318,47.2246],[8.317,47.225],[8.3172,47.2267],[8.317,47.227],[8.3166,47.2284],[8.3162,47.229],[8.3158,47.2293],[8.3154,47.2307],[8.3153,47.233],[8.3142,47.2351],[8.3139,47.2363],[8.314,47.2373],[8.3146,47.2382],[8.3148,47.2397],[8.3139,47.241],[8.3121,47.2443],[8.3117,47.2455],[8.3103,47.2465],[8.3101,47.247],[8.3082,47.2493],[8.3049,47.2524],[8.3033,47.2516],[8.3017,47.2525],[8.3012,47.2523],[8.3004,47.2535],[8.2999,47.2539],[8.2995,47.255],[8.2983,47.2563],[8.2984,47.2566],[8.2972,47.2575],[8.2971,47.2578],[8.2965,47.2586],[8.2965,47.259],[8.296,47.2594],[8.2961,47.2604],[8.2958,47.2613],[8.2955,47.2627],[8.2953,47.2636],[8.2948,47.2639],[8.2945,47.2648],[8.2944,47.2656],[8.2946,47.266],[8.2953,47.2666],[8.2956,47.2671],[8.2963,47.2677],[8.2963,47.2681],[8.2965,47.2682],[8.2963,47.2684],[8.2967,47.2684],[8.2971,47.269],[8.2975,47.269],[8.2981,47.2695],[8.2988,47.2696],[8.2992,47.2701],[8.2993,47.2705],[8.3003,47.2715],[8.2977,47.272],[8.2974,47.2722],[8.2959,47.2724],[8.2954,47.2726],[8.2948,47.273],[8.2935,47.2742],[8.2919,47.275],[8.2897,47.2775],[8.2869,47.2793],[8.2854,47.28],[8.2847,47.2801],[8.2846,47.28],[8.2815,47.2806],[8.2813,47.281],[8.28,47.281],[8.2799,47.2811],[8.2795,47.281],[8.2786,47.2821],[8.2759,47.2815],[8.274,47.2807],[8.2725,47.2807],[8.2715,47.2808],[8.2716,47.2809],[8.2707,47.2835],[8.2673,47.2829],[8.2654,47.2828],[8.2653,47.2825],[8.2628,47.2823],[8.2626,47.2831],[8.262,47.2825],[8.2617,47.2825],[8.261,47.2844],[8.2605,47.2842],[8.2602,47.285],[8.2605,47.285],[8.2604,47.2854],[8.2595,47.2869],[8.2587,47.2872],[8.2567,47.2867],[8.2555,47.2867],[8.2552,47.2866],[8.2552,47.2863],[8.2548,47.2862],[8.2531,47.2861],[8.2526,47.2865],[8.2507,47.2861],[8.2509,47.2851],[8.2497,47.2849],[8.2498,47.2847],[8.2489,47.2844],[8.2498,47.2828],[8.2496,47.2825],[8.2489,47.2825],[8.2487,47.2812],[8.2474,47.2812],[8.2446,47.2808],[8.2451,47.2797],[8.244,47.2795],[8.2434,47.2796],[8.243,47.2788],[8.2422,47.2787],[8.2426,47.2775],[8.2426,47.2763],[8.241,47.276],[8.2412,47.2744],[8.2424,47.2723],[8.2409,47.2724],[8.2403,47.2726],[8.2366,47.2726],[8.2361,47.2729],[8.2358,47.2727],[8.2355,47.2729],[8.2346,47.2729],[8.2341,47.2732],[8.2333,47.2735],[8.2333,47.2737],[8.233,47.2739],[8.231,47.2739],[8.2296,47.2735],[8.2286,47.2734],[8.2198,47.2522],[8.2178,47.2518],[8.2125,47.2498],[8.2077,47.2473],[8.2079,47.2462],[8.2058,47.2444],[8.2045,47.2426],[8.2053,47.242],[8.2057,47.2414],[8.2053,47.2397],[8.2058,47.2383],[8.2048,47.238],[8.2048,47.2375],[8.2051,47.2364],[8.2036,47.2362],[8.2037,47.2343],[8.2032,47.2339],[8.2034,47.2335],[8.2034,47.2326],[8.2031,47.2323],[8.2028,47.2316],[8.2033,47.2314],[8.2028,47.23],[8.2042,47.2299],[8.204,47.2284],[8.2042,47.2284],[8.2041,47.2272],[8.2045,47.2272],[8.2051,47.226],[8.2048,47.2258],[8.2034,47.2261],[8.2003,47.2259],[8.2,47.2261],[8.1983,47.2262],[8.1983,47.2266],[8.1977,47.2263],[8.194,47.2263],[8.1931,47.226],[8.1932,47.2249],[8.1903,47.2244],[8.1897,47.2244],[8.1891,47.224],[8.1883,47.2237],[8.1881,47.2233],[8.1872,47.2232],[8.1862,47.2227],[8.1854,47.2225],[8.1847,47.2224],[8.1804,47.2228],[8.1797,47.2224],[8.1796,47.2222],[8.1791,47.2221],[8.176,47.2219],[8.1753,47.2234],[8.1743,47.2247],[8.1728,47.225],[8.173,47.2262],[8.1737,47.2267],[8.1741,47.2275],[8.1731,47.2276],[8.1724,47.2275],[8.172,47.228],[8.1721,47.2282],[8.1701,47.2277],[8.1689,47.2279],[8.168,47.2283],[8.1675,47.2291],[8.1656,47.2284],[8.1654,47.2289],[8.1646,47.2298],[8.1637,47.2298],[8.1627,47.2306],[8.163,47.2308],[8.1626,47.2308],[8.1619,47.2314],[8.1619,47.2318],[8.1608,47.2318],[8.1597,47.2331],[8.16,47.2337],[8.16,47.2344],[8.1606,47.2345],[8.1612,47.235],[8.1621,47.2354],[8.1621,47.2358],[8.1619,47.2362],[8.161,47.2364],[8.1606,47.237],[8.1598,47.2372],[8.1593,47.2378],[8.1559,47.2378],[8.1561,47.2382],[8.156,47.2394],[8.1583,47.2401],[8.1617,47.2406],[8.1679,47.2409],[8.1698,47.242],[8.1711,47.2402],[8.1751,47.2401],[8.1761,47.2405],[8.1763,47.2409],[8.176,47.242],[8.1761,47.2423],[8.177,47.2429],[8.1774,47.2442],[8.178,47.2448],[8.1793,47.245],[8.1802,47.2456],[8.1803,47.246],[8.1803,47.2469],[8.1808,47.2474],[8.1804,47.2487],[8.1796,47.2507],[8.1778,47.2522],[8.1766,47.2518],[8.176,47.2524],[8.1756,47.2523],[8.1749,47.2535],[8.173,47.2527],[8.1719,47.2528],[8.1694,47.2513],[8.1692,47.2515],[8.1678,47.2511],[8.1665,47.2505],[8.166,47.2509],[8.1652,47.2502],[8.1626,47.25],[8.1617,47.2499],[8.161,47.2499],[8.1604,47.2495],[8.1603,47.2488],[8.1595,47.249],[8.1594,47.2498],[8.1583,47.2497],[8.158,47.2488],[8.1575,47.2487],[8.1564,47.2494],[8.1508,47.2484],[8.1467,47.2475],[8.144,47.2475],[8.1427,47.2473],[8.1364,47.247],[8.1358,47.2468],[8.1356,47.2469],[8.1315,47.2455],[8.1314,47.2451],[8.1315,47.2445],[8.1312,47.2439],[8.1284,47.2428],[8.1271,47.2422],[8.1267,47.2419],[8.1251,47.2414],[8.1244,47.2414],[8.1242,47.2417],[8.1196,47.2439],[8.1091,47.2445],[8.1079,47.2458],[8.1058,47.2494],[8.1059,47.2521],[8.1024,47.2561],[8.1009,47.2574],[8.1001,47.2589],[8.0988,47.2602],[8.0946,47.2611],[8.0884,47.2629],[8.0834,47.2611],[8.0824,47.2609],[8.082,47.2607],[8.0801,47.2602],[8.0784,47.26],[8.0783,47.2593],[8.0786,47.2587],[8.0766,47.2583],[8.0768,47.2582],[8.0773,47.2576],[8.0741,47.2568],[8.0734,47.2563],[8.0727,47.2551],[8.0705,47.2546],[8.0695,47.2547],[8.0693,47.2552],[8.0684,47.2549],[8.0669,47.2548],[8.0668,47.2549],[8.0664,47.2546],[8.0661,47.2547],[8.066,47.2549],[8.0633,47.2562],[8.0627,47.2567],[8.0586,47.2567],[8.0587,47.2557],[8.0566,47.2554],[8.0571,47.253],[8.0577,47.2518],[8.063,47.2467],[8.0513,47.2442],[8.0511,47.2447],[8.0301,47.2422],[8.0295,47.2414],[8.0292,47.2406],[8.0279,47.2411],[8.0267,47.2414],[8.0261,47.2419],[8.0251,47.2418],[8.0219,47.2423],[8.0198,47.2436],[8.0171,47.2438],[8.0167,47.244],[8.0158,47.2441],[8.0157,47.246],[8.0158,47.2464],[8.016,47.2465],[8.0157,47.2477],[8.0161,47.2481],[8.0161,47.2484],[8.0169,47.25],[8.0168,47.2506],[8.0166,47.2508],[8.0166,47.2512],[8.0168,47.2515],[8.0164,47.252],[8.0167,47.2528],[8.0167,47.2536],[8.0165,47.2537],[8.0165,47.2544],[8.0163,47.2546],[8.0165,47.2552],[8.0171,47.255],[8.0175,47.2559],[8.0171,47.2571],[8.0166,47.257],[8.0164,47.2573],[8.0163,47.2582],[8.0169,47.2589],[8.0168,47.2593],[8.0151,47.2605],[8.0144,47.2614],[8.0131,47.2627],[8.0118,47.2633],[8.0115,47.2638],[8.0103,47.2642],[8.0094,47.2651],[8.0088,47.2662],[8.008,47.2667],[8.0075,47.2675],[8.0052,47.2693],[8.0053,47.2702],[8.0049,47.2708],[8.0043,47.2726],[8.0049,47.2734],[8.0047,47.2738],[8.0049,47.2742],[8.0048,47.2744],[7.9953,47.2816],[7.9869,47.276],[7.9735,47.2745],[7.9717,47.2761],[7.956,47.2769],[7.9506,47.2748],[7.9509,47.2733],[7.9492,47.2725],[7.9497,47.2701],[7.9504,47.2692],[7.9505,47.2687],[7.9509,47.2683],[7.9517,47.2684],[7.952,47.2682],[7.9519,47.2679],[7.9521,47.2676],[7.9516,47.2669],[7.9517,47.2657],[7.952,47.2654],[7.953,47.265],[7.9535,47.2644],[7.9536,47.264],[7.9545,47.2634],[7.9544,47.2629],[7.955,47.2625],[7.955,47.2615],[7.9554,47.2606],[7.9563,47.26],[7.9579,47.2598],[7.9585,47.2594],[7.9593,47.2576],[7.959,47.2562],[7.9607,47.2552],[7.9616,47.2546],[7.9619,47.2541],[7.9541,47.2498],[7.946,47.2433],[7.9421,47.2413],[7.9409,47.241],[7.9398,47.2404],[7.9361,47.238],[7.935,47.2369],[7.9337,47.2362],[7.9335,47.2359],[7.9293,47.2365],[7.9253,47.2373],[7.9212,47.2379],[7.9146,47.2419],[7.9127,47.2426],[7.9101,47.2439],[7.8973,47.2431],[7.8674,47.2373],[7.8547,47.2332],[7.8532,47.2324],[7.843,47.2344],[7.842,47.2357],[7.8399,47.2357],[7.8393,47.2355],[7.8392,47.2356],[7.8387,47.2348],[7.8385,47.2349],[7.8378,47.2356],[7.8372,47.2359],[7.8368,47.2366],[7.8369,47.2368],[7.8368,47.237],[7.8361,47.237],[7.8342,47.2377],[7.8343,47.2382],[7.8341,47.2384],[7.8333,47.239],[7.8335,47.2395],[7.833,47.2398],[7.8323,47.2397],[7.8323,47.2402],[7.8316,47.2405],[7.8306,47.2418],[7.8305,47.2422],[7.8306,47.2426],[7.8303,47.243],[7.8295,47.2434],[7.8289,47.243],[7.8283,47.2429],[7.8281,47.2435],[7.8284,47.2438],[7.8284,47.2445],[7.8279,47.2446],[7.8275,47.245],[7.8268,47.2457],[7.8266,47.2465],[7.8261,47.2469],[7.8266,47.2472],[7.8263,47.2479],[7.8265,47.2482],[7.8257,47.2487],[7.8266,47.249],[7.8274,47.2496],[7.8281,47.2499],[7.828,47.2504],[7.8274,47.2508],[7.8268,47.251],[7.8261,47.2517],[7.826,47.2519],[7.8265,47.2527],[7.8271,47.2526],[7.8275,47.2527],[7.8279,47.2536],[7.8291,47.2544],[7.8286,47.255],[7.8296,47.2552],[7.8298,47.2554],[7.8289,47.2583],[7.8292,47.2587],[7.8303,47.2589],[7.8304,47.2593],[7.8301,47.2597],[7.8293,47.2601],[7.8294,47.2605],[7.8291,47.261],[7.8284,47.2611],[7.8275,47.261],[7.8271,47.2614],[7.8275,47.262],[7.8286,47.2628],[7.8283,47.2631],[7.8271,47.2632],[7.8272,47.2636],[7.8277,47.2641],[7.8278,47.2643],[7.8272,47.2646],[7.8257,47.2645],[7.8255,47.2651],[7.8251,47.2656],[7.8264,47.2661],[7.8298,47.2667],[7.8332,47.2679],[7.8418,47.2745],[7.8438,47.277],[7.8442,47.2779],[7.8444,47.2805],[7.8448,47.282],[7.8453,47.2828],[7.8466,47.2838],[7.8475,47.285],[7.8479,47.2856],[7.8483,47.2869],[7.8488,47.2876],[7.8516,47.2899],[7.8529,47.2915],[7.8537,47.2928],[7.8547,47.2957],[7.856,47.2976],[7.8575,47.2994],[7.8585,47.3009],[7.8597,47.3043],[7.8606,47.3057],[7.8628,47.3072],[7.8642,47.3077],[7.8676,47.3086],[7.8693,47.3094],[7.8726,47.3113],[7.8736,47.3117],[7.8768,47.3119],[7.8795,47.3117],[7.8838,47.311],[7.8878,47.3111],[7.8891,47.3115],[7.8898,47.3123],[7.8903,47.3141],[7.8912,47.3153],[7.8938,47.3169],[7.896,47.3187],[7.8976,47.3194],[7.8981,47.3198],[7.8979,47.3206],[7.8972,47.3215],[7.8966,47.3219],[7.8961,47.3239],[7.8966,47.3268],[7.8969,47.3277],[7.8993,47.331],[7.9037,47.3362],[7.9045,47.3369],[7.9073,47.3389],[7.9079,47.3395],[7.9083,47.3404],[7.9078,47.3417],[7.9086,47.3419],[7.9092,47.3417],[7.9093,47.341],[7.9112,47.3392],[7.9182,47.3353],[7.9192,47.334],[7.9377,47.3325],[7.9471,47.3323],[7.9478,47.3325],[7.9488,47.3296],[7.948,47.3267],[7.9473,47.3252],[7.9471,47.3222],[7.9475,47.321],[7.9475,47.3199],[7.9483,47.3181],[7.948,47.3171],[7.9542,47.3192],[7.9586,47.3203],[7.9635,47.3212],[7.9636,47.321],[7.9639,47.321],[7.9639,47.3211],[7.9645,47.3213],[7.9705,47.3222],[7.9704,47.3225],[7.9734,47.3231],[7.9765,47.3234],[7.9761,47.3247],[7.9781,47.3255],[7.9778,47.326],[7.9823,47.3277],[7.9827,47.3276],[7.9846,47.3285],[7.9853,47.3276],[7.9874,47.3287],[7.9873,47.3296],[7.9894,47.3307],[7.991,47.3328],[7.9918,47.3326],[7.9956,47.3332],[8.0005,47.3348],[8.0008,47.335],[8.0011,47.3348],[8.0029,47.336],[8.0052,47.3368],[8.0074,47.3393],[8.0043,47.3434],[8.0038,47.3453],[8.0118,47.3498],[8.0126,47.352],[8.0128,47.3543],[8.0105,47.357],[8.0111,47.3571],[8.0123,47.358],[8.0129,47.3581],[8.0131,47.3587],[8.0141,47.3593],[8.0142,47.3595],[8.0167,47.3606],[8.0168,47.3609],[8.0165,47.3612],[8.0174,47.3625],[8.0181,47.3628],[8.0194,47.3638],[8.024,47.3652],[8.0245,47.3659],[8.0248,47.3669],[8.0252,47.3674],[8.0252,47.3677],[8.0257,47.368],[8.0262,47.3687],[8.0267,47.3687],[8.0272,47.3697],[8.0272,47.3701],[8.0273,47.3702],[8.0271,47.3707],[8.0274,47.371],[8.0277,47.3726],[8.0283,47.3732],[8.0277,47.3742],[8.0291,47.3756],[8.0292,47.3766],[8.0298,47.3777],[8.0295,47.3793],[8.0309,47.3813],[8.0308,47.3824],[8.0314,47.3837],[8.0298,47.3864],[8.0266,47.3956],[8.0203,47.3958],[8.02,47.394],[8.0169,47.395],[8.016,47.395],[8.0147,47.3948],[8.0137,47.3944],[8.012,47.3947],[8.0105,47.3951],[8.0098,47.3957],[8.01,47.3962],[8.0099,47.3967],[8.0102,47.397],[8.0099,47.3974],[8.0104,47.3977],[8.0102,47.3982],[8.0104,47.3988],[8.0102,47.3991],[8.0103,47.3995],[8.0101,47.3999],[8.0105,47.4004],[8.0103,47.4007],[8.01,47.4007],[8.0101,47.4012],[8.0099,47.4014],[8.0096,47.4016],[8.0093,47.4016],[8.0091,47.4018],[8.0089,47.4029],[8.0083,47.4036],[8.0081,47.4041],[8.0082,47.4049],[8.0077,47.4052],[8.0073,47.4066],[8.0054,47.4071],[8.0046,47.4076],[8.0043,47.4081],[8.0038,47.4085],[8.0018,47.4095],[7.9995,47.4097],[7.9987,47.41],[7.9975,47.41],[7.9947,47.4108],[7.9939,47.4111],[7.9927,47.4109],[7.9915,47.4112],[7.9904,47.4121],[7.9901,47.4132],[7.9902,47.4136],[7.9897,47.4137],[7.9895,47.4142],[7.9878,47.4133],[7.9848,47.4141],[7.9841,47.4141],[7.9823,47.4136],[7.9819,47.4136],[7.98,47.4146],[7.9794,47.4153],[7.9772,47.4161],[7.9742,47.4195],[7.9723,47.4189],[7.9694,47.4202],[7.9632,47.4224],[7.9675,47.4235],[7.9708,47.4247],[7.9741,47.4257],[7.9774,47.4263],[7.9802,47.4276],[7.9827,47.4283],[7.9839,47.4283],[7.9842,47.4229],[7.9855,47.4228],[7.9859,47.4242],[7.9873,47.4287],[7.9868,47.4289],[7.9869,47.4293],[7.9866,47.4293],[7.9871,47.4299],[7.9868,47.4303],[7.9862,47.4306],[7.9861,47.4313],[7.9853,47.4319],[7.9854,47.4322],[7.9862,47.4326],[7.9865,47.4332],[7.9861,47.4331],[7.9851,47.4342],[7.9837,47.4374],[7.9836,47.4382],[7.9842,47.4403],[7.9841,47.4418],[7.9838,47.4432],[7.9834,47.4439],[7.9826,47.4446],[7.9821,47.446],[7.9813,47.4474],[7.9809,47.4483],[7.981,47.4485],[7.9806,47.4489],[7.9788,47.4498],[7.9749,47.452],[7.9754,47.453],[7.9766,47.4538],[7.9766,47.4542],[7.9759,47.4569],[7.975,47.4587],[7.9743,47.4596],[7.9732,47.4599],[7.9716,47.4606],[7.9687,47.4622],[7.9686,47.4624],[7.9686,47.4628],[7.9683,47.4628],[7.9679,47.4625],[7.9668,47.4621],[7.9668,47.4619],[7.9662,47.4613],[7.9662,47.4609],[7.966,47.4609],[7.9656,47.4603],[7.9643,47.4596],[7.9634,47.4598],[7.9629,47.4596],[7.9612,47.4583],[7.9605,47.4577],[7.9604,47.4573],[7.9606,47.4569],[7.9605,47.4561],[7.9608,47.4555],[7.9595,47.455],[7.9596,47.4548],[7.9594,47.4548],[7.9584,47.4553],[7.9568,47.4552],[7.9562,47.4557],[7.9566,47.4563],[7.9569,47.4574],[7.9576,47.4585],[7.9575,47.4589],[7.9563,47.4592],[7.9499,47.4629],[7.9493,47.463],[7.9489,47.4638],[7.9474,47.4632],[7.9472,47.4634],[7.9457,47.4629],[7.9455,47.4633],[7.9442,47.4629],[7.9442,47.463],[7.94,47.462],[7.9402,47.4628],[7.9409,47.4638],[7.9412,47.4657],[7.9417,47.4673],[7.9424,47.4682],[7.943,47.4721],[7.9441,47.474],[7.9443,47.4761],[7.9448,47.476],[7.945,47.4773],[7.9447,47.4782],[7.9446,47.4803],[7.9448,47.4812],[7.9445,47.4813],[7.9459,47.483],[7.947,47.4849],[7.9461,47.4854],[7.9453,47.4854],[7.9448,47.485],[7.9417,47.4836],[7.9339,47.4817],[7.9333,47.4814],[7.9326,47.4814],[7.9319,47.482],[7.9306,47.4822],[7.9278,47.4821],[7.9268,47.4833],[7.9242,47.4825],[7.918,47.4827],[7.9163,47.4833],[7.9156,47.4837],[7.9139,47.4839],[7.9117,47.4848],[7.9048,47.4849],[7.9048,47.4922],[7.8996,47.4962],[7.8989,47.4985],[7.8982,47.4998],[7.8983,47.5012],[7.8953,47.5023],[7.8951,47.5029],[7.8945,47.5025],[7.8946,47.5042],[7.8941,47.5059],[7.8939,47.5062],[7.8919,47.507],[7.8865,47.5079],[7.8841,47.5085],[7.8816,47.5103],[7.878,47.5139],[7.8757,47.5132],[7.8757,47.5138],[7.8754,47.5138],[7.8755,47.5162],[7.8753,47.5172],[7.8755,47.5172],[7.8751,47.5176],[7.8754,47.5196],[7.8757,47.5198],[7.876,47.5203],[7.8762,47.5217],[7.8767,47.5227],[7.8754,47.5231],[7.874,47.5229],[7.8723,47.5223],[7.8715,47.5219],[7.8709,47.5213],[7.8695,47.5193],[7.864,47.5193],[7.8644,47.5221],[7.864,47.5232],[7.8634,47.5236],[7.8626,47.5258],[7.8626,47.5269],[7.8607,47.5284],[7.8596,47.5302],[7.8573,47.5332],[7.8557,47.5333],[7.8548,47.5341],[7.8523,47.5352],[7.8465,47.5327],[7.8449,47.5326],[7.8415,47.5338],[7.8391,47.5342],[7.8368,47.5343],[7.8332,47.5338],[7.8334,47.5338],[7.8342,47.5325],[7.8348,47.5319],[7.8353,47.5318],[7.8342,47.5302],[7.8332,47.5303],[7.8336,47.5263],[7.8337,47.5259],[7.8338,47.5259],[7.8336,47.5258],[7.8331,47.5248],[7.8333,47.5247],[7.8334,47.5224],[7.8331,47.5196],[7.8331,47.5188],[7.832,47.5174],[7.832,47.5147],[7.8287,47.514],[7.8233,47.5095],[7.8236,47.5089],[7.8224,47.5086],[7.8217,47.5087],[7.8186,47.5066],[7.8156,47.5048],[7.8147,47.5048],[7.8124,47.5016],[7.81,47.4994],[7.8084,47.4982],[7.8074,47.4971],[7.8069,47.4969],[7.8066,47.4971],[7.8063,47.4969],[7.805,47.4969],[7.805,47.4968],[7.8022,47.497],[7.8002,47.4982],[7.7998,47.498],[7.7994,47.4975],[7.7988,47.498],[7.7983,47.4987],[7.7987,47.4989],[7.7982,47.4994],[7.7974,47.4987],[7.7968,47.4973],[7.7978,47.4972],[7.7989,47.4957],[7.7969,47.4951],[7.797,47.4959],[7.7957,47.4959],[7.7953,47.4962],[7.7947,47.496],[7.7944,47.4963],[7.7931,47.4958],[7.7918,47.4948],[7.7904,47.4941],[7.7899,47.4936],[7.7898,47.4934],[7.7866,47.4931],[7.7875,47.4944],[7.7888,47.495],[7.7892,47.4963],[7.791,47.4969],[7.7911,47.4983],[7.792,47.4985],[7.7918,47.4988],[7.7922,47.4999],[7.7928,47.5007],[7.7924,47.5013],[7.7915,47.5016],[7.792,47.5028],[7.7916,47.5032],[7.7923,47.5037],[7.7899,47.5051],[7.7898,47.5048],[7.7895,47.5051],[7.7889,47.5068],[7.7892,47.5105],[7.7889,47.5117],[7.7877,47.5134],[7.7877,47.5138],[7.7879,47.5142],[7.7902,47.516],[7.7902,47.5164],[7.7898,47.5178],[7.7899,47.5183],[7.7901,47.5184],[7.7902,47.5186],[7.7899,47.519],[7.7888,47.5193],[7.7876,47.5201],[7.7866,47.5205],[7.786,47.5206],[7.7848,47.5205],[7.784,47.5202],[7.7829,47.5202],[7.7819,47.5206],[7.782,47.5208],[7.7813,47.5211],[7.7799,47.5213],[7.7774,47.5221],[7.7741,47.5227],[7.7721,47.5233],[7.7702,47.5234],[7.7684,47.5238],[7.7682,47.524],[7.7675,47.524],[7.7667,47.5245],[7.766,47.5245],[7.766,47.5247],[7.765,47.5249],[7.7631,47.5248],[7.7623,47.5254],[7.7608,47.5252],[7.7598,47.5254],[7.7589,47.5254],[7.7585,47.5255],[7.7584,47.5258],[7.7579,47.5261],[7.7552,47.5253],[7.7542,47.5254],[7.7526,47.5257],[7.7507,47.5255],[7.7499,47.5251],[7.7497,47.5254],[7.749,47.525],[7.7472,47.5261],[7.7458,47.5262],[7.7458,47.5257],[7.7433,47.5262],[7.7405,47.5269],[7.7388,47.5271],[7.7384,47.5274],[7.738,47.5273],[7.7377,47.5275],[7.7376,47.5277],[7.7373,47.5277],[7.7367,47.5284],[7.7351,47.5295],[7.7351,47.5304],[7.7342,47.531],[7.7339,47.5315],[7.7343,47.5317],[7.7341,47.532],[7.7338,47.5318],[7.7335,47.532],[7.7334,47.5322],[7.7336,47.5324],[7.7332,47.5328],[7.7329,47.5328],[7.7327,47.5326],[7.7316,47.5328],[7.731,47.5325],[7.7306,47.5326],[7.7299,47.5324],[7.7293,47.5329],[7.7289,47.533],[7.7286,47.5333],[7.7279,47.5332],[7.7276,47.533],[7.7272,47.5329],[7.7267,47.5332],[7.7266,47.5335],[7.7258,47.5335],[7.7256,47.534],[7.7258,47.5344],[7.7256,47.5348],[7.7258,47.535],[7.7254,47.5352],[7.7248,47.5354],[7.7244,47.5363],[7.7236,47.5368],[7.7231,47.5368],[7.7228,47.5364],[7.7226,47.5363],[7.7224,47.5358],[7.7213,47.5361],[7.721,47.5358],[7.7212,47.5354],[7.7207,47.5352],[7.7203,47.5354],[7.7203,47.5356],[7.7202,47.5359],[7.7194,47.5363],[7.7187,47.536],[7.7183,47.5361],[7.7167,47.5358],[7.716,47.5358],[7.7149,47.5366],[7.7135,47.5396],[7.7183,47.5415],[7.72,47.5418],[7.7451,47.5437],[7.7522,47.5448],[7.7544,47.5456],[7.757,47.5478],[7.7584,47.5485],[7.7646,47.55],[7.7677,47.5507],[7.7735,47.5523],[7.7755,47.5526],[7.7808,47.5529],[7.7825,47.5531],[7.7864,47.5544],[7.7888,47.5549],[7.7909,47.556],[7.7957,47.5574],[7.7968,47.5582],[7.7992,47.5618],[7.8014,47.5637],[7.8048,47.5658],[7.8096,47.5677],[7.8105,47.5683],[7.8115,47.5692],[7.8122,47.5702],[7.8125,47.571],[7.8137,47.5776],[7.8143,47.5795],[7.8151,47.5812],[7.8182,47.5862],[7.8189,47.5869],[7.8199,47.5874],[7.8231,47.588],[7.8251,47.5879],[7.8322,47.5868],[7.8344,47.5859],[7.8365,47.5836],[7.8378,47.5828],[7.8398,47.5823],[7.8426,47.5821],[7.8452,47.5823],[7.8475,47.5826],[7.8542,47.5846],[7.8564,47.5855],[7.8589,47.5869],[7.8605,47.5875],[7.8623,47.5879],[7.8681,47.5887],[7.8704,47.5888],[7.8762,47.5884],[7.8847,47.5888],[7.8876,47.5885],[7.8921,47.5874],[7.8936,47.5867],[7.9006,47.5827],[7.9031,47.5808],[7.9062,47.5776],[7.9106,47.5714],[7.911,47.5705],[7.9115,47.5684],[7.9116,47.5673],[7.9114,47.5666],[7.9107,47.5652],[7.9078,47.562],[7.9074,47.561],[7.9072,47.5599],[7.9081,47.5565],[7.9093,47.554],[7.9105,47.5521],[7.912,47.5508],[7.9139,47.5494],[7.9155,47.5485],[7.9169,47.5478],[7.9186,47.5474],[7.924,47.5468],[7.9288,47.5471],[7.9325,47.5469],[7.9361,47.5462],[7.9411,47.5443],[7.9441,47.5439],[7.9456,47.5439],[7.9469,47.5443],[7.9481,47.545],[7.9493,47.5462],[7.9509,47.549],[7.952,47.5538],[7.9526,47.5547],[7.9557,47.5568],[7.9586,47.5579],[7.9599,47.5581],[7.9619,47.558],[7.9671,47.5565],[7.9697,47.5559],[7.9725,47.5556],[7.9766,47.5553],[7.9812,47.5552],[7.9841,47.5553],[7.99,47.556],[7.996,47.5565],[7.9984,47.5565],[8.0007,47.5563],[8.0056,47.5554],[8.0072,47.555],[8.0086,47.5543],[8.0122,47.5523],[8.0149,47.5512],[8.0174,47.5507],[8.0214,47.5503],[8.023,47.5506],[8.0273,47.5519],[8.0344,47.5526],[8.0398,47.5535],[8.046,47.5553],[8.0479,47.556],[8.0507,47.5579],[8.0526,47.5587],[8.0574,47.5613],[8.0581,47.562],[8.0589,47.5632],[8.0594,47.5635],[8.0603,47.5637],[8.0623,47.5633],[8.0633,47.5633],[8.0659,47.5642],[8.0673,47.5645],[8.0695,47.5643],[8.0718,47.5635],[8.0733,47.5627],[8.0762,47.5607],[8.0789,47.5591],[8.0813,47.5581],[8.0845,47.5575],[8.0874,47.5575],[8.0893,47.5577],[8.092,47.5584],[8.0966,47.5606],[8.0981,47.5615],[8.0995,47.5628],[8.1009,47.565],[8.1018,47.5673],[8.1022,47.5693],[8.1026,47.5746],[8.1031,47.5763],[8.1044,47.5781],[8.1058,47.5796],[8.1073,47.5809],[8.1098,47.5826],[8.1122,47.5835],[8.1159,47.5839],[8.1189,47.5839],[8.1259,47.5833],[8.1302,47.5835],[8.1336,47.5833],[8.136,47.5838],[8.1374,47.5845],[8.138,47.5855],[8.1381,47.5865],[8.1375,47.5888],[8.1377,47.5894],[8.1382,47.5901],[8.139,47.5907],[8.1434,47.5928],[8.1468,47.595],[8.1491,47.5958],[8.1508,47.596],[8.1527,47.5958],[8.1571,47.5943],[8.1603,47.5936],[8.1626,47.5936],[8.1649,47.5942],[8.1663,47.5949],[8.1684,47.5967],[8.1702,47.5978],[8.1728,47.6004],[8.1752,47.602],[8.1775,47.6029],[8.1831,47.6043],[8.1843,47.6048],[8.1854,47.6055],[8.1865,47.6065],[8.1876,47.6079],[8.1903,47.612],[8.1927,47.6152],[8.194,47.6164],[8.1969,47.6184],[8.1987,47.6194],[8.2012,47.6203],[8.2035,47.6208],[8.206,47.6211],[8.2098,47.6209],[8.2132,47.6203],[8.2171,47.619],[8.2197,47.6176],[8.2208,47.6165],[8.2222,47.6137],[8.223,47.6115],[8.2236,47.608],[8.224,47.607],[8.2252,47.6056],[8.2258,47.6052],[8.2265,47.605],[8.2272,47.605],[8.2282,47.6053],[8.2306,47.6064],[8.2346,47.6097],[8.237,47.6122],[8.2379,47.6127],[8.2393,47.6129],[8.2449,47.6125],[8.2487,47.6132],[8.2535,47.6148],[8.2573,47.6153],[8.2594,47.6152],[8.2606,47.6146],[8.2611,47.6141],[8.2628,47.6104],[8.2637,47.6097],[8.2649,47.6093],[8.2661,47.6092],[8.2676,47.6093],[8.2737,47.6111],[8.2765,47.6115],[8.2793,47.6117],[8.2837,47.6113],[8.2863,47.6109],[8.2887,47.6102],[8.2925,47.6089],[8.2946,47.6079],[8.2967,47.6065],[8.2973,47.606],[8.2977,47.6052],[8.2978,47.6043],[8.2955,47.5964],[8.2953,47.5946],[8.2955,47.5931],[8.2959,47.5919],[8.2978,47.5892],[8.3,47.5875],[8.303,47.5858],[8.3044,47.5853],[8.3089,47.5842],[8.3109,47.5834],[8.314,47.5812],[8.3194,47.576],[8.3219,47.5741],[8.3243,47.5727],[8.3292,47.571],[8.3316,47.5707],[8.3347,47.5704],[8.3398,47.5704],[8.3475,47.5708],[8.3587,47.5701],[8.3646,47.5689],[8.3711,47.5684],[8.3732,47.5681],[8.3782,47.5671],[8.3816,47.5658],[8.3828,47.5657],[8.3842,47.5662],[8.3855,47.5672],[8.3882,47.5717],[8.3891,47.5727],[8.3903,47.5737],[8.3948,47.5766],[8.3965,47.5771],[8.3983,47.5772],[8.4001,47.5769],[8.405,47.5755],[8.4079,47.5744],[8.4122,47.5722],[8.4145,47.5712],[8.4212,47.5693],[8.4257,47.5679],[8.4236,47.5664],[8.4188,47.5652],[8.4184,47.5645],[8.4185,47.5639],[8.4169,47.5609],[8.4179,47.5607],[8.4176,47.5601],[8.4179,47.5591],[8.4177,47.5585],[8.4163,47.5578],[8.4164,47.5573],[8.4156,47.5557],[8.4149,47.5549],[8.4145,47.5539],[8.4148,47.553],[8.4145,47.5522],[8.4146,47.552],[8.4156,47.551],[8.4169,47.5503],[8.4162,47.55],[8.4155,47.5493],[8.4151,47.5484],[8.4155,47.5477],[8.4174,47.5459],[8.4127,47.5462],[8.4126,47.5457],[8.4114,47.5457],[8.4116,47.546],[8.4111,47.5461],[8.411,47.5458],[8.4104,47.5455],[8.4098,47.5447],[8.4087,47.5439],[8.4087,47.5434],[8.4085,47.5434],[8.4082,47.5437],[8.4075,47.5435],[8.4074,47.5427],[8.4069,47.5422],[8.4069,47.5417],[8.4066,47.5417],[8.4064,47.542],[8.4051,47.5419],[8.4061,47.5404],[8.4059,47.5402],[8.405,47.5403],[8.4049,47.5402],[8.4058,47.5396],[8.4055,47.5395],[8.4041,47.5392],[8.4043,47.5384],[8.4042,47.5382],[8.4033,47.5384],[8.4019,47.5398],[8.4013,47.5401],[8.401,47.54],[8.4015,47.5391],[8.4014,47.5381],[8.4024,47.5374],[8.4035,47.5357],[8.4042,47.5351],[8.4044,47.5343],[8.404,47.5339],[8.4039,47.5334],[8.4026,47.5332],[8.4004,47.5332],[8.399,47.533],[8.3983,47.5328],[8.3983,47.5325],[8.3977,47.5326],[8.3957,47.5321],[8.3951,47.5318],[8.3949,47.5315],[8.3951,47.5302],[8.3951,47.5292],[8.3953,47.5286],[8.3957,47.5283],[8.3947,47.5274],[8.3933,47.5257],[8.3921,47.5251],[8.3921,47.5254],[8.3907,47.5263],[8.3889,47.5263],[8.3893,47.527],[8.3898,47.5273],[8.3887,47.5278],[8.3881,47.5283],[8.3875,47.5283],[8.3867,47.5289],[8.3851,47.5286],[8.3842,47.5282],[8.3824,47.5265],[8.3816,47.5255],[8.3814,47.5249],[8.3811,47.5219],[8.3804,47.52],[8.3806,47.5185],[8.3804,47.516],[8.3793,47.5159],[8.3796,47.5149],[8.3788,47.5137],[8.3776,47.513],[8.3771,47.5124],[8.3765,47.5125],[8.3747,47.5122],[8.3742,47.5116],[8.3741,47.5111],[8.3738,47.511],[8.3722,47.5114],[8.3716,47.5118],[8.371,47.5115],[8.3707,47.5117],[8.3704,47.5115],[8.3687,47.5122],[8.3684,47.512],[8.3673,47.5122],[8.3672,47.5121],[8.3684,47.5115],[8.3682,47.5112],[8.3666,47.5115],[8.3662,47.5108],[8.3637,47.5109],[8.3612,47.5101],[8.3609,47.5096],[8.3609,47.5089],[8.3617,47.5078],[8.3591,47.5061],[8.3588,47.5053],[8.3592,47.5045],[8.3584,47.5035],[8.3587,47.503],[8.3577,47.5025],[8.3586,47.5013],[8.3592,47.5009],[8.3601,47.5008],[8.3631,47.5011],[8.3628,47.5007],[8.3628,47.5001],[8.3622,47.4996],[8.3606,47.4988],[8.3596,47.4981],[8.3583,47.4975],[8.3601,47.4964],[8.3609,47.4956],[8.3611,47.4952],[8.3613,47.4942],[8.3613,47.4935],[8.3617,47.4925],[8.3619,47.4914],[8.3627,47.4906],[8.3621,47.4885],[8.3623,47.4882],[8.3621,47.4876],[8.362,47.4857],[8.3628,47.4832],[8.3633,47.4809],[8.3733,47.4815],[8.3742,47.4805],[8.3741,47.4781],[8.3736,47.4749],[8.3741,47.4743],[8.3743,47.473],[8.3753,47.4716],[8.3753,47.4711],[8.3717,47.4701],[8.3701,47.4704],[8.3678,47.4704],[8.3671,47.4698],[8.3663,47.4695],[8.3679,47.4693],[8.3681,47.469],[8.3678,47.4682],[8.3658,47.4675],[8.3659,47.467],[8.3657,47.4662],[8.3672,47.4657],[8.3674,47.4662],[8.3689,47.4658],[8.3689,47.4654],[8.3695,47.4653],[8.3694,47.4648],[8.3697,47.4639],[8.3698,47.4639],[8.3695,47.4634],[8.3707,47.4624],[8.371,47.4618],[8.3722,47.4611],[8.3726,47.4601],[8.3728,47.4592],[8.3779,47.4595],[8.3781,47.4593],[8.3789,47.4593],[8.3794,47.4573],[8.3802,47.4561],[8.3829,47.4562],[8.3831,47.4551],[8.383,47.455],[8.3844,47.4549],[8.3843,47.4539],[8.3848,47.4541],[8.3851,47.4538],[8.3849,47.4537],[8.3856,47.4518],[8.3867,47.4497],[8.3869,47.4496],[8.3859,47.4493],[8.3818,47.4487],[8.3822,47.4465],[8.381,47.4464],[8.3817,47.4441],[8.382,47.4422],[8.3819,47.4417],[8.382,47.4405],[8.3838,47.4399],[8.3845,47.4384],[8.3838,47.4382],[8.384,47.4373],[8.385,47.4367],[8.385,47.4359],[8.3845,47.4353],[8.3839,47.435],[8.384,47.4346],[8.3829,47.4329],[8.381,47.4333],[8.3809,47.4328],[8.3792,47.433],[8.3771,47.4338],[8.3766,47.4333],[8.3762,47.4335],[8.3758,47.4328],[8.3752,47.4323],[8.3747,47.4322],[8.3751,47.4307],[8.376,47.4299],[8.3776,47.4293],[8.3801,47.4291],[8.3833,47.4281],[8.3876,47.428],[8.3876,47.4276],[8.388,47.4268],[8.389,47.4255],[8.389,47.4253],[8.3895,47.4251],[8.3905,47.4243],[8.3906,47.424],[8.3914,47.4234],[8.3919,47.4228],[8.3923,47.4217],[8.3921,47.4207],[8.3915,47.4198],[8.3876,47.4164],[8.3838,47.418],[8.3818,47.4163],[8.385,47.4145],[8.3854,47.4145],[8.3834,47.4128],[8.3826,47.4131],[8.3824,47.4129],[8.3831,47.4125],[8.3816,47.4112],[8.3812,47.4103],[8.3811,47.4094],[8.3816,47.4085],[8.3824,47.4077],[8.3846,47.4062],[8.3827,47.4048],[8.3827,47.4044],[8.3825,47.4042],[8.382,47.404],[8.382,47.4035],[8.381,47.403],[8.38,47.403],[8.3802,47.4027],[8.3793,47.4024],[8.378,47.4034],[8.3775,47.4035],[8.3773,47.4039],[8.3761,47.4048],[8.3706,47.4038],[8.3691,47.4033],[8.3684,47.4022],[8.3678,47.4022],[8.368,47.4014],[8.3674,47.4007],[8.3658,47.4025],[8.3649,47.4023],[8.3625,47.4023],[8.3628,47.4016],[8.3633,47.401],[8.3643,47.4006],[8.3647,47.4002],[8.3651,47.3998],[8.365,47.3995],[8.3664,47.3988],[8.3671,47.399],[8.3675,47.3988],[8.3689,47.3993],[8.3696,47.3991],[8.3707,47.3992],[8.3734,47.399],[8.3753,47.3994],[8.3763,47.4],[8.3776,47.4],[8.3782,47.3996],[8.3785,47.4],[8.3793,47.3999],[8.3799,47.3996],[8.3806,47.3989],[8.3807,47.3986],[8.3805,47.3983],[8.3812,47.3979],[8.3816,47.3972],[8.3826,47.3966],[8.3828,47.3958],[8.3825,47.3954],[8.3832,47.3946],[8.3837,47.3954],[8.385,47.3952],[8.3863,47.3952],[8.3874,47.3957],[8.388,47.3956],[8.389,47.3953],[8.3898,47.3946],[8.3903,47.3949],[8.391,47.3955],[8.3919,47.3958],[8.3926,47.3954],[8.393,47.3949],[8.3939,47.395],[8.3946,47.3943],[8.3948,47.3935],[8.3954,47.3935],[8.3964,47.3938],[8.3961,47.3941],[8.3966,47.3939],[8.3966,47.3936],[8.3962,47.3931],[8.3965,47.3926],[8.3958,47.3915],[8.3954,47.3914],[8.3945,47.3914],[8.394,47.3912],[8.3949,47.3902],[8.3947,47.39],[8.3948,47.3882],[8.3949,47.3878],[8.3951,47.3876],[8.3949,47.3871],[8.3954,47.3862],[8.3954,47.3859],[8.3948,47.3855],[8.3948,47.3853],[8.3951,47.3844],[8.3949,47.3833],[8.3951,47.3828],[8.3951,47.3823],[8.3955,47.3817],[8.395,47.3812],[8.3949,47.3807],[8.3951,47.3804],[8.3956,47.3802],[8.3961,47.3794],[8.3966,47.3789],[8.3965,47.378],[8.3967,47.3777],[8.3964,47.3774],[8.3964,47.377],[8.3968,47.3766],[8.3971,47.3767],[8.3974,47.376],[8.3983,47.3751],[8.3992,47.3748],[8.3995,47.3748],[8.4003,47.3743],[8.4008,47.3742],[8.4,47.3732],[8.4001,47.373],[8.4003,47.373],[8.4003,47.3724],[8.4006,47.3715],[8.4003,47.3712],[8.4004,47.3705],[8.4013,47.3704],[8.4019,47.3706],[8.403,47.37],[8.407,47.3702],[8.4079,47.3698],[8.4071,47.3688],[8.4071,47.3684],[8.4073,47.3679],[8.408,47.3672],[8.4082,47.3666],[8.4063,47.366],[8.4054,47.365],[8.4053,47.3643],[8.4049,47.3641],[8.4055,47.3636],[8.4065,47.3623],[8.4069,47.3613],[8.4068,47.3601],[8.4073,47.36],[8.407,47.3585],[8.4068,47.358],[8.4074,47.357],[8.4074,47.3555],[8.4093,47.3551],[8.4081,47.3533],[8.4058,47.3511],[8.4056,47.3488],[8.4044,47.3476],[8.4039,47.3466],[8.4049,47.3452],[8.4048,47.345],[8.4059,47.3446],[8.4061,47.3443],[8.4067,47.344],[8.4063,47.3431],[8.4067,47.3431],[8.407,47.3423],[8.4078,47.3424],[8.4073,47.3416],[8.4085,47.3413],[8.4096,47.3406],[8.4105,47.3402],[8.4114,47.3391],[8.4114,47.3389],[8.4122,47.3388],[8.412,47.3382],[8.4129,47.3385],[8.4133,47.3383],[8.4137,47.338],[8.4137,47.3378],[8.4142,47.3375],[8.4148,47.3368],[8.4155,47.3371],[8.4164,47.3371],[8.4166,47.3369],[8.4164,47.3363],[8.4159,47.3357],[8.4168,47.3344],[8.4167,47.3338],[8.414,47.3307],[8.4134,47.3287],[8.4126,47.3286],[8.4124,47.3271],[8.4132,47.3264],[8.4142,47.3262],[8.4144,47.3263],[8.4153,47.3263],[8.4155,47.3259],[8.4157,47.3249],[8.4163,47.3245],[8.419,47.3247],[8.4201,47.3251],[8.4211,47.3253],[8.4209,47.3254],[8.4249,47.3264],[8.4277,47.3266],[8.4294,47.3274],[8.4313,47.3265],[8.4317,47.327],[8.4348,47.3253],[8.4367,47.3267],[8.4395,47.3271],[8.4398,47.3273],[8.4406,47.3276],[8.4413,47.3272],[8.4421,47.3274],[8.4435,47.3292],[8.4444,47.3289],[8.445,47.3294],[8.4462,47.3298],[8.4499,47.3305],[8.45,47.3311],[8.4509,47.3326],[8.451,47.3336],[8.453,47.3333],[8.4532,47.3339],[8.4541,47.3348],[8.4551,47.3341],[8.4547,47.333],[8.4516,47.3291],[8.4524,47.3287],[8.4485,47.326],[8.45,47.3255],[8.4493,47.3248],[8.4486,47.3243],[8.4492,47.3234],[8.4481,47.323],[8.4484,47.3228],[8.4477,47.3219],[8.4467,47.3216],[8.4458,47.32],[8.4424,47.3184],[8.4405,47.3178],[8.4405,47.3176],[8.4411,47.3167],[8.4413,47.3158],[8.4384,47.3152],[8.4371,47.3153],[8.4362,47.3152],[8.4362,47.3147],[8.436,47.3142],[8.4327,47.3122],[8.4321,47.3115],[8.4318,47.3108],[8.432,47.3106],[8.4322,47.3093],[8.4321,47.3084],[8.431,47.3078],[8.4293,47.3072],[8.4295,47.3069],[8.4297,47.306],[8.4308,47.3052],[8.4303,47.3037],[8.4301,47.3037],[8.4294,47.3022],[8.4286,47.3012],[8.4291,47.3007],[8.428,47.3004],[8.4268,47.2997],[8.4253,47.2993],[8.4246,47.2989],[8.4232,47.2984],[8.4222,47.2978],[8.4217,47.298],[8.4216,47.2978],[8.4204,47.2971],[8.42,47.2966],[8.4202,47.2957],[8.419,47.2954],[8.4193,47.2952],[8.4188,47.2946],[8.4172,47.2939],[8.4155,47.2939],[8.4131,47.293],[8.407,47.2925],[8.4036,47.2918],[8.4041,47.2908],[8.4015,47.2895],[8.3972,47.2879],[8.3965,47.2885],[8.3945,47.2895],[8.3947,47.2896],[8.3941,47.2902],[8.3927,47.2909],[8.3913,47.291],[8.3905,47.2906],[8.3899,47.2907],[8.39,47.2905],[8.3886,47.29],[8.3904,47.2884],[8.3911,47.2874],[8.3928,47.2842],[8.3942,47.2797],[8.395,47.2781],[8.3965,47.2767],[8.4008,47.2739],[8.4017,47.2731],[8.4022,47.2723],[8.4024,47.2713],[8.4023,47.2704],[8.4006,47.266],[8.4005,47.2653],[8.4006,47.2647],[8.4011,47.2639],[8.4036,47.2621],[8.4041,47.2613],[8.4045,47.2605],[8.4045,47.2598],[8.4043,47.259],[8.4028,47.2566],[8.4026,47.2558],[8.4027,47.255],[8.4031,47.2542],[8.4036,47.2536],[8.4076,47.2507],[8.4101,47.2484]]]}}