{"type":"Feature","bbox":[7.5209,47.5297,7.6597,47.5966],"properties":{"iso":"CH","code":"BS","name":"Basel-Stadt","name_de":"Kanton Basel-Stadt","key":"CH-BS"},"geometry":{"type":"Polygon","coordinates":[[[7.6597,47.5966],[7.6465,47.5715],[7.6359,47.5646],[7.6097,47.5647],[7.6469,47.5514],[7.6467,47.5348],[7.6404,47.5297],[7.6303,47.5337],[7.6226,47.538],[7.6168,47.5426],[7.6117,47.544],[7.6064,47.5429],[7.5889,47.5349],[7.5788,47.5407],[7.576,47.5444],[7.5568,47.5468],[7.5209,47.5634],[7.5263,47.5665],[7.5503,47.5755],[7.586,47.5846],[7.637,47.595],[7.6597,47.5966]]]}}