{"type":"Feature","bbox":[7.3252,47.3379,7.9618,47.5644],"properties":{"iso":"CH","code":"BL","name":"Basel-Landschaft","name_de":"Kanton Basel-Landschaft","source":"swisstopo","key":"CH-BL"},"geometry":{"type":"MultiPolygon","coordinates":[[[[7.376,47.4141],[7.3739,47.4141],[7.3717,47.4138],[7.3698,47.4139],[7.3587,47.4152],[7.3581,47.4149],[7.3573,47.415],[7.3579,47.4166],[7.358,47.4182],[7.3554,47.4187],[7.3535,47.4197],[7.3521,47.4207],[7.3495,47.4213],[7.3484,47.4227],[7.3459,47.4234],[7.3461,47.4237],[7.3442,47.4244],[7.3437,47.4252],[7.3436,47.4259],[7.3413,47.4265],[7.3411,47.4269],[7.341,47.4282],[7.3407,47.4284],[7.3412,47.4291],[7.3409,47.4291],[7.34,47.4298],[7.3381,47.4296],[7.3379,47.4301],[7.3322,47.4302],[7.3291,47.4314],[7.3262,47.4321],[7.3259,47.4325],[7.3262,47.4326],[7.326,47.433],[7.3256,47.4333],[7.3257,47.434],[7.3253,47.4342],[7.3252,47.4348],[7.3254,47.4352],[7.3263,47.4359],[7.3264,47.4362],[7.3271,47.4365],[7.3282,47.438],[7.3278,47.4384],[7.3278,47.439],[7.3273,47.4397],[7.3273,47.44],[7.3277,47.4403],[7.3283,47.4409],[7.329,47.441],[7.3296,47.4413],[7.3298,47.4417],[7.3303,47.4418],[7.3312,47.4414],[7.3319,47.4414],[7.3328,47.441],[7.3357,47.4409],[7.3367,47.4411],[7.3387,47.4412],[7.34,47.4405],[7.3402,47.44],[7.341,47.4392],[7.3411,47.4388],[7.343,47.4381],[7.3438,47.4376],[7.3448,47.4376],[7.3448,47.4372],[7.3445,47.4369],[7.3448,47.4361],[7.346,47.4362],[7.3467,47.4359],[7.3471,47.4355],[7.3482,47.4353],[7.3492,47.4354],[7.3517,47.4349],[7.353,47.4343],[7.3533,47.4342],[7.3537,47.4345],[7.3548,47.4339],[7.3556,47.4339],[7.3569,47.4345],[7.3578,47.4343],[7.3585,47.4345],[7.362,47.4339],[7.3637,47.4341],[7.3646,47.4337],[7.3652,47.4337],[7.3674,47.4341],[7.3683,47.4344],[7.3703,47.434],[7.371,47.4335],[7.3721,47.4336],[7.3726,47.4339],[7.3734,47.4337],[7.3738,47.4338],[7.374,47.4337],[7.3738,47.4334],[7.374,47.4333],[7.3756,47.4334],[7.3762,47.4331],[7.38,47.4324],[7.3824,47.4314],[7.3824,47.4312],[7.3829,47.4311],[7.383,47.43],[7.3822,47.4291],[7.3822,47.4288],[7.3813,47.4282],[7.3796,47.4276],[7.3795,47.424],[7.3792,47.4231],[7.379,47.4213],[7.3771,47.418],[7.376,47.4151],[7.376,47.4141]]],[[[7.5547,47.5644],[7.5579,47.5626],[7.5587,47.562],[7.5599,47.5605],[7.5616,47.5592],[7.5646,47.5572],[7.5646,47.557],[7.5631,47.5549],[7.5613,47.5517],[7.5588,47.5524],[7.5559,47.5443],[7.5575,47.5444],[7.5648,47.5457],[7.5757,47.544],[7.5785,47.5437],[7.5801,47.5438],[7.581,47.5437],[7.5815,47.5438],[7.5873,47.5419],[7.5855,47.5386],[7.5855,47.5382],[7.586,47.5377],[7.5859,47.5374],[7.5835,47.5335],[7.5827,47.5325],[7.5828,47.532],[7.5839,47.5309],[7.5846,47.5312],[7.5857,47.5313],[7.5859,47.5293],[7.5885,47.5291],[7.5885,47.5283],[7.5895,47.5279],[7.5899,47.5267],[7.59,47.5257],[7.5896,47.5252],[7.5893,47.523],[7.5903,47.5198],[7.5948,47.5193],[7.6018,47.5254],[7.6047,47.5293],[7.6046,47.5298],[7.6055,47.5298],[7.6055,47.5303],[7.6056,47.5307],[7.606,47.5308],[7.606,47.531],[7.6092,47.535],[7.6102,47.5356],[7.6105,47.5352],[7.6114,47.5354],[7.611,47.536],[7.6127,47.5371],[7.613,47.5385],[7.6136,47.5391],[7.6143,47.5395],[7.617,47.5401],[7.6182,47.5408],[7.6195,47.5403],[7.6223,47.5398],[7.623,47.5493],[7.6229,47.55],[7.6225,47.5509],[7.6218,47.5517],[7.6208,47.5524],[7.6184,47.5536],[7.6178,47.5543],[7.6176,47.5548],[7.6178,47.5569],[7.6176,47.5587],[7.6244,47.5608],[7.6274,47.5615],[7.6302,47.5617],[7.6327,47.5615],[7.6352,47.5609],[7.637,47.5601],[7.6383,47.5593],[7.6407,47.5575],[7.6419,47.5564],[7.6447,47.5532],[7.6473,47.5499],[7.6485,47.5488],[7.6501,47.5478],[7.6513,47.5472],[7.6526,47.5468],[7.6593,47.5458],[7.6609,47.5452],[7.6617,47.5444],[7.6646,47.5388],[7.6657,47.5377],[7.6677,47.5361],[7.6698,47.5351],[7.6752,47.5337],[7.6783,47.533],[7.6816,47.5327],[7.693,47.5324],[7.6953,47.5326],[7.6971,47.533],[7.6988,47.5335],[7.7049,47.5363],[7.7135,47.5396],[7.7149,47.5366],[7.716,47.5358],[7.7167,47.5358],[7.7183,47.5361],[7.7187,47.536],[7.7194,47.5363],[7.7202,47.5359],[7.7203,47.5356],[7.7203,47.5354],[7.7207,47.5352],[7.7212,47.5354],[7.721,47.5358],[7.7213,47.5361],[7.7224,47.5358],[7.7226,47.5363],[7.7228,47.5364],[7.7231,47.5368],[7.7236,47.5368],[7.7244,47.5363],[7.7248,47.5354],[7.7254,47.5352],[7.7258,47.535],[7.7256,47.5348],[7.7258,47.5344],[7.7256,47.534],[7.7258,47.5335],[7.7266,47.5335],[7.7267,47.5332],[7.7272,47.5329],[7.7276,47.533],[7.7279,47.5332],[7.7286,47.5333],[7.7289,47.533],[7.7293,47.5329],[7.7299,47.5324],[7.7306,47.5326],[7.731,47.5325],[7.7316,47.5328],[7.7327,47.5326],[7.7329,47.5328],[7.7332,47.5328],[7.7336,47.5324],[7.7334,47.5322],[7.7335,47.532],[7.7338,47.5318],[7.7341,47.532],[7.7343,47.5317],[7.7339,47.5315],[7.7342,47.531],[7.7351,47.5304],[7.7351,47.5295],[7.7367,47.5284],[7.7373,47.5277],[7.7376,47.5277],[7.7377,47.5275],[7.738,47.5273],[7.7384,47.5274],[7.7388,47.5271],[7.7405,47.5269],[7.7433,47.5262],[7.7458,47.5257],[7.7458,47.5262],[7.7472,47.5261],[7.749,47.525],[7.7497,47.5254],[7.7499,47.5251],[7.7507,47.5255],[7.7526,47.5257],[7.7542,47.5254],[7.7552,47.5253],[7.7579,47.5261],[7.7584,47.5258],[7.7585,47.5255],[7.7589,47.5254],[7.7598,47.5254],[7.7608,47.5252],[7.7623,47.5254],[7.7631,47.5248],[7.765,47.5249],[7.766,47.5247],[7.766,47.5245],[7.7667,47.5245],[7.7675,47.524],[7.7682,47.524],[7.7684,47.5238],[7.7702,47.5234],[7.7721,47.5233],[7.7741,47.5227],[7.7774,47.5221],[7.7799,47.5213],[7.7813,47.5211],[7.782,47.5208],[7.7819,47.5206],[7.7829,47.5202],[7.784,47.5202],[7.7848,47.5205],[7.786,47.5206],[7.7876,47.5201],[7.7888,47.5193],[7.7899,47.519],[7.7902,47.5186],[7.7901,47.5184],[7.7899,47.5183],[7.7898,47.5178],[7.7902,47.5164],[7.7902,47.516],[7.7888,47.515],[7.7877,47.5138],[7.7877,47.5134],[7.7889,47.5117],[7.7892,47.5105],[7.7889,47.5068],[7.7895,47.5051],[7.7898,47.5048],[7.7899,47.5051],[7.7923,47.5037],[7.7916,47.5032],[7.792,47.5028],[7.7915,47.5016],[7.7924,47.5013],[7.7928,47.5007],[7.7922,47.4999],[7.7918,47.4988],[7.792,47.4985],[7.7911,47.4983],[7.791,47.4969],[7.7892,47.4963],[7.7888,47.495],[7.7875,47.4944],[7.7866,47.4931],[7.7898,47.4934],[7.7899,47.4936],[7.7904,47.4941],[7.7918,47.4948],[7.7931,47.4958],[7.7944,47.4963],[7.7947,47.496],[7.7953,47.4962],[7.7957,47.4959],[7.797,47.4959],[7.7969,47.4951],[7.7989,47.4957],[7.7978,47.4972],[7.7968,47.4973],[7.7974,47.4987],[7.7982,47.4994],[7.7987,47.4989],[7.7983,47.4987],[7.7988,47.498],[7.7994,47.4975],[7.7998,47.498],[7.8002,47.4982],[7.8022,47.497],[7.805,47.4968],[7.805,47.4969],[7.8063,47.4969],[7.8066,47.4971],[7.8069,47.4969],[7.8074,47.4971],[7.8084,47.4982],[7.81,47.4994],[7.8124,47.5016],[7.8147,47.5048],[7.8156,47.5048],[7.8186,47.5066],[7.8217,47.5087],[7.8224,47.5086],[7.8236,47.5089],[7.8233,47.5095],[7.8287,47.514],[7.832,47.5147],[7.832,47.5174],[7.8331,47.5188],[7.8331,47.5196],[7.8334,47.5224],[7.8333,47.5247],[7.8331,47.5248],[7.8336,47.5258],[7.8338,47.5259],[7.8337,47.5259],[7.8336,47.5263],[7.8332,47.5303],[7.8342,47.5302],[7.8353,47.5318],[7.8348,47.5319],[7.8342,47.5325],[7.8334,47.5338],[7.8332,47.5338],[7.8368,47.5343],[7.8391,47.5342],[7.8415,47.5338],[7.8449,47.5326],[7.8465,47.5327],[7.8523,47.5352],[7.8548,47.5341],[7.8557,47.5333],[7.8573,47.5332],[7.8596,47.5302],[7.8607,47.5284],[7.8626,47.5269],[7.8626,47.5258],[7.8634,47.5236],[7.864,47.5232],[7.8644,47.5221],[7.864,47.5193],[7.8695,47.5193],[7.8709,47.5213],[7.8715,47.5219],[7.8723,47.5223],[7.874,47.5229],[7.8754,47.5231],[7.8767,47.5227],[7.8762,47.5217],[7.876,47.5203],[7.8757,47.5198],[7.8754,47.5196],[7.8751,47.5176],[7.8755,47.5172],[7.8753,47.5172],[7.8755,47.5162],[7.8754,47.5138],[7.8757,47.5138],[7.8757,47.5132],[7.878,47.5139],[7.8816,47.5103],[7.8841,47.5085],[7.8865,47.5079],[7.8919,47.507],[7.8939,47.5062],[7.8941,47.5059],[7.8946,47.5042],[7.8945,47.5025],[7.8951,47.5029],[7.8953,47.5023],[7.8983,47.5012],[7.8982,47.4998],[7.8989,47.4985],[7.8996,47.4962],[7.9048,47.4922],[7.9048,47.4849],[7.9117,47.4848],[7.9139,47.4839],[7.9156,47.4837],[7.9163,47.4833],[7.918,47.4827],[7.9242,47.4825],[7.9268,47.4833],[7.9278,47.4821],[7.9306,47.4822],[7.9319,47.482],[7.9326,47.4814],[7.9333,47.4814],[7.9339,47.4817],[7.9417,47.4836],[7.9448,47.485],[7.9453,47.4854],[7.9461,47.4854],[7.947,47.4849],[7.9459,47.483],[7.9445,47.4813],[7.9448,47.4812],[7.9446,47.4803],[7.9447,47.4782],[7.945,47.4773],[7.9448,47.476],[7.9443,47.4761],[7.9441,47.474],[7.943,47.4721],[7.9424,47.4682],[7.9417,47.4673],[7.9412,47.4657],[7.9409,47.4638],[7.9402,47.4628],[7.94,47.462],[7.9442,47.463],[7.9442,47.4629],[7.9455,47.4633],[7.9457,47.4629],[7.9472,47.4634],[7.9474,47.4632],[7.9489,47.4638],[7.9493,47.463],[7.9499,47.4629],[7.9563,47.4592],[7.9576,47.4588],[7.9576,47.4585],[7.9568,47.4572],[7.9566,47.4563],[7.9562,47.4557],[7.9568,47.4552],[7.9562,47.4549],[7.9569,47.4549],[7.9579,47.4544],[7.9584,47.4537],[7.9585,47.4529],[7.9581,47.4526],[7.9574,47.4525],[7.9569,47.452],[7.9578,47.4516],[7.9579,47.4513],[7.957,47.4513],[7.9565,47.4512],[7.9557,47.4507],[7.9554,47.4502],[7.9546,47.4492],[7.9543,47.4491],[7.9536,47.4491],[7.9529,47.4488],[7.9522,47.4479],[7.9505,47.4469],[7.9501,47.4457],[7.9489,47.4458],[7.9475,47.4456],[7.9468,47.4432],[7.9481,47.44],[7.9519,47.4328],[7.9511,47.4326],[7.95,47.4317],[7.9557,47.4266],[7.9607,47.4231],[7.9618,47.4218],[7.9605,47.4212],[7.9584,47.4205],[7.9566,47.4197],[7.9563,47.4194],[7.9567,47.4188],[7.9543,47.4173],[7.955,47.417],[7.9551,47.4168],[7.956,47.4167],[7.955,47.4156],[7.9539,47.416],[7.9524,47.4161],[7.951,47.4164],[7.9484,47.4163],[7.9464,47.4155],[7.9456,47.4156],[7.945,47.4145],[7.943,47.4145],[7.9389,47.4136],[7.9382,47.4133],[7.937,47.4129],[7.9359,47.4121],[7.9349,47.4118],[7.9358,47.4106],[7.9367,47.4081],[7.9327,47.4053],[7.9299,47.4046],[7.9278,47.4036],[7.9254,47.403],[7.9242,47.402],[7.9211,47.4024],[7.918,47.4014],[7.9131,47.4002],[7.9113,47.3996],[7.9097,47.3985],[7.9086,47.3988],[7.9066,47.3998],[7.9053,47.4008],[7.9038,47.4025],[7.9019,47.402],[7.9008,47.4007],[7.9005,47.401],[7.8989,47.4017],[7.8902,47.4071],[7.8886,47.4073],[7.8875,47.4071],[7.8852,47.4063],[7.8833,47.4061],[7.8833,47.4056],[7.8841,47.4049],[7.8835,47.4038],[7.8836,47.4036],[7.8843,47.4032],[7.8832,47.4022],[7.8834,47.4012],[7.8818,47.4007],[7.8798,47.4017],[7.8777,47.4013],[7.8753,47.3976],[7.872,47.3968],[7.8691,47.3955],[7.872,47.3912],[7.8724,47.3911],[7.8736,47.3901],[7.8739,47.39],[7.8761,47.3904],[7.8767,47.3903],[7.8771,47.39],[7.8773,47.3891],[7.8782,47.3889],[7.8784,47.3885],[7.8794,47.388],[7.8797,47.3874],[7.8793,47.3864],[7.8789,47.386],[7.8792,47.3855],[7.8792,47.385],[7.8796,47.3845],[7.8788,47.3835],[7.8761,47.3845],[7.8726,47.3832],[7.8686,47.3813],[7.8676,47.3815],[7.8627,47.382],[7.8598,47.3811],[7.86,47.3802],[7.8587,47.3798],[7.85,47.3784],[7.849,47.3773],[7.8484,47.3771],[7.8462,47.3765],[7.8431,47.3759],[7.8401,47.3748],[7.839,47.3738],[7.8369,47.3727],[7.8365,47.3718],[7.8365,47.3713],[7.8349,47.3699],[7.8336,47.3675],[7.8326,47.3664],[7.8306,47.3651],[7.8302,47.3652],[7.8298,47.365],[7.8256,47.3641],[7.8237,47.364],[7.8221,47.3634],[7.8221,47.3632],[7.8155,47.3627],[7.8146,47.3628],[7.8123,47.3627],[7.8105,47.3629],[7.8092,47.3624],[7.8054,47.3624],[7.8022,47.3611],[7.7977,47.3558],[7.7964,47.3535],[7.795,47.3498],[7.7954,47.3465],[7.7935,47.3395],[7.7936,47.3391],[7.7853,47.3379],[7.7852,47.3389],[7.7837,47.3393],[7.783,47.3393],[7.7824,47.3396],[7.7797,47.3392],[7.7787,47.3393],[7.7776,47.3392],[7.7762,47.3395],[7.774,47.3395],[7.7729,47.3394],[7.7703,47.3388],[7.769,47.3389],[7.7692,47.3415],[7.7664,47.3427],[7.764,47.3426],[7.7542,47.3432],[7.7515,47.3443],[7.7428,47.3497],[7.7342,47.3578],[7.7279,47.3689],[7.7268,47.3689],[7.714,47.3709],[7.712,47.371],[7.7086,47.3716],[7.702,47.3725],[7.6789,47.3705],[7.6744,47.3699],[7.6645,47.3689],[7.6442,47.3672],[7.6435,47.3703],[7.6433,47.3719],[7.6429,47.3733],[7.6431,47.3751],[7.643,47.3753],[7.6432,47.3755],[7.6421,47.3768],[7.6421,47.3774],[7.6419,47.3778],[7.641,47.3783],[7.6417,47.3794],[7.6418,47.3805],[7.6376,47.3807],[7.6356,47.3806],[7.6333,47.3829],[7.6329,47.3846],[7.6333,47.3853],[7.6363,47.3858],[7.6373,47.3861],[7.6367,47.3876],[7.6355,47.3953],[7.6351,47.4003],[7.6339,47.406],[7.6327,47.41],[7.6397,47.41],[7.6575,47.4091],[7.6615,47.4098],[7.6641,47.41],[7.6739,47.4151],[7.6798,47.4175],[7.683,47.4252],[7.6847,47.4287],[7.6846,47.4305],[7.6866,47.4337],[7.6856,47.4364],[7.683,47.4387],[7.6831,47.4397],[7.6834,47.4405],[7.6837,47.4408],[7.6835,47.4422],[7.685,47.4476],[7.6849,47.4478],[7.6857,47.4486],[7.6867,47.4497],[7.6907,47.4522],[7.6918,47.4538],[7.6923,47.4542],[7.6942,47.4548],[7.6956,47.4548],[7.6967,47.4553],[7.6973,47.4552],[7.6983,47.4554],[7.6989,47.4559],[7.6992,47.4568],[7.6992,47.4574],[7.6987,47.4587],[7.6986,47.4594],[7.6989,47.4598],[7.6994,47.4601],[7.6993,47.4606],[7.6995,47.4608],[7.6995,47.461],[7.7,47.4612],[7.6998,47.4617],[7.6999,47.4619],[7.703,47.464],[7.7034,47.4645],[7.7034,47.4648],[7.7039,47.4651],[7.7038,47.4655],[7.7041,47.4655],[7.7046,47.4657],[7.7044,47.4658],[7.7045,47.4661],[7.7049,47.4663],[7.7052,47.4666],[7.7051,47.4667],[7.7057,47.4669],[7.7055,47.4671],[7.7066,47.4686],[7.707,47.4686],[7.7079,47.4689],[7.7081,47.4692],[7.7087,47.4696],[7.7091,47.4696],[7.7096,47.4693],[7.7099,47.4694],[7.7079,47.4726],[7.7054,47.4759],[7.7024,47.4779],[7.7008,47.4796],[7.7003,47.4799],[7.6998,47.4806],[7.6962,47.4818],[7.691,47.4816],[7.684,47.4829],[7.677,47.485],[7.6717,47.4845],[7.6683,47.4864],[7.6667,47.4886],[7.6654,47.4915],[7.6664,47.4948],[7.6661,47.4969],[7.6629,47.4961],[7.6617,47.4963],[7.6606,47.4961],[7.6594,47.4954],[7.6582,47.4953],[7.6534,47.4961],[7.6522,47.4958],[7.6507,47.4946],[7.6487,47.4918],[7.6499,47.4918],[7.6502,47.491],[7.6517,47.4909],[7.6522,47.4906],[7.6527,47.4905],[7.6536,47.491],[7.6554,47.4902],[7.6551,47.4899],[7.653,47.489],[7.6505,47.4883],[7.6532,47.488],[7.6559,47.4874],[7.6537,47.4864],[7.651,47.4857],[7.6497,47.4852],[7.6473,47.4848],[7.6444,47.4856],[7.6422,47.4833],[7.641,47.4827],[7.6362,47.484],[7.6326,47.4844],[7.6302,47.4845],[7.6296,47.4843],[7.6272,47.4849],[7.6242,47.4867],[7.6206,47.4875],[7.6167,47.4889],[7.6149,47.4892],[7.614,47.4892],[7.6129,47.4886],[7.6123,47.4889],[7.6108,47.4889],[7.6106,47.4894],[7.6104,47.4894],[7.6103,47.4888],[7.6101,47.4888],[7.6098,47.4892],[7.6091,47.4891],[7.6089,47.4893],[7.6073,47.4894],[7.6074,47.4883],[7.6081,47.4855],[7.6088,47.484],[7.6088,47.4834],[7.6082,47.4819],[7.6065,47.4811],[7.606,47.4806],[7.6057,47.4799],[7.6056,47.4792],[7.6064,47.4767],[7.6062,47.4756],[7.6082,47.4752],[7.6073,47.4738],[7.6045,47.4704],[7.6059,47.4701],[7.6085,47.47],[7.611,47.47],[7.6131,47.4689],[7.6169,47.4676],[7.6189,47.4675],[7.62,47.4669],[7.6208,47.4661],[7.6225,47.4652],[7.6248,47.4632],[7.6261,47.4629],[7.6242,47.4615],[7.6222,47.462],[7.6221,47.4592],[7.6226,47.4571],[7.622,47.4557],[7.6212,47.4543],[7.6203,47.4523],[7.6199,47.4512],[7.6201,47.4511],[7.62,47.4506],[7.6194,47.4496],[7.6189,47.449],[7.6185,47.4481],[7.6185,47.4477],[7.6173,47.4468],[7.6165,47.4452],[7.6164,47.4444],[7.6165,47.4418],[7.6153,47.4396],[7.6161,47.4376],[7.6158,47.4328],[7.614,47.4334],[7.6114,47.4328],[7.6074,47.4327],[7.6022,47.4312],[7.5986,47.4321],[7.594,47.4324],[7.5921,47.4327],[7.5849,47.4286],[7.5812,47.4288],[7.5793,47.4302],[7.5794,47.4307],[7.58,47.4314],[7.5801,47.4321],[7.5777,47.4324],[7.5783,47.4338],[7.5784,47.4349],[7.5773,47.4354],[7.5765,47.4361],[7.5757,47.4365],[7.5756,47.4368],[7.5732,47.4364],[7.5725,47.4366],[7.5716,47.4365],[7.5707,47.4366],[7.5689,47.4369],[7.5685,47.4366],[7.5692,47.4351],[7.5692,47.4345],[7.5689,47.4337],[7.5688,47.4331],[7.5689,47.4327],[7.5688,47.4323],[7.5691,47.4316],[7.5692,47.4304],[7.5689,47.4294],[7.5683,47.4282],[7.5683,47.4273],[7.5675,47.4259],[7.5678,47.4253],[7.5677,47.4249],[7.5682,47.4243],[7.5683,47.4237],[7.5685,47.4234],[7.5682,47.4228],[7.5682,47.4224],[7.5692,47.4219],[7.5695,47.4207],[7.5703,47.4204],[7.5715,47.4194],[7.5725,47.4192],[7.5733,47.4195],[7.5744,47.4195],[7.5758,47.4189],[7.5771,47.418],[7.5784,47.4176],[7.579,47.4171],[7.5791,47.4167],[7.5795,47.416],[7.5807,47.4147],[7.5768,47.4141],[7.5661,47.4134],[7.5593,47.4139],[7.5563,47.4143],[7.5512,47.4144],[7.5431,47.414],[7.5347,47.4133],[7.5261,47.4119],[7.5252,47.4116],[7.5271,47.41],[7.5274,47.4092],[7.5273,47.4085],[7.528,47.4079],[7.5288,47.4076],[7.5309,47.4054],[7.5312,47.4049],[7.5311,47.4047],[7.5312,47.4043],[7.5312,47.4035],[7.5309,47.4035],[7.5307,47.4024],[7.5304,47.4021],[7.529,47.4011],[7.5263,47.3984],[7.5214,47.3912],[7.5186,47.3882],[7.5135,47.3894],[7.5117,47.3895],[7.5113,47.3897],[7.5107,47.3896],[7.51,47.389],[7.5057,47.3867],[7.5031,47.385],[7.5023,47.3848],[7.5008,47.3846],[7.4983,47.3845],[7.4923,47.3852],[7.4883,47.3862],[7.4851,47.3873],[7.4849,47.3874],[7.4847,47.3889],[7.4844,47.3891],[7.4834,47.3892],[7.481,47.3888],[7.4804,47.389],[7.4801,47.3896],[7.4791,47.3897],[7.4788,47.3901],[7.4787,47.3904],[7.4784,47.3905],[7.4782,47.3909],[7.4782,47.3915],[7.4775,47.3921],[7.4777,47.3928],[7.4775,47.3936],[7.4773,47.3939],[7.4774,47.3951],[7.4768,47.396],[7.4772,47.397],[7.477,47.3979],[7.4775,47.3984],[7.4773,47.4003],[7.4774,47.4012],[7.4764,47.4008],[7.4735,47.4003],[7.4713,47.4004],[7.4692,47.401],[7.4646,47.4026],[7.4641,47.4025],[7.4636,47.4022],[7.4631,47.4012],[7.4627,47.4009],[7.4617,47.4008],[7.459,47.4012],[7.4576,47.4012],[7.4571,47.4014],[7.4568,47.4017],[7.4562,47.4035],[7.4549,47.4042],[7.4542,47.4042],[7.4525,47.4038],[7.4503,47.4038],[7.4497,47.4036],[7.4496,47.403],[7.4497,47.4025],[7.4507,47.4018],[7.4509,47.4014],[7.4505,47.4004],[7.4496,47.3998],[7.4478,47.3995],[7.4461,47.4],[7.4451,47.4006],[7.4448,47.4014],[7.4442,47.402],[7.4435,47.4023],[7.443,47.402],[7.4421,47.4008],[7.4413,47.4002],[7.442,47.3995],[7.4418,47.3992],[7.442,47.3991],[7.4413,47.3982],[7.4414,47.3979],[7.442,47.3971],[7.4431,47.3963],[7.4431,47.3958],[7.4428,47.3956],[7.4428,47.3952],[7.4424,47.3948],[7.4426,47.3941],[7.4429,47.3933],[7.4431,47.3915],[7.4433,47.391],[7.443,47.3902],[7.4432,47.3901],[7.4432,47.3893],[7.4436,47.389],[7.4421,47.3885],[7.439,47.386],[7.439,47.3852],[7.4391,47.3851],[7.4379,47.3833],[7.438,47.3818],[7.4373,47.3809],[7.4337,47.3794],[7.425,47.3796],[7.4117,47.3806],[7.4163,47.3848],[7.4138,47.3887],[7.4137,47.3894],[7.4139,47.3934],[7.4148,47.394],[7.4146,47.3942],[7.4128,47.3948],[7.4108,47.3947],[7.4089,47.3951],[7.4059,47.3951],[7.4014,47.3968],[7.3989,47.3968],[7.3978,47.3992],[7.3959,47.4034],[7.3938,47.4033],[7.3918,47.403],[7.3887,47.403],[7.3877,47.4042],[7.3862,47.4074],[7.3852,47.409],[7.3846,47.4103],[7.3841,47.4124],[7.3795,47.4128],[7.378,47.4131],[7.376,47.4141],[7.3784,47.414],[7.3818,47.4133],[7.385,47.4135],[7.3856,47.4136],[7.3857,47.4139],[7.3869,47.4138],[7.3876,47.4141],[7.3938,47.413],[7.3942,47.4132],[7.396,47.4129],[7.397,47.4129],[7.4015,47.4119],[7.4046,47.4117],[7.4052,47.4115],[7.4077,47.4112],[7.4104,47.4114],[7.4137,47.4109],[7.4166,47.4111],[7.4171,47.4112],[7.4207,47.4111],[7.4213,47.4114],[7.4233,47.4131],[7.4257,47.4134],[7.4269,47.4139],[7.4275,47.4145],[7.4313,47.4141],[7.4326,47.4139],[7.4354,47.4131],[7.4381,47.4127],[7.4411,47.4134],[7.4442,47.4135],[7.4475,47.4145],[7.4484,47.4151],[7.4489,47.4162],[7.4504,47.4178],[7.4503,47.4184],[7.4505,47.419],[7.4503,47.4195],[7.4518,47.4228],[7.4547,47.4255],[7.4556,47.4279],[7.4551,47.4286],[7.455,47.4291],[7.4536,47.4299],[7.4521,47.4314],[7.452,47.4325],[7.4512,47.4337],[7.4512,47.4346],[7.4506,47.4354],[7.4484,47.4377],[7.4457,47.4392],[7.4432,47.4412],[7.4422,47.4423],[7.4399,47.4435],[7.4395,47.4434],[7.4387,47.4442],[7.4394,47.4445],[7.4388,47.445],[7.4391,47.4451],[7.4378,47.4463],[7.4363,47.4458],[7.4293,47.4441],[7.4254,47.4433],[7.4234,47.4436],[7.4209,47.4459],[7.4216,47.4469],[7.4245,47.4499],[7.4224,47.4507],[7.4279,47.4532],[7.4288,47.4539],[7.4282,47.4562],[7.4278,47.4573],[7.4292,47.4584],[7.43,47.4595],[7.4326,47.4593],[7.4348,47.4597],[7.4367,47.4604],[7.443,47.4614],[7.4458,47.462],[7.4461,47.459],[7.4472,47.457],[7.4535,47.4513],[7.4548,47.4492],[7.4565,47.4493],[7.4666,47.4528],[7.4681,47.4539],[7.4769,47.4554],[7.4805,47.4555],[7.4847,47.4574],[7.4924,47.459],[7.4964,47.4594],[7.497,47.4597],[7.4982,47.4597],[7.503,47.4591],[7.5052,47.4587],[7.5098,47.4587],[7.5111,47.4589],[7.5151,47.4606],[7.5175,47.461],[7.5278,47.461],[7.5307,47.4612],[7.5291,47.4668],[7.5275,47.4739],[7.5291,47.478],[7.5298,47.478],[7.5303,47.4783],[7.5331,47.4783],[7.5343,47.4807],[7.5363,47.4838],[7.5367,47.4851],[7.536,47.4852],[7.5363,47.4886],[7.5362,47.4911],[7.5326,47.491],[7.5327,47.4932],[7.5325,47.4954],[7.5318,47.4974],[7.5276,47.4972],[7.5228,47.4968],[7.5199,47.4968],[7.5148,47.4978],[7.5141,47.499],[7.5122,47.4989],[7.5117,47.5027],[7.5105,47.5026],[7.5099,47.5049],[7.5103,47.506],[7.5094,47.5089],[7.5083,47.5101],[7.5079,47.5108],[7.5059,47.5113],[7.5039,47.5127],[7.5031,47.514],[7.5009,47.5148],[7.4991,47.5163],[7.4979,47.5213],[7.4986,47.5211],[7.4998,47.5206],[7.5017,47.5169],[7.5025,47.5157],[7.502,47.5154],[7.5023,47.5149],[7.5044,47.5149],[7.5055,47.5147],[7.5063,47.5152],[7.5113,47.517],[7.5137,47.5173],[7.5175,47.5173],[7.518,47.5161],[7.5191,47.5148],[7.5207,47.5157],[7.5212,47.5148],[7.5222,47.5142],[7.5229,47.5144],[7.5237,47.5153],[7.5237,47.5176],[7.5235,47.5187],[7.5246,47.5198],[7.5276,47.5218],[7.5288,47.5238],[7.5309,47.5268],[7.5312,47.5282],[7.531,47.529],[7.5298,47.5307],[7.528,47.5318],[7.5268,47.5329],[7.526,47.5326],[7.5256,47.5322],[7.5251,47.5322],[7.5244,47.5319],[7.5211,47.5339],[7.5194,47.5347],[7.5177,47.5341],[7.5158,47.533],[7.5143,47.5314],[7.5127,47.5308],[7.5127,47.5305],[7.5108,47.529],[7.5082,47.5282],[7.5077,47.5281],[7.5051,47.529],[7.5023,47.5284],[7.501,47.5291],[7.5005,47.5301],[7.5014,47.5322],[7.4997,47.535],[7.498,47.5362],[7.4995,47.5393],[7.4992,47.5401],[7.4998,47.5401],[7.5003,47.5402],[7.5004,47.5405],[7.5011,47.541],[7.5011,47.5411],[7.5022,47.5416],[7.5023,47.5418],[7.5027,47.5419],[7.5029,47.5424],[7.5043,47.543],[7.5041,47.5433],[7.5043,47.5435],[7.5049,47.5439],[7.5055,47.5444],[7.5074,47.545],[7.5077,47.5449],[7.5086,47.5451],[7.5091,47.5453],[7.5093,47.5458],[7.511,47.5445],[7.5168,47.5454],[7.5189,47.5463],[7.5223,47.5487],[7.5219,47.5489],[7.5254,47.5509],[7.5248,47.5515],[7.5273,47.5528],[7.5308,47.5541],[7.5307,47.5542],[7.5365,47.5555],[7.5395,47.558],[7.5404,47.5573],[7.5469,47.5615],[7.5497,47.5624],[7.5547,47.5644]]]]}}