{"type":"Feature","bbox":[6.8615,46.3265,8.4552,47.3453],"properties":{"iso":"CH","code":"BE","name":"Bern","name_de":"Kanton Bern","source":"swisstopo","key":"CH-BE"},"geometry":{"type":"MultiPolygon","coordinates":[[[[7.1197,46.9006],[7.1184,46.903],[7.1189,46.9032],[7.1177,46.9051],[7.1192,46.9056],[7.117,46.9079],[7.1166,46.9078],[7.1143,46.9093],[7.1132,46.9106],[7.1142,46.9129],[7.1149,46.9158],[7.1175,46.9168],[7.1222,46.9178],[7.1253,46.919],[7.1269,46.9189],[7.1268,46.9186],[7.1263,46.9179],[7.1263,46.9176],[7.1267,46.9174],[7.127,46.9177],[7.1274,46.9178],[7.1277,46.9182],[7.13,46.9183],[7.1301,46.9184],[7.1301,46.9188],[7.1319,46.9193],[7.1322,46.9191],[7.1334,46.9194],[7.1347,46.9194],[7.1354,46.9185],[7.136,46.9153],[7.1361,46.913],[7.1355,46.9122],[7.1355,46.912],[7.136,46.9117],[7.1362,46.9107],[7.1366,46.9103],[7.138,46.9087],[7.1384,46.9075],[7.1362,46.9076],[7.1362,46.9072],[7.1348,46.9075],[7.1348,46.9072],[7.1339,46.9072],[7.1327,46.907],[7.1328,46.9065],[7.1298,46.9056],[7.1273,46.9045],[7.1245,46.9028],[7.1233,46.9017],[7.1239,46.9013],[7.123,46.9002],[7.1214,46.9005],[7.1197,46.9006]]],[[[7.5583,47.3224],[7.5542,47.3233],[7.5505,47.3222],[7.5491,47.3222],[7.5476,47.3216],[7.5379,47.3214],[7.536,47.3211],[7.5341,47.3212],[7.532,47.321],[7.5315,47.3211],[7.5299,47.3217],[7.5285,47.3227],[7.5278,47.3227],[7.5303,47.3276],[7.5321,47.3301],[7.5335,47.3313],[7.5342,47.3331],[7.5341,47.3335],[7.5346,47.3342],[7.5345,47.3345],[7.54,47.3371],[7.5425,47.3381],[7.5453,47.3396],[7.548,47.3406],[7.55,47.3409],[7.5502,47.3414],[7.5498,47.3421],[7.5499,47.3427],[7.5511,47.3437],[7.5522,47.3453],[7.5565,47.3439],[7.5566,47.3421],[7.5598,47.3427],[7.5605,47.3425],[7.5607,47.3418],[7.5617,47.3415],[7.5627,47.3405],[7.563,47.3399],[7.5627,47.3394],[7.5659,47.3356],[7.5712,47.3303],[7.5722,47.329],[7.572,47.3288],[7.5719,47.3277],[7.5716,47.3271],[7.571,47.3263],[7.5687,47.3243],[7.568,47.3242],[7.5617,47.3214],[7.5583,47.3224]]],[[[7.3925,47.2808],[7.3926,47.2841],[7.3924,47.286],[7.3898,47.2894],[7.3898,47.292],[7.3917,47.2935],[7.3947,47.2955],[7.3964,47.2968],[7.3969,47.2977],[7.3959,47.2982],[7.3913,47.2972],[7.3904,47.2968],[7.3821,47.2953],[7.3818,47.2957],[7.3812,47.2959],[7.3791,47.2953],[7.3771,47.2957],[7.3761,47.2956],[7.3747,47.2951],[7.3744,47.2946],[7.3655,47.2938],[7.3623,47.2932],[7.3601,47.293],[7.358,47.293],[7.3571,47.2928],[7.3562,47.2943],[7.3512,47.2931],[7.3505,47.2928],[7.3481,47.2923],[7.346,47.2936],[7.3459,47.2942],[7.3462,47.2947],[7.3443,47.2944],[7.3426,47.2935],[7.3417,47.2943],[7.3418,47.2943],[7.3413,47.2956],[7.3419,47.2958],[7.3423,47.2961],[7.3421,47.2967],[7.3422,47.2975],[7.344,47.2979],[7.3464,47.2981],[7.3482,47.2984],[7.3495,47.2989],[7.3503,47.2996],[7.3489,47.3024],[7.3482,47.3057],[7.3497,47.3059],[7.3521,47.3068],[7.3546,47.3073],[7.356,47.3075],[7.3603,47.3087],[7.3616,47.3086],[7.3651,47.3093],[7.3692,47.3109],[7.3716,47.3122],[7.3746,47.3135],[7.3786,47.315],[7.3804,47.314],[7.3829,47.314],[7.3845,47.3135],[7.3867,47.3137],[7.3886,47.3134],[7.3901,47.3135],[7.3905,47.3131],[7.3934,47.3135],[7.3962,47.3134],[7.3979,47.3131],[7.3985,47.3133],[7.3996,47.3132],[7.4023,47.3127],[7.4058,47.3126],[7.4064,47.3129],[7.4075,47.3129],[7.4088,47.3132],[7.4105,47.3134],[7.4117,47.3133],[7.4126,47.3116],[7.413,47.31],[7.4156,47.3093],[7.4164,47.3092],[7.4175,47.3093],[7.4191,47.3089],[7.4198,47.3086],[7.4217,47.3071],[7.4213,47.3068],[7.4259,47.3078],[7.4288,47.3072],[7.4299,47.3073],[7.4418,47.3087],[7.4478,47.3084],[7.4532,47.3074],[7.458,47.3069],[7.4595,47.3066],[7.4636,47.3069],[7.4675,47.3073],[7.4709,47.307],[7.476,47.3071],[7.4765,47.3069],[7.4766,47.3066],[7.4769,47.3067],[7.4773,47.3064],[7.4778,47.3062],[7.4781,47.3057],[7.4779,47.3054],[7.478,47.3052],[7.4789,47.305],[7.4813,47.3042],[7.4817,47.3042],[7.4841,47.3031],[7.4848,47.303],[7.4864,47.3021],[7.4869,47.3022],[7.4883,47.302],[7.4903,47.302],[7.4937,47.3025],[7.4942,47.3028],[7.4949,47.3027],[7.4954,47.3022],[7.496,47.3021],[7.497,47.3024],[7.4974,47.3023],[7.4978,47.3031],[7.5001,47.3042],[7.502,47.3046],[7.5029,47.3052],[7.5052,47.3056],[7.506,47.3061],[7.5067,47.3063],[7.5078,47.307],[7.5092,47.3073],[7.5099,47.3073],[7.5119,47.3084],[7.5149,47.3096],[7.5167,47.3108],[7.5187,47.3117],[7.522,47.3137],[7.5235,47.3142],[7.5289,47.3158],[7.53,47.3163],[7.5506,47.3199],[7.5583,47.3224],[7.5483,47.3164],[7.5474,47.3091],[7.5468,47.3076],[7.5462,47.3074],[7.5469,47.3061],[7.5445,47.3048],[7.5428,47.3036],[7.5391,47.302],[7.5399,47.2999],[7.5395,47.2991],[7.5395,47.2986],[7.5386,47.2976],[7.5379,47.2971],[7.5329,47.2945],[7.5316,47.2943],[7.528,47.2942],[7.5246,47.2938],[7.5225,47.294],[7.52,47.2938],[7.5153,47.2927],[7.5138,47.2925],[7.506,47.2901],[7.5055,47.2905],[7.5054,47.2909],[7.5021,47.2898],[7.4983,47.2884],[7.4967,47.2884],[7.4954,47.2879],[7.4947,47.2882],[7.4953,47.2869],[7.4944,47.2864],[7.4885,47.2845],[7.4872,47.2839],[7.4854,47.2843],[7.4817,47.281],[7.4785,47.2789],[7.4771,47.2773],[7.4759,47.2763],[7.4753,47.2751],[7.4747,47.2745],[7.474,47.2733],[7.4741,47.2731],[7.4738,47.2727],[7.4736,47.2718],[7.4728,47.2713],[7.472,47.2696],[7.4716,47.2694],[7.4689,47.2665],[7.4679,47.2658],[7.4663,47.2651],[7.4658,47.2647],[7.4647,47.2645],[7.4633,47.2646],[7.4629,47.2644],[7.4607,47.2645],[7.4559,47.2637],[7.4519,47.2634],[7.451,47.263],[7.4508,47.2632],[7.4486,47.2629],[7.4481,47.263],[7.4472,47.2629],[7.4459,47.2631],[7.441,47.2629],[7.4387,47.2621],[7.4366,47.2607],[7.4362,47.2606],[7.436,47.2602],[7.4336,47.259],[7.4268,47.2561],[7.4188,47.2546],[7.4182,47.2539],[7.4174,47.2538],[7.4163,47.2522],[7.4162,47.2506],[7.4164,47.2503],[7.4172,47.2476],[7.4182,47.2454],[7.42,47.2439],[7.4209,47.2429],[7.4155,47.2402],[7.4142,47.2406],[7.4127,47.2407],[7.4118,47.2406],[7.4079,47.2391],[7.4068,47.2382],[7.4031,47.2357],[7.4017,47.2349],[7.3991,47.234],[7.3981,47.2335],[7.3956,47.2327],[7.3927,47.2321],[7.3906,47.2312],[7.3884,47.2308],[7.3875,47.2307],[7.385,47.2298],[7.3819,47.2293],[7.3803,47.2288],[7.3782,47.2276],[7.3763,47.2274],[7.3745,47.2269],[7.3732,47.226],[7.3705,47.2239],[7.3672,47.2223],[7.3657,47.2213],[7.3654,47.2208],[7.3644,47.2206],[7.3622,47.2196],[7.3593,47.2196],[7.3577,47.2202],[7.3572,47.221],[7.3556,47.221],[7.3548,47.2209],[7.3533,47.2203],[7.3515,47.22],[7.3477,47.2192],[7.3463,47.2192],[7.3432,47.2179],[7.3404,47.2176],[7.342,47.2124],[7.3448,47.2072],[7.3457,47.2071],[7.3468,47.2072],[7.3545,47.1915],[7.3629,47.1934],[7.3655,47.1945],[7.3664,47.193],[7.3672,47.1915],[7.3677,47.191],[7.3689,47.1906],[7.3719,47.19],[7.3751,47.1886],[7.3773,47.1872],[7.3788,47.1856],[7.3793,47.1857],[7.3797,47.1852],[7.3795,47.1851],[7.3835,47.1803],[7.3848,47.178],[7.3897,47.1704],[7.3919,47.1663],[7.3908,47.1662],[7.3908,47.1656],[7.3847,47.1661],[7.3822,47.1651],[7.3822,47.1646],[7.3818,47.1636],[7.3821,47.1625],[7.383,47.1608],[7.3842,47.1601],[7.3857,47.16],[7.3869,47.1595],[7.3873,47.1597],[7.3871,47.1599],[7.3873,47.1601],[7.3921,47.1611],[7.3926,47.161],[7.3931,47.1604],[7.3971,47.1619],[7.3989,47.1625],[7.4009,47.1629],[7.403,47.1628],[7.4086,47.1621],[7.4102,47.1621],[7.4118,47.1624],[7.4134,47.1632],[7.416,47.1654],[7.4165,47.1673],[7.4167,47.1691],[7.4174,47.1703],[7.4184,47.1712],[7.4218,47.1723],[7.4261,47.173],[7.428,47.1735],[7.4301,47.1746],[7.4316,47.1761],[7.4318,47.1787],[7.4309,47.1812],[7.4309,47.1825],[7.4317,47.1836],[7.4333,47.1847],[7.4346,47.1852],[7.436,47.1853],[7.4374,47.185],[7.4385,47.1844],[7.4399,47.1806],[7.4406,47.1798],[7.4418,47.1792],[7.4432,47.1793],[7.4456,47.1801],[7.4476,47.1811],[7.4488,47.1819],[7.4496,47.1829],[7.4499,47.184],[7.4497,47.1852],[7.4492,47.1864],[7.4484,47.1879],[7.4484,47.1888],[7.4488,47.1894],[7.4498,47.1896],[7.4511,47.1891],[7.4557,47.1888],[7.4596,47.1891],[7.4666,47.1901],[7.4693,47.1903],[7.4742,47.1904],[7.4757,47.1907],[7.4761,47.1898],[7.4761,47.189],[7.4766,47.1881],[7.4758,47.1879],[7.476,47.1875],[7.4753,47.1871],[7.4755,47.1867],[7.4736,47.1862],[7.4738,47.1858],[7.4726,47.1855],[7.473,47.185],[7.4745,47.1847],[7.4752,47.183],[7.4709,47.1813],[7.4733,47.1799],[7.4749,47.1802],[7.4752,47.1793],[7.4759,47.179],[7.477,47.1779],[7.4763,47.1769],[7.4768,47.1766],[7.4781,47.1775],[7.4785,47.1775],[7.4787,47.1773],[7.4783,47.1768],[7.4782,47.1762],[7.4791,47.1751],[7.4805,47.1717],[7.4825,47.1722],[7.4825,47.1724],[7.4843,47.1727],[7.4841,47.1731],[7.4864,47.1736],[7.4863,47.1731],[7.489,47.1727],[7.4918,47.1718],[7.4931,47.1711],[7.4957,47.1715],[7.497,47.1701],[7.4929,47.1672],[7.4902,47.1658],[7.4923,47.164],[7.4927,47.1633],[7.4898,47.1613],[7.4885,47.1607],[7.4847,47.1596],[7.4838,47.1588],[7.4821,47.1582],[7.4814,47.1573],[7.4804,47.1563],[7.4805,47.1559],[7.4792,47.1551],[7.4786,47.1545],[7.4772,47.154],[7.4739,47.1535],[7.4728,47.1526],[7.4705,47.152],[7.4695,47.1519],[7.4685,47.1514],[7.4676,47.1513],[7.4667,47.1516],[7.4662,47.152],[7.4659,47.1518],[7.4655,47.1524],[7.4648,47.1527],[7.4631,47.153],[7.463,47.1537],[7.4599,47.1533],[7.4588,47.1549],[7.4546,47.1563],[7.452,47.1561],[7.4499,47.1557],[7.449,47.1553],[7.4478,47.1551],[7.4412,47.1515],[7.44,47.1505],[7.4412,47.1459],[7.4396,47.144],[7.4366,47.1435],[7.4345,47.1437],[7.4321,47.1433],[7.4305,47.1429],[7.4266,47.1411],[7.4259,47.1401],[7.4267,47.1385],[7.4243,47.1374],[7.4218,47.1359],[7.4238,47.135],[7.4244,47.1343],[7.4252,47.1328],[7.4265,47.1313],[7.4297,47.1316],[7.4309,47.1309],[7.4302,47.1295],[7.4307,47.1292],[7.4312,47.1291],[7.4354,47.1313],[7.4364,47.1296],[7.4358,47.1288],[7.4352,47.1275],[7.434,47.1277],[7.4329,47.1276],[7.4333,47.1262],[7.4396,47.1246],[7.4402,47.1237],[7.4374,47.1227],[7.4347,47.1239],[7.4314,47.1242],[7.4306,47.1244],[7.429,47.1244],[7.4284,47.1237],[7.4264,47.123],[7.4247,47.122],[7.4204,47.1212],[7.4198,47.1212],[7.4199,47.1213],[7.4197,47.1213],[7.4198,47.1218],[7.4173,47.1218],[7.4175,47.1217],[7.4146,47.1214],[7.4151,47.121],[7.412,47.1206],[7.4099,47.1198],[7.4096,47.1202],[7.4063,47.1181],[7.4061,47.1184],[7.4038,47.1177],[7.3993,47.1201],[7.395,47.1217],[7.391,47.1202],[7.39,47.1195],[7.3893,47.1212],[7.3894,47.1214],[7.389,47.1218],[7.3889,47.1234],[7.3876,47.1253],[7.3867,47.1259],[7.3851,47.1253],[7.3846,47.1242],[7.3837,47.1233],[7.3827,47.123],[7.3823,47.1231],[7.3809,47.1227],[7.3805,47.123],[7.3801,47.1238],[7.3789,47.1241],[7.377,47.1234],[7.3755,47.1233],[7.3756,47.1223],[7.374,47.1218],[7.3714,47.1225],[7.3705,47.1209],[7.372,47.1173],[7.3717,47.117],[7.3715,47.117],[7.3709,47.1163],[7.3697,47.116],[7.3704,47.1154],[7.3707,47.1148],[7.3713,47.1141],[7.3715,47.1138],[7.3726,47.1132],[7.3736,47.1129],[7.374,47.1119],[7.3742,47.1117],[7.3744,47.1119],[7.3759,47.1084],[7.3772,47.1082],[7.3792,47.1062],[7.3793,47.1051],[7.3788,47.105],[7.3792,47.1041],[7.3813,47.1012],[7.3822,47.0992],[7.3825,47.0981],[7.3826,47.0967],[7.382,47.0957],[7.3843,47.0955],[7.3844,47.0963],[7.3864,47.0962],[7.3876,47.0954],[7.3894,47.0951],[7.3901,47.0923],[7.3954,47.093],[7.3994,47.0939],[7.3997,47.0936],[7.4016,47.0938],[7.4096,47.0949],[7.4122,47.0957],[7.4203,47.0997],[7.421,47.0985],[7.4224,47.0989],[7.4233,47.0975],[7.434,47.1005],[7.4358,47.097],[7.4365,47.0962],[7.437,47.0951],[7.4372,47.0951],[7.4372,47.0948],[7.4374,47.0942],[7.435,47.0937],[7.4358,47.0919],[7.4337,47.0913],[7.4345,47.0897],[7.4332,47.0896],[7.4329,47.0878],[7.4334,47.0869],[7.4344,47.0862],[7.4342,47.0856],[7.4345,47.0848],[7.4344,47.0844],[7.4345,47.0835],[7.4347,47.0829],[7.4351,47.0826],[7.4353,47.082],[7.4351,47.0813],[7.4354,47.0802],[7.4362,47.0798],[7.4375,47.078],[7.4386,47.077],[7.4402,47.0763],[7.4405,47.0758],[7.4405,47.0745],[7.4432,47.0746],[7.4459,47.0743],[7.454,47.076],[7.4545,47.0749],[7.4557,47.0753],[7.4557,47.0757],[7.458,47.0776],[7.4591,47.0781],[7.4615,47.0785],[7.4621,47.0783],[7.4625,47.0785],[7.4629,47.0784],[7.4641,47.0787],[7.4645,47.079],[7.4656,47.0788],[7.4662,47.0786],[7.4666,47.0787],[7.4676,47.0791],[7.4684,47.0798],[7.4706,47.0829],[7.4711,47.0838],[7.4729,47.0846],[7.4739,47.0857],[7.4748,47.0862],[7.4751,47.0867],[7.4751,47.0871],[7.4743,47.0882],[7.4744,47.0884],[7.4738,47.0888],[7.4739,47.0895],[7.4735,47.0895],[7.4708,47.0905],[7.4642,47.099],[7.4653,47.0993],[7.4618,47.1034],[7.4628,47.1037],[7.462,47.1059],[7.4622,47.106],[7.4613,47.1082],[7.4923,47.1171],[7.4986,47.1214],[7.5047,47.1227],[7.5097,47.1255],[7.5138,47.13],[7.5137,47.1332],[7.5158,47.1368],[7.5191,47.1404],[7.5229,47.1425],[7.5234,47.1458],[7.5253,47.1476],[7.5298,47.1487],[7.5296,47.1507],[7.5292,47.1508],[7.5289,47.1513],[7.5283,47.1518],[7.5257,47.1531],[7.5257,47.1537],[7.5243,47.1536],[7.5219,47.1584],[7.5217,47.1587],[7.5203,47.1589],[7.5206,47.1598],[7.5229,47.16],[7.5228,47.1607],[7.526,47.1611],[7.5258,47.1622],[7.5314,47.163],[7.5329,47.1638],[7.5345,47.1642],[7.5352,47.1625],[7.5407,47.1636],[7.5418,47.1626],[7.5417,47.1624],[7.5443,47.1604],[7.5463,47.1607],[7.5474,47.1612],[7.5478,47.1616],[7.5488,47.1621],[7.55,47.1636],[7.5526,47.1648],[7.5543,47.1653],[7.5569,47.1667],[7.5574,47.1672],[7.5578,47.168],[7.5635,47.1684],[7.5646,47.1663],[7.5644,47.1658],[7.566,47.1655],[7.5658,47.1647],[7.5655,47.1646],[7.5655,47.1644],[7.5673,47.1632],[7.5693,47.1625],[7.5698,47.1625],[7.5697,47.1629],[7.5749,47.1645],[7.5775,47.1618],[7.5797,47.16],[7.5807,47.1604],[7.5809,47.1601],[7.5811,47.1601],[7.5819,47.1589],[7.5817,47.1582],[7.5821,47.1583],[7.5811,47.1556],[7.5828,47.156],[7.5835,47.1549],[7.5834,47.1548],[7.5861,47.1475],[7.5884,47.1509],[7.5924,47.1527],[7.5979,47.1516],[7.6043,47.1526],[7.6079,47.1529],[7.6109,47.1537],[7.6145,47.1545],[7.6146,47.1556],[7.6154,47.1561],[7.6155,47.1566],[7.6173,47.1554],[7.622,47.1531],[7.6223,47.1534],[7.6246,47.1525],[7.6275,47.1529],[7.6291,47.1524],[7.6314,47.1538],[7.6323,47.153],[7.634,47.1535],[7.6341,47.1531],[7.6348,47.1533],[7.6356,47.1521],[7.64,47.1536],[7.6408,47.1527],[7.6408,47.1515],[7.6433,47.1502],[7.6432,47.1498],[7.6451,47.1489],[7.6473,47.1496],[7.6508,47.1499],[7.6515,47.1502],[7.6526,47.1515],[7.6524,47.1516],[7.653,47.1524],[7.6524,47.1525],[7.652,47.156],[7.6509,47.1561],[7.6508,47.1574],[7.6513,47.1575],[7.6536,47.1608],[7.6517,47.1616],[7.6543,47.1633],[7.6601,47.1684],[7.661,47.1677],[7.6653,47.1689],[7.6657,47.1682],[7.6661,47.1682],[7.666,47.1684],[7.6729,47.1684],[7.6739,47.1743],[7.6738,47.1744],[7.6754,47.1753],[7.6762,47.1761],[7.6768,47.1778],[7.6775,47.1818],[7.678,47.1819],[7.6776,47.1822],[7.6778,47.1827],[7.6749,47.1832],[7.6757,47.1837],[7.6744,47.1842],[7.6733,47.1844],[7.6724,47.1834],[7.6711,47.1845],[7.6716,47.1867],[7.6737,47.1879],[7.6742,47.189],[7.6746,47.1909],[7.6713,47.193],[7.6718,47.1943],[7.6715,47.195],[7.6691,47.1941],[7.6685,47.196],[7.6666,47.1958],[7.6667,47.1959],[7.6658,47.198],[7.6651,47.1977],[7.6642,47.1975],[7.6627,47.1987],[7.6624,47.1998],[7.6623,47.201],[7.6578,47.2007],[7.6552,47.2012],[7.6472,47.2018],[7.6494,47.2041],[7.6512,47.2067],[7.6496,47.21],[7.6483,47.2112],[7.6472,47.2135],[7.6461,47.2147],[7.6459,47.215],[7.646,47.216],[7.6467,47.2176],[7.6485,47.219],[7.6481,47.2193],[7.6476,47.2195],[7.6455,47.2194],[7.6454,47.2197],[7.6455,47.2201],[7.645,47.2202],[7.6448,47.2205],[7.641,47.2211],[7.6392,47.2234],[7.644,47.2254],[7.6406,47.2298],[7.6353,47.2272],[7.6339,47.2286],[7.6309,47.2267],[7.6295,47.2283],[7.6262,47.2263],[7.6235,47.2294],[7.6229,47.2291],[7.6215,47.2289],[7.6191,47.2291],[7.6183,47.2314],[7.6164,47.2329],[7.617,47.2336],[7.617,47.2339],[7.6149,47.2342],[7.6145,47.2349],[7.614,47.2365],[7.6109,47.2383],[7.6093,47.2382],[7.609,47.2389],[7.6095,47.2395],[7.6084,47.2395],[7.6083,47.2393],[7.6064,47.2391],[7.6054,47.2398],[7.6051,47.2403],[7.6052,47.2411],[7.6056,47.2412],[7.6055,47.2418],[7.6049,47.2421],[7.6046,47.2427],[7.6036,47.2423],[7.6024,47.2421],[7.6012,47.2428],[7.6014,47.2429],[7.5995,47.2446],[7.5997,47.2448],[7.5988,47.2452],[7.5978,47.2454],[7.5974,47.2448],[7.5959,47.2456],[7.5977,47.2541],[7.5961,47.2607],[7.5947,47.2644],[7.5937,47.2662],[7.5869,47.2697],[7.5801,47.2764],[7.6005,47.2793],[7.6142,47.2812],[7.6186,47.2813],[7.6201,47.2816],[7.6276,47.2816],[7.6283,47.2817],[7.6312,47.2815],[7.6361,47.2819],[7.6417,47.2818],[7.6483,47.282],[7.6509,47.2827],[7.6532,47.2836],[7.6543,47.2838],[7.6563,47.2846],[7.6567,47.2846],[7.658,47.2851],[7.6582,47.2855],[7.6589,47.2857],[7.6588,47.2859],[7.6605,47.2867],[7.6662,47.2877],[7.6688,47.2888],[7.6694,47.2886],[7.6705,47.2876],[7.671,47.2876],[7.6728,47.2883],[7.674,47.2883],[7.6761,47.289],[7.6772,47.2891],[7.6798,47.2901],[7.6802,47.2906],[7.6811,47.2911],[7.6829,47.2931],[7.6848,47.294],[7.685,47.2935],[7.6872,47.2913],[7.6879,47.2912],[7.688,47.291],[7.6884,47.291],[7.6886,47.2904],[7.6977,47.2872],[7.6995,47.2863],[7.7009,47.2865],[7.7039,47.2838],[7.703,47.283],[7.7056,47.2805],[7.7065,47.2814],[7.7089,47.2795],[7.7084,47.2787],[7.7099,47.2777],[7.7092,47.2772],[7.7105,47.2764],[7.7094,47.2756],[7.7123,47.2738],[7.7127,47.2738],[7.7156,47.2764],[7.7171,47.2752],[7.7175,47.2751],[7.7251,47.2693],[7.7252,47.2691],[7.7243,47.2679],[7.7248,47.2662],[7.7284,47.2632],[7.7327,47.2591],[7.7383,47.2599],[7.7429,47.2575],[7.7447,47.257],[7.7493,47.2588],[7.7532,47.2588],[7.7568,47.2581],[7.7588,47.2592],[7.7596,47.2609],[7.7607,47.2626],[7.7648,47.2667],[7.7746,47.2679],[7.7753,47.2659],[7.7758,47.2614],[7.7845,47.2573],[7.7862,47.2561],[7.7877,47.2579],[7.7938,47.2615],[7.798,47.2661],[7.8002,47.2676],[7.8022,47.2683],[7.8035,47.2685],[7.8046,47.2684],[7.8053,47.268],[7.8054,47.2676],[7.8052,47.2658],[7.8054,47.265],[7.8063,47.2638],[7.807,47.2633],[7.8148,47.2613],[7.8182,47.2621],[7.8194,47.2628],[7.82,47.2634],[7.8251,47.2656],[7.8255,47.2651],[7.8257,47.2645],[7.8276,47.2645],[7.8278,47.2643],[7.8277,47.2641],[7.8272,47.2636],[7.8271,47.2632],[7.8283,47.2631],[7.8286,47.2628],[7.8274,47.2619],[7.8271,47.2615],[7.8272,47.2612],[7.8275,47.261],[7.8284,47.2611],[7.8291,47.261],[7.8294,47.2605],[7.8293,47.2601],[7.8303,47.2594],[7.8304,47.2591],[7.8301,47.2589],[7.8292,47.2587],[7.8289,47.2584],[7.8291,47.2574],[7.8298,47.2554],[7.8296,47.2552],[7.8286,47.255],[7.8291,47.2544],[7.8279,47.2536],[7.8275,47.2527],[7.8271,47.2526],[7.8265,47.2527],[7.826,47.2519],[7.8261,47.2517],[7.8268,47.251],[7.8274,47.2508],[7.828,47.2504],[7.8281,47.2499],[7.8274,47.2496],[7.8266,47.249],[7.8257,47.2487],[7.8265,47.2482],[7.8263,47.2479],[7.8266,47.2472],[7.8261,47.2469],[7.8266,47.2465],[7.8268,47.2457],[7.8275,47.245],[7.8279,47.2446],[7.8284,47.2445],[7.8284,47.2438],[7.8281,47.2435],[7.8283,47.2429],[7.8289,47.243],[7.8295,47.2434],[7.8303,47.243],[7.8306,47.2426],[7.8305,47.2422],[7.8306,47.2418],[7.8316,47.2405],[7.8323,47.2402],[7.8323,47.2397],[7.833,47.2398],[7.8335,47.2395],[7.8333,47.239],[7.8341,47.2384],[7.8343,47.2382],[7.8342,47.2377],[7.8361,47.237],[7.8368,47.237],[7.8369,47.2368],[7.8368,47.2366],[7.8372,47.2359],[7.8389,47.2346],[7.8379,47.2338],[7.8378,47.2336],[7.8382,47.233],[7.8375,47.2329],[7.8374,47.2323],[7.8383,47.2318],[7.8372,47.231],[7.8372,47.2306],[7.8377,47.2301],[7.8376,47.2299],[7.8369,47.2295],[7.8367,47.2292],[7.837,47.2289],[7.8369,47.2286],[7.837,47.2283],[7.8365,47.2276],[7.8373,47.2275],[7.8375,47.2272],[7.8373,47.227],[7.8367,47.227],[7.8366,47.2269],[7.837,47.2266],[7.8372,47.2253],[7.8374,47.2248],[7.8364,47.2245],[7.8367,47.2241],[7.8367,47.2238],[7.8372,47.2236],[7.8372,47.2231],[7.8377,47.2229],[7.8388,47.2231],[7.8393,47.2229],[7.8398,47.2229],[7.84,47.2228],[7.8395,47.2224],[7.8404,47.2221],[7.8409,47.2222],[7.8413,47.222],[7.8413,47.2217],[7.8417,47.2216],[7.8419,47.2213],[7.8419,47.221],[7.8417,47.2207],[7.8421,47.2208],[7.8424,47.2211],[7.8426,47.2209],[7.8425,47.2207],[7.8428,47.2205],[7.8425,47.2201],[7.843,47.22],[7.8437,47.22],[7.8437,47.2198],[7.8432,47.2194],[7.8435,47.2192],[7.8433,47.219],[7.8437,47.2183],[7.8437,47.2181],[7.8447,47.2177],[7.8453,47.2175],[7.8457,47.2177],[7.846,47.2174],[7.8469,47.2172],[7.8473,47.2164],[7.8468,47.216],[7.8471,47.2155],[7.8467,47.215],[7.8473,47.2144],[7.8472,47.2139],[7.848,47.2138],[7.8483,47.2127],[7.8487,47.2122],[7.8484,47.212],[7.8487,47.2115],[7.8485,47.2112],[7.849,47.211],[7.8487,47.2107],[7.8491,47.2107],[7.8493,47.2104],[7.8491,47.2101],[7.8491,47.2098],[7.8499,47.2098],[7.8503,47.2096],[7.8505,47.2093],[7.8503,47.2087],[7.8506,47.2088],[7.851,47.2085],[7.8516,47.2088],[7.8519,47.2084],[7.8521,47.2078],[7.8521,47.2072],[7.8523,47.207],[7.8521,47.2066],[7.8526,47.2062],[7.8533,47.2059],[7.8534,47.2054],[7.8545,47.2044],[7.8543,47.2041],[7.8537,47.2039],[7.8536,47.2035],[7.854,47.2032],[7.8544,47.2036],[7.8547,47.2035],[7.8544,47.203],[7.8547,47.2027],[7.8553,47.2027],[7.8558,47.2019],[7.8561,47.2018],[7.8559,47.2012],[7.8563,47.2007],[7.8567,47.2007],[7.8573,47.2001],[7.8578,47.2],[7.8575,47.1997],[7.8577,47.1995],[7.8595,47.1991],[7.8599,47.1987],[7.86,47.1982],[7.8594,47.1979],[7.86,47.1969],[7.8599,47.1966],[7.8603,47.1965],[7.8606,47.1962],[7.8603,47.1957],[7.8604,47.195],[7.8601,47.1948],[7.8608,47.1941],[7.8603,47.1936],[7.8595,47.1933],[7.8595,47.193],[7.8599,47.1927],[7.86,47.1924],[7.8613,47.1915],[7.8619,47.1916],[7.8624,47.1914],[7.863,47.1917],[7.8633,47.1917],[7.8635,47.1914],[7.8635,47.1911],[7.8639,47.1909],[7.8635,47.1904],[7.8635,47.1902],[7.864,47.1899],[7.8651,47.1897],[7.8653,47.1895],[7.8648,47.189],[7.8649,47.1884],[7.8656,47.1881],[7.8667,47.1879],[7.8671,47.1875],[7.8676,47.1874],[7.8677,47.187],[7.8683,47.1869],[7.8691,47.1863],[7.8694,47.1858],[7.8693,47.1856],[7.8697,47.1856],[7.8698,47.1857],[7.8703,47.1855],[7.8712,47.1854],[7.8717,47.185],[7.8727,47.1847],[7.8729,47.1843],[7.8726,47.184],[7.8737,47.1845],[7.874,47.1843],[7.8741,47.184],[7.8744,47.1839],[7.8745,47.1837],[7.8748,47.1836],[7.875,47.1834],[7.8759,47.1832],[7.8761,47.183],[7.876,47.1828],[7.8762,47.1826],[7.8762,47.1822],[7.8766,47.1819],[7.8766,47.1814],[7.877,47.1813],[7.8769,47.1809],[7.877,47.1807],[7.8774,47.1804],[7.878,47.1804],[7.8782,47.1801],[7.8778,47.1799],[7.8783,47.1797],[7.8785,47.1794],[7.8792,47.1794],[7.8795,47.1791],[7.8794,47.1787],[7.8795,47.1785],[7.8799,47.1781],[7.8804,47.1779],[7.8794,47.1775],[7.8799,47.1769],[7.8804,47.1764],[7.8811,47.1762],[7.8805,47.1753],[7.8807,47.1748],[7.882,47.1744],[7.8822,47.1743],[7.8822,47.1738],[7.8827,47.1739],[7.8833,47.1732],[7.8833,47.1727],[7.8829,47.1721],[7.8814,47.1707],[7.8793,47.1695],[7.879,47.1689],[7.8791,47.1687],[7.8787,47.1685],[7.8785,47.1681],[7.8785,47.1679],[7.8779,47.1679],[7.8775,47.1674],[7.8768,47.167],[7.8767,47.1668],[7.8772,47.1661],[7.8767,47.1652],[7.8765,47.165],[7.8763,47.164],[7.8758,47.1635],[7.876,47.1631],[7.8757,47.1626],[7.8757,47.1619],[7.8754,47.1616],[7.8761,47.1607],[7.8761,47.1597],[7.8757,47.1591],[7.8761,47.1582],[7.876,47.1575],[7.8762,47.1574],[7.8762,47.1569],[7.8766,47.1565],[7.8763,47.156],[7.8769,47.1554],[7.8775,47.1536],[7.8778,47.1532],[7.878,47.1533],[7.8783,47.1527],[7.8787,47.1523],[7.8785,47.152],[7.8794,47.1509],[7.88,47.1497],[7.8797,47.1494],[7.8802,47.1491],[7.8806,47.1485],[7.8812,47.1482],[7.8811,47.1481],[7.8823,47.1475],[7.882,47.1471],[7.8828,47.1469],[7.8827,47.1467],[7.8831,47.1466],[7.8834,47.1462],[7.8845,47.1458],[7.8845,47.1455],[7.8846,47.1453],[7.8874,47.1436],[7.8873,47.1436],[7.8875,47.1433],[7.8887,47.1424],[7.8901,47.1407],[7.8895,47.1405],[7.8896,47.14],[7.8894,47.1397],[7.8894,47.1392],[7.8906,47.1376],[7.8901,47.1366],[7.8893,47.1358],[7.8899,47.1358],[7.8898,47.1354],[7.89,47.1346],[7.8888,47.1346],[7.8885,47.1344],[7.8898,47.132],[7.8892,47.1318],[7.8865,47.1317],[7.8864,47.1289],[7.8862,47.1286],[7.8843,47.1281],[7.8849,47.1276],[7.8736,47.1241],[7.8702,47.1228],[7.8692,47.1223],[7.8682,47.1214],[7.8676,47.1206],[7.8671,47.1195],[7.8669,47.1166],[7.8688,47.117],[7.8694,47.1167],[7.8695,47.1161],[7.87,47.1159],[7.8698,47.1156],[7.8697,47.1141],[7.8694,47.1135],[7.8682,47.112],[7.8717,47.1111],[7.8728,47.1106],[7.8734,47.1105],[7.875,47.1094],[7.8748,47.1089],[7.8745,47.1087],[7.8743,47.1083],[7.8741,47.1076],[7.8743,47.1073],[7.8742,47.1069],[7.8738,47.1065],[7.8737,47.106],[7.873,47.1054],[7.8731,47.105],[7.8729,47.1043],[7.8734,47.1032],[7.8747,47.1035],[7.8762,47.1017],[7.8755,47.101],[7.8754,47.1003],[7.8746,47.0999],[7.8748,47.0989],[7.8739,47.0985],[7.874,47.0983],[7.8736,47.0981],[7.8736,47.0978],[7.8743,47.0974],[7.8747,47.0976],[7.8755,47.0972],[7.876,47.0972],[7.8783,47.096],[7.8791,47.0959],[7.8791,47.0957],[7.8795,47.0955],[7.8798,47.0945],[7.8779,47.0929],[7.8798,47.0919],[7.8805,47.09],[7.8807,47.0886],[7.8816,47.0888],[7.8809,47.0868],[7.8805,47.0868],[7.8802,47.0856],[7.8808,47.0854],[7.8805,47.0849],[7.8805,47.0845],[7.8793,47.084],[7.8797,47.0836],[7.8789,47.083],[7.8783,47.0822],[7.8783,47.082],[7.8793,47.0819],[7.8801,47.0813],[7.8793,47.0803],[7.8768,47.0798],[7.8767,47.0797],[7.879,47.0788],[7.8784,47.0785],[7.8775,47.0754],[7.8782,47.0744],[7.8768,47.0735],[7.8761,47.0735],[7.8773,47.0716],[7.8768,47.071],[7.8768,47.0706],[7.8738,47.0667],[7.8733,47.0656],[7.872,47.0653],[7.8716,47.0648],[7.8717,47.0642],[7.8711,47.0628],[7.8712,47.0625],[7.8723,47.0622],[7.8731,47.0624],[7.8739,47.0617],[7.872,47.0607],[7.8714,47.0597],[7.8696,47.0587],[7.8684,47.0569],[7.8674,47.056],[7.8671,47.055],[7.8662,47.0542],[7.866,47.0534],[7.8675,47.0531],[7.8674,47.0523],[7.8681,47.0518],[7.8673,47.0507],[7.8667,47.0503],[7.8664,47.0498],[7.8666,47.0496],[7.8672,47.0496],[7.8677,47.0494],[7.8686,47.0477],[7.8698,47.0474],[7.8695,47.0466],[7.8709,47.0452],[7.8725,47.0448],[7.8748,47.041],[7.8752,47.0409],[7.8769,47.0412],[7.8785,47.0409],[7.8796,47.0404],[7.881,47.0405],[7.8814,47.0407],[7.8816,47.0406],[7.8839,47.0372],[7.8831,47.0352],[7.8838,47.0336],[7.8841,47.0333],[7.8849,47.0327],[7.8851,47.0328],[7.8875,47.032],[7.8889,47.0309],[7.8918,47.0305],[7.8924,47.0301],[7.8928,47.0294],[7.8928,47.0288],[7.8941,47.0276],[7.894,47.0274],[7.8934,47.027],[7.8935,47.0266],[7.8937,47.0265],[7.8938,47.0257],[7.8933,47.0247],[7.894,47.0239],[7.8948,47.0222],[7.8968,47.0214],[7.8973,47.0209],[7.8986,47.02],[7.8989,47.0194],[7.9003,47.0184],[7.9005,47.018],[7.9001,47.0165],[7.8993,47.0157],[7.899,47.015],[7.8975,47.0141],[7.8972,47.0137],[7.8969,47.013],[7.8977,47.0117],[7.8982,47.0103],[7.8993,47.009],[7.899,47.0087],[7.8999,47.0076],[7.9018,47.0063],[7.9026,47.0063],[7.9046,47.0068],[7.9073,47.0069],[7.9094,47.0073],[7.9095,47.0076],[7.9107,47.008],[7.911,47.0079],[7.9123,47.0081],[7.9132,47.0086],[7.9162,47.0085],[7.9174,47.0088],[7.92,47.0101],[7.922,47.0106],[7.9229,47.0106],[7.9251,47.0104],[7.9259,47.0097],[7.9257,47.0093],[7.9257,47.0087],[7.9265,47.008],[7.9269,47.0075],[7.9268,47.0071],[7.9271,47.0069],[7.928,47.0064],[7.9281,47.0061],[7.9293,47.0054],[7.93,47.0056],[7.9313,47.0048],[7.9319,47.0048],[7.9327,47.0042],[7.934,47.0042],[7.9361,47.0047],[7.9395,47.0047],[7.9403,47.005],[7.9407,47.0055],[7.9411,47.0056],[7.9425,47.0053],[7.9449,47.0054],[7.9486,47.006],[7.949,47.0057],[7.9494,47.0058],[7.9498,47.0065],[7.9502,47.0068],[7.95,47.0069],[7.9501,47.007],[7.9514,47.0062],[7.9521,47.0059],[7.9524,47.0059],[7.9538,47.0052],[7.9547,47.0044],[7.9562,47.0034],[7.9556,47.0029],[7.9551,47.0021],[7.954,47.002],[7.9536,47.0009],[7.953,47.0004],[7.9531,47.0],[7.9525,46.9988],[7.952,46.9966],[7.9509,46.9963],[7.9501,46.9956],[7.9495,46.9952],[7.9484,46.9941],[7.9482,46.9933],[7.9485,46.9926],[7.9484,46.9919],[7.949,46.9909],[7.9491,46.9901],[7.9501,46.9883],[7.9495,46.9873],[7.9497,46.9872],[7.9504,46.9854],[7.9509,46.9851],[7.9516,46.9836],[7.9522,46.983],[7.9521,46.9827],[7.9525,46.982],[7.9524,46.9813],[7.9519,46.981],[7.9512,46.9803],[7.9505,46.9799],[7.9501,46.9798],[7.9488,46.9799],[7.9473,46.9793],[7.9447,46.9775],[7.9439,46.9772],[7.9442,46.9766],[7.9442,46.9756],[7.9447,46.9748],[7.9448,46.9742],[7.9448,46.9733],[7.9444,46.9726],[7.9445,46.9722],[7.9449,46.9718],[7.9447,46.9705],[7.9449,46.9696],[7.9453,46.9692],[7.9461,46.9689],[7.9454,46.9678],[7.9444,46.9675],[7.9437,46.9669],[7.9417,46.9659],[7.9401,46.9647],[7.9389,46.9649],[7.9362,46.9644],[7.9353,46.9638],[7.9341,46.9632],[7.9322,46.9617],[7.932,46.961],[7.9316,46.9606],[7.9315,46.9602],[7.932,46.9597],[7.9325,46.9585],[7.9326,46.9574],[7.9324,46.957],[7.9318,46.9564],[7.9315,46.9559],[7.9323,46.9537],[7.9319,46.9527],[7.932,46.9522],[7.9317,46.9505],[7.9309,46.9497],[7.9291,46.9482],[7.9277,46.9481],[7.926,46.9483],[7.9246,46.9472],[7.9241,46.9473],[7.9233,46.9472],[7.9217,46.9467],[7.9213,46.9463],[7.9213,46.9459],[7.9208,46.9454],[7.9217,46.9439],[7.9211,46.9431],[7.9209,46.9418],[7.9204,46.9417],[7.9199,46.9413],[7.9197,46.9406],[7.9194,46.9401],[7.918,46.9392],[7.9176,46.9381],[7.9158,46.9357],[7.9153,46.9346],[7.9134,46.9337],[7.9125,46.9331],[7.9079,46.9327],[7.9041,46.9332],[7.9034,46.9335],[7.9024,46.9344],[7.8989,46.9347],[7.8975,46.9346],[7.8961,46.9341],[7.8961,46.9339],[7.8956,46.9336],[7.8942,46.9331],[7.8936,46.9325],[7.8899,46.9316],[7.8885,46.931],[7.8874,46.9308],[7.8855,46.9298],[7.8833,46.9291],[7.8819,46.9289],[7.8808,46.9283],[7.8792,46.928],[7.8769,46.9274],[7.8747,46.9263],[7.8733,46.9247],[7.8727,46.9243],[7.872,46.9228],[7.8705,46.921],[7.8697,46.9191],[7.869,46.9169],[7.8678,46.916],[7.8676,46.9153],[7.867,46.9148],[7.8688,46.9145],[7.8728,46.913],[7.8735,46.9125],[7.8747,46.9113],[7.8753,46.911],[7.876,46.911],[7.8786,46.9113],[7.8795,46.9112],[7.8803,46.9108],[7.8817,46.9077],[7.8822,46.9072],[7.8831,46.9066],[7.8822,46.9055],[7.8825,46.9053],[7.8828,46.9045],[7.8827,46.9035],[7.8802,46.9018],[7.8798,46.9013],[7.8798,46.9004],[7.8805,46.9005],[7.8818,46.8997],[7.8805,46.8991],[7.8796,46.8989],[7.8787,46.899],[7.8783,46.8987],[7.8775,46.8981],[7.8753,46.8958],[7.873,46.8922],[7.8728,46.8912],[7.8728,46.8903],[7.8731,46.8897],[7.8719,46.8894],[7.8707,46.8896],[7.8699,46.889],[7.8694,46.8878],[7.8679,46.8871],[7.8658,46.8866],[7.8626,46.8866],[7.8596,46.8858],[7.8586,46.8853],[7.8566,46.8835],[7.8562,46.8809],[7.8569,46.8802],[7.8569,46.8786],[7.8578,46.8771],[7.858,46.8754],[7.8573,46.8715],[7.8578,46.8708],[7.8598,46.8704],[7.8619,46.8706],[7.8643,46.8696],[7.8647,46.8663],[7.8684,46.8651],[7.8695,46.8643],[7.8695,46.8637],[7.8689,46.8627],[7.8687,46.862],[7.869,46.861],[7.8677,46.8602],[7.8677,46.8599],[7.8679,46.8596],[7.8673,46.8587],[7.8677,46.8578],[7.8682,46.8554],[7.8681,46.8547],[7.8683,46.8539],[7.868,46.8535],[7.8675,46.852],[7.8675,46.8511],[7.8676,46.8504],[7.8695,46.8487],[7.8701,46.8476],[7.8698,46.8472],[7.8702,46.8466],[7.8701,46.845],[7.8706,46.8441],[7.8704,46.8439],[7.8727,46.8426],[7.8771,46.8371],[7.8956,46.831],[7.9044,46.8276],[7.9224,46.82],[7.9288,46.8165],[7.9417,46.808],[7.9467,46.8053],[7.9508,46.7999],[7.951,46.7991],[7.9514,46.7987],[7.9518,46.7976],[7.9529,46.7966],[7.953,46.7964],[7.9538,46.7958],[7.9539,46.7947],[7.9526,46.7935],[7.9524,46.7932],[7.953,46.7929],[7.9533,46.7924],[7.954,46.7921],[7.954,46.7912],[7.9547,46.7911],[7.955,46.7908],[7.9556,46.7906],[7.9563,46.7901],[7.9575,46.7897],[7.9578,46.7894],[7.9592,46.7893],[7.9609,46.7887],[7.9629,46.787],[7.9636,46.7868],[7.9651,46.787],[7.9666,46.7862],[7.9672,46.7857],[7.9687,46.7851],[7.9695,46.7841],[7.9695,46.7825],[7.9707,46.7819],[7.9713,46.7811],[7.9719,46.78],[7.9733,46.7789],[7.9735,46.7784],[7.9757,46.7773],[7.9766,46.7774],[7.9774,46.7772],[7.9787,46.7772],[7.9793,46.7769],[7.9803,46.7768],[7.9806,46.7766],[7.982,46.7764],[7.9824,46.7761],[7.983,46.776],[7.9831,46.7757],[7.9846,46.775],[7.9851,46.775],[7.9866,46.7754],[7.9889,46.7765],[7.9899,46.7773],[7.9917,46.7783],[7.9926,46.7787],[7.9934,46.7786],[7.9941,46.7789],[7.9949,46.7799],[7.9949,46.7811],[7.9951,46.7813],[7.9958,46.7818],[7.9969,46.7822],[7.9982,46.7823],[7.9986,46.7825],[8.0006,46.7829],[8.0049,46.7832],[8.0061,46.7838],[8.0069,46.784],[8.0076,46.7845],[8.0092,46.7849],[8.0125,46.7863],[8.0147,46.7867],[8.0166,46.7881],[8.0173,46.7882],[8.0177,46.7879],[8.0185,46.7881],[8.0202,46.7886],[8.0202,46.7889],[8.0207,46.7891],[8.0213,46.7888],[8.0228,46.7889],[8.0256,46.7897],[8.0271,46.7897],[8.029,46.79],[8.0293,46.7899],[8.0314,46.7903],[8.0314,46.7898],[8.0317,46.7896],[8.0353,46.7894],[8.0357,46.789],[8.0366,46.7889],[8.0367,46.7886],[8.0371,46.7886],[8.037,46.7884],[8.0377,46.7882],[8.0378,46.7881],[8.038,46.7881],[8.0381,46.7879],[8.039,46.7876],[8.0411,46.7877],[8.0413,46.7878],[8.0431,46.7875],[8.0437,46.7872],[8.0443,46.7871],[8.0469,46.7871],[8.0503,46.7883],[8.0551,46.7884],[8.0598,46.7864],[8.0635,46.7873],[8.0646,46.787],[8.0664,46.7877],[8.0673,46.7877],[8.0684,46.7884],[8.069,46.7886],[8.0695,46.7882],[8.0725,46.7873],[8.0743,46.7863],[8.0758,46.786],[8.0773,46.7859],[8.0828,46.7869],[8.0858,46.7869],[8.0887,46.7876],[8.09,46.7876],[8.0899,46.7872],[8.09,46.7867],[8.0907,46.7856],[8.0909,46.785],[8.0908,46.7844],[8.0911,46.784],[8.0918,46.7837],[8.0936,46.7825],[8.0963,46.7795],[8.0975,46.7788],[8.0996,46.7783],[8.1016,46.7761],[8.1019,46.7744],[8.1024,46.7738],[8.1053,46.7729],[8.1069,46.7729],[8.1101,46.7738],[8.1112,46.7738],[8.1135,46.7734],[8.1145,46.7725],[8.1158,46.772],[8.116,46.772],[8.1165,46.7716],[8.1175,46.7714],[8.1183,46.771],[8.1218,46.7704],[8.129,46.7665],[8.1354,46.7626],[8.1372,46.7614],[8.1377,46.7608],[8.1375,46.7607],[8.1377,46.7606],[8.1386,46.7601],[8.1388,46.7599],[8.1387,46.7595],[8.1397,46.759],[8.1402,46.759],[8.141,46.7586],[8.1469,46.7548],[8.1486,46.7563],[8.1497,46.757],[8.1527,46.758],[8.1544,46.7581],[8.1553,46.7586],[8.1585,46.7592],[8.158,46.7595],[8.1582,46.7598],[8.1583,46.7599],[8.159,46.7596],[8.1588,46.7598],[8.1594,46.7599],[8.1594,46.7605],[8.1609,46.7606],[8.162,46.7613],[8.1624,46.7613],[8.1622,46.7619],[8.1628,46.7618],[8.1629,46.7614],[8.1631,46.7613],[8.1635,46.7617],[8.1637,46.7623],[8.1643,46.7634],[8.165,46.7634],[8.1656,46.7639],[8.1661,46.7639],[8.1662,46.7638],[8.1668,46.764],[8.1672,46.7647],[8.1679,46.7654],[8.1709,46.7643],[8.1721,46.7641],[8.1726,46.7647],[8.1741,46.7654],[8.1858,46.7686],[8.1877,46.7697],[8.1898,46.7703],[8.1932,46.7684],[8.1963,46.7679],[8.1993,46.7688],[8.2026,46.769],[8.2032,46.7694],[8.2066,46.7696],[8.208,46.7695],[8.2086,46.7691],[8.2093,46.7681],[8.2102,46.768],[8.2109,46.7671],[8.2121,46.7664],[8.2164,46.7647],[8.2176,46.7641],[8.218,46.7637],[8.2194,46.7635],[8.2204,46.7615],[8.222,46.7611],[8.223,46.7613],[8.2269,46.7615],[8.228,46.761],[8.2292,46.7612],[8.2298,46.761],[8.2335,46.7617],[8.2339,46.7619],[8.2391,46.7696],[8.2403,46.7695],[8.2409,46.7692],[8.2416,46.7692],[8.2417,46.7689],[8.2424,46.7686],[8.2446,46.7681],[8.2448,46.7678],[8.2453,46.7677],[8.2453,46.7676],[8.2472,46.7676],[8.2484,46.7669],[8.2519,46.7661],[8.2548,46.7649],[8.2552,46.7645],[8.2558,46.7644],[8.2571,46.7644],[8.2594,46.7638],[8.2601,46.7634],[8.2612,46.7621],[8.2625,46.761],[8.2627,46.7607],[8.2637,46.76],[8.2639,46.7596],[8.2644,46.7595],[8.2667,46.7576],[8.2665,46.7571],[8.2676,46.7562],[8.2683,46.7555],[8.2687,46.7554],[8.2689,46.7546],[8.2687,46.7543],[8.2737,46.755],[8.275,46.7547],[8.2755,46.7551],[8.2773,46.7544],[8.2801,46.7542],[8.281,46.7543],[8.282,46.754],[8.2835,46.7532],[8.2842,46.7538],[8.2855,46.7541],[8.2864,46.7545],[8.2865,46.7549],[8.287,46.7553],[8.2904,46.757],[8.2913,46.758],[8.2918,46.758],[8.293,46.7582],[8.2949,46.7592],[8.2959,46.7595],[8.2969,46.7602],[8.2977,46.7617],[8.2982,46.7622],[8.2984,46.7623],[8.2996,46.7614],[8.3021,46.762],[8.3066,46.7642],[8.3069,46.7652],[8.3116,46.7683],[8.3159,46.7701],[8.3208,46.7733],[8.3258,46.7756],[8.3268,46.7761],[8.3268,46.7768],[8.3277,46.7774],[8.3289,46.778],[8.3297,46.778],[8.331,46.7785],[8.3313,46.7788],[8.3314,46.7795],[8.3319,46.7799],[8.3329,46.7803],[8.3332,46.7803],[8.3337,46.7806],[8.3505,46.7821],[8.3557,46.7827],[8.3566,46.7826],[8.3599,46.783],[8.3612,46.7838],[8.3623,46.7842],[8.3635,46.7845],[8.3641,46.7851],[8.3638,46.7861],[8.3674,46.7871],[8.3677,46.7876],[8.3689,46.7879],[8.3694,46.7882],[8.3708,46.7883],[8.373,46.7874],[8.3749,46.7864],[8.3756,46.7864],[8.3759,46.7861],[8.3774,46.7858],[8.3781,46.7851],[8.3789,46.7845],[8.379,46.7843],[8.3787,46.7842],[8.3789,46.7835],[8.38,46.783],[8.3805,46.7824],[8.3812,46.782],[8.3814,46.7818],[8.3814,46.7814],[8.3818,46.7814],[8.3818,46.781],[8.3823,46.7802],[8.3858,46.7787],[8.387,46.7784],[8.3878,46.7786],[8.3886,46.778],[8.3912,46.7778],[8.3952,46.7715],[8.3964,46.7655],[8.3972,46.7655],[8.3976,46.7659],[8.4008,46.7664],[8.4026,46.7675],[8.4028,46.7678],[8.4037,46.7683],[8.4045,46.7685],[8.4047,46.7688],[8.4075,46.7696],[8.4089,46.7705],[8.4094,46.7711],[8.4108,46.7714],[8.4106,46.7715],[8.4125,46.7731],[8.4124,46.7734],[8.4136,46.7737],[8.4146,46.7743],[8.4169,46.7743],[8.418,46.7741],[8.4211,46.7728],[8.4219,46.7719],[8.4218,46.7711],[8.4224,46.771],[8.4227,46.7704],[8.4251,46.7703],[8.4259,46.7704],[8.4264,46.7707],[8.4265,46.7714],[8.428,46.7718],[8.4306,46.7722],[8.4351,46.7724],[8.4355,46.7725],[8.4384,46.772],[8.4399,46.771],[8.4406,46.7711],[8.4411,46.7708],[8.4422,46.7699],[8.4441,46.7699],[8.4466,46.7703],[8.4466,46.77],[8.447,46.7695],[8.4467,46.769],[8.4471,46.7687],[8.4467,46.7682],[8.4468,46.7678],[8.4464,46.7675],[8.4465,46.7669],[8.4461,46.7664],[8.4484,46.7652],[8.4484,46.7649],[8.4479,46.7643],[8.4481,46.764],[8.4479,46.7638],[8.4483,46.7634],[8.4476,46.7614],[8.4474,46.7599],[8.447,46.7591],[8.447,46.7589],[8.4475,46.7584],[8.4473,46.7579],[8.4469,46.7577],[8.4462,46.757],[8.4453,46.7566],[8.4451,46.756],[8.4441,46.7554],[8.4442,46.755],[8.4437,46.7545],[8.4436,46.7539],[8.4428,46.754],[8.4423,46.7543],[8.4412,46.7542],[8.4402,46.7538],[8.4399,46.7538],[8.4399,46.7534],[8.4392,46.7531],[8.4393,46.7525],[8.439,46.7524],[8.4397,46.7516],[8.4397,46.7514],[8.4415,46.7503],[8.4422,46.7497],[8.4433,46.7481],[8.4438,46.7471],[8.4426,46.7464],[8.4423,46.7458],[8.4407,46.7444],[8.4404,46.7436],[8.4405,46.7431],[8.4403,46.743],[8.4402,46.7426],[8.4412,46.7423],[8.4412,46.7418],[8.4415,46.7414],[8.4411,46.741],[8.4412,46.7408],[8.4409,46.7402],[8.441,46.7394],[8.4407,46.739],[8.4408,46.7384],[8.4407,46.738],[8.4413,46.7368],[8.442,46.736],[8.442,46.7357],[8.4437,46.7343],[8.4452,46.7338],[8.4457,46.7333],[8.4462,46.733],[8.4469,46.733],[8.4487,46.7314],[8.4497,46.7298],[8.4493,46.7288],[8.4475,46.7283],[8.4471,46.7271],[8.4472,46.7178],[8.4476,46.7165],[8.4474,46.7155],[8.4476,46.7153],[8.4473,46.7149],[8.4474,46.7142],[8.4481,46.7129],[8.449,46.7122],[8.451,46.7114],[8.4531,46.7112],[8.4536,46.7109],[8.4541,46.7108],[8.4537,46.7106],[8.4536,46.7096],[8.4536,46.7086],[8.4538,46.7082],[8.4536,46.7075],[8.4532,46.7072],[8.4531,46.7066],[8.4528,46.7064],[8.4521,46.7042],[8.4526,46.7036],[8.4523,46.7031],[8.4524,46.7027],[8.4532,46.7023],[8.4535,46.7017],[8.4535,46.7011],[8.4538,46.7],[8.4545,46.6996],[8.4547,46.6993],[8.4552,46.6989],[8.4545,46.6984],[8.4545,46.6981],[8.4551,46.6975],[8.4539,46.6947],[8.4536,46.6943],[8.453,46.694],[8.4529,46.6936],[8.4527,46.6927],[8.4531,46.6914],[8.4525,46.6905],[8.4526,46.6897],[8.4523,46.6887],[8.4514,46.6884],[8.4509,46.6884],[8.45,46.6881],[8.4488,46.688],[8.4469,46.6874],[8.4446,46.687],[8.4408,46.6855],[8.4391,46.6858],[8.4377,46.6863],[8.4364,46.6864],[8.4333,46.6869],[8.4316,46.6869],[8.4282,46.6861],[8.4237,46.6867],[8.423,46.6871],[8.422,46.6871],[8.4199,46.6874],[8.4199,46.687],[8.4191,46.687],[8.4181,46.6871],[8.4174,46.6874],[8.4148,46.6874],[8.4151,46.6877],[8.4148,46.6883],[8.415,46.6888],[8.4145,46.6896],[8.4138,46.6898],[8.4136,46.6901],[8.4132,46.6903],[8.4128,46.6904],[8.4122,46.6907],[8.4113,46.6907],[8.4105,46.6905],[8.4083,46.6905],[8.3996,46.6929],[8.3987,46.6917],[8.399,46.6914],[8.3986,46.6909],[8.3987,46.6889],[8.3996,46.6882],[8.3995,46.6878],[8.3989,46.6864],[8.3987,46.6856],[8.3974,46.6842],[8.3977,46.6837],[8.3974,46.6832],[8.3976,46.6829],[8.3976,46.6825],[8.3989,46.6816],[8.3985,46.681],[8.3989,46.6803],[8.399,46.6794],[8.3986,46.6787],[8.399,46.6785],[8.3985,46.6768],[8.3981,46.6761],[8.3979,46.6755],[8.3981,46.6742],[8.4005,46.6725],[8.4008,46.6714],[8.4011,46.671],[8.4011,46.6705],[8.4023,46.6687],[8.403,46.6681],[8.4057,46.6674],[8.4072,46.6668],[8.4084,46.6656],[8.4085,46.6642],[8.4088,46.664],[8.4091,46.6632],[8.4089,46.6628],[8.4091,46.662],[8.409,46.6615],[8.409,46.6609],[8.4092,46.6606],[8.409,46.6594],[8.4095,46.6579],[8.4093,46.6568],[8.4103,46.6529],[8.399,46.654],[8.395,46.6471],[8.3948,46.6461],[8.3944,46.6457],[8.3918,46.645],[8.3901,46.6439],[8.3877,46.6417],[8.3877,46.6412],[8.3864,46.6401],[8.3856,46.6396],[8.3851,46.6385],[8.3848,46.6383],[8.3838,46.6381],[8.3832,46.6366],[8.3801,46.6342],[8.3792,46.6336],[8.3778,46.6336],[8.3759,46.6331],[8.375,46.6331],[8.3741,46.6328],[8.3727,46.6336],[8.3714,46.6341],[8.3719,46.6338],[8.3724,46.633],[8.3716,46.6316],[8.3711,46.6312],[8.371,46.6302],[8.3704,46.6299],[8.3693,46.6287],[8.3697,46.6282],[8.3693,46.6279],[8.3692,46.6264],[8.3689,46.626],[8.3691,46.6257],[8.3689,46.6255],[8.3693,46.6249],[8.3691,46.6244],[8.3685,46.6239],[8.3689,46.6235],[8.3688,46.6231],[8.3691,46.623],[8.3693,46.6225],[8.3691,46.6221],[8.3691,46.6217],[8.3693,46.6215],[8.369,46.6213],[8.3691,46.6208],[8.3687,46.6206],[8.3691,46.6203],[8.3703,46.62],[8.3703,46.6192],[8.371,46.6189],[8.371,46.6178],[8.3703,46.6167],[8.3707,46.6165],[8.3706,46.6159],[8.3708,46.6157],[8.3708,46.6153],[8.3705,46.615],[8.3706,46.6148],[8.3705,46.6143],[8.3705,46.6139],[8.3697,46.6131],[8.3693,46.6122],[8.3695,46.6119],[8.3688,46.6109],[8.3684,46.6098],[8.3685,46.6092],[8.3673,46.6078],[8.3658,46.6067],[8.3659,46.6063],[8.3654,46.6059],[8.3654,46.6054],[8.3651,46.6052],[8.3653,46.605],[8.3651,46.604],[8.3632,46.6026],[8.3625,46.6024],[8.3619,46.6018],[8.3619,46.6005],[8.3623,46.5997],[8.3617,46.5985],[8.3616,46.5982],[8.3614,46.598],[8.3618,46.5978],[8.3619,46.5968],[8.3623,46.5966],[8.3627,46.5959],[8.3622,46.5948],[8.3623,46.5943],[8.3629,46.5935],[8.3634,46.5932],[8.3635,46.5925],[8.3633,46.5923],[8.3633,46.5916],[8.3624,46.591],[8.3614,46.5899],[8.3616,46.5897],[8.3606,46.5863],[8.3647,46.5825],[8.3604,46.5778],[8.3575,46.5764],[8.3558,46.5747],[8.3537,46.5738],[8.3537,46.5731],[8.3515,46.5717],[8.3518,46.5695],[8.3506,46.5684],[8.3487,46.5679],[8.346,46.5659],[8.3439,46.5642],[8.3397,46.5626],[8.3391,46.5625],[8.3376,46.5617],[8.3374,46.5618],[8.3366,46.5611],[8.334,46.561],[8.3336,46.5611],[8.3326,46.5605],[8.328,46.5602],[8.3273,46.5599],[8.3242,46.5603],[8.3228,46.5598],[8.3214,46.5601],[8.3184,46.5597],[8.3166,46.559],[8.3154,46.5578],[8.3145,46.5564],[8.3126,46.5544],[8.3127,46.5525],[8.3102,46.5513],[8.3098,46.5508],[8.309,46.5505],[8.3081,46.5498],[8.3072,46.5483],[8.3061,46.5481],[8.3059,46.5476],[8.3051,46.5471],[8.3045,46.5463],[8.3035,46.546],[8.3033,46.5457],[8.2997,46.5448],[8.297,46.5448],[8.2962,46.5445],[8.2945,46.545],[8.2939,46.545],[8.2927,46.544],[8.2896,46.5433],[8.2874,46.5431],[8.287,46.5423],[8.286,46.5411],[8.2851,46.5408],[8.285,46.5402],[8.2849,46.54],[8.2847,46.54],[8.2841,46.5391],[8.2839,46.5388],[8.284,46.5387],[8.283,46.5381],[8.2804,46.5371],[8.2799,46.5367],[8.2796,46.5361],[8.2788,46.5359],[8.2783,46.5361],[8.277,46.5362],[8.2762,46.5365],[8.2754,46.5363],[8.2745,46.5366],[8.2737,46.5364],[8.2732,46.5365],[8.2722,46.5359],[8.2708,46.5354],[8.2699,46.5353],[8.27,46.5349],[8.2685,46.5342],[8.2671,46.5341],[8.2644,46.5335],[8.263,46.5335],[8.262,46.5323],[8.2622,46.5317],[8.2609,46.5312],[8.2581,46.5294],[8.2528,46.5296],[8.2514,46.5291],[8.2508,46.5292],[8.2502,46.5287],[8.2491,46.5286],[8.2474,46.5285],[8.2465,46.5283],[8.2463,46.528],[8.2447,46.5273],[8.2431,46.5268],[8.2418,46.5265],[8.2409,46.5265],[8.2383,46.5271],[8.2371,46.5268],[8.2345,46.5265],[8.2336,46.5267],[8.2321,46.5273],[8.2315,46.527],[8.231,46.5269],[8.2308,46.5271],[8.2298,46.5271],[8.2287,46.5264],[8.2278,46.5263],[8.2273,46.5266],[8.2266,46.5266],[8.2258,46.5269],[8.2237,46.5266],[8.2225,46.5263],[8.2207,46.5262],[8.2204,46.5264],[8.2194,46.5265],[8.2169,46.5263],[8.2154,46.5258],[8.2134,46.5257],[8.2105,46.5253],[8.2103,46.525],[8.21,46.5248],[8.2091,46.5248],[8.2085,46.5244],[8.2068,46.5239],[8.2062,46.5233],[8.2055,46.523],[8.2049,46.5229],[8.2028,46.5239],[8.2006,46.524],[8.1993,46.5239],[8.1964,46.5232],[8.1912,46.5231],[8.1883,46.5221],[8.1847,46.5204],[8.1821,46.5206],[8.1807,46.5203],[8.1805,46.5208],[8.1796,46.5218],[8.179,46.5228],[8.1776,46.523],[8.1752,46.5242],[8.1745,46.5242],[8.1743,46.5255],[8.1739,46.5264],[8.1741,46.5267],[8.1739,46.5278],[8.1743,46.5285],[8.1742,46.53],[8.1745,46.5314],[8.1719,46.5313],[8.1718,46.5314],[8.1696,46.531],[8.1657,46.5318],[8.1634,46.5321],[8.1628,46.532],[8.1606,46.5309],[8.1591,46.5312],[8.1582,46.5316],[8.1572,46.5315],[8.1564,46.5317],[8.1552,46.5315],[8.1548,46.5317],[8.1544,46.5315],[8.1531,46.5315],[8.1523,46.5318],[8.1498,46.5316],[8.1491,46.5321],[8.1477,46.5328],[8.145,46.5333],[8.1405,46.535],[8.1398,46.535],[8.1383,46.5346],[8.1366,46.5347],[8.1353,46.5351],[8.1348,46.5358],[8.1337,46.5361],[8.1325,46.5361],[8.1302,46.5368],[8.1295,46.5367],[8.1273,46.5371],[8.1264,46.5372],[8.125,46.5388],[8.1238,46.5393],[8.1227,46.5407],[8.1212,46.541],[8.1207,46.5413],[8.1207,46.5417],[8.1204,46.542],[8.1178,46.5432],[8.1175,46.5438],[8.1171,46.544],[8.117,46.5444],[8.1161,46.5456],[8.1157,46.5457],[8.1155,46.546],[8.1142,46.5467],[8.1134,46.5466],[8.1132,46.5468],[8.1132,46.5469],[8.1099,46.5474],[8.105,46.5486],[8.1018,46.548],[8.0996,46.5481],[8.0987,46.5484],[8.0977,46.5484],[8.0954,46.5489],[8.0948,46.5494],[8.0939,46.5507],[8.0937,46.5514],[8.0904,46.5511],[8.0886,46.5516],[8.0877,46.5513],[8.087,46.5513],[8.0857,46.5518],[8.0854,46.5517],[8.0837,46.5521],[8.0815,46.5529],[8.0788,46.5542],[8.0788,46.5545],[8.0783,46.5548],[8.0774,46.5552],[8.0758,46.5556],[8.0721,46.5538],[8.0707,46.5535],[8.0689,46.5533],[8.0679,46.553],[8.0658,46.5534],[8.0643,46.5533],[8.0621,46.5528],[8.0612,46.5518],[8.0615,46.5513],[8.0604,46.552],[8.0605,46.5521],[8.0604,46.5524],[8.0599,46.5527],[8.0583,46.5533],[8.058,46.5537],[8.0568,46.554],[8.0568,46.5542],[8.0547,46.5557],[8.0534,46.5561],[8.0505,46.556],[8.0493,46.5564],[8.0483,46.5565],[8.0462,46.5569],[8.0444,46.5566],[8.0431,46.5569],[8.0364,46.5596],[8.035,46.56],[8.0349,46.5606],[8.0339,46.5614],[8.0339,46.5616],[8.0326,46.5622],[8.0291,46.5624],[8.0266,46.5619],[8.0259,46.562],[8.0249,46.5619],[8.022,46.5629],[8.0191,46.5627],[8.018,46.5628],[8.0161,46.5633],[8.0148,46.5631],[8.013,46.5623],[8.0091,46.5613],[8.0074,46.5607],[8.0047,46.5589],[8.003,46.5588],[8.0026,46.5584],[8.0014,46.558],[8.0005,46.5577],[7.9973,46.5585],[7.994,46.5566],[7.9939,46.5565],[7.9933,46.5563],[7.9928,46.5548],[7.9926,46.5545],[7.9913,46.5533],[7.9906,46.553],[7.9902,46.5521],[7.9886,46.5506],[7.9888,46.5504],[7.9886,46.5503],[7.9883,46.5495],[7.9877,46.549],[7.9859,46.5477],[7.9843,46.5475],[7.982,46.5477],[7.981,46.548],[7.9796,46.548],[7.9782,46.5471],[7.9762,46.547],[7.9741,46.5465],[7.9719,46.5456],[7.9716,46.5453],[7.9698,46.5449],[7.9689,46.5439],[7.9689,46.5436],[7.9683,46.5428],[7.9678,46.5414],[7.9659,46.5405],[7.9637,46.5399],[7.963,46.5394],[7.9627,46.5388],[7.9628,46.5387],[7.9627,46.5382],[7.9629,46.5379],[7.9626,46.5375],[7.9627,46.537],[7.9626,46.5368],[7.963,46.5363],[7.9634,46.5353],[7.9645,46.5346],[7.965,46.5335],[7.9674,46.5323],[7.9668,46.5314],[7.9668,46.5309],[7.9665,46.5306],[7.9675,46.5296],[7.9685,46.5292],[7.9693,46.5284],[7.9688,46.5276],[7.9691,46.5269],[7.9706,46.5265],[7.9713,46.5254],[7.9729,46.5242],[7.9731,46.5238],[7.9729,46.5234],[7.9706,46.5211],[7.9711,46.52],[7.9713,46.5188],[7.9709,46.5182],[7.9704,46.5181],[7.9707,46.5174],[7.9705,46.5163],[7.9681,46.5141],[7.9676,46.5128],[7.9642,46.5127],[7.964,46.5124],[7.9636,46.5122],[7.9628,46.5121],[7.962,46.5118],[7.9613,46.5111],[7.9586,46.5101],[7.958,46.5095],[7.9535,46.508],[7.9521,46.5087],[7.9513,46.5087],[7.9494,46.5084],[7.9479,46.5079],[7.9471,46.508],[7.9464,46.5078],[7.945,46.508],[7.9418,46.5077],[7.9412,46.5073],[7.9409,46.5065],[7.9393,46.5056],[7.9381,46.5053],[7.9345,46.5033],[7.9345,46.5029],[7.9339,46.5021],[7.9337,46.5013],[7.9338,46.5011],[7.9326,46.4999],[7.9324,46.4987],[7.9326,46.4982],[7.9312,46.4981],[7.9299,46.4976],[7.9275,46.4973],[7.9259,46.4967],[7.9253,46.496],[7.9235,46.4951],[7.9249,46.4938],[7.9249,46.4931],[7.9236,46.4919],[7.9228,46.4915],[7.9223,46.4915],[7.9201,46.4918],[7.9168,46.4916],[7.916,46.4911],[7.9155,46.4904],[7.9155,46.4902],[7.914,46.4888],[7.9135,46.4885],[7.913,46.4885],[7.9128,46.4881],[7.912,46.4875],[7.9119,46.487],[7.912,46.4869],[7.9116,46.4867],[7.9111,46.4866],[7.9101,46.487],[7.9086,46.4871],[7.9068,46.4869],[7.9058,46.4871],[7.906,46.4868],[7.9058,46.4865],[7.9041,46.4859],[7.9023,46.4855],[7.9014,46.4846],[7.9009,46.4845],[7.8977,46.4824],[7.8953,46.4823],[7.8908,46.4833],[7.8896,46.4825],[7.8888,46.4823],[7.8871,46.4809],[7.8838,46.4803],[7.8812,46.4794],[7.8806,46.4795],[7.88,46.4791],[7.8784,46.4787],[7.8772,46.4786],[7.8754,46.4783],[7.8741,46.4785],[7.8729,46.4784],[7.8699,46.4778],[7.8637,46.4783],[7.8615,46.4782],[7.8598,46.4779],[7.8567,46.4779],[7.8531,46.4774],[7.8503,46.4773],[7.849,46.4784],[7.8482,46.4788],[7.8466,46.4789],[7.8458,46.4787],[7.8453,46.4784],[7.8447,46.4785],[7.8443,46.4781],[7.8435,46.4779],[7.8432,46.4776],[7.8424,46.4772],[7.842,46.4773],[7.8418,46.4769],[7.8401,46.4761],[7.8397,46.4757],[7.8384,46.4751],[7.8382,46.4748],[7.8374,46.4746],[7.8371,46.4743],[7.8362,46.4742],[7.8359,46.4739],[7.8351,46.4738],[7.834,46.4731],[7.8329,46.4726],[7.8313,46.4724],[7.8285,46.4709],[7.8279,46.4701],[7.8275,46.47],[7.8262,46.4691],[7.8259,46.4686],[7.8261,46.4684],[7.8266,46.4683],[7.8265,46.4678],[7.8255,46.4671],[7.7996,46.459],[7.7983,46.4588],[7.797,46.4577],[7.7966,46.4568],[7.7958,46.4562],[7.795,46.456],[7.7948,46.4558],[7.7941,46.4555],[7.793,46.4543],[7.7926,46.4541],[7.7926,46.4539],[7.7917,46.4537],[7.7915,46.4535],[7.7897,46.4533],[7.786,46.4515],[7.7854,46.4503],[7.7848,46.4497],[7.7845,46.4491],[7.7829,46.4484],[7.7813,46.4475],[7.7809,46.4471],[7.7794,46.4467],[7.7794,46.446],[7.7783,46.4449],[7.7783,46.4446],[7.779,46.4443],[7.7785,46.4433],[7.778,46.4431],[7.7757,46.443],[7.7755,46.4428],[7.7747,46.4429],[7.7727,46.4423],[7.7722,46.4423],[7.7705,46.4413],[7.7699,46.4401],[7.7688,46.4396],[7.7681,46.4394],[7.7667,46.4396],[7.766,46.44],[7.7654,46.4395],[7.7645,46.4379],[7.7638,46.4375],[7.7635,46.4372],[7.7614,46.4364],[7.7608,46.4359],[7.7596,46.4357],[7.758,46.435],[7.7574,46.4352],[7.7567,46.435],[7.7565,46.4351],[7.7562,46.4349],[7.7562,46.4345],[7.7556,46.4341],[7.7555,46.4338],[7.755,46.4334],[7.7549,46.4331],[7.7539,46.4325],[7.7534,46.4325],[7.7527,46.4321],[7.7526,46.4319],[7.7521,46.4318],[7.7516,46.4314],[7.7505,46.4311],[7.7489,46.4303],[7.7474,46.4301],[7.7466,46.4293],[7.7442,46.4284],[7.7423,46.4268],[7.7422,46.4265],[7.7414,46.4263],[7.7409,46.426],[7.7408,46.4257],[7.7394,46.4252],[7.7385,46.4253],[7.7361,46.4249],[7.7358,46.4247],[7.7355,46.4237],[7.7351,46.4233],[7.7314,46.4221],[7.7275,46.4215],[7.7219,46.421],[7.718,46.418],[7.7156,46.4148],[7.7085,46.4139],[7.704,46.417],[7.7013,46.4183],[7.6988,46.4192],[7.6989,46.4194],[7.6973,46.4206],[7.6966,46.4213],[7.6966,46.4217],[7.6961,46.4222],[7.6947,46.4232],[7.6941,46.4239],[7.6936,46.4246],[7.6936,46.4249],[7.6929,46.4249],[7.6926,46.4247],[7.6916,46.4248],[7.6903,46.4247],[7.6896,46.4254],[7.6888,46.4254],[7.6873,46.4258],[7.6875,46.426],[7.6861,46.4264],[7.685,46.4264],[7.6838,46.427],[7.683,46.4272],[7.6823,46.4272],[7.6788,46.4286],[7.6784,46.4289],[7.6372,46.4405],[7.6353,46.4412],[7.6329,46.4425],[7.6261,46.4451],[7.6247,46.4426],[7.6243,46.4424],[7.6246,46.4422],[7.6244,46.4417],[7.6228,46.4411],[7.6221,46.4404],[7.6221,46.44],[7.6212,46.4393],[7.6205,46.4392],[7.6185,46.4381],[7.618,46.4381],[7.6178,46.438],[7.6174,46.4381],[7.6166,46.4379],[7.6155,46.4379],[7.6119,46.437],[7.6112,46.4367],[7.61,46.4369],[7.6097,46.4367],[7.6098,46.4363],[7.6083,46.4346],[7.6087,46.4341],[7.6088,46.4329],[7.6091,46.4324],[7.6097,46.4319],[7.61,46.4313],[7.61,46.4311],[7.6096,46.4309],[7.6095,46.4304],[7.6098,46.4295],[7.6103,46.4289],[7.6102,46.4286],[7.6092,46.4279],[7.6089,46.4274],[7.6091,46.4271],[7.6089,46.4265],[7.6082,46.4259],[7.608,46.4253],[7.6075,46.4249],[7.6071,46.4248],[7.6062,46.4241],[7.6039,46.4229],[7.6032,46.4229],[7.6029,46.4226],[7.6022,46.4226],[7.602,46.4229],[7.6013,46.4232],[7.6005,46.4227],[7.5998,46.4229],[7.5997,46.4228],[7.5998,46.4225],[7.5993,46.4219],[7.5984,46.4215],[7.5985,46.4213],[7.5974,46.4207],[7.5974,46.42],[7.5976,46.4195],[7.5981,46.4194],[7.5995,46.4184],[7.6003,46.4169],[7.6001,46.4164],[7.6002,46.416],[7.5992,46.4151],[7.5975,46.4142],[7.5968,46.4136],[7.5967,46.4129],[7.5962,46.4124],[7.596,46.4119],[7.5962,46.4117],[7.5957,46.4112],[7.5924,46.4122],[7.5906,46.4125],[7.5876,46.4135],[7.5864,46.4137],[7.5855,46.4143],[7.5853,46.4146],[7.5855,46.415],[7.5849,46.4154],[7.584,46.4158],[7.5839,46.4164],[7.5841,46.4167],[7.5837,46.4169],[7.5835,46.4173],[7.5816,46.4176],[7.5815,46.4173],[7.581,46.4169],[7.5785,46.4173],[7.5769,46.4171],[7.5763,46.4169],[7.5761,46.4166],[7.5752,46.4163],[7.5742,46.4157],[7.5738,46.4158],[7.573,46.4155],[7.5725,46.415],[7.5721,46.4148],[7.571,46.4146],[7.57,46.4148],[7.5695,46.4145],[7.5692,46.4147],[7.5674,46.4142],[7.5655,46.4143],[7.5644,46.4138],[7.5638,46.4133],[7.5628,46.4135],[7.5626,46.4134],[7.5628,46.4128],[7.5624,46.4124],[7.5609,46.4133],[7.558,46.4137],[7.5546,46.4137],[7.5542,46.4136],[7.5528,46.4129],[7.5513,46.412],[7.5492,46.4121],[7.5477,46.4119],[7.5444,46.4122],[7.5434,46.412],[7.5433,46.4119],[7.5427,46.4119],[7.5421,46.4116],[7.5415,46.4117],[7.5403,46.4116],[7.5402,46.4118],[7.5394,46.4118],[7.5385,46.4106],[7.5362,46.4104],[7.5362,46.4101],[7.536,46.41],[7.5343,46.4099],[7.5339,46.4097],[7.5335,46.4094],[7.5336,46.4092],[7.5335,46.409],[7.5328,46.4087],[7.5328,46.4082],[7.533,46.4081],[7.5329,46.4079],[7.5326,46.4077],[7.5335,46.4073],[7.5336,46.4071],[7.5334,46.4068],[7.5321,46.4065],[7.5318,46.4059],[7.5318,46.4055],[7.5315,46.4051],[7.5286,46.4003],[7.5298,46.3995],[7.5304,46.3995],[7.5329,46.3978],[7.5339,46.3974],[7.5394,46.3955],[7.5408,46.3949],[7.5438,46.3941],[7.5448,46.3942],[7.547,46.394],[7.5482,46.3934],[7.5486,46.393],[7.5521,46.3913],[7.5521,46.3911],[7.5533,46.3904],[7.5544,46.3899],[7.5553,46.389],[7.5413,46.3841],[7.5407,46.3838],[7.5398,46.3827],[7.5386,46.3802],[7.5386,46.379],[7.5391,46.3778],[7.538,46.3772],[7.5292,46.3756],[7.527,46.3746],[7.525,46.3747],[7.5246,46.3749],[7.5208,46.3749],[7.5195,46.3753],[7.5181,46.3753],[7.5169,46.3756],[7.5153,46.3756],[7.5128,46.3762],[7.5096,46.3759],[7.5074,46.3759],[7.5057,46.3746],[7.5057,46.3743],[7.5061,46.3739],[7.5061,46.3735],[7.505,46.373],[7.5046,46.3725],[7.5033,46.3716],[7.5029,46.3716],[7.5025,46.3705],[7.5006,46.37],[7.4991,46.3699],[7.4984,46.3704],[7.4974,46.3707],[7.4972,46.3706],[7.4959,46.3713],[7.4951,46.3715],[7.495,46.3718],[7.4947,46.372],[7.4919,46.3712],[7.4904,46.3703],[7.4893,46.3703],[7.4869,46.3707],[7.4853,46.3719],[7.4851,46.3725],[7.4853,46.3769],[7.4846,46.3792],[7.4814,46.3842],[7.4794,46.3853],[7.4774,46.3845],[7.4764,46.3844],[7.4748,46.3839],[7.4733,46.3836],[7.4733,46.3816],[7.4727,46.3809],[7.4711,46.3803],[7.4706,46.3795],[7.4703,46.3792],[7.4703,46.3788],[7.4697,46.3781],[7.4692,46.3783],[7.4682,46.3779],[7.468,46.3781],[7.4658,46.3784],[7.4648,46.3781],[7.4636,46.3781],[7.4626,46.3767],[7.4621,46.3764],[7.4603,46.3773],[7.459,46.3782],[7.4588,46.3789],[7.4593,46.3794],[7.4591,46.3797],[7.4592,46.3804],[7.4591,46.381],[7.4584,46.3812],[7.4581,46.3815],[7.4575,46.3815],[7.4569,46.3819],[7.4543,46.3832],[7.4518,46.3835],[7.4506,46.3841],[7.45,46.3835],[7.4491,46.3834],[7.4481,46.3835],[7.4475,46.3833],[7.4464,46.3837],[7.4458,46.3836],[7.444,46.3837],[7.4424,46.3833],[7.4415,46.3836],[7.4398,46.3846],[7.4386,46.3861],[7.4361,46.3856],[7.4359,46.3854],[7.435,46.3852],[7.4334,46.3851],[7.4329,46.3846],[7.4329,46.3845],[7.4324,46.3843],[7.4306,46.3824],[7.4285,46.381],[7.4274,46.3806],[7.4261,46.3807],[7.4248,46.381],[7.4238,46.3805],[7.4226,46.3803],[7.4217,46.3805],[7.4169,46.3802],[7.4164,46.3798],[7.4161,46.3793],[7.415,46.3788],[7.4143,46.3788],[7.413,46.3786],[7.4116,46.3786],[7.4112,46.3784],[7.4104,46.3776],[7.4097,46.3775],[7.4092,46.3771],[7.4043,46.3761],[7.4035,46.3756],[7.4024,46.3754],[7.4021,46.3749],[7.4023,46.3748],[7.401,46.3742],[7.4003,46.3754],[7.4005,46.3759],[7.4003,46.3762],[7.3998,46.3765],[7.3994,46.3765],[7.397,46.3749],[7.3939,46.3738],[7.3939,46.3735],[7.3929,46.3732],[7.3926,46.3729],[7.3923,46.3721],[7.3913,46.3714],[7.3901,46.371],[7.3895,46.3698],[7.3884,46.3689],[7.387,46.3692],[7.3865,46.3691],[7.3862,46.3687],[7.3855,46.3684],[7.3847,46.3677],[7.3845,46.367],[7.3843,46.3669],[7.384,46.3664],[7.3821,46.3651],[7.3815,46.3644],[7.3801,46.3638],[7.379,46.3638],[7.3782,46.3641],[7.3767,46.3632],[7.375,46.3613],[7.3738,46.3604],[7.3702,46.3593],[7.37,46.359],[7.3691,46.3588],[7.3677,46.3575],[7.3658,46.357],[7.3626,46.3567],[7.3623,46.356],[7.3616,46.3557],[7.3609,46.3549],[7.3607,46.3545],[7.3601,46.3543],[7.3594,46.3537],[7.3594,46.3536],[7.3592,46.3535],[7.359,46.3531],[7.3577,46.3528],[7.3567,46.3522],[7.3549,46.3507],[7.354,46.3505],[7.3533,46.3504],[7.3527,46.3508],[7.3509,46.351],[7.349,46.3502],[7.3471,46.3501],[7.3449,46.3491],[7.3427,46.3483],[7.3411,46.3481],[7.3381,46.347],[7.3366,46.347],[7.3336,46.3462],[7.3326,46.3464],[7.3316,46.3464],[7.331,46.346],[7.3301,46.346],[7.3278,46.3455],[7.3263,46.3447],[7.3239,46.3443],[7.3208,46.3443],[7.3195,46.3439],[7.3164,46.344],[7.3158,46.3438],[7.3152,46.3439],[7.315,46.3444],[7.3129,46.3461],[7.3122,46.3468],[7.3117,46.3471],[7.3113,46.3477],[7.3105,46.3482],[7.3102,46.3485],[7.3104,46.3488],[7.3104,46.3493],[7.3098,46.3498],[7.3091,46.3501],[7.3087,46.3506],[7.3082,46.3509],[7.3082,46.3516],[7.3078,46.3521],[7.3081,46.3527],[7.3086,46.3532],[7.3087,46.3536],[7.3093,46.3542],[7.3092,46.3546],[7.31,46.3557],[7.3099,46.3563],[7.3096,46.3568],[7.309,46.3574],[7.3082,46.3588],[7.3102,46.3599],[7.3104,46.361],[7.3108,46.3613],[7.3109,46.3619],[7.3119,46.3629],[7.3125,46.3632],[7.3124,46.3636],[7.3127,46.3646],[7.3125,46.3657],[7.3124,46.3659],[7.3127,46.3669],[7.3123,46.3681],[7.3124,46.3689],[7.3127,46.3692],[7.3126,46.3697],[7.3128,46.3699],[7.3128,46.3709],[7.3124,46.3711],[7.3125,46.3715],[7.3119,46.3723],[7.3119,46.3724],[7.3116,46.3727],[7.3108,46.3746],[7.3103,46.3752],[7.2991,46.3664],[7.2955,46.3656],[7.2934,46.3665],[7.2933,46.3666],[7.2914,46.3667],[7.2905,46.3671],[7.2888,46.3664],[7.288,46.3657],[7.2623,46.3582],[7.262,46.3573],[7.2614,46.3564],[7.2611,46.3563],[7.2612,46.3562],[7.261,46.3559],[7.2612,46.3556],[7.2608,46.3554],[7.2609,46.3552],[7.2608,46.3549],[7.2604,46.3547],[7.2605,46.3545],[7.2602,46.3544],[7.2603,46.3543],[7.2606,46.3543],[7.2615,46.3538],[7.2609,46.3535],[7.2616,46.3526],[7.2616,46.3522],[7.261,46.3515],[7.2612,46.3514],[7.2612,46.3506],[7.262,46.3498],[7.2625,46.3496],[7.2625,46.3494],[7.2615,46.349],[7.2613,46.3486],[7.2609,46.3476],[7.2614,46.3475],[7.2612,46.3471],[7.2609,46.3471],[7.261,46.3465],[7.2616,46.3462],[7.2614,46.3459],[7.2608,46.3456],[7.2608,46.3453],[7.2604,46.3449],[7.2602,46.3444],[7.2602,46.3441],[7.261,46.3436],[7.261,46.3433],[7.2613,46.343],[7.2614,46.3411],[7.2611,46.3401],[7.2627,46.3386],[7.2618,46.3374],[7.2608,46.3372],[7.2591,46.3363],[7.2585,46.3356],[7.2575,46.3341],[7.2555,46.3325],[7.2548,46.3316],[7.2535,46.3307],[7.252,46.33],[7.2502,46.3302],[7.2496,46.3301],[7.2484,46.3293],[7.2475,46.329],[7.2476,46.3288],[7.2473,46.3288],[7.2464,46.328],[7.2461,46.3281],[7.2455,46.3279],[7.2445,46.328],[7.2417,46.3274],[7.2408,46.327],[7.2383,46.327],[7.2373,46.3272],[7.2346,46.3266],[7.2324,46.3265],[7.2298,46.327],[7.2284,46.3275],[7.2263,46.3278],[7.2251,46.3281],[7.2248,46.3284],[7.2241,46.3287],[7.2215,46.3292],[7.2227,46.3486],[7.2197,46.3561],[7.2188,46.3575],[7.2219,46.3585],[7.2234,46.3586],[7.224,46.3589],[7.2244,46.3593],[7.2262,46.3591],[7.2267,46.3595],[7.227,46.3602],[7.2278,46.3611],[7.2288,46.3611],[7.2295,46.3614],[7.2298,46.3615],[7.2301,46.3619],[7.2297,46.362],[7.229,46.3623],[7.2281,46.3624],[7.2277,46.3633],[7.2262,46.3641],[7.2261,46.3645],[7.2263,46.365],[7.2256,46.3646],[7.2226,46.3636],[7.2197,46.3621],[7.219,46.3619],[7.2186,46.362],[7.2176,46.3616],[7.217,46.3616],[7.2165,46.3619],[7.2163,46.3618],[7.2144,46.3641],[7.211,46.3676],[7.2104,46.3694],[7.2103,46.371],[7.2096,46.3723],[7.209,46.3727],[7.2072,46.3735],[7.2071,46.3738],[7.2074,46.3745],[7.2074,46.3751],[7.2078,46.3754],[7.2075,46.3759],[7.2075,46.3767],[7.2076,46.3774],[7.2074,46.3776],[7.2083,46.3787],[7.2067,46.3794],[7.2056,46.3796],[7.2034,46.3787],[7.2023,46.3787],[7.2013,46.3789],[7.1937,46.3789],[7.194,46.3801],[7.1939,46.3805],[7.1942,46.382],[7.1942,46.3832],[7.1945,46.3838],[7.1944,46.384],[7.1946,46.3841],[7.1949,46.3849],[7.1968,46.3869],[7.1985,46.3895],[7.1984,46.3907],[7.2009,46.3929],[7.2012,46.3933],[7.2014,46.3943],[7.2019,46.3955],[7.2032,46.3965],[7.2037,46.3972],[7.2046,46.3995],[7.2045,46.4004],[7.207,46.4022],[7.2078,46.403],[7.2076,46.4062],[7.2069,46.4084],[7.2072,46.409],[7.2072,46.4101],[7.2075,46.4111],[7.2082,46.4122],[7.208,46.4125],[7.2083,46.413],[7.2084,46.4139],[7.2088,46.4147],[7.2088,46.415],[7.2097,46.4159],[7.2099,46.4163],[7.2092,46.417],[7.2079,46.418],[7.2068,46.4193],[7.2067,46.4198],[7.2063,46.4206],[7.2063,46.4212],[7.2052,46.4215],[7.2036,46.4221],[7.2018,46.4239],[7.2004,46.426],[7.2001,46.4267],[7.1999,46.4282],[7.1992,46.4293],[7.1984,46.4299],[7.1969,46.4306],[7.1966,46.4312],[7.1955,46.4316],[7.1948,46.4324],[7.1932,46.4334],[7.1928,46.4338],[7.1925,46.4352],[7.1931,46.4363],[7.195,46.4406],[7.1951,46.4407],[7.1957,46.4404],[7.1965,46.4406],[7.1967,46.4404],[7.1973,46.4404],[7.1988,46.4402],[7.1992,46.4404],[7.2,46.4405],[7.2005,46.4408],[7.2021,46.4408],[7.2022,46.4406],[7.2031,46.4403],[7.204,46.4402],[7.2041,46.44],[7.2039,46.4396],[7.204,46.4393],[7.2051,46.4391],[7.21,46.4395],[7.2131,46.4395],[7.2189,46.4414],[7.2226,46.442],[7.2231,46.4423],[7.2251,46.4443],[7.2257,46.4456],[7.2261,46.447],[7.2262,46.4481],[7.227,46.4495],[7.2266,46.45],[7.2265,46.4508],[7.226,46.4516],[7.2273,46.4521],[7.2297,46.4534],[7.2318,46.4536],[7.2323,46.4539],[7.2308,46.4549],[7.2301,46.455],[7.2299,46.4555],[7.2285,46.4566],[7.2275,46.4571],[7.2264,46.4575],[7.2289,46.4589],[7.2298,46.4616],[7.2289,46.4623],[7.2301,46.4642],[7.2309,46.4662],[7.2309,46.4665],[7.2273,46.4724],[7.225,46.4775],[7.2246,46.4848],[7.2241,46.4869],[7.2256,46.4868],[7.2272,46.4863],[7.2276,46.4863],[7.2275,46.4872],[7.2292,46.487],[7.2293,46.4874],[7.2313,46.4877],[7.2362,46.488],[7.2359,46.4898],[7.236,46.4913],[7.2356,46.4928],[7.2344,46.4941],[7.2326,46.4948],[7.2345,46.4951],[7.2351,46.4954],[7.2359,46.4956],[7.2365,46.4954],[7.2374,46.4957],[7.2375,46.4961],[7.2382,46.496],[7.239,46.4965],[7.2392,46.4965],[7.2392,46.4959],[7.2396,46.4958],[7.24,46.4966],[7.2413,46.497],[7.2415,46.4974],[7.2412,46.498],[7.2424,46.4984],[7.2425,46.4996],[7.2434,46.5],[7.2438,46.5009],[7.2446,46.5013],[7.2446,46.5019],[7.2453,46.5022],[7.2453,46.5024],[7.2445,46.5027],[7.2445,46.5028],[7.2445,46.5033],[7.245,46.5038],[7.2448,46.5042],[7.245,46.5052],[7.2456,46.5057],[7.2466,46.5062],[7.2468,46.5068],[7.2463,46.5072],[7.2461,46.5076],[7.2463,46.5079],[7.2464,46.5085],[7.2468,46.5093],[7.2475,46.5096],[7.2476,46.5101],[7.2483,46.5105],[7.248,46.5114],[7.2481,46.5119],[7.2485,46.5121],[7.2487,46.5129],[7.2477,46.5133],[7.2477,46.5139],[7.2474,46.5143],[7.2478,46.5156],[7.2483,46.5159],[7.2483,46.517],[7.249,46.5172],[7.2488,46.5185],[7.2486,46.5189],[7.249,46.5198],[7.2488,46.5205],[7.2492,46.5211],[7.249,46.5215],[7.2482,46.5219],[7.248,46.5223],[7.2484,46.5233],[7.2479,46.5238],[7.248,46.5245],[7.2479,46.5256],[7.2478,46.5257],[7.2478,46.526],[7.2475,46.5268],[7.2476,46.5271],[7.2474,46.5274],[7.2473,46.5282],[7.247,46.5285],[7.247,46.5287],[7.2466,46.5292],[7.2468,46.5299],[7.2468,46.531],[7.2463,46.5317],[7.2462,46.532],[7.2457,46.5322],[7.2447,46.5332],[7.2451,46.5338],[7.2452,46.5345],[7.2456,46.5349],[7.246,46.5359],[7.2457,46.5371],[7.246,46.5375],[7.2459,46.5378],[7.2454,46.5385],[7.2447,46.5389],[7.2446,46.5401],[7.2441,46.5404],[7.2439,46.5408],[7.2434,46.5408],[7.2427,46.5412],[7.24,46.544],[7.2389,46.5455],[7.2382,46.5457],[7.2376,46.5464],[7.2372,46.5464],[7.2371,46.5538],[7.241,46.5543],[7.247,46.5562],[7.2498,46.5577],[7.2529,46.5588],[7.2533,46.5591],[7.2557,46.5603],[7.2586,46.5623],[7.2638,46.5675],[7.2667,46.5716],[7.2676,46.5723],[7.2681,46.5737],[7.2687,46.5738],[7.2694,46.5743],[7.2712,46.5761],[7.2712,46.5765],[7.2721,46.5773],[7.2728,46.5777],[7.2733,46.5783],[7.2739,46.5787],[7.2751,46.5792],[7.2755,46.5792],[7.2759,46.5797],[7.2765,46.5798],[7.2771,46.581],[7.2782,46.5817],[7.2799,46.5832],[7.2809,46.5835],[7.2814,46.5841],[7.2837,46.5838],[7.2875,46.5825],[7.2889,46.5817],[7.2899,46.5816],[7.2906,46.5811],[7.2929,46.5807],[7.2945,46.5802],[7.295,46.5802],[7.2956,46.5799],[7.2981,46.5792],[7.2986,46.5795],[7.2992,46.5791],[7.3035,46.5797],[7.308,46.5813],[7.3108,46.5855],[7.3125,46.5892],[7.3151,46.5904],[7.3207,46.5919],[7.3148,46.6004],[7.3162,46.6093],[7.3182,46.6161],[7.3179,46.6186],[7.3121,46.6217],[7.3125,46.6305],[7.3133,46.6366],[7.3138,46.6364],[7.3145,46.6368],[7.3165,46.6371],[7.3205,46.6368],[7.3223,46.637],[7.3234,46.6374],[7.3249,46.6377],[7.3254,46.6383],[7.3261,46.6385],[7.3297,46.6418],[7.3277,46.6463],[7.3272,46.6469],[7.3251,46.6497],[7.3242,46.6505],[7.3233,46.6519],[7.3211,46.6546],[7.322,46.655],[7.3228,46.655],[7.3232,46.6553],[7.3255,46.6548],[7.3274,46.655],[7.3298,46.6546],[7.331,46.6553],[7.3341,46.6547],[7.3404,46.6556],[7.3409,46.6555],[7.3412,46.6552],[7.342,46.6552],[7.3441,46.6555],[7.3456,46.6553],[7.3462,46.6544],[7.3468,46.6539],[7.3472,46.6539],[7.3474,46.6534],[7.3482,46.6528],[7.3493,46.6523],[7.3497,46.6524],[7.3507,46.6516],[7.3504,46.651],[7.3506,46.6505],[7.3504,46.6504],[7.3505,46.6502],[7.3503,46.6497],[7.3504,46.6496],[7.3503,46.6491],[7.3507,46.6485],[7.3508,46.648],[7.3526,46.6469],[7.3546,46.6467],[7.3552,46.6458],[7.3558,46.6454],[7.3554,46.6446],[7.3557,46.6425],[7.3553,46.6421],[7.3554,46.6417],[7.3561,46.6409],[7.356,46.6407],[7.3563,46.6401],[7.357,46.6393],[7.3573,46.6393],[7.3579,46.6409],[7.3579,46.6418],[7.3584,46.6439],[7.3587,46.6441],[7.3596,46.6443],[7.3596,46.6451],[7.3609,46.6456],[7.3617,46.6462],[7.3622,46.6468],[7.3617,46.6474],[7.3621,46.6479],[7.3661,46.649],[7.3769,46.6558],[7.3773,46.6563],[7.3693,46.6556],[7.3695,46.6574],[7.3702,46.6584],[7.3711,46.659],[7.3709,46.6594],[7.3709,46.6608],[7.3719,46.6627],[7.3719,46.6629],[7.3712,46.6637],[7.3716,46.6646],[7.3716,46.6651],[7.3719,46.6652],[7.3723,46.667],[7.3725,46.6675],[7.3711,46.6694],[7.3717,46.6703],[7.3722,46.6706],[7.3735,46.672],[7.3736,46.6724],[7.3749,46.6735],[7.376,46.6748],[7.3764,46.675],[7.3752,46.6776],[7.3742,46.6782],[7.3732,46.6791],[7.3729,46.6798],[7.3729,46.6802],[7.3732,46.6806],[7.375,46.682],[7.3759,46.6824],[7.3777,46.6835],[7.3758,46.6864],[7.3759,46.6878],[7.3778,46.6893],[7.3791,46.69],[7.3802,46.6902],[7.3769,46.6927],[7.374,46.6921],[7.3686,46.6926],[7.367,46.6941],[7.3649,46.695],[7.3626,46.6992],[7.3605,46.698],[7.36,46.698],[7.3506,46.6985],[7.3457,46.6989],[7.3455,46.6992],[7.3454,46.6997],[7.3457,46.7006],[7.346,46.7009],[7.3459,46.7014],[7.3462,46.7022],[7.3471,46.703],[7.348,46.7036],[7.3483,46.7042],[7.3491,46.7049],[7.3494,46.7069],[7.3506,46.7085],[7.3503,46.7102],[7.3495,46.7122],[7.3474,46.7129],[7.3439,46.7135],[7.3414,46.7142],[7.3393,46.7145],[7.3369,46.7143],[7.3339,46.7145],[7.3282,46.7166],[7.3262,46.7165],[7.3211,46.717],[7.3169,46.7177],[7.3124,46.7176],[7.3113,46.7179],[7.3099,46.7181],[7.3079,46.7172],[7.3045,46.7196],[7.3028,46.7204],[7.3005,46.7221],[7.2986,46.724],[7.297,46.7269],[7.2968,46.7278],[7.2965,46.7315],[7.2966,46.7327],[7.2969,46.7339],[7.2969,46.7371],[7.2976,46.7388],[7.3001,46.7421],[7.3014,46.7432],[7.3032,46.7455],[7.3042,46.7478],[7.3044,46.7498],[7.3035,46.7522],[7.3032,46.7536],[7.3034,46.7552],[7.3032,46.7562],[7.3036,46.7592],[7.3031,46.7601],[7.3017,46.7608],[7.3014,46.7613],[7.3014,46.7623],[7.2999,46.7638],[7.2986,46.7639],[7.2982,46.7641],[7.2988,46.7651],[7.2984,46.7654],[7.2979,46.7655],[7.2966,46.7652],[7.2959,46.7655],[7.294,46.7677],[7.2932,46.7683],[7.2929,46.7696],[7.2931,46.7714],[7.2929,46.7715],[7.2915,46.7715],[7.2908,46.7717],[7.2905,46.772],[7.2913,46.7733],[7.2953,46.7754],[7.2959,46.776],[7.2964,46.7773],[7.2976,46.7775],[7.3008,46.7791],[7.3005,46.7806],[7.3011,46.7813],[7.3045,46.7832],[7.3047,46.7837],[7.3045,46.7841],[7.3023,46.7857],[7.3021,46.7864],[7.3035,46.7889],[7.302,46.7908],[7.3016,46.7928],[7.3031,46.7943],[7.3048,46.7955],[7.3075,46.7988],[7.3079,46.8015],[7.3092,46.8029],[7.309,46.8048],[7.3098,46.8063],[7.3103,46.808],[7.3118,46.8095],[7.3137,46.8104],[7.3148,46.812],[7.3175,46.8138],[7.3202,46.8148],[7.3205,46.8157],[7.319,46.817],[7.3207,46.8202],[7.3209,46.8219],[7.3198,46.8252],[7.3203,46.8267],[7.3214,46.8271],[7.3255,46.8279],[7.3289,46.829],[7.3302,46.8297],[7.3312,46.8318],[7.331,46.8328],[7.3293,46.8339],[7.3297,46.8349],[7.3293,46.8356],[7.328,46.836],[7.3268,46.8371],[7.326,46.8374],[7.326,46.8376],[7.3242,46.8386],[7.324,46.8394],[7.3233,46.8404],[7.3219,46.8411],[7.3193,46.8418],[7.3178,46.843],[7.3171,46.8433],[7.316,46.8437],[7.3132,46.8441],[7.3127,46.8446],[7.309,46.8463],[7.3075,46.847],[7.3074,46.8479],[7.3077,46.8481],[7.3074,46.8485],[7.3067,46.8489],[7.3062,46.8496],[7.3061,46.85],[7.3053,46.8505],[7.3037,46.8509],[7.3022,46.852],[7.3043,46.8527],[7.3057,46.8534],[7.3055,46.8535],[7.3058,46.8536],[7.3074,46.8537],[7.3095,46.855],[7.3121,46.8556],[7.312,46.8564],[7.3118,46.8573],[7.3121,46.8587],[7.3135,46.8594],[7.3129,46.86],[7.3126,46.8607],[7.3138,46.8606],[7.3142,46.8607],[7.3142,46.8609],[7.3145,46.8609],[7.3142,46.8614],[7.3146,46.8619],[7.3164,46.8626],[7.3178,46.8623],[7.3174,46.8613],[7.3174,46.8606],[7.3189,46.8609],[7.32,46.8614],[7.3209,46.8615],[7.322,46.8612],[7.3235,46.861],[7.3254,46.8601],[7.3267,46.8599],[7.327,46.86],[7.3277,46.8596],[7.3273,46.8592],[7.3301,46.8582],[7.3307,46.8576],[7.328,46.8563],[7.3278,46.8559],[7.3258,46.8568],[7.3238,46.8557],[7.323,46.8548],[7.3244,46.8534],[7.3246,46.8535],[7.3253,46.8527],[7.3253,46.8521],[7.326,46.8516],[7.3304,46.8511],[7.3317,46.8512],[7.3332,46.8515],[7.3328,46.8519],[7.3337,46.8525],[7.3342,46.8524],[7.3345,46.8516],[7.335,46.8515],[7.3354,46.8511],[7.3354,46.8504],[7.3358,46.8504],[7.3367,46.851],[7.3369,46.8508],[7.3366,46.8505],[7.3366,46.85],[7.3368,46.8498],[7.3382,46.8495],[7.34,46.8507],[7.3426,46.8517],[7.3452,46.8524],[7.3473,46.8538],[7.3493,46.8533],[7.3517,46.855],[7.3534,46.857],[7.3544,46.8588],[7.3577,46.8607],[7.3591,46.8624],[7.3592,46.8631],[7.3579,46.8651],[7.3584,46.8688],[7.3574,46.8701],[7.3564,46.8706],[7.3545,46.8707],[7.3539,46.8713],[7.3525,46.8756],[7.3524,46.8762],[7.3531,46.8809],[7.3535,46.8863],[7.3534,46.8868],[7.353,46.8872],[7.3515,46.8882],[7.3483,46.8894],[7.3402,46.8908],[7.3275,46.8935],[7.3257,46.8937],[7.3239,46.8936],[7.3114,46.8916],[7.3094,46.8915],[7.3074,46.8916],[7.3018,46.8924],[7.2962,46.8938],[7.2894,46.8938],[7.2873,46.8932],[7.2864,46.8927],[7.2836,46.8905],[7.2825,46.8898],[7.2818,46.8896],[7.2802,46.8896],[7.2786,46.89],[7.2726,46.8925],[7.2685,46.8931],[7.2663,46.8936],[7.2646,46.8946],[7.2614,46.8972],[7.2593,46.898],[7.2509,46.8989],[7.2443,46.9004],[7.2431,46.8979],[7.2418,46.8981],[7.2396,46.8978],[7.2363,46.8981],[7.2358,46.8984],[7.2349,46.8993],[7.232,46.9003],[7.2317,46.9008],[7.2315,46.9008],[7.2309,46.9024],[7.2291,46.9023],[7.2289,46.9032],[7.2305,46.9035],[7.2303,46.9039],[7.2286,46.9036],[7.2253,46.9033],[7.2235,46.9028],[7.2221,46.9018],[7.2175,46.8973],[7.2124,46.9017],[7.2103,46.9024],[7.2088,46.9026],[7.2067,46.9025],[7.2039,46.902],[7.2016,46.9021],[7.2,46.9025],[7.1991,46.9019],[7.1975,46.9014],[7.1969,46.901],[7.1953,46.899],[7.1897,46.9003],[7.1877,46.9004],[7.1891,46.901],[7.1917,46.9018],[7.1926,46.9023],[7.1955,46.9031],[7.1988,46.9038],[7.2017,46.9052],[7.2043,46.9063],[7.2053,46.9083],[7.2078,46.9091],[7.2079,46.9098],[7.2071,46.9101],[7.206,46.9127],[7.2063,46.9145],[7.2058,46.9148],[7.207,46.9162],[7.2071,46.9165],[7.2067,46.9174],[7.2068,46.918],[7.2064,46.9183],[7.2065,46.9185],[7.2061,46.9193],[7.2065,46.9195],[7.2056,46.92],[7.2056,46.9204],[7.206,46.9208],[7.2051,46.9217],[7.2068,46.922],[7.2067,46.9238],[7.2068,46.9238],[7.2069,46.9248],[7.2078,46.925],[7.2086,46.9249],[7.2093,46.9253],[7.2101,46.9252],[7.2111,46.9253],[7.2107,46.9265],[7.2112,46.9266],[7.2111,46.9272],[7.2113,46.9279],[7.2127,46.9285],[7.2117,46.9312],[7.2104,46.931],[7.2093,46.9333],[7.2082,46.9332],[7.2063,46.9358],[7.2042,46.9374],[7.203,46.9373],[7.2044,46.9391],[7.2033,46.9393],[7.2022,46.9391],[7.202,46.9393],[7.2028,46.9394],[7.2031,46.9396],[7.2038,46.9395],[7.2036,46.9405],[7.2058,46.9402],[7.206,46.9405],[7.2056,46.9407],[7.2055,46.9411],[7.2074,46.9416],[7.2078,46.9421],[7.2095,46.9419],[7.2098,46.9428],[7.2103,46.943],[7.2103,46.9434],[7.2101,46.9438],[7.2102,46.944],[7.2096,46.9443],[7.2095,46.9448],[7.21,46.9451],[7.2097,46.9452],[7.2104,46.9457],[7.2101,46.9461],[7.21,46.9465],[7.2103,46.9469],[7.2099,46.9474],[7.2101,46.9478],[7.2095,46.9482],[7.2094,46.9485],[7.2084,46.9484],[7.2077,46.9492],[7.2082,46.9497],[7.208,46.9507],[7.2087,46.9523],[7.2087,46.9525],[7.2083,46.9527],[7.2083,46.9528],[7.2089,46.9536],[7.2089,46.9543],[7.2095,46.9546],[7.2103,46.9555],[7.2107,46.9556],[7.211,46.9566],[7.2107,46.9569],[7.2095,46.957],[7.2093,46.9574],[7.2084,46.9577],[7.2083,46.9582],[7.208,46.9587],[7.2081,46.9593],[7.2074,46.9597],[7.2063,46.9598],[7.2035,46.9596],[7.2029,46.9595],[7.2026,46.9596],[7.2,46.9591],[7.1997,46.9593],[7.1988,46.9596],[7.1986,46.9601],[7.1976,46.9607],[7.1946,46.9614],[7.1943,46.9616],[7.1943,46.9621],[7.1946,46.9629],[7.1955,46.9642],[7.1963,46.9637],[7.1979,46.9644],[7.1993,46.9638],[7.2065,46.9641],[7.2067,46.9656],[7.2071,46.9655],[7.2075,46.9675],[7.2142,46.9669],[7.2147,46.9692],[7.2141,46.9693],[7.2147,46.9713],[7.2156,46.9711],[7.2168,46.9716],[7.2174,46.9715],[7.2174,46.9719],[7.2165,46.9724],[7.2169,46.9727],[7.2208,46.9739],[7.2225,46.9745],[7.2216,46.9756],[7.2284,46.9785],[7.2307,46.9805],[7.2317,46.9822],[7.2335,46.9837],[7.2346,46.9843],[7.2357,46.9846],[7.2349,46.9868],[7.2316,46.9891],[7.2286,46.99],[7.2292,46.9907],[7.2275,46.9915],[7.2259,46.9924],[7.2241,46.993],[7.2238,46.9927],[7.2222,46.9932],[7.2236,46.9944],[7.2246,46.9957],[7.2264,46.997],[7.2261,46.9976],[7.2262,46.9987],[7.2257,46.9992],[7.2231,46.9981],[7.2229,46.999],[7.2232,46.9993],[7.2219,47.0003],[7.2214,47.0011],[7.2215,47.0021],[7.2207,47.0026],[7.2196,47.0041],[7.2184,47.0051],[7.2177,47.0061],[7.218,47.0063],[7.2178,47.0064],[7.2157,47.0052],[7.213,47.0068],[7.2102,47.0039],[7.2051,47.0063],[7.2007,47.0017],[7.2001,47.0019],[7.1994,47.0012],[7.1963,47.0021],[7.1967,47.0001],[7.195,46.9999],[7.1939,46.9995],[7.165,46.9891],[7.1561,46.986],[7.1541,46.9865],[7.1521,46.9858],[7.1517,46.9862],[7.1489,46.9853],[7.0923,46.9761],[7.091,46.9765],[7.0899,46.9766],[7.0861,46.9763],[7.0578,46.9769],[7.0517,46.9776],[7.0402,46.9798],[7.0256,47.0058],[7.0251,47.0061],[7.0293,47.0094],[7.031,47.011],[7.0319,47.0125],[7.0333,47.0159],[7.0336,47.0171],[7.0337,47.0183],[7.0331,47.0269],[7.0332,47.0293],[7.0335,47.0303],[7.0343,47.0317],[7.0379,47.0351],[7.0389,47.036],[7.0404,47.037],[7.0506,47.0423],[7.0522,47.043],[7.054,47.0434],[7.0599,47.0444],[7.0634,47.0446],[7.0651,47.0449],[7.0661,47.0453],[7.0692,47.047],[7.0719,47.049],[7.0755,47.0503],[7.0782,47.0519],[7.0877,47.0597],[7.0867,47.0615],[7.0857,47.0628],[7.0844,47.0636],[7.0843,47.0641],[7.0832,47.0645],[7.0822,47.0644],[7.0818,47.0646],[7.0818,47.0651],[7.0826,47.0657],[7.0825,47.066],[7.0831,47.0664],[7.083,47.0666],[7.0824,47.0666],[7.0808,47.0664],[7.0803,47.0672],[7.0803,47.0686],[7.0802,47.0688],[7.0804,47.0692],[7.0807,47.0711],[7.0808,47.0713],[7.0806,47.0719],[7.0809,47.0723],[7.0808,47.0726],[7.0805,47.0726],[7.0805,47.0732],[7.0801,47.0737],[7.0789,47.0745],[7.0784,47.0752],[7.077,47.076],[7.0871,47.0816],[7.0868,47.0857],[7.0757,47.0963],[7.067,47.0984],[7.0633,47.0995],[7.0571,47.0997],[7.0553,47.1011],[7.0493,47.105],[7.0454,47.1065],[7.0412,47.1084],[7.0406,47.109],[7.0287,47.1037],[7.0235,47.1122],[7.0276,47.1158],[7.0314,47.1196],[7.0324,47.1198],[7.0358,47.1223],[7.04,47.1247],[7.0382,47.1264],[7.0311,47.1273],[7.0285,47.1269],[7.0284,47.1265],[7.0256,47.1241],[7.0226,47.1241],[7.0191,47.1239],[7.0159,47.124],[7.0136,47.1235],[7.0106,47.1232],[7.0103,47.1238],[7.0091,47.1242],[7.0078,47.1242],[7.0061,47.1235],[7.0061,47.1229],[7.0036,47.1223],[7.0017,47.1222],[7.0017,47.1216],[6.9995,47.1202],[6.9978,47.1196],[6.9978,47.1194],[6.996,47.1189],[6.9886,47.1173],[6.9824,47.1164],[6.9757,47.1157],[6.9748,47.1153],[6.974,47.1155],[6.9727,47.1151],[6.9696,47.1146],[6.9666,47.1144],[6.9655,47.1144],[6.9603,47.1139],[6.9581,47.1135],[6.956,47.1133],[6.9534,47.1127],[6.9522,47.1128],[6.9498,47.1124],[6.9488,47.1121],[6.9483,47.1124],[6.9476,47.1123],[6.9477,47.1121],[6.9473,47.1119],[6.9434,47.1106],[6.9422,47.1099],[6.9399,47.1092],[6.9393,47.1097],[6.9363,47.1087],[6.9341,47.1097],[6.9298,47.1126],[6.9266,47.1092],[6.9215,47.1064],[6.918,47.1051],[6.9157,47.1038],[6.9078,47.1013],[6.8943,47.096],[6.8899,47.0939],[6.8901,47.0938],[6.8861,47.092],[6.8804,47.09],[6.8802,47.0902],[6.879,47.0899],[6.8752,47.0881],[6.8705,47.0864],[6.8703,47.0865],[6.8669,47.0851],[6.8684,47.0923],[6.8718,47.1029],[6.881,47.1084],[6.885,47.1196],[6.8864,47.1243],[6.887,47.1254],[6.8869,47.1256],[6.8888,47.1311],[6.8861,47.134],[6.8849,47.1359],[6.8813,47.1396],[6.8801,47.1418],[6.8722,47.1513],[6.8713,47.1532],[6.8697,47.1548],[6.8615,47.1656],[6.8633,47.1684],[6.872,47.1741],[6.8769,47.1609],[6.8799,47.1585],[6.8796,47.1543],[6.8825,47.1531],[6.8829,47.1517],[6.8837,47.1504],[6.8854,47.1512],[6.8862,47.1512],[6.8876,47.1514],[6.889,47.1523],[6.8924,47.1538],[6.8958,47.1542],[6.8983,47.1553],[6.9001,47.1555],[6.9061,47.1572],[6.9057,47.1576],[6.9082,47.1584],[6.9075,47.1592],[6.9083,47.1597],[6.9089,47.1589],[6.9098,47.1594],[6.9139,47.1627],[6.9172,47.1638],[6.9167,47.1643],[6.9191,47.1649],[6.9299,47.1694],[6.9351,47.173],[6.9373,47.1741],[6.9382,47.1752],[6.9398,47.1799],[6.9411,47.1809],[6.9401,47.1816],[6.9408,47.1838],[6.9416,47.1843],[6.9414,47.1845],[6.9454,47.1854],[6.9522,47.1874],[6.9522,47.1871],[6.9525,47.1872],[6.9531,47.1864],[6.9524,47.1861],[6.9526,47.1857],[6.9554,47.1839],[6.9534,47.1828],[6.9539,47.1822],[6.9544,47.1825],[6.9561,47.1807],[6.9594,47.1817],[6.9597,47.1815],[6.9604,47.182],[6.961,47.1817],[6.9613,47.1817],[6.9611,47.182],[6.9618,47.1821],[6.9666,47.1814],[6.9696,47.1815],[6.9697,47.1812],[6.9705,47.1813],[6.9714,47.1803],[6.9721,47.1799],[6.9755,47.1763],[6.9765,47.1756],[6.977,47.1749],[6.979,47.1747],[6.9794,47.1748],[6.9799,47.1741],[6.9808,47.1743],[6.9832,47.1756],[6.9856,47.1766],[6.9867,47.1775],[6.9862,47.1779],[6.9887,47.1803],[6.9904,47.1826],[6.9898,47.183],[6.993,47.1862],[6.9945,47.187],[6.9945,47.1878],[6.9964,47.1933],[7.0092,47.1939],[7.0235,47.1957],[7.0303,47.2023],[7.0349,47.2098],[7.0368,47.2134],[7.0443,47.2219],[7.0437,47.223],[7.0465,47.2257],[7.0469,47.2267],[7.0473,47.2271],[7.0502,47.228],[7.0531,47.2286],[7.0552,47.2294],[7.0564,47.2301],[7.0587,47.2312],[7.058,47.232],[7.0575,47.2345],[7.0573,47.2346],[7.0571,47.235],[7.0573,47.235],[7.0563,47.2369],[7.0563,47.2378],[7.057,47.2381],[7.0575,47.2386],[7.0567,47.2395],[7.0567,47.24],[7.0572,47.241],[7.0587,47.2423],[7.0598,47.2428],[7.0617,47.2433],[7.0641,47.2434],[7.0646,47.2437],[7.0686,47.2441],[7.0795,47.2478],[7.0794,47.2474],[7.08,47.2453],[7.0798,47.244],[7.0796,47.2434],[7.0818,47.2434],[7.0845,47.2453],[7.0852,47.2454],[7.0872,47.2435],[7.0871,47.2424],[7.0874,47.2421],[7.0888,47.2416],[7.0879,47.2408],[7.0857,47.24],[7.0884,47.237],[7.0962,47.237],[7.0964,47.2386],[7.0973,47.2395],[7.1009,47.2423],[7.1021,47.2428],[7.1034,47.2431],[7.1052,47.2429],[7.1064,47.2424],[7.1071,47.2423],[7.1101,47.2425],[7.1106,47.242],[7.1115,47.2419],[7.1138,47.2425],[7.1152,47.2427],[7.1196,47.244],[7.1252,47.2448],[7.129,47.245],[7.1324,47.2445],[7.1339,47.2444],[7.1398,47.2432],[7.1402,47.2442],[7.1438,47.2446],[7.1471,47.2453],[7.151,47.2466],[7.1519,47.2471],[7.1536,47.2477],[7.155,47.2477],[7.1558,47.2475],[7.1532,47.251],[7.1492,47.2539],[7.1509,47.2542],[7.1516,47.2546],[7.1518,47.2548],[7.1514,47.2551],[7.1515,47.2555],[7.1498,47.2561],[7.1482,47.2562],[7.1428,47.2557],[7.1432,47.2579],[7.1431,47.2595],[7.1462,47.2599],[7.1464,47.26],[7.1464,47.2606],[7.1475,47.2617],[7.149,47.2622],[7.149,47.2626],[7.1492,47.2629],[7.149,47.2632],[7.1473,47.2626],[7.1457,47.2653],[7.1461,47.2659],[7.1477,47.2672],[7.1477,47.2679],[7.1482,47.2682],[7.1483,47.2684],[7.149,47.2688],[7.1487,47.269],[7.1505,47.2699],[7.1526,47.2704],[7.1551,47.2713],[7.1577,47.2715],[7.1604,47.2721],[7.162,47.2728],[7.1665,47.2739],[7.1687,47.2747],[7.1685,47.2756],[7.1687,47.277],[7.1685,47.2784],[7.168,47.2798],[7.1679,47.2814],[7.1681,47.2817],[7.1682,47.2827],[7.1686,47.283],[7.1685,47.2832],[7.1692,47.2836],[7.1702,47.2831],[7.1702,47.284],[7.1693,47.285],[7.1692,47.2857],[7.169,47.286],[7.1665,47.2858],[7.1652,47.2864],[7.1647,47.2886],[7.1647,47.289],[7.1685,47.2907],[7.1694,47.2909],[7.1681,47.2916],[7.165,47.2927],[7.1634,47.2931],[7.1638,47.2941],[7.1679,47.2943],[7.1686,47.2947],[7.1688,47.2945],[7.1746,47.2941],[7.1763,47.2942],[7.1764,47.2945],[7.1854,47.2952],[7.1878,47.2948],[7.1946,47.2958],[7.1976,47.2959],[7.206,47.2955],[7.2092,47.2947],[7.2072,47.2932],[7.2062,47.292],[7.207,47.2911],[7.2084,47.2899],[7.2102,47.2888],[7.2134,47.2898],[7.2149,47.29],[7.2163,47.2898],[7.2168,47.2896],[7.2235,47.2881],[7.2323,47.2882],[7.2395,47.2857],[7.2426,47.2852],[7.2494,47.2854],[7.2529,47.2852],[7.2583,47.2856],[7.2583,47.2868],[7.261,47.2872],[7.263,47.2871],[7.2679,47.2858],[7.271,47.2852],[7.2738,47.2847],[7.2749,47.2846],[7.2757,47.2844],[7.2778,47.2842],[7.2792,47.2842],[7.2842,47.2851],[7.286,47.2852],[7.2862,47.2859],[7.2873,47.2858],[7.2877,47.2855],[7.2917,47.2858],[7.2921,47.2857],[7.2925,47.286],[7.3017,47.2875],[7.302,47.2876],[7.302,47.2878],[7.3034,47.2876],[7.3092,47.2881],[7.3107,47.2881],[7.3107,47.2885],[7.3149,47.2882],[7.3189,47.2882],[7.3191,47.2874],[7.3188,47.287],[7.3211,47.2873],[7.3235,47.2874],[7.3252,47.2877],[7.3267,47.288],[7.3292,47.2889],[7.3296,47.2884],[7.3299,47.2873],[7.3355,47.2883],[7.3359,47.2874],[7.3367,47.2866],[7.3368,47.2867],[7.3372,47.2851],[7.3392,47.2823],[7.3398,47.2821],[7.3449,47.2819],[7.3456,47.2811],[7.347,47.2812],[7.3467,47.2807],[7.3479,47.2805],[7.3479,47.2799],[7.3476,47.2794],[7.3486,47.2781],[7.3497,47.2785],[7.3498,47.2782],[7.3503,47.2781],[7.3501,47.2771],[7.3508,47.2765],[7.3519,47.275],[7.3523,47.2746],[7.3527,47.2739],[7.3528,47.2731],[7.354,47.2727],[7.3543,47.2713],[7.3539,47.2711],[7.3506,47.2711],[7.349,47.2709],[7.3473,47.2705],[7.3461,47.2701],[7.3427,47.2701],[7.3397,47.2694],[7.3388,47.2687],[7.3372,47.2681],[7.3366,47.268],[7.337,47.2673],[7.3373,47.2654],[7.3369,47.2655],[7.3364,47.2653],[7.3364,47.265],[7.3373,47.2641],[7.3374,47.2625],[7.3415,47.2629],[7.3412,47.2613],[7.3399,47.2601],[7.3388,47.2598],[7.3382,47.259],[7.3375,47.2585],[7.3376,47.258],[7.3379,47.2577],[7.3382,47.2577],[7.3377,47.2573],[7.3384,47.2552],[7.3406,47.255],[7.3433,47.2519],[7.3432,47.2514],[7.3435,47.2504],[7.3443,47.2495],[7.3454,47.2478],[7.3488,47.2499],[7.3504,47.2504],[7.352,47.2511],[7.3523,47.2514],[7.3532,47.2517],[7.3535,47.252],[7.354,47.2522],[7.3549,47.2528],[7.3549,47.253],[7.3562,47.2533],[7.3565,47.2538],[7.364,47.2561],[7.3651,47.2576],[7.3669,47.2577],[7.3679,47.258],[7.3687,47.2585],[7.3708,47.257],[7.3735,47.2567],[7.3749,47.2563],[7.3763,47.2561],[7.3815,47.2559],[7.3831,47.256],[7.3846,47.2563],[7.3856,47.2563],[7.3868,47.256],[7.3891,47.256],[7.3903,47.2552],[7.3918,47.2559],[7.3925,47.2571],[7.3924,47.2584],[7.3929,47.2599],[7.3931,47.2621],[7.3933,47.2625],[7.3934,47.264],[7.3931,47.2662],[7.3936,47.2671],[7.3934,47.2678],[7.392,47.2692],[7.3919,47.2697],[7.3914,47.2706],[7.3911,47.2715],[7.3903,47.2723],[7.3901,47.2723],[7.3902,47.2725],[7.3898,47.2729],[7.3899,47.2739],[7.3894,47.2748],[7.3925,47.278],[7.3924,47.2784],[7.3926,47.2784],[7.3921,47.2785],[7.3924,47.2795],[7.392,47.2797],[7.3923,47.2798],[7.3925,47.2802],[7.3923,47.2807],[7.3925,47.2808]],[[7.2342,46.9294],[7.2344,46.9356],[7.2346,46.9367],[7.2341,46.9367],[7.2346,46.937],[7.2348,46.9383],[7.2338,46.9383],[7.2309,46.9392],[7.2302,46.94],[7.2282,46.9388],[7.2294,46.9369],[7.2288,46.9368],[7.2261,46.9356],[7.2256,46.9363],[7.2231,46.9352],[7.2208,46.9344],[7.2175,46.9331],[7.2174,46.9324],[7.2186,46.9318],[7.2182,46.9315],[7.2183,46.9314],[7.218,46.9311],[7.2168,46.9319],[7.2154,46.9307],[7.2169,46.9265],[7.2171,46.9266],[7.2185,46.9243],[7.2208,46.9255],[7.2255,46.9272],[7.2256,46.9268],[7.2271,46.9274],[7.2285,46.9277],[7.2284,46.9279],[7.2292,46.9284],[7.2294,46.9287],[7.2305,46.9288],[7.2308,46.9295],[7.2342,46.9294]],[[7.7008,47.1618],[7.6944,47.162],[7.6944,47.1626],[7.6928,47.1637],[7.6925,47.1645],[7.6922,47.1642],[7.691,47.1648],[7.6879,47.1653],[7.6879,47.1655],[7.6889,47.1663],[7.6885,47.1667],[7.6854,47.1663],[7.6849,47.1661],[7.6845,47.1657],[7.6851,47.1651],[7.6827,47.164],[7.6819,47.1633],[7.6816,47.1626],[7.682,47.1625],[7.6818,47.1622],[7.6811,47.1622],[7.6812,47.1624],[7.6795,47.1632],[7.6782,47.1617],[7.6778,47.1601],[7.6765,47.1581],[7.675,47.1564],[7.6761,47.156],[7.6755,47.1554],[7.6758,47.1552],[7.6744,47.154],[7.6753,47.1532],[7.6801,47.1543],[7.6826,47.1541],[7.6862,47.1533],[7.6876,47.1532],[7.6883,47.1528],[7.6902,47.1526],[7.6904,47.1527],[7.6908,47.1536],[7.6915,47.1545],[7.693,47.1571],[7.6938,47.1581],[7.6957,47.1575],[7.6993,47.1608],[7.7003,47.1611],[7.7008,47.1618]]]]}}