{"type":"Feature","bbox":[6.7419,46.4379,7.3802,47.0068],"properties":{"iso":"CH","code":"FR","name":"Fribourg","name_de":"Kanton Freiburg","source":"swisstopo","key":"CH-FR"},"geometry":{"type":"MultiPolygon","coordinates":[[[[7.2344,46.9356],[7.2342,46.9294],[7.2308,46.9295],[7.2305,46.9288],[7.2294,46.9287],[7.2292,46.9284],[7.2284,46.9279],[7.2285,46.9277],[7.2271,46.9274],[7.2256,46.9268],[7.2255,46.9272],[7.2208,46.9255],[7.2185,46.9243],[7.2171,46.9266],[7.2169,46.9265],[7.2154,46.9307],[7.2168,46.9319],[7.218,46.9311],[7.2183,46.9314],[7.2182,46.9315],[7.2186,46.9318],[7.2174,46.9324],[7.2175,46.9331],[7.2208,46.9344],[7.2231,46.9352],[7.2256,46.9363],[7.2261,46.9356],[7.2288,46.9368],[7.2294,46.9369],[7.2282,46.9388],[7.2302,46.94],[7.2309,46.9392],[7.2338,46.9383],[7.2348,46.9383],[7.2346,46.937],[7.2341,46.9367],[7.2346,46.9367],[7.2344,46.9356]]],[[[6.773,46.7514],[6.7761,46.7494],[6.7786,46.7505],[6.7788,46.7512],[6.7829,46.7488],[6.7845,46.7486],[6.7863,46.7476],[6.7857,46.7473],[6.7852,46.7465],[6.7852,46.7463],[6.7842,46.7458],[6.7849,46.7458],[6.7845,46.7423],[6.7847,46.7415],[6.7841,46.7388],[6.7845,46.7376],[6.7843,46.7371],[6.7833,46.736],[6.7844,46.7354],[6.783,46.7342],[6.7828,46.7338],[6.7827,46.733],[6.7821,46.7325],[6.78,46.7316],[6.7776,46.7298],[6.7768,46.7287],[6.7773,46.7276],[6.7767,46.7269],[6.7763,46.7267],[6.7774,46.7261],[6.7762,46.7253],[6.7707,46.7207],[6.7666,46.7188],[6.7663,46.7191],[6.7624,46.7174],[6.762,46.7182],[6.7618,46.7182],[6.7613,46.7186],[6.7618,46.7188],[6.7606,46.7195],[6.761,46.7199],[6.7605,46.7201],[6.7607,46.7204],[6.7593,46.7212],[6.7586,46.722],[6.7603,46.7231],[6.7593,46.7249],[6.7588,46.7255],[6.7578,46.7261],[6.7559,46.7269],[6.7517,46.7282],[6.7506,46.729],[6.7498,46.73],[6.7495,46.7301],[6.7487,46.7318],[6.7504,46.7335],[6.7508,46.7344],[6.7513,46.7347],[6.7513,46.7351],[6.7516,46.7357],[6.7522,46.7359],[6.7527,46.7366],[6.7541,46.737],[6.759,46.7375],[6.7596,46.7386],[6.7596,46.7391],[6.7653,46.743],[6.7666,46.7436],[6.7683,46.7445],[6.7694,46.7455],[6.7702,46.7473],[6.773,46.7514]]],[[[6.8062,46.7269],[6.8045,46.7274],[6.8018,46.7262],[6.7998,46.7268],[6.799,46.7262],[6.7985,46.7264],[6.7973,46.7262],[6.7958,46.7263],[6.7955,46.7259],[6.7942,46.7261],[6.7935,46.7259],[6.7936,46.7257],[6.793,46.7256],[6.792,46.726],[6.7922,46.7264],[6.7912,46.7271],[6.7885,46.728],[6.7887,46.7284],[6.7881,46.7286],[6.7879,46.7294],[6.7895,46.7298],[6.7911,46.731],[6.7905,46.7313],[6.7917,46.7324],[6.7909,46.7327],[6.7914,46.7331],[6.7921,46.7333],[6.7928,46.7338],[6.7932,46.7346],[6.7933,46.7355],[6.7935,46.7357],[6.7942,46.7356],[6.795,46.735],[6.7955,46.7358],[6.7956,46.7363],[6.7966,46.7363],[6.7967,46.7352],[6.7971,46.7345],[6.7981,46.7341],[6.8003,46.735],[6.8005,46.7348],[6.8013,46.7351],[6.8026,46.736],[6.8027,46.7359],[6.8034,46.7365],[6.804,46.7369],[6.8059,46.7354],[6.8063,46.7357],[6.8077,46.7358],[6.8079,46.736],[6.8078,46.7362],[6.808,46.7364],[6.8087,46.7365],[6.8089,46.7364],[6.8093,46.7365],[6.8105,46.7374],[6.8114,46.7374],[6.8117,46.7377],[6.812,46.7375],[6.8146,46.7373],[6.8148,46.7375],[6.8153,46.7376],[6.8151,46.7379],[6.8153,46.7381],[6.8158,46.7381],[6.8163,46.7383],[6.8163,46.7387],[6.8155,46.7404],[6.815,46.7405],[6.8169,46.7414],[6.8177,46.7422],[6.8181,46.7423],[6.8196,46.7433],[6.8211,46.7444],[6.8213,46.7448],[6.8214,46.7458],[6.8222,46.7471],[6.8226,46.7469],[6.8231,46.7469],[6.8238,46.7471],[6.8243,46.7474],[6.8236,46.7481],[6.8268,46.7502],[6.8273,46.7506],[6.8265,46.7509],[6.8263,46.7513],[6.8265,46.7523],[6.8286,46.7518],[6.829,46.7524],[6.8286,46.7525],[6.8291,46.7531],[6.8295,46.753],[6.8296,46.7533],[6.8304,46.7538],[6.8303,46.754],[6.8282,46.7545],[6.8286,46.7549],[6.8293,46.7561],[6.8318,46.7573],[6.8366,46.761],[6.8406,46.7627],[6.8413,46.7633],[6.8414,46.7632],[6.8421,46.7635],[6.8438,46.7645],[6.8455,46.7659],[6.8436,46.7666],[6.8455,46.7677],[6.8488,46.7711],[6.8482,46.7712],[6.8482,46.7715],[6.8462,46.7713],[6.8456,46.7717],[6.8462,46.7724],[6.8465,46.7723],[6.847,46.7736],[6.8469,46.7737],[6.8476,46.7749],[6.8488,46.7749],[6.8476,46.7732],[6.8489,46.7731],[6.8504,46.7731],[6.8509,46.7736],[6.8531,46.7747],[6.8525,46.7742],[6.8519,46.7735],[6.8518,46.7726],[6.8516,46.7723],[6.8544,46.772],[6.8545,46.7717],[6.8562,46.7706],[6.8565,46.7696],[6.8562,46.769],[6.857,46.7679],[6.859,46.7668],[6.8602,46.7664],[6.8597,46.7646],[6.8596,46.7638],[6.858,46.7631],[6.8577,46.7627],[6.8588,46.7615],[6.8593,46.7615],[6.8592,46.7618],[6.8589,46.7619],[6.8591,46.7621],[6.8603,46.7623],[6.8606,46.7629],[6.8623,46.7627],[6.8625,46.763],[6.8629,46.7632],[6.8628,46.7636],[6.863,46.7636],[6.8634,46.7635],[6.8635,46.7631],[6.8638,46.7631],[6.864,46.7627],[6.8654,46.7626],[6.8668,46.761],[6.8673,46.7601],[6.8677,46.7601],[6.8688,46.7594],[6.8693,46.7587],[6.8726,46.7576],[6.8743,46.7572],[6.8745,46.7573],[6.877,46.7559],[6.8764,46.7549],[6.8765,46.7549],[6.8756,46.7539],[6.8801,46.7518],[6.8821,46.7498],[6.8662,46.733],[6.8665,46.7329],[6.8655,46.7317],[6.8668,46.7309],[6.8654,46.7293],[6.8664,46.729],[6.8666,46.7287],[6.8672,46.7285],[6.8679,46.7284],[6.8672,46.7271],[6.8654,46.7261],[6.8645,46.7252],[6.8627,46.7258],[6.8619,46.7246],[6.8597,46.7254],[6.8598,46.7255],[6.8572,46.726],[6.852,46.7264],[6.8472,46.7279],[6.8463,46.7275],[6.8442,46.7292],[6.8438,46.7291],[6.8432,46.7298],[6.8379,46.7328],[6.8369,46.733],[6.8367,46.7333],[6.8361,46.7335],[6.8352,46.7334],[6.8337,46.734],[6.8326,46.735],[6.8316,46.7351],[6.8303,46.7347],[6.8284,46.7355],[6.8273,46.7347],[6.8247,46.7347],[6.8217,46.7343],[6.8175,46.7333],[6.8168,46.7324],[6.8118,46.7285],[6.8113,46.7279],[6.8105,46.7279],[6.8096,46.7274],[6.8062,46.7269]]],[[[6.8657,46.9096],[6.8917,46.8867],[6.8946,46.885],[6.8947,46.8848],[6.8964,46.883],[6.8973,46.8839],[6.8984,46.8828],[6.8992,46.8834],[6.9006,46.8819],[6.9011,46.8821],[6.9037,46.8794],[6.9053,46.8803],[6.907,46.8786],[6.9108,46.8806],[6.912,46.8793],[6.9129,46.8787],[6.921,46.8713],[6.9158,46.8695],[6.9166,46.8688],[6.9118,46.8671],[6.9095,46.8695],[6.9075,46.8688],[6.9053,46.8686],[6.9036,46.8675],[6.9008,46.8664],[6.8985,46.867],[6.8966,46.8659],[6.8919,46.865],[6.8938,46.8634],[6.8941,46.8631],[6.8944,46.8622],[6.8959,46.8627],[6.8965,46.8612],[6.9129,46.8659],[6.9157,46.863],[6.9168,46.8634],[6.9178,46.8632],[6.9199,46.8604],[6.9215,46.8608],[6.9224,46.859],[6.9242,46.8595],[6.925,46.8579],[6.9253,46.8579],[6.9271,46.8545],[6.9288,46.8549],[6.9306,46.8532],[6.9204,46.8481],[6.9102,46.8388],[6.9106,46.8386],[6.9074,46.8342],[6.907,46.8286],[6.9063,46.8284],[6.906,46.8277],[6.9066,46.8276],[6.9067,46.8274],[6.9054,46.827],[6.9053,46.826],[6.9049,46.8251],[6.9051,46.8242],[6.9064,46.8224],[6.9077,46.8199],[6.9083,46.82],[6.9085,46.8194],[6.9093,46.8189],[6.9076,46.8176],[6.9096,46.8174],[6.9095,46.8171],[6.9087,46.8167],[6.9085,46.8162],[6.9089,46.8158],[6.9088,46.8154],[6.9095,46.8141],[6.9109,46.8125],[6.9094,46.8107],[6.9069,46.8082],[6.9071,46.808],[6.9049,46.8065],[6.9052,46.8059],[6.9049,46.8056],[6.9072,46.805],[6.9113,46.8031],[6.9137,46.8048],[6.9134,46.805],[6.9158,46.8067],[6.9148,46.8074],[6.9172,46.8093],[6.9188,46.8101],[6.92,46.8106],[6.9211,46.8095],[6.9214,46.8095],[6.9225,46.8087],[6.9249,46.8087],[6.9274,46.8091],[6.9276,46.8083],[6.9282,46.8075],[6.9307,46.8064],[6.9312,46.8061],[6.9315,46.8055],[6.9316,46.8048],[6.931,46.8035],[6.93,46.8027],[6.9282,46.802],[6.9273,46.8013],[6.9268,46.8006],[6.9266,46.7992],[6.9262,46.7986],[6.9254,46.7982],[6.9216,46.7971],[6.9211,46.7967],[6.9208,46.7948],[6.9194,46.7927],[6.9185,46.7908],[6.917,46.7894],[6.9165,46.7887],[6.9165,46.7876],[6.9172,46.7853],[6.9171,46.7846],[6.9154,46.7831],[6.9126,46.7818],[6.911,46.7797],[6.9082,46.782],[6.91,46.7832],[6.9097,46.7835],[6.9088,46.7835],[6.9073,46.7838],[6.9059,46.7827],[6.9051,46.7815],[6.9035,46.7819],[6.8991,46.7816],[6.8998,46.7801],[6.8978,46.7794],[6.895,46.7791],[6.8942,46.7773],[6.8903,46.7781],[6.8881,46.7783],[6.883,46.7766],[6.8829,46.7768],[6.8795,46.7753],[6.8797,46.7761],[6.8796,46.7763],[6.8786,46.7764],[6.8772,46.7759],[6.8759,46.7764],[6.8744,46.7773],[6.8726,46.7787],[6.8718,46.7781],[6.8703,46.7787],[6.8695,46.7792],[6.8693,46.7796],[6.8679,46.7796],[6.866,46.7804],[6.8649,46.7806],[6.8638,46.7811],[6.8624,46.7822],[6.8628,46.7824],[6.8619,46.7832],[6.8628,46.7839],[6.8633,46.7839],[6.8639,46.7844],[6.8638,46.7853],[6.8631,46.7861],[6.8625,46.7858],[6.8591,46.788],[6.8578,46.7874],[6.8564,46.7866],[6.8562,46.7867],[6.8526,46.7853],[6.8516,46.7859],[6.8492,46.7841],[6.8504,46.7835],[6.8508,46.7832],[6.8501,46.7829],[6.8505,46.7824],[6.8493,46.782],[6.8485,46.7809],[6.8472,46.7812],[6.8468,46.7806],[6.8463,46.7801],[6.8441,46.7789],[6.8432,46.7787],[6.8428,46.7792],[6.8426,46.7792],[6.8395,46.781],[6.8387,46.7801],[6.8387,46.7797],[6.8379,46.778],[6.8372,46.7782],[6.8365,46.777],[6.8362,46.7771],[6.8355,46.7769],[6.8363,46.7761],[6.8341,46.7752],[6.8331,46.7745],[6.8281,46.7766],[6.8262,46.7743],[6.8256,46.7729],[6.8254,46.7728],[6.8253,46.7731],[6.8245,46.7736],[6.8243,46.774],[6.8238,46.7747],[6.8233,46.775],[6.8233,46.7752],[6.8217,46.7763],[6.8211,46.7764],[6.821,46.7767],[6.8184,46.7777],[6.8187,46.7781],[6.8185,46.7782],[6.8175,46.7785],[6.8167,46.7778],[6.8162,46.7779],[6.8154,46.7779],[6.8143,46.7786],[6.813,46.7783],[6.8124,46.7789],[6.8133,46.7793],[6.8129,46.7797],[6.8134,46.7803],[6.8113,46.7818],[6.8092,46.7837],[6.8089,46.7835],[6.8087,46.7836],[6.8047,46.7856],[6.8043,46.7849],[6.8036,46.7851],[6.8011,46.7838],[6.7999,46.7846],[6.799,46.7837],[6.7979,46.7829],[6.7931,46.7857],[6.7918,46.7866],[6.792,46.7868],[6.7906,46.7876],[6.7899,46.7884],[6.7889,46.7889],[6.7858,46.7912],[6.7854,46.7911],[6.7837,46.7923],[6.7842,46.7926],[6.783,46.7934],[6.7813,46.7922],[6.7808,46.7926],[6.7803,46.7914],[6.7787,46.7901],[6.7771,46.7891],[6.776,46.7898],[6.7767,46.7906],[6.7776,46.7926],[6.7786,46.7939],[6.7845,46.7973],[6.7848,46.7971],[6.7867,46.7984],[6.7861,46.7987],[6.7873,46.7996],[6.7852,46.8015],[6.7836,46.8027],[6.7835,46.8028],[6.7809,46.8013],[6.7788,46.8006],[6.777,46.8024],[6.7731,46.8049],[6.773,46.8048],[6.772,46.8058],[6.771,46.8065],[6.7707,46.8065],[6.7673,46.8088],[6.7419,46.8279],[6.8657,46.9096]]],[[[7.0402,46.9798],[7.0517,46.9776],[7.0578,46.9769],[7.0861,46.9763],[7.0899,46.9766],[7.091,46.9765],[7.0923,46.9761],[7.1489,46.9853],[7.1517,46.9862],[7.1521,46.9858],[7.1541,46.9865],[7.1561,46.986],[7.165,46.9891],[7.1939,46.9995],[7.195,46.9999],[7.1967,47.0001],[7.1963,47.0021],[7.1994,47.0012],[7.2001,47.0019],[7.2007,47.0017],[7.2051,47.0063],[7.2102,47.0039],[7.213,47.0068],[7.2157,47.0052],[7.2178,47.0064],[7.218,47.0063],[7.2177,47.0061],[7.2184,47.0051],[7.2196,47.0041],[7.2207,47.0026],[7.2215,47.0021],[7.2214,47.0011],[7.2219,47.0003],[7.2232,46.9993],[7.2229,46.999],[7.2231,46.9981],[7.2257,46.9992],[7.2262,46.9987],[7.2261,46.9976],[7.2264,46.997],[7.2246,46.9957],[7.2236,46.9944],[7.2222,46.9932],[7.2238,46.9927],[7.2241,46.993],[7.2259,46.9924],[7.2275,46.9915],[7.2292,46.9907],[7.2286,46.99],[7.2316,46.9891],[7.2349,46.9868],[7.2357,46.9846],[7.2346,46.9843],[7.2335,46.9837],[7.2317,46.9822],[7.2307,46.9805],[7.2284,46.9785],[7.2216,46.9756],[7.2225,46.9745],[7.2208,46.9739],[7.2169,46.9727],[7.2165,46.9724],[7.2174,46.9719],[7.2174,46.9715],[7.2168,46.9716],[7.2156,46.9711],[7.2147,46.9713],[7.2141,46.9693],[7.2147,46.9692],[7.2142,46.9669],[7.2075,46.9675],[7.2071,46.9655],[7.2067,46.9656],[7.2065,46.9641],[7.1993,46.9638],[7.1979,46.9644],[7.1963,46.9637],[7.1955,46.9642],[7.1946,46.9629],[7.1943,46.9621],[7.1943,46.9616],[7.1946,46.9614],[7.1976,46.9607],[7.1986,46.9601],[7.1988,46.9596],[7.1997,46.9593],[7.2,46.9591],[7.2026,46.9596],[7.2029,46.9595],[7.2035,46.9596],[7.2063,46.9598],[7.2074,46.9597],[7.2081,46.9593],[7.208,46.9587],[7.2083,46.9582],[7.2084,46.9577],[7.2093,46.9574],[7.2095,46.957],[7.2107,46.9569],[7.211,46.9566],[7.2107,46.9556],[7.2103,46.9555],[7.2095,46.9546],[7.2089,46.9543],[7.2089,46.9536],[7.2083,46.9528],[7.2083,46.9527],[7.2087,46.9525],[7.2087,46.9523],[7.208,46.9507],[7.2082,46.9497],[7.2077,46.9492],[7.2084,46.9484],[7.2094,46.9485],[7.2095,46.9482],[7.2101,46.9478],[7.2099,46.9474],[7.2103,46.9469],[7.21,46.9465],[7.2101,46.9461],[7.2104,46.9457],[7.2097,46.9452],[7.21,46.9451],[7.2095,46.9448],[7.2096,46.9443],[7.2102,46.944],[7.2101,46.9438],[7.2103,46.9434],[7.2103,46.943],[7.2098,46.9428],[7.2095,46.9419],[7.2078,46.9421],[7.2074,46.9416],[7.2055,46.9411],[7.2056,46.9407],[7.206,46.9405],[7.2058,46.9402],[7.2036,46.9405],[7.2038,46.9395],[7.2031,46.9396],[7.2028,46.9394],[7.202,46.9393],[7.2022,46.9391],[7.2033,46.9393],[7.2044,46.9391],[7.203,46.9373],[7.2042,46.9374],[7.2063,46.9358],[7.2082,46.9332],[7.2093,46.9333],[7.2104,46.931],[7.2117,46.9312],[7.2127,46.9285],[7.2113,46.9279],[7.2111,46.9272],[7.2112,46.9266],[7.2107,46.9265],[7.2111,46.9253],[7.2101,46.9252],[7.2093,46.9253],[7.2086,46.9249],[7.2078,46.925],[7.2069,46.9248],[7.2068,46.9238],[7.2067,46.9238],[7.2068,46.922],[7.2051,46.9217],[7.206,46.9208],[7.2056,46.9204],[7.2056,46.92],[7.2065,46.9195],[7.2061,46.9193],[7.2065,46.9185],[7.2064,46.9183],[7.2068,46.918],[7.2067,46.9174],[7.2071,46.9165],[7.207,46.9162],[7.2058,46.9148],[7.2063,46.9145],[7.206,46.9127],[7.2071,46.9101],[7.2079,46.9098],[7.2078,46.9091],[7.2053,46.9083],[7.2043,46.9063],[7.2017,46.9052],[7.1988,46.9038],[7.1955,46.9031],[7.1926,46.9023],[7.1917,46.9018],[7.1891,46.901],[7.1877,46.9004],[7.1897,46.9003],[7.1953,46.899],[7.1969,46.901],[7.1975,46.9014],[7.1991,46.9019],[7.2,46.9025],[7.2016,46.9021],[7.2039,46.902],[7.2067,46.9025],[7.2088,46.9026],[7.2103,46.9024],[7.2124,46.9017],[7.2175,46.8973],[7.2221,46.9018],[7.2235,46.9028],[7.2253,46.9033],[7.2286,46.9036],[7.2303,46.9039],[7.2305,46.9035],[7.2289,46.9032],[7.2291,46.9023],[7.2309,46.9024],[7.2315,46.9008],[7.2317,46.9008],[7.232,46.9003],[7.2349,46.8993],[7.2358,46.8984],[7.2363,46.8981],[7.2396,46.8978],[7.2418,46.8981],[7.2431,46.8979],[7.2443,46.9004],[7.2509,46.8989],[7.2593,46.898],[7.2614,46.8972],[7.2646,46.8946],[7.2663,46.8936],[7.2685,46.8931],[7.2726,46.8925],[7.2786,46.89],[7.2802,46.8896],[7.2818,46.8896],[7.2825,46.8898],[7.2836,46.8905],[7.2864,46.8927],[7.2873,46.8932],[7.2894,46.8938],[7.2962,46.8938],[7.3018,46.8924],[7.3074,46.8916],[7.3094,46.8915],[7.3114,46.8916],[7.3239,46.8936],[7.3257,46.8937],[7.3275,46.8935],[7.3402,46.8908],[7.347,46.8897],[7.3494,46.889],[7.3515,46.8882],[7.353,46.8872],[7.3534,46.8868],[7.3535,46.8863],[7.3531,46.8809],[7.3524,46.8762],[7.3525,46.8756],[7.3539,46.8713],[7.3545,46.8707],[7.3564,46.8706],[7.3574,46.8701],[7.3584,46.8688],[7.3579,46.8651],[7.3592,46.8631],[7.3591,46.8624],[7.3577,46.8607],[7.3544,46.8588],[7.3534,46.857],[7.3517,46.855],[7.3493,46.8533],[7.3473,46.8538],[7.3452,46.8524],[7.3426,46.8517],[7.34,46.8507],[7.3382,46.8495],[7.3368,46.8498],[7.3366,46.85],[7.3366,46.8505],[7.3369,46.8508],[7.3367,46.851],[7.3358,46.8504],[7.3354,46.8504],[7.3354,46.8511],[7.335,46.8515],[7.3345,46.8516],[7.3342,46.8524],[7.3337,46.8525],[7.3328,46.8519],[7.3332,46.8515],[7.3317,46.8512],[7.3304,46.8511],[7.326,46.8516],[7.3253,46.8521],[7.3253,46.8527],[7.3246,46.8535],[7.3244,46.8534],[7.323,46.8548],[7.3238,46.8557],[7.3258,46.8568],[7.3278,46.8559],[7.328,46.8563],[7.3307,46.8576],[7.3301,46.8582],[7.3273,46.8592],[7.3277,46.8596],[7.327,46.86],[7.3267,46.8599],[7.3254,46.8601],[7.3235,46.861],[7.322,46.8612],[7.3209,46.8615],[7.32,46.8614],[7.3189,46.8609],[7.3174,46.8606],[7.3174,46.8613],[7.3178,46.8623],[7.3164,46.8626],[7.3146,46.8619],[7.3142,46.8614],[7.3145,46.8609],[7.3142,46.8609],[7.3142,46.8607],[7.3138,46.8606],[7.3126,46.8607],[7.3129,46.86],[7.3135,46.8594],[7.3121,46.8587],[7.3118,46.8573],[7.312,46.8564],[7.3121,46.8556],[7.3095,46.855],[7.3074,46.8537],[7.3058,46.8536],[7.3055,46.8535],[7.3057,46.8534],[7.3043,46.8527],[7.3022,46.852],[7.3037,46.8509],[7.3053,46.8505],[7.3061,46.85],[7.3062,46.8496],[7.3067,46.8489],[7.3074,46.8485],[7.3077,46.8481],[7.3074,46.8479],[7.3075,46.847],[7.309,46.8463],[7.3127,46.8446],[7.3132,46.8441],[7.316,46.8437],[7.3171,46.8433],[7.3178,46.843],[7.3193,46.8418],[7.3219,46.8411],[7.3233,46.8404],[7.324,46.8394],[7.3242,46.8386],[7.326,46.8376],[7.326,46.8374],[7.3268,46.8371],[7.328,46.836],[7.3293,46.8356],[7.3297,46.8349],[7.3293,46.8339],[7.331,46.8328],[7.3312,46.8318],[7.3302,46.8297],[7.3289,46.829],[7.3255,46.8279],[7.3214,46.8271],[7.3203,46.8267],[7.3198,46.8252],[7.3209,46.8219],[7.3207,46.8202],[7.319,46.817],[7.3205,46.8157],[7.3202,46.8148],[7.3175,46.8138],[7.3148,46.812],[7.3137,46.8104],[7.3118,46.8095],[7.3103,46.808],[7.3098,46.8063],[7.309,46.8048],[7.3092,46.8029],[7.3079,46.8015],[7.3075,46.7988],[7.3048,46.7955],[7.3031,46.7943],[7.3016,46.7928],[7.302,46.7908],[7.3035,46.7889],[7.3021,46.7864],[7.3023,46.7857],[7.3045,46.7841],[7.3047,46.7837],[7.3045,46.7832],[7.3011,46.7813],[7.3005,46.7806],[7.3008,46.7791],[7.2976,46.7775],[7.2964,46.7773],[7.2959,46.776],[7.2953,46.7754],[7.2913,46.7733],[7.2905,46.772],[7.2908,46.7717],[7.2915,46.7715],[7.2929,46.7715],[7.2931,46.7714],[7.2929,46.7696],[7.2932,46.7683],[7.294,46.7677],[7.2959,46.7655],[7.2966,46.7652],[7.2979,46.7655],[7.2984,46.7654],[7.2988,46.7651],[7.2982,46.7641],[7.2986,46.7639],[7.2999,46.7638],[7.3014,46.7623],[7.3014,46.7613],[7.3017,46.7608],[7.3031,46.7601],[7.3036,46.7592],[7.3032,46.7562],[7.3034,46.7552],[7.3032,46.7536],[7.3035,46.7522],[7.3044,46.7498],[7.3042,46.7478],[7.3032,46.7455],[7.3014,46.7432],[7.3001,46.7421],[7.2976,46.7388],[7.2969,46.7371],[7.2969,46.7339],[7.2966,46.7327],[7.2965,46.7315],[7.2968,46.7278],[7.297,46.7269],[7.2986,46.724],[7.3005,46.7221],[7.3028,46.7204],[7.3045,46.7196],[7.3079,46.7172],[7.3099,46.7181],[7.3113,46.7179],[7.3124,46.7176],[7.3169,46.7177],[7.3211,46.717],[7.3262,46.7165],[7.3282,46.7166],[7.3339,46.7145],[7.3369,46.7143],[7.3393,46.7145],[7.3414,46.7142],[7.3439,46.7135],[7.3474,46.7129],[7.3495,46.7122],[7.3503,46.7102],[7.3506,46.7085],[7.3494,46.7069],[7.3491,46.7049],[7.3483,46.7042],[7.348,46.7036],[7.3471,46.703],[7.3462,46.7022],[7.3459,46.7014],[7.346,46.7009],[7.3457,46.7006],[7.3454,46.6997],[7.3455,46.6992],[7.3457,46.6989],[7.3506,46.6985],[7.36,46.698],[7.3605,46.698],[7.3626,46.6992],[7.3649,46.695],[7.367,46.6941],[7.3686,46.6926],[7.374,46.6921],[7.3769,46.6927],[7.3802,46.6902],[7.3791,46.69],[7.3778,46.6893],[7.3759,46.6878],[7.3758,46.6864],[7.3777,46.6835],[7.3759,46.6824],[7.375,46.682],[7.3732,46.6806],[7.3729,46.6802],[7.3729,46.6798],[7.3732,46.6791],[7.3742,46.6782],[7.3752,46.6776],[7.3764,46.675],[7.376,46.6748],[7.3749,46.6735],[7.3736,46.6724],[7.3735,46.672],[7.3722,46.6706],[7.3717,46.6703],[7.3711,46.6694],[7.3725,46.6675],[7.3723,46.667],[7.3719,46.6652],[7.3716,46.6651],[7.3716,46.6646],[7.3712,46.6637],[7.3719,46.6629],[7.3719,46.6627],[7.3709,46.6608],[7.3709,46.6594],[7.3711,46.659],[7.3702,46.6584],[7.3695,46.6574],[7.3693,46.6556],[7.3773,46.6563],[7.3769,46.6558],[7.3661,46.649],[7.3621,46.6479],[7.3617,46.6474],[7.3622,46.6468],[7.3617,46.6462],[7.3609,46.6456],[7.3596,46.6451],[7.3596,46.6443],[7.3587,46.6441],[7.3584,46.6439],[7.3579,46.6418],[7.3579,46.6409],[7.3573,46.6393],[7.357,46.6393],[7.3563,46.6401],[7.356,46.6407],[7.3561,46.6409],[7.3554,46.6417],[7.3553,46.6421],[7.3557,46.6425],[7.3554,46.6446],[7.3558,46.6454],[7.3552,46.6458],[7.3546,46.6467],[7.3526,46.6469],[7.3508,46.648],[7.3507,46.6485],[7.3503,46.6491],[7.3504,46.6496],[7.3503,46.6497],[7.3505,46.6502],[7.3504,46.6504],[7.3506,46.6505],[7.3504,46.651],[7.3507,46.6516],[7.3497,46.6524],[7.3493,46.6523],[7.3482,46.6528],[7.3474,46.6534],[7.3472,46.6539],[7.3468,46.6539],[7.3462,46.6544],[7.3456,46.6553],[7.3441,46.6555],[7.342,46.6552],[7.3412,46.6552],[7.3409,46.6555],[7.3404,46.6556],[7.3341,46.6547],[7.331,46.6553],[7.3298,46.6546],[7.3274,46.655],[7.3255,46.6548],[7.3232,46.6553],[7.3228,46.655],[7.322,46.655],[7.3211,46.6546],[7.3233,46.6519],[7.3242,46.6505],[7.3251,46.6497],[7.3272,46.6469],[7.3277,46.6463],[7.3297,46.6418],[7.3261,46.6385],[7.3254,46.6383],[7.3249,46.6377],[7.3234,46.6374],[7.3223,46.637],[7.3205,46.6368],[7.3165,46.6371],[7.3145,46.6368],[7.3138,46.6364],[7.3133,46.6366],[7.3125,46.6305],[7.3121,46.6217],[7.3179,46.6186],[7.3182,46.6161],[7.3162,46.6093],[7.3148,46.6004],[7.3207,46.5919],[7.3151,46.5904],[7.3125,46.5892],[7.3108,46.5855],[7.308,46.5813],[7.3035,46.5797],[7.2992,46.5791],[7.2986,46.5795],[7.2981,46.5792],[7.2956,46.5799],[7.295,46.5802],[7.2945,46.5802],[7.2929,46.5807],[7.2908,46.5811],[7.2899,46.5816],[7.2889,46.5817],[7.2875,46.5825],[7.2837,46.5838],[7.2814,46.5841],[7.2809,46.5835],[7.2799,46.5832],[7.2782,46.5817],[7.2771,46.581],[7.2765,46.5798],[7.2759,46.5797],[7.2755,46.5792],[7.2751,46.5792],[7.2739,46.5787],[7.2733,46.5783],[7.2728,46.5777],[7.2721,46.5773],[7.2712,46.5765],[7.2712,46.5761],[7.2694,46.5743],[7.2687,46.5738],[7.2681,46.5737],[7.2676,46.5723],[7.2667,46.5716],[7.2638,46.5675],[7.2586,46.5623],[7.2557,46.5603],[7.2533,46.5591],[7.2529,46.5588],[7.2498,46.5577],[7.247,46.5562],[7.2441,46.5552],[7.2405,46.5542],[7.2371,46.5538],[7.2367,46.5538],[7.2366,46.554],[7.2363,46.5541],[7.2341,46.5526],[7.2336,46.5525],[7.2334,46.5521],[7.2328,46.5516],[7.2319,46.5511],[7.2315,46.5513],[7.2309,46.5513],[7.2301,46.5507],[7.2296,46.5507],[7.2255,46.5493],[7.2244,46.5483],[7.2232,46.5477],[7.2225,46.547],[7.2227,46.5466],[7.2223,46.5464],[7.2217,46.5448],[7.2209,46.5444],[7.2204,46.544],[7.2201,46.5439],[7.2181,46.5421],[7.2169,46.5407],[7.2169,46.5405],[7.2147,46.5385],[7.2142,46.5376],[7.2137,46.5378],[7.2133,46.5376],[7.2123,46.5368],[7.2125,46.5366],[7.2124,46.5364],[7.2099,46.5342],[7.2076,46.5329],[7.2011,46.54],[7.2008,46.5417],[7.1934,46.5461],[7.1922,46.5466],[7.1906,46.5449],[7.1873,46.5426],[7.1823,46.5384],[7.1808,46.538],[7.1789,46.5368],[7.1769,46.5359],[7.1762,46.5353],[7.1728,46.5333],[7.172,46.5332],[7.1702,46.5321],[7.1699,46.5322],[7.1671,46.5311],[7.167,46.5309],[7.1664,46.5306],[7.1654,46.5299],[7.1644,46.5295],[7.1634,46.5285],[7.1619,46.5282],[7.1615,46.5278],[7.1596,46.5272],[7.1593,46.5272],[7.1589,46.5269],[7.1579,46.5268],[7.1568,46.527],[7.1559,46.5274],[7.1546,46.5273],[7.1542,46.5274],[7.1529,46.5273],[7.1508,46.5278],[7.1492,46.5285],[7.1483,46.5285],[7.147,46.5275],[7.145,46.5269],[7.1437,46.5221],[7.1371,46.5131],[7.1363,46.5086],[7.1354,46.5076],[7.131,46.5047],[7.1292,46.5043],[7.1263,46.5032],[7.1265,46.5028],[7.1228,46.4987],[7.1181,46.4975],[7.1126,46.4953],[7.1114,46.4952],[7.1103,46.4948],[7.1097,46.4943],[7.1085,46.4929],[7.1067,46.4922],[7.1063,46.4913],[7.1062,46.4902],[7.1054,46.4893],[7.103,46.4879],[7.1004,46.487],[7.098,46.4884],[7.095,46.4881],[7.0927,46.4875],[7.0889,46.4869],[7.087,46.4878],[7.0824,46.4878],[7.0776,46.4888],[7.0724,46.4864],[7.07,46.487],[7.0658,46.489],[7.0611,46.4873],[7.0596,46.4859],[7.0591,46.4852],[7.0544,46.4827],[7.0509,46.4818],[7.0486,46.4802],[7.0477,46.479],[7.0465,46.478],[7.0458,46.4778],[7.0441,46.4766],[7.042,46.4761],[7.0385,46.4743],[7.0285,46.4668],[7.0268,46.4642],[7.0249,46.4633],[7.022,46.4611],[7.0202,46.4594],[7.0212,46.4586],[7.021,46.4573],[7.0198,46.4526],[7.0193,46.4516],[7.0179,46.4471],[7.0172,46.4479],[7.0121,46.4466],[7.0103,46.4457],[7.0095,46.4456],[7.0076,46.4447],[7.0064,46.4445],[7.0025,46.4434],[7.002,46.443],[7.0009,46.4424],[6.9997,46.4421],[6.9991,46.4415],[6.998,46.4413],[6.997,46.4407],[6.9962,46.4406],[6.9952,46.4397],[6.9928,46.4389],[6.9875,46.4379],[6.9841,46.438],[6.9837,46.4382],[6.9836,46.4387],[6.9847,46.4405],[6.9859,46.4419],[6.9882,46.444],[6.989,46.4453],[6.9896,46.4458],[6.9901,46.4467],[6.9921,46.4489],[6.9915,46.4499],[6.9909,46.4514],[6.9902,46.4514],[6.9901,46.4523],[6.9897,46.4529],[6.9844,46.4568],[6.9827,46.4589],[6.981,46.4588],[6.9802,46.459],[6.9799,46.4593],[6.98,46.4597],[6.9791,46.4611],[6.979,46.4624],[6.9786,46.4644],[6.979,46.4658],[6.9789,46.4667],[6.9782,46.4675],[6.9781,46.4683],[6.9784,46.4696],[6.9789,46.4704],[6.9778,46.4729],[6.9779,46.4732],[6.9784,46.4737],[6.9793,46.4742],[6.9803,46.4745],[6.9813,46.4754],[6.9797,46.4759],[6.9758,46.4784],[6.9751,46.4791],[6.9746,46.4805],[6.9738,46.4812],[6.9739,46.483],[6.9727,46.4843],[6.9727,46.4852],[6.9724,46.4857],[6.9729,46.4861],[6.9727,46.4868],[6.9731,46.4873],[6.9726,46.4877],[6.9729,46.4882],[6.9724,46.4885],[6.9724,46.4888],[6.9732,46.4889],[6.9735,46.4892],[6.9728,46.4899],[6.973,46.4902],[6.9724,46.4906],[6.9721,46.4912],[6.9716,46.4915],[6.9703,46.4911],[6.9697,46.4912],[6.969,46.492],[6.9684,46.492],[6.9665,46.4929],[6.9656,46.4932],[6.9653,46.4938],[6.9648,46.4939],[6.9647,46.4944],[6.9642,46.4946],[6.9645,46.4952],[6.9634,46.4957],[6.9634,46.4962],[6.9616,46.4972],[6.9608,46.4973],[6.9598,46.4981],[6.9575,46.4991],[6.9561,46.4995],[6.9559,46.4997],[6.9557,46.5005],[6.9554,46.5008],[6.9542,46.5012],[6.9543,46.5018],[6.9542,46.5019],[6.9531,46.5019],[6.9528,46.5021],[6.9516,46.502],[6.9506,46.5026],[6.9503,46.5026],[6.95,46.502],[6.9489,46.5019],[6.9487,46.5016],[6.9479,46.5013],[6.946,46.5013],[6.9455,46.5015],[6.9451,46.5013],[6.9446,46.5015],[6.9442,46.5012],[6.9436,46.5012],[6.9432,46.5017],[6.9421,46.5019],[6.9419,46.5021],[6.9413,46.5018],[6.9412,46.5015],[6.9405,46.5013],[6.9394,46.5013],[6.9386,46.501],[6.9377,46.5011],[6.9367,46.501],[6.9346,46.5014],[6.9333,46.5019],[6.9331,46.5026],[6.9335,46.503],[6.933,46.5033],[6.932,46.5032],[6.9309,46.5043],[6.9312,46.5046],[6.9295,46.5049],[6.9283,46.5045],[6.9276,46.5047],[6.9265,46.5059],[6.9258,46.5071],[6.9252,46.5077],[6.9234,46.508],[6.923,46.5085],[6.9227,46.5086],[6.9218,46.5082],[6.9213,46.5085],[6.9198,46.5088],[6.9188,46.5096],[6.9179,46.5097],[6.9178,46.5099],[6.9172,46.5101],[6.9171,46.5104],[6.9167,46.5106],[6.916,46.5107],[6.9156,46.5103],[6.9146,46.5106],[6.9145,46.5111],[6.9142,46.5112],[6.9131,46.5111],[6.9128,46.5116],[6.9128,46.5123],[6.9126,46.5127],[6.9114,46.5132],[6.911,46.5131],[6.9106,46.5125],[6.9101,46.5123],[6.909,46.5126],[6.908,46.5124],[6.9066,46.5128],[6.9054,46.5125],[6.9042,46.5132],[6.9011,46.5133],[6.901,46.5132],[6.901,46.5128],[6.9014,46.5125],[6.9014,46.5123],[6.9004,46.5117],[6.9004,46.5114],[6.8999,46.511],[6.8997,46.5104],[6.8985,46.5097],[6.8981,46.5097],[6.8976,46.5094],[6.8968,46.5089],[6.8965,46.508],[6.8957,46.5078],[6.895,46.5093],[6.895,46.5098],[6.8953,46.5103],[6.8952,46.5108],[6.8956,46.5112],[6.896,46.513],[6.8977,46.5148],[6.8971,46.5159],[6.8973,46.5169],[6.8971,46.5177],[6.8972,46.5192],[6.8977,46.5195],[6.8977,46.5201],[6.8967,46.5204],[6.8953,46.5193],[6.8833,46.5135],[6.8817,46.5126],[6.8796,46.5103],[6.878,46.5094],[6.8762,46.5079],[6.8743,46.5064],[6.8724,46.5043],[6.8695,46.5023],[6.8663,46.5008],[6.8647,46.4985],[6.8628,46.4938],[6.8617,46.4936],[6.8591,46.4934],[6.8573,46.4931],[6.8489,46.4934],[6.8477,46.4937],[6.8471,46.4952],[6.8469,46.4951],[6.8463,46.496],[6.8462,46.496],[6.8455,46.4967],[6.8451,46.4965],[6.8446,46.4968],[6.8429,46.4963],[6.8417,46.4968],[6.8394,46.4986],[6.8378,46.4995],[6.835,46.5023],[6.8324,46.5054],[6.8322,46.5074],[6.8314,46.51],[6.8311,46.5105],[6.8309,46.5118],[6.8303,46.5125],[6.8289,46.5124],[6.8279,46.5121],[6.8248,46.5122],[6.8243,46.5121],[6.8232,46.5131],[6.8226,46.5141],[6.8192,46.5161],[6.8181,46.5165],[6.8153,46.5214],[6.8143,46.5226],[6.8133,46.5228],[6.8132,46.5236],[6.8121,46.524],[6.8109,46.5252],[6.811,46.5254],[6.8113,46.5255],[6.8116,46.5254],[6.812,46.5256],[6.8118,46.5258],[6.8122,46.5258],[6.8123,46.526],[6.8128,46.5262],[6.8128,46.5265],[6.8129,46.5265],[6.8127,46.5268],[6.8129,46.5269],[6.8128,46.5271],[6.8135,46.5274],[6.8133,46.5276],[6.8137,46.5277],[6.8139,46.528],[6.8139,46.5282],[6.8142,46.5282],[6.8141,46.5284],[6.8144,46.5285],[6.8144,46.5288],[6.8146,46.5288],[6.8149,46.5292],[6.8152,46.5294],[6.8162,46.5305],[6.8163,46.5309],[6.8165,46.531],[6.8166,46.5312],[6.8171,46.5314],[6.817,46.5316],[6.8174,46.5319],[6.8171,46.532],[6.8171,46.5323],[6.8177,46.5326],[6.8174,46.5327],[6.8173,46.5326],[6.8173,46.5327],[6.8178,46.533],[6.8177,46.5332],[6.8178,46.5338],[6.8181,46.5337],[6.8183,46.5343],[6.8178,46.5344],[6.8181,46.5347],[6.8178,46.5349],[6.8181,46.5351],[6.8185,46.5351],[6.8184,46.5353],[6.8188,46.5357],[6.8183,46.5359],[6.8187,46.5361],[6.8183,46.5365],[6.8186,46.5367],[6.8191,46.5366],[6.819,46.5368],[6.8197,46.5376],[6.82,46.5375],[6.821,46.538],[6.8213,46.5379],[6.8207,46.5384],[6.821,46.5385],[6.8211,46.5391],[6.8214,46.5391],[6.8217,46.5393],[6.8217,46.5395],[6.8219,46.5395],[6.8219,46.5397],[6.8222,46.5397],[6.8227,46.5402],[6.823,46.5403],[6.8231,46.5405],[6.8236,46.5406],[6.8236,46.5408],[6.8237,46.541],[6.8235,46.5411],[6.8241,46.5411],[6.8246,46.5414],[6.8246,46.5416],[6.8248,46.5416],[6.8249,46.542],[6.8254,46.5424],[6.8256,46.5429],[6.8254,46.5435],[6.8266,46.5435],[6.8273,46.5433],[6.8278,46.543],[6.8262,46.541],[6.826,46.5411],[6.8248,46.5394],[6.8251,46.5386],[6.8252,46.5387],[6.8252,46.538],[6.8294,46.5378],[6.8304,46.5374],[6.8318,46.5376],[6.8323,46.5375],[6.8324,46.5378],[6.8331,46.5379],[6.8364,46.5377],[6.8366,46.538],[6.8389,46.5384],[6.8407,46.5382],[6.8443,46.5391],[6.8445,46.539],[6.8509,46.5411],[6.8513,46.5408],[6.8522,46.5408],[6.8525,46.541],[6.8527,46.5415],[6.855,46.5414],[6.8554,46.5413],[6.8556,46.5409],[6.8551,46.5404],[6.8552,46.54],[6.8559,46.5396],[6.8562,46.5387],[6.8568,46.5383],[6.8563,46.5373],[6.8564,46.537],[6.8566,46.5369],[6.857,46.5368],[6.8577,46.5371],[6.8579,46.5365],[6.8582,46.5363],[6.8601,46.536],[6.8585,46.5334],[6.8586,46.5332],[6.8591,46.5331],[6.8592,46.5328],[6.8588,46.5322],[6.8587,46.5318],[6.859,46.5309],[6.8599,46.5309],[6.8611,46.5307],[6.862,46.5311],[6.8621,46.5335],[6.8625,46.5352],[6.8637,46.535],[6.8637,46.5355],[6.8639,46.536],[6.8639,46.5366],[6.8649,46.5377],[6.8644,46.5381],[6.865,46.539],[6.8656,46.5396],[6.8659,46.5395],[6.8662,46.5397],[6.8664,46.5401],[6.8669,46.5405],[6.8667,46.5406],[6.8668,46.5408],[6.8679,46.5412],[6.8684,46.5416],[6.8686,46.5421],[6.8691,46.5425],[6.8692,46.5433],[6.8713,46.5445],[6.8723,46.5448],[6.8725,46.5455],[6.8726,46.5457],[6.8741,46.5456],[6.8742,46.5461],[6.875,46.5465],[6.8756,46.5471],[6.8756,46.5476],[6.8758,46.5477],[6.8774,46.5481],[6.8781,46.5486],[6.8784,46.5497],[6.8795,46.5501],[6.8794,46.5507],[6.8798,46.5509],[6.8806,46.551],[6.8806,46.5515],[6.8824,46.5527],[6.8844,46.5546],[6.8849,46.5547],[6.887,46.5571],[6.8881,46.5577],[6.8882,46.5581],[6.8889,46.5583],[6.8895,46.5577],[6.8899,46.5576],[6.8911,46.5579],[6.8914,46.5577],[6.8917,46.5573],[6.8919,46.5577],[6.8915,46.5581],[6.8915,46.5584],[6.8927,46.5587],[6.894,46.5596],[6.8939,46.5599],[6.8946,46.5597],[6.8944,46.5591],[6.8946,46.5591],[6.8954,46.5594],[6.8957,46.5601],[6.8965,46.5602],[6.8969,46.5606],[6.8973,46.5603],[6.8976,46.5597],[6.8991,46.5597],[6.8998,46.5601],[6.9006,46.5602],[6.902,46.5612],[6.9023,46.5614],[6.8997,46.5635],[6.8995,46.5642],[6.8988,46.565],[6.9001,46.5657],[6.8992,46.5667],[6.9005,46.5677],[6.9003,46.5685],[6.9016,46.5697],[6.9009,46.5701],[6.9007,46.5699],[6.8989,46.5705],[6.898,46.5706],[6.8954,46.5692],[6.894,46.5688],[6.8921,46.5679],[6.8903,46.5675],[6.8882,46.5677],[6.8875,46.5671],[6.8876,46.5666],[6.8873,46.5659],[6.8871,46.566],[6.8869,46.5658],[6.8864,46.565],[6.8869,46.5646],[6.8867,46.564],[6.8868,46.5634],[6.8864,46.5631],[6.8864,46.5628],[6.8845,46.562],[6.881,46.5656],[6.8802,46.5661],[6.8802,46.5664],[6.8794,46.5671],[6.8774,46.5662],[6.877,46.5659],[6.8745,46.565],[6.8703,46.5721],[6.869,46.5735],[6.8679,46.5752],[6.8677,46.575],[6.8651,46.5762],[6.8655,46.5772],[6.864,46.5778],[6.8642,46.578],[6.863,46.5785],[6.8628,46.5782],[6.8604,46.5793],[6.8597,46.5795],[6.86,46.5799],[6.8575,46.5801],[6.8555,46.5807],[6.8526,46.582],[6.8514,46.5811],[6.8509,46.5811],[6.8493,46.582],[6.8492,46.5824],[6.8488,46.5828],[6.849,46.583],[6.8486,46.5833],[6.8464,46.5839],[6.8453,46.5828],[6.8444,46.5827],[6.8438,46.5824],[6.8432,46.5827],[6.8424,46.5824],[6.8419,46.5815],[6.8411,46.5807],[6.8409,46.5802],[6.8401,46.5797],[6.8401,46.5792],[6.8399,46.579],[6.8369,46.5775],[6.8374,46.5768],[6.8348,46.5753],[6.8306,46.576],[6.8293,46.5764],[6.8287,46.5772],[6.8281,46.5773],[6.8269,46.578],[6.8257,46.5779],[6.8251,46.5778],[6.8244,46.5775],[6.8237,46.5775],[6.8236,46.5784],[6.823,46.5791],[6.8227,46.58],[6.8221,46.5801],[6.822,46.5808],[6.8214,46.5816],[6.8215,46.5819],[6.8214,46.5819],[6.8215,46.5821],[6.8213,46.5822],[6.8214,46.5825],[6.8212,46.5829],[6.8206,46.5837],[6.82,46.5838],[6.8195,46.5843],[6.8189,46.5841],[6.8176,46.5847],[6.8163,46.5848],[6.8141,46.5857],[6.814,46.5846],[6.8142,46.584],[6.8131,46.5834],[6.8126,46.5822],[6.8115,46.581],[6.8116,46.5806],[6.8128,46.5794],[6.8132,46.5782],[6.8108,46.579],[6.8094,46.5789],[6.8079,46.5776],[6.8049,46.5779],[6.8043,46.5766],[6.8034,46.5769],[6.803,46.5756],[6.8026,46.5749],[6.8017,46.5752],[6.8016,46.5746],[6.7995,46.5741],[6.7977,46.5746],[6.7972,46.5743],[6.7973,46.5745],[6.7949,46.5753],[6.7948,46.5754],[6.7955,46.5761],[6.7963,46.5773],[6.7958,46.5784],[6.7961,46.5788],[6.7961,46.5793],[6.7977,46.5804],[6.7989,46.5821],[6.7993,46.5838],[6.7988,46.5839],[6.7989,46.5843],[6.7991,46.5845],[6.7989,46.5846],[6.7993,46.5849],[6.7995,46.5856],[6.7991,46.5858],[6.7988,46.5857],[6.7985,46.5862],[6.7988,46.5865],[6.7999,46.5887],[6.8,46.5894],[6.7995,46.5894],[6.8,46.5899],[6.7999,46.5902],[6.8001,46.5905],[6.7999,46.5906],[6.8011,46.5916],[6.8012,46.5925],[6.8002,46.5936],[6.7983,46.5999],[6.8019,46.6007],[6.8024,46.6014],[6.8024,46.6025],[6.8039,46.609],[6.8039,46.6094],[6.8034,46.6101],[6.803,46.6128],[6.8018,46.6156],[6.8026,46.6157],[6.803,46.6162],[6.8024,46.6188],[6.8026,46.6188],[6.8032,46.6213],[6.8035,46.6212],[6.8035,46.6224],[6.8031,46.6228],[6.802,46.6251],[6.8018,46.6262],[6.8023,46.6277],[6.8017,46.6277],[6.8017,46.6285],[6.8007,46.6284],[6.8004,46.6299],[6.7995,46.6303],[6.7984,46.6302],[6.7969,46.6331],[6.797,46.6335],[6.7974,46.6353],[6.7976,46.6356],[6.7982,46.6356],[6.7988,46.6379],[6.7987,46.6386],[6.7989,46.6396],[6.8002,46.6413],[6.8017,46.6442],[6.8024,46.6439],[6.8032,46.6438],[6.8038,46.6445],[6.8032,46.6448],[6.8037,46.6457],[6.8028,46.6461],[6.8006,46.6466],[6.8002,46.6473],[6.7988,46.6478],[6.7985,46.6486],[6.7989,46.6492],[6.802,46.6489],[6.8038,46.6498],[6.8049,46.6501],[6.8056,46.6501],[6.8067,46.6504],[6.8067,46.6506],[6.8086,46.6502],[6.8106,46.6501],[6.8108,46.6504],[6.8112,46.6504],[6.8111,46.6497],[6.8119,46.6492],[6.8134,46.6495],[6.8142,46.6486],[6.8142,46.6482],[6.8146,46.6475],[6.8161,46.6474],[6.8161,46.6475],[6.8175,46.6478],[6.8185,46.6478],[6.8184,46.6484],[6.8176,46.6485],[6.8173,46.6492],[6.8191,46.6507],[6.8209,46.6518],[6.8259,46.6583],[6.8274,46.6598],[6.8289,46.6606],[6.8314,46.6598],[6.8334,46.6622],[6.8363,46.6615],[6.8367,46.6618],[6.8375,46.6621],[6.8382,46.6619],[6.8384,46.6626],[6.8418,46.6616],[6.8415,46.6613],[6.8422,46.6608],[6.8441,46.6608],[6.8422,46.6588],[6.8442,46.6577],[6.8452,46.6584],[6.8478,46.6573],[6.8481,46.6575],[6.8508,46.6564],[6.851,46.6565],[6.8513,46.6562],[6.8535,46.6555],[6.8547,46.656],[6.8567,46.6574],[6.8568,46.658],[6.8577,46.6586],[6.8586,46.6589],[6.8594,46.66],[6.863,46.6584],[6.864,46.6588],[6.8647,46.6585],[6.8656,46.6591],[6.8659,46.6589],[6.8673,46.6601],[6.868,46.6608],[6.8673,46.6621],[6.8683,46.663],[6.8644,46.6648],[6.8667,46.6679],[6.8675,46.6693],[6.87,46.6719],[6.8702,46.6719],[6.8717,46.6733],[6.8709,46.6739],[6.8697,46.6744],[6.869,46.675],[6.8681,46.6749],[6.8666,46.6756],[6.8657,46.6758],[6.8641,46.6768],[6.8632,46.6797],[6.8627,46.6809],[6.8653,46.6813],[6.8651,46.6826],[6.8657,46.6837],[6.8664,46.6846],[6.8684,46.6857],[6.8692,46.6853],[6.8707,46.6849],[6.8731,46.6833],[6.8753,46.6848],[6.881,46.6901],[6.8837,46.69],[6.8851,46.6917],[6.8853,46.6918],[6.8861,46.6918],[6.8866,46.693],[6.8879,46.6943],[6.8896,46.6939],[6.8903,46.6949],[6.8916,46.6961],[6.8912,46.6965],[6.8919,46.6972],[6.8916,46.6975],[6.8944,46.7012],[6.8932,46.7022],[6.8923,46.7026],[6.8944,46.7056],[6.8961,46.7065],[6.8966,46.7063],[6.899,46.7096],[6.901,46.7114],[6.9038,46.7134],[6.9045,46.7142],[6.905,46.7139],[6.907,46.7148],[6.9087,46.7162],[6.9091,46.7162],[6.9114,46.7179],[6.9153,46.7186],[6.9157,46.7194],[6.9165,46.72],[6.9172,46.7197],[6.9176,46.7191],[6.9177,46.7187],[6.9185,46.72],[6.9194,46.7208],[6.92,46.7206],[6.9225,46.7239],[6.9242,46.725],[6.9304,46.7302],[6.9356,46.7332],[6.9366,46.7344],[6.935,46.7359],[6.9359,46.7367],[6.936,46.7376],[6.9364,46.7384],[6.9377,46.74],[6.9395,46.7416],[6.9399,46.7428],[6.9405,46.7437],[6.9406,46.7437],[6.9411,46.7451],[6.9403,46.7456],[6.9396,46.7457],[6.9394,46.7462],[6.938,46.7485],[6.938,46.7495],[6.9358,46.7505],[6.935,46.7505],[6.934,46.7514],[6.9324,46.7523],[6.9322,46.7527],[6.9315,46.7532],[6.9309,46.754],[6.9302,46.7542],[6.9292,46.7541],[6.9267,46.7533],[6.9243,46.7522],[6.9222,46.752],[6.9216,46.7516],[6.92,46.7513],[6.9195,46.7517],[6.9196,46.7522],[6.9175,46.754],[6.9176,46.7543],[6.9167,46.7546],[6.9147,46.7533],[6.9118,46.7546],[6.9105,46.7533],[6.9102,46.754],[6.9098,46.7543],[6.9094,46.7542],[6.909,46.7548],[6.9106,46.756],[6.9082,46.7572],[6.9092,46.7588],[6.9116,46.761],[6.9144,46.7627],[6.9165,46.762],[6.9174,46.7626],[6.9181,46.7617],[6.9171,46.7611],[6.9201,46.7599],[6.9231,46.762],[6.9241,46.7632],[6.926,46.7649],[6.9284,46.7672],[6.9308,46.7692],[6.9307,46.7692],[6.9309,46.7695],[6.9321,46.7702],[6.9353,46.7715],[6.934,46.7726],[6.9332,46.772],[6.9312,46.7725],[6.9331,46.7747],[6.9315,46.7754],[6.9336,46.7769],[6.9341,46.7766],[6.9355,46.7777],[6.9371,46.7786],[6.9369,46.7787],[6.9376,46.7795],[6.938,46.7804],[6.9381,46.7812],[6.9387,46.7815],[6.9389,46.7811],[6.9394,46.7808],[6.94,46.7817],[6.9412,46.7829],[6.9411,46.7831],[6.9418,46.7835],[6.9435,46.7842],[6.9439,46.7839],[6.9457,46.7845],[6.9465,46.7839],[6.9471,46.7837],[6.9476,46.783],[6.9486,46.7829],[6.9492,46.7831],[6.9494,46.7829],[6.9501,46.7828],[6.9505,46.7836],[6.9512,46.7843],[6.9515,46.7852],[6.9543,46.7867],[6.9548,46.7866],[6.9567,46.7873],[6.9571,46.7876],[6.9576,46.7883],[6.9572,46.7889],[6.9572,46.7897],[6.9586,46.7903],[6.9564,46.7905],[6.9569,46.7909],[6.9564,46.7916],[6.9566,46.7922],[6.9569,46.7926],[6.9564,46.7928],[6.9564,46.7931],[6.956,46.7934],[6.9569,46.7947],[6.9582,46.7949],[6.9584,46.7956],[6.9589,46.7963],[6.9603,46.7976],[6.9619,46.7987],[6.9623,46.7992],[6.9629,46.7997],[6.9635,46.7998],[6.966,46.8011],[6.9655,46.8018],[6.9667,46.8027],[6.9635,46.8044],[6.9635,46.8045],[6.9647,46.8055],[6.9632,46.8064],[6.9631,46.8068],[6.9626,46.8074],[6.9612,46.808],[6.9596,46.8096],[6.9588,46.8099],[6.9588,46.8105],[6.9578,46.8112],[6.9593,46.8122],[6.9574,46.8133],[6.9572,46.8139],[6.9566,46.8144],[6.9568,46.8145],[6.9565,46.8149],[6.9575,46.8161],[6.9579,46.8162],[6.9582,46.8165],[6.9596,46.8176],[6.9602,46.8178],[6.9584,46.8184],[6.9578,46.8187],[6.9611,46.8239],[6.9651,46.8282],[6.9655,46.8281],[6.9653,46.8279],[6.9654,46.8277],[6.9665,46.8275],[6.968,46.827],[6.9683,46.8265],[6.9695,46.8257],[6.9695,46.8251],[6.9698,46.8248],[6.9705,46.8248],[6.9708,46.8246],[6.971,46.8241],[6.9719,46.8239],[6.9721,46.824],[6.9726,46.8246],[6.973,46.8247],[6.9739,46.8241],[6.9743,46.8233],[6.9748,46.823],[6.9761,46.823],[6.9767,46.8229],[6.9781,46.8231],[6.9783,46.8229],[6.9793,46.8229],[6.9796,46.8228],[6.9801,46.8229],[6.9813,46.8226],[6.9823,46.8222],[6.9848,46.8219],[6.985,46.822],[6.9853,46.8225],[6.9851,46.823],[6.9854,46.8235],[6.9859,46.8236],[6.9857,46.8237],[6.9858,46.8238],[6.986,46.8238],[6.9871,46.8245],[6.9879,46.825],[6.9879,46.8253],[6.9882,46.8254],[6.9897,46.8264],[6.9896,46.8266],[6.9897,46.8267],[6.9896,46.8273],[6.9898,46.8278],[6.9897,46.8282],[6.9907,46.8291],[6.991,46.8295],[6.9924,46.8304],[6.9919,46.831],[6.9928,46.8319],[6.9928,46.8325],[6.9924,46.8332],[6.9886,46.8339],[6.9868,46.8347],[6.9861,46.8347],[6.986,46.8352],[6.9866,46.8358],[6.987,46.8372],[6.986,46.8375],[6.9862,46.8378],[6.9831,46.8398],[6.9844,46.841],[6.986,46.8401],[6.9885,46.8421],[6.9874,46.8428],[6.9887,46.8436],[6.9877,46.8444],[6.9869,46.8441],[6.9866,46.8444],[6.987,46.8446],[6.9859,46.8456],[6.9856,46.8456],[6.9844,46.8467],[6.9835,46.8462],[6.9833,46.8464],[6.9829,46.846],[6.9824,46.8464],[6.9815,46.8457],[6.9793,46.847],[6.9804,46.8482],[6.9779,46.85],[6.9776,46.8499],[6.9775,46.8509],[6.9778,46.8519],[6.9786,46.8528],[6.9793,46.8533],[6.9778,46.855],[6.9806,46.858],[6.9769,46.8605],[6.9792,46.8658],[6.9826,46.8677],[6.9865,46.8707],[6.9859,46.8711],[6.9889,46.8735],[6.9806,46.8818],[6.9777,46.8842],[6.977,46.8843],[6.9764,46.8841],[6.9762,46.8842],[6.9753,46.8852],[6.9749,46.886],[6.9742,46.8864],[6.9738,46.8873],[6.9704,46.8865],[6.9711,46.8851],[6.9664,46.8834],[6.9659,46.8837],[6.9633,46.8828],[6.9632,46.8831],[6.9628,46.8831],[6.9628,46.8833],[6.9621,46.8841],[6.9618,46.884],[6.9606,46.8825],[6.9582,46.8815],[6.9581,46.8815],[6.9597,46.8792],[6.9591,46.8789],[6.9591,46.8787],[6.9612,46.8772],[6.9622,46.8773],[6.9649,46.8737],[6.9644,46.8735],[6.9644,46.8733],[6.9643,46.8732],[6.9651,46.8724],[6.9671,46.8699],[6.9694,46.8673],[6.9649,46.8654],[6.9628,46.868],[6.963,46.8681],[6.9602,46.8714],[6.9579,46.8708],[6.9568,46.8721],[6.9566,46.872],[6.9544,46.8745],[6.9545,46.8747],[6.954,46.8754],[6.9521,46.8746],[6.9518,46.875],[6.9511,46.8748],[6.9505,46.8758],[6.9524,46.876],[6.9524,46.8762],[6.9515,46.8768],[6.9516,46.877],[6.9512,46.8773],[6.9517,46.8776],[6.9499,46.8783],[6.9493,46.8788],[6.9486,46.879],[6.9483,46.8797],[6.948,46.8801],[6.9474,46.8804],[6.9473,46.881],[6.9464,46.8819],[6.9457,46.883],[6.9443,46.8834],[6.9433,46.8835],[6.9425,46.8837],[6.9419,46.8841],[6.9415,46.8846],[6.9421,46.885],[6.9415,46.8861],[6.9402,46.8867],[6.9396,46.8867],[6.9391,46.8872],[6.9396,46.8879],[6.9384,46.89],[6.936,46.8888],[6.9331,46.8925],[6.9314,46.8924],[6.9302,46.8928],[6.9293,46.8933],[6.9289,46.8933],[6.9283,46.8928],[6.9273,46.8927],[6.9265,46.8928],[6.9259,46.8927],[6.9255,46.8927],[6.9254,46.893],[6.9255,46.8931],[6.9252,46.893],[6.925,46.8932],[6.9244,46.8934],[6.9245,46.8938],[6.924,46.8941],[6.924,46.8946],[6.9238,46.8947],[6.9239,46.8948],[6.9236,46.895],[6.9237,46.8953],[6.9248,46.8958],[6.9255,46.8959],[6.9253,46.8962],[6.9268,46.8969],[6.9267,46.8972],[6.9272,46.897],[6.9275,46.8973],[6.9274,46.8974],[6.9275,46.8976],[6.9281,46.8974],[6.9283,46.8978],[6.929,46.8979],[6.9294,46.8986],[6.93,46.8991],[6.93,46.8993],[6.9303,46.8995],[6.93,46.8995],[6.9296,46.9],[6.9288,46.9003],[6.9285,46.9007],[6.9283,46.9006],[6.9278,46.9009],[6.9274,46.9009],[6.9268,46.9011],[6.9214,46.9056],[6.8962,46.9255],[6.9282,46.9534],[6.9617,46.9275],[6.9649,46.9244],[6.9658,46.9243],[6.9671,46.9235],[6.9677,46.9236],[6.9692,46.9233],[6.9695,46.9229],[6.9715,46.9212],[6.9733,46.9219],[6.9742,46.9211],[6.9765,46.9227],[6.9781,46.9234],[6.9789,46.9226],[6.9811,46.9222],[6.983,46.9213],[6.9849,46.9208],[6.9858,46.9203],[6.9867,46.9196],[6.9875,46.9182],[6.9818,46.9136],[6.9845,46.912],[6.9812,46.9094],[6.9847,46.9072],[6.9855,46.9065],[6.9869,46.9046],[6.9879,46.9038],[6.9893,46.9032],[6.9902,46.9025],[6.99,46.9025],[6.9913,46.9017],[6.9931,46.9002],[6.9963,46.8979],[7.0024,46.8939],[7.0078,46.8902],[7.009,46.8895],[7.0089,46.8894],[7.0095,46.889],[7.008,46.8876],[7.0059,46.8857],[7.0053,46.8861],[6.9999,46.8819],[6.9993,46.8823],[6.9938,46.879],[6.9972,46.8763],[6.9993,46.8743],[6.9998,46.8744],[7.0017,46.8738],[7.0037,46.8738],[7.007,46.873],[7.0084,46.8732],[7.0087,46.8735],[7.0086,46.8741],[7.0087,46.8743],[7.0094,46.8746],[7.0097,46.8753],[7.0107,46.8755],[7.0117,46.8752],[7.0122,46.8756],[7.0118,46.8763],[7.0125,46.8766],[7.0131,46.8766],[7.0135,46.8768],[7.014,46.8775],[7.0146,46.8773],[7.0153,46.8768],[7.0155,46.877],[7.0153,46.8785],[7.0158,46.8789],[7.0162,46.8808],[7.0177,46.8801],[7.0182,46.8794],[7.0213,46.8767],[7.0252,46.8778],[7.0255,46.8766],[7.0285,46.8757],[7.0295,46.8756],[7.0304,46.8753],[7.0322,46.8759],[7.0347,46.8742],[7.0351,46.8736],[7.0357,46.8733],[7.0358,46.873],[7.0345,46.8722],[7.0334,46.871],[7.0323,46.8692],[7.0317,46.8686],[7.0311,46.8676],[7.0309,46.8672],[7.0311,46.867],[7.0299,46.8662],[7.0311,46.8651],[7.0355,46.8623],[7.036,46.8621],[7.0362,46.8618],[7.0397,46.8606],[7.039,46.8593],[7.0386,46.859],[7.037,46.8583],[7.0351,46.858],[7.0348,46.8581],[7.0339,46.8576],[7.0333,46.8571],[7.0341,46.8553],[7.0319,46.8539],[7.032,46.8536],[7.0316,46.8536],[7.0297,46.8527],[7.0298,46.8511],[7.0291,46.8509],[7.0298,46.8502],[7.0299,46.8498],[7.0305,46.849],[7.0319,46.8478],[7.0332,46.8487],[7.0354,46.8465],[7.0371,46.8456],[7.0371,46.8457],[7.0375,46.8455],[7.0396,46.8483],[7.043,46.8469],[7.0444,46.848],[7.0443,46.8484],[7.0448,46.8484],[7.0454,46.849],[7.045,46.8496],[7.0465,46.8507],[7.0464,46.8509],[7.0473,46.8516],[7.0491,46.8549],[7.0503,46.8545],[7.0504,46.8548],[7.0507,46.8549],[7.051,46.8554],[7.0522,46.8558],[7.0532,46.8556],[7.0531,46.8559],[7.0535,46.856],[7.0534,46.8562],[7.054,46.8562],[7.0542,46.8568],[7.0551,46.8576],[7.0555,46.8586],[7.0555,46.8591],[7.0558,46.8593],[7.0561,46.8592],[7.0565,46.8598],[7.0565,46.8604],[7.0572,46.8607],[7.0572,46.8611],[7.0575,46.8612],[7.0577,46.8616],[7.0584,46.862],[7.0583,46.8623],[7.0591,46.8629],[7.059,46.8631],[7.0594,46.8634],[7.0601,46.8634],[7.0603,46.8643],[7.0618,46.8652],[7.0625,46.8671],[7.063,46.8672],[7.0636,46.867],[7.0641,46.8674],[7.0648,46.8675],[7.0651,46.8679],[7.0665,46.8682],[7.0664,46.8685],[7.0669,46.8688],[7.0665,46.8689],[7.0662,46.8693],[7.0665,46.8694],[7.067,46.87],[7.0675,46.8702],[7.0676,46.8705],[7.0678,46.8706],[7.0684,46.8708],[7.0689,46.8706],[7.0694,46.871],[7.0698,46.8716],[7.0703,46.8717],[7.0701,46.872],[7.071,46.8734],[7.0709,46.8737],[7.0698,46.8748],[7.0689,46.8762],[7.0692,46.8764],[7.0682,46.8771],[7.0672,46.8774],[7.0672,46.8787],[7.0667,46.8798],[7.0677,46.8799],[7.0673,46.8809],[7.0642,46.8805],[7.0644,46.8801],[7.0617,46.8796],[7.062,46.8838],[7.064,46.8848],[7.0639,46.885],[7.0643,46.8852],[7.0648,46.8858],[7.0645,46.8862],[7.0643,46.8871],[7.0685,46.8879],[7.0684,46.8872],[7.0721,46.8887],[7.0709,46.8898],[7.0759,46.8917],[7.0776,46.8926],[7.0779,46.8931],[7.0798,46.8941],[7.0791,46.8947],[7.0773,46.894],[7.0771,46.8943],[7.0765,46.8941],[7.0763,46.8944],[7.0749,46.8939],[7.0743,46.8946],[7.0744,46.8953],[7.0746,46.8951],[7.075,46.8955],[7.0758,46.8958],[7.0764,46.8957],[7.0768,46.8955],[7.0782,46.8956],[7.0789,46.8958],[7.0791,46.8962],[7.0815,46.896],[7.0847,46.8963],[7.0871,46.8971],[7.0869,46.8974],[7.0875,46.8976],[7.0872,46.8982],[7.0876,46.8983],[7.0868,46.899],[7.0888,46.8997],[7.0862,46.9019],[7.0907,46.9037],[7.0909,46.9038],[7.0908,46.9045],[7.0934,46.9058],[7.0921,46.9075],[7.0909,46.9072],[7.0883,46.9089],[7.0867,46.9103],[7.085,46.9124],[7.0579,46.9386],[7.0589,46.9393],[7.0599,46.9406],[7.0611,46.9418],[7.0613,46.9423],[7.0614,46.944],[7.0611,46.9462],[7.0608,46.9471],[7.0606,46.9471],[7.0604,46.9486],[7.0606,46.949],[7.0595,46.9515],[7.0592,46.9519],[7.0587,46.9538],[7.0571,46.9544],[7.0565,46.9552],[7.0596,46.9558],[7.0587,46.9583],[7.0583,46.9582],[7.0574,46.9596],[7.0591,46.9601],[7.0575,46.9621],[7.0596,46.9631],[7.0579,46.9654],[7.0613,46.9668],[7.0608,46.9682],[7.0602,46.9687],[7.063,46.9711],[7.0603,46.9732],[7.0562,46.9749],[7.0521,46.9771],[7.0403,46.9795],[7.0402,46.9798]],[[7.1184,46.903],[7.1197,46.9006],[7.1214,46.9005],[7.123,46.9002],[7.1239,46.9013],[7.1233,46.9017],[7.1245,46.9028],[7.1273,46.9045],[7.1298,46.9056],[7.1328,46.9065],[7.1327,46.907],[7.1339,46.9072],[7.1348,46.9072],[7.1348,46.9075],[7.1362,46.9072],[7.1362,46.9076],[7.1384,46.9075],[7.138,46.9087],[7.1366,46.9103],[7.1362,46.9107],[7.136,46.9117],[7.1355,46.912],[7.1355,46.9122],[7.1361,46.913],[7.136,46.9153],[7.1354,46.9185],[7.1347,46.9194],[7.1334,46.9194],[7.1322,46.9191],[7.1319,46.9193],[7.1301,46.9188],[7.1301,46.9184],[7.13,46.9183],[7.1277,46.9182],[7.1274,46.9178],[7.127,46.9177],[7.1267,46.9174],[7.1263,46.9176],[7.1263,46.9179],[7.1268,46.9186],[7.1269,46.9189],[7.1253,46.919],[7.1222,46.9178],[7.1175,46.9168],[7.1149,46.9158],[7.1142,46.9129],[7.1132,46.9106],[7.1143,46.9093],[7.1166,46.9078],[7.117,46.9079],[7.1192,46.9056],[7.1177,46.9051],[7.1189,46.9032],[7.1184,46.903]]]]}}