{"type":"Feature","bbox":[5.9548,46.1305,6.2812,46.3318],"properties":{"iso":"CH","code":"GE","name":"Genève","name_de":"Kanton Genf","key":"CH-GE"},"geometry":{"type":"Polygon","coordinates":[[[6.0619,46.2412],[6.0677,46.2416],[6.0897,46.2464],[6.094,46.253],[6.0931,46.2623],[6.0936,46.2731],[6.1007,46.3014],[6.1041,46.3092],[6.1186,46.3318],[6.1742,46.3],[6.2166,46.3095],[6.2275,46.2885],[6.228,46.2845],[6.2376,46.2679],[6.2418,46.2637],[6.2523,46.2599],[6.269,46.2652],[6.276,46.2631],[6.2812,46.2401],[6.2554,46.2211],[6.1914,46.1917],[6.1403,46.1502],[6.1079,46.1386],[6.0739,46.1492],[6.0283,46.1479],[5.9829,46.1404],[5.9588,46.1305],[5.9722,46.1522],[5.9798,46.1622],[5.9829,46.1708],[5.9652,46.1862],[5.9548,46.1999],[5.9585,46.212],[5.9829,46.2227],[6.0429,46.2431],[6.048,46.2434],[6.0619,46.2412]]]}}