{"type":"Feature","bbox":[8.6527,46.173,10.4666,47.0639],"properties":{"iso":"CH","code":"GR","name":"Graubünden","name_de":"Kanton Graubünden","key":"CH-GR"},"geometry":{"type":"Polygon","coordinates":[[[9.2248,46.2312],[9.2157,46.2211],[9.2042,46.2136],[9.1922,46.2096],[9.1813,46.2041],[9.1758,46.1941],[9.1711,46.1826],[9.1638,46.173],[9.1403,46.1849],[9.1316,46.1908],[9.1107,46.2085],[9.0942,46.2165],[9.0875,46.2206],[9.0796,46.2296],[9.0764,46.2348],[9.0745,46.2401],[9.0775,46.2529],[9.0765,46.2616],[9.0661,46.276],[9.0581,46.29],[9.0565,46.2949],[9.057,46.299],[9.0652,46.3058],[9.0692,46.3123],[9.071,46.3172],[9.0685,46.3301],[9.0702,46.3368],[9.0855,46.3568],[9.0891,46.3637],[9.088,46.3939],[9.0922,46.4021],[9.0954,46.4118],[9.0978,46.4161],[9.097,46.4202],[9.092,46.427],[9.0883,46.434],[9.0866,46.4424],[9.0886,46.4533],[9.0888,46.4674],[9.0773,46.4823],[9.0623,46.4808],[9.0556,46.4787],[9.0486,46.4809],[9.0377,46.4918],[9.027,46.5043],[9.0214,46.5142],[9.0152,46.5335],[9.0191,46.5459],[9.0228,46.564],[9.0256,46.5713],[9.0385,46.5907],[9.0377,46.5938],[9.0352,46.5962],[9.0221,46.6049],[8.9988,46.6125],[8.9648,46.6148],[8.9598,46.6204],[8.9571,46.6254],[8.956,46.6306],[8.953,46.6323],[8.9474,46.6321],[8.9392,46.6266],[8.9296,46.6251],[8.9148,46.6204],[8.9076,46.6133],[8.906,46.6083],[8.9071,46.6038],[8.9093,46.6007],[8.9099,46.5975],[8.9077,46.5942],[8.8981,46.5892],[8.8473,46.5752],[8.7884,46.5681],[8.7112,46.573],[8.6779,46.5836],[8.6808,46.5972],[8.6787,46.6053],[8.6734,46.6175],[8.6709,46.6207],[8.659,46.6259],[8.656,46.629],[8.654,46.6331],[8.6527,46.6388],[8.6535,46.6443],[8.6605,46.66],[8.6678,46.6714],[8.67,46.6805],[8.6691,46.6863],[8.6726,46.6905],[8.6794,46.6946],[8.6957,46.6996],[8.7058,46.7011],[8.7156,46.705],[8.7389,46.7258],[8.7488,46.733],[8.7663,46.7373],[8.7813,46.7336],[8.7853,46.7333],[8.8003,46.7356],[8.8037,46.7372],[8.8071,46.7406],[8.8062,46.7497],[8.8076,46.7532],[8.8157,46.7627],[8.8248,46.7706],[8.8263,46.779],[8.8256,46.7908],[8.8284,46.7933],[8.8429,46.7964],[8.8495,46.8013],[8.8608,46.8056],[8.8717,46.8154],[8.8925,46.8148],[8.9077,46.8116],[8.9096,46.8089],[8.9119,46.8023],[8.9158,46.8004],[8.9252,46.8006],[8.9805,46.8123],[9.0032,46.8196],[9.0174,46.8288],[9.0247,46.8354],[9.0354,46.8515],[9.0382,46.8546],[9.0394,46.858],[9.0393,46.8657],[9.04,46.8694],[9.0424,46.8718],[9.049,46.874],[9.0589,46.8754],[9.0754,46.8744],[9.0851,46.8721],[9.0923,46.8685],[9.0968,46.8641],[9.1051,46.862],[9.115,46.864],[9.1491,46.88],[9.1636,46.8822],[9.1825,46.8823],[9.196,46.8871],[9.2131,46.9033],[9.2409,46.9203],[9.2567,46.9076],[9.2602,46.9069],[9.2655,46.9069],[9.2699,46.9086],[9.4038,46.8952],[9.4243,46.8881],[9.4354,46.8823],[9.4426,46.8818],[9.4457,46.8827],[9.4487,46.8909],[9.4612,46.8938],[9.4744,46.9097],[9.4772,46.9151],[9.4783,46.9203],[9.4778,46.925],[9.4809,46.9369],[9.4928,46.9532],[9.498,46.9575],[9.5073,46.9625],[9.5101,46.9666],[9.5138,46.976],[9.5185,46.9795],[9.5244,46.9819],[9.532,46.9833],[9.5264,46.9911],[9.4959,47.0266],[9.4848,47.0432],[9.4772,47.06],[9.477,47.0639],[9.4996,47.0594],[9.5606,47.0524],[9.5812,47.0569],[9.5999,47.0535],[9.6523,47.0579],[9.6691,47.0562],[9.858,47.0155],[9.8563,47.0041],[9.8606,47.0016],[9.8668,47.0019],[9.8706,46.9988],[9.8706,46.9929],[9.8665,46.9834],[9.864,46.9599],[9.8608,46.9492],[9.8624,46.9398],[9.8751,46.9274],[9.8999,46.9144],[10.0069,46.8908],[10.0456,46.8656],[10.0681,46.8566],[10.1113,46.8471],[10.132,46.8466],[10.1578,46.8516],[10.2014,46.8668],[10.2117,46.877],[10.2143,46.8847],[10.2152,46.8931],[10.2199,46.9058],[10.2351,46.9233],[10.2513,46.9254],[10.2708,46.9219],[10.2957,46.9227],[10.2962,46.9414],[10.3137,46.9643],[10.3389,46.9841],[10.3679,46.9955],[10.3734,46.9963],[10.379,46.9955],[10.3844,46.9932],[10.3947,46.9854],[10.4156,46.9624],[10.4496,46.9439],[10.4585,46.9366],[10.4638,46.9197],[10.4514,46.8858],[10.4538,46.8644],[10.4485,46.8322],[10.4449,46.8232],[10.439,46.8169],[10.4172,46.7989],[10.4191,46.784],[10.4262,46.7694],[10.4287,46.7556],[10.4166,46.743],[10.3997,46.7355],[10.3956,46.7264],[10.3966,46.715],[10.3944,46.7008],[10.3848,46.689],[10.3739,46.6819],[10.3692,46.6724],[10.3775,46.6533],[10.3956,46.6388],[10.4382,46.6357],[10.4591,46.6236],[10.4666,46.6043],[10.4659,46.5785],[10.4579,46.5537],[10.444,46.5377],[10.4259,46.5353],[10.3543,46.5483],[10.3195,46.546],[10.3066,46.5475],[10.2954,46.5511],[10.2838,46.5607],[10.2759,46.5655],[10.2347,46.5753],[10.2303,46.5862],[10.2357,46.6067],[10.2338,46.618],[10.2179,46.627],[10.1921,46.6268],[10.0975,46.608],[10.0878,46.6044],[10.0835,46.597],[10.0712,46.5644],[10.0629,46.5567],[10.0413,46.5419],[10.0328,46.533],[10.0314,46.5258],[10.0312,46.5038],[10.0269,46.4932],[10.0281,46.4839],[10.0305,46.4767],[10.0353,46.4711],[10.044,46.467],[10.0263,46.4463],[10.0421,46.4327],[10.0714,46.4248],[10.1162,46.4188],[10.1334,46.414],[10.1408,46.4029],[10.1332,46.3811],[10.126,46.3744],[10.105,46.3614],[10.0975,46.3516],[10.0924,46.3381],[10.0918,46.329],[10.0958,46.3205],[10.1049,46.3094],[10.1461,46.2803],[10.1589,46.2624],[10.1458,46.2433],[10.1179,46.2311],[10.0757,46.22],[10.0427,46.2205],[10.0418,46.2431],[10.0317,46.2601],[9.9922,46.2844],[9.9776,46.2981],[9.971,46.32],[9.9706,46.3398],[9.964,46.3561],[9.939,46.3675],[9.9184,46.3712],[9.899,46.3722],[9.8554,46.367],[9.7888,46.3433],[9.7681,46.3386],[9.7552,46.3405],[9.7309,46.3507],[9.7201,46.3509],[9.7093,46.3424],[9.7073,46.331],[9.7088,46.3196],[9.7084,46.3117],[9.6931,46.2971],[9.6743,46.2918],[9.5597,46.2927],[9.5365,46.2986],[9.5153,46.3086],[9.5026,46.3207],[9.4826,46.3568],[9.4737,46.3619],[9.4516,46.3704],[9.4444,46.3753],[9.4424,46.3809],[9.4438,46.3961],[9.4379,46.492],[9.4346,46.4983],[9.4268,46.4971],[9.4107,46.4889],[9.4038,46.4825],[9.4003,46.4754],[9.3955,46.4694],[9.3846,46.4664],[9.3771,46.4687],[9.3516,46.4855],[9.3508,46.4979],[9.331,46.5015],[9.2823,46.4974],[9.2632,46.4851],[9.2458,46.461],[9.238,46.4365],[9.2476,46.423],[9.2609,46.4167],[9.2629,46.4066],[9.2603,46.394],[9.2604,46.3797],[9.2738,46.3443],[9.2752,46.3314],[9.269,46.3094],[9.2397,46.267],[9.2248,46.2312]]]}}