{"type":"Feature","bbox":[8.8701,46.8004,9.2429,47.1748],"properties":{"iso":"CH","code":"GL","name":"Glarus","name_de":"Kanton Glarus","key":"CH-GL"},"geometry":{"type":"Polygon","coordinates":[[[8.9303,46.9222],[8.9516,46.9296],[8.9564,46.9416],[8.9603,46.955],[8.9586,46.9613],[8.9547,46.9658],[8.9388,46.9733],[8.9339,46.9767],[8.9296,46.9821],[8.9293,46.985],[8.932,46.9885],[8.9319,46.99],[8.9038,47.0177],[8.8899,47.0265],[8.8947,47.0376],[8.906,47.0433],[8.9308,47.0514],[8.9395,47.0581],[8.9474,47.0663],[8.9574,47.0803],[8.9583,47.0875],[8.956,47.1005],[8.9606,47.1059],[8.9629,47.1099],[8.9659,47.1211],[8.9659,47.1268],[8.9851,47.1689],[9.0011,47.1748],[9.007,47.1747],[9.0595,47.1422],[9.0747,47.1363],[9.1799,47.1222],[9.1749,47.0747],[9.1693,47.0606],[9.1347,47.0441],[9.1322,47.0417],[9.1329,47.0398],[9.1513,47.0325],[9.1578,47.0312],[9.1765,47.0326],[9.1876,47.0365],[9.1951,47.0381],[9.2024,47.0385],[9.2104,47.0344],[9.2187,47.0267],[9.2319,47.0082],[9.2362,46.9994],[9.2378,46.9923],[9.2331,46.9636],[9.2302,46.9579],[9.2306,46.9542],[9.234,46.9455],[9.2418,46.9335],[9.2429,46.9297],[9.2409,46.9203],[9.2131,46.9033],[9.196,46.8871],[9.1825,46.8823],[9.1636,46.8822],[9.1491,46.88],[9.115,46.864],[9.1051,46.862],[9.0968,46.8641],[9.0923,46.8685],[9.0851,46.8721],[9.0754,46.8744],[9.0589,46.8754],[9.049,46.874],[9.0424,46.8718],[9.04,46.8694],[9.0393,46.8657],[9.0394,46.858],[9.0382,46.8546],[9.0354,46.8515],[9.0247,46.8354],[9.0174,46.8288],[9.0032,46.8196],[8.9805,46.8123],[8.9252,46.8006],[8.9158,46.8004],[8.9119,46.8023],[8.9096,46.8089],[8.9077,46.8116],[8.8925,46.8148],[8.8717,46.8154],[8.8711,46.8346],[8.8701,46.8395],[8.8718,46.8459],[8.8978,46.8592],[8.9054,46.8641],[8.9159,46.8651],[8.9373,46.8711],[8.944,46.8751],[8.9482,46.8805],[8.9487,46.8905],[8.9481,46.8964],[8.9456,46.9027],[8.9303,46.9222]]]}}