{"type":"Feature","bbox":[6.8381,47.1543,7.559,47.4992],"properties":{"iso":"CH","code":"JU","name":"Jura","name_de":"Kanton Jura","key":"CH-JU"},"geometry":{"type":"Polygon","coordinates":[[[7.0098,47.4992],[7.0189,47.4977],[7.028,47.4929],[7.0539,47.4904],[7.1037,47.4963],[7.1273,47.4929],[7.1403,47.4879],[7.1537,47.4864],[7.1808,47.4883],[7.1626,47.4599],[7.1683,47.4436],[7.19,47.4347],[7.2194,47.4285],[7.2235,47.4262],[7.2303,47.419],[7.2381,47.4168],[7.2448,47.4177],[7.2826,47.4289],[7.3091,47.4327],[7.3369,47.4319],[7.3394,47.429],[7.3425,47.4273],[7.3842,47.4131],[7.4112,47.3983],[7.4182,47.3906],[7.4197,47.3827],[7.4263,47.3793],[7.4371,47.3793],[7.4857,47.3709],[7.5051,47.3695],[7.5124,47.3698],[7.5206,47.3679],[7.529,47.3638],[7.5383,47.3532],[7.5545,47.344],[7.5382,47.3337],[7.5358,47.3271],[7.5366,47.3239],[7.5402,47.3223],[7.559,47.3207],[7.5563,47.3182],[7.4966,47.3066],[7.3872,47.3126],[7.3774,47.3154],[7.3718,47.324],[7.369,47.3247],[7.3667,47.323],[7.3646,47.3186],[7.3609,47.3151],[7.3553,47.3114],[7.3473,47.3091],[7.3307,47.2996],[7.3192,47.2947],[7.2936,47.2885],[7.2782,47.2863],[7.2592,47.2855],[7.1749,47.2971],[7.1724,47.2869],[7.1741,47.2825],[7.1723,47.2788],[7.1682,47.2758],[7.1581,47.2708],[7.1563,47.2677],[7.156,47.2622],[7.1578,47.2551],[7.1599,47.251],[7.1547,47.2475],[7.1055,47.2412],[7.0743,47.2432],[7.0678,47.2423],[7.0638,47.2396],[7.0619,47.234],[7.0594,47.2299],[7.0522,47.2225],[7.0474,47.216],[7.0402,47.2094],[7.0296,47.2021],[7.0137,47.1964],[7.0044,47.1918],[6.9935,47.1844],[6.9831,47.1829],[6.9604,47.1835],[6.9488,47.1791],[6.9129,47.1602],[6.9018,47.1557],[6.894,47.1543],[6.8898,47.1558],[6.8773,47.1637],[6.8498,47.1651],[6.8381,47.1681],[6.8403,47.1695],[6.8593,47.1909],[6.8883,47.2113],[6.9562,47.2452],[6.9522,47.27],[6.9586,47.2906],[6.9774,47.3037],[6.9865,47.3045],[6.9919,47.306],[7.0065,47.3194],[7.0169,47.3235],[7.0271,47.3254],[7.0366,47.3295],[7.0443,47.3405],[7.0339,47.3507],[7.004,47.3681],[6.9856,47.3621],[6.8666,47.3542],[6.8716,47.367],[6.884,47.3826],[6.8988,47.3957],[6.9245,47.406],[6.9261,47.4249],[6.9523,47.4288],[6.9685,47.4352],[6.9834,47.4438],[6.991,47.4522],[6.9861,47.4641],[6.9758,47.478],[6.9733,47.4891],[6.9919,47.4929],[7.0008,47.4977],[7.0098,47.4992]]]}}