{"type":"Feature","bbox":[8.2181,46.7715,8.5749,47.02],"properties":{"iso":"CH","code":"NW","name":"Nidwalden","name_de":"Kanton Nidwalden","source":"swisstopo","key":"CH-NW"},"geometry":{"type":"Polygon","coordinates":[[[8.571,46.9902],[8.5743,46.9838],[8.5746,46.9834],[8.5749,46.9833],[8.5749,46.9831],[8.5745,46.9825],[8.5745,46.9824],[8.5733,46.9811],[8.5727,46.9801],[8.5717,46.9796],[8.5705,46.9783],[8.5694,46.9766],[8.5685,46.9755],[8.5675,46.9751],[8.5671,46.9746],[8.5659,46.9743],[8.5622,46.9729],[8.5631,46.9702],[8.5623,46.9691],[8.5622,46.9687],[8.5615,46.9681],[8.5602,46.9656],[8.5591,46.9653],[8.5585,46.9642],[8.5581,46.9639],[8.5564,46.9634],[8.555,46.9632],[8.5548,46.9626],[8.5552,46.9612],[8.5558,46.9607],[8.5559,46.9601],[8.5562,46.9599],[8.5559,46.9592],[8.5557,46.9565],[8.5559,46.9547],[8.5556,46.9526],[8.5556,46.9514],[8.5569,46.9486],[8.557,46.9477],[8.5573,46.9475],[8.5558,46.9456],[8.5571,46.9454],[8.5562,46.9443],[8.5564,46.9438],[8.5561,46.9424],[8.5556,46.9421],[8.5556,46.9411],[8.5559,46.9408],[8.5582,46.9409],[8.5587,46.9407],[8.5588,46.9404],[8.5585,46.9399],[8.5568,46.9393],[8.5559,46.9392],[8.5556,46.9398],[8.5557,46.9401],[8.5549,46.9395],[8.5544,46.9393],[8.5498,46.9393],[8.5489,46.9386],[8.5444,46.9395],[8.5436,46.9393],[8.5444,46.9387],[8.5454,46.9364],[8.5461,46.9357],[8.5472,46.9359],[8.5477,46.9348],[8.5474,46.9345],[8.5475,46.9341],[8.5469,46.9334],[8.5468,46.9329],[8.5469,46.9326],[8.5475,46.9325],[8.5459,46.931],[8.5456,46.9304],[8.5441,46.9294],[8.5438,46.9289],[8.5441,46.9287],[8.5441,46.9279],[8.5428,46.9275],[8.5422,46.9272],[8.5418,46.9267],[8.5411,46.9264],[8.5386,46.9258],[8.5372,46.9256],[8.536,46.925],[8.5344,46.9249],[8.5317,46.9235],[8.5306,46.9235],[8.5294,46.9237],[8.5289,46.9233],[8.5255,46.9232],[8.5239,46.9227],[8.5218,46.9229],[8.5198,46.9228],[8.5195,46.9212],[8.5188,46.92],[8.516,46.919],[8.5156,46.9185],[8.5156,46.9182],[8.5153,46.918],[8.514,46.9179],[8.5109,46.9167],[8.5105,46.9163],[8.509,46.9157],[8.5071,46.9152],[8.5068,46.9153],[8.5062,46.9151],[8.5059,46.9152],[8.5028,46.9144],[8.502,46.9146],[8.5013,46.9156],[8.4998,46.9166],[8.4981,46.9188],[8.496,46.9179],[8.4958,46.918],[8.4944,46.9179],[8.4936,46.9185],[8.4924,46.9184],[8.4861,46.9185],[8.485,46.9172],[8.4846,46.9137],[8.4842,46.9128],[8.4841,46.912],[8.482,46.9099],[8.4815,46.9091],[8.4815,46.9087],[8.4813,46.9085],[8.48,46.9083],[8.479,46.9079],[8.4779,46.9077],[8.4775,46.9075],[8.4747,46.9072],[8.4743,46.9069],[8.4713,46.9061],[8.4678,46.9049],[8.4666,46.9053],[8.4643,46.9047],[8.4633,46.9027],[8.462,46.9019],[8.462,46.9016],[8.4614,46.9011],[8.4604,46.9008],[8.4599,46.9003],[8.4598,46.8998],[8.4583,46.8988],[8.4587,46.8981],[8.4592,46.8978],[8.4613,46.8972],[8.4635,46.8973],[8.4657,46.8975],[8.466,46.8977],[8.4677,46.8976],[8.4684,46.8972],[8.4686,46.8967],[8.4703,46.8953],[8.4705,46.8947],[8.4715,46.8945],[8.4717,46.8941],[8.4727,46.8937],[8.4741,46.8934],[8.4733,46.8926],[8.4733,46.8924],[8.4734,46.8922],[8.4729,46.8917],[8.473,46.8915],[8.474,46.8902],[8.4744,46.89],[8.4748,46.8892],[8.4758,46.8886],[8.4767,46.8883],[8.4765,46.8877],[8.4767,46.8874],[8.4767,46.8865],[8.4791,46.8825],[8.4776,46.8817],[8.4771,46.8816],[8.4764,46.881],[8.4759,46.881],[8.4751,46.8803],[8.4739,46.8797],[8.4727,46.8784],[8.4721,46.8782],[8.4718,46.8779],[8.4679,46.8771],[8.4672,46.8762],[8.4671,46.8752],[8.4672,46.8744],[8.4678,46.8734],[8.4685,46.8729],[8.4701,46.8712],[8.4702,46.8709],[8.4702,46.8692],[8.4713,46.8681],[8.4713,46.8676],[8.4709,46.8672],[8.4703,46.8658],[8.4695,46.8649],[8.4692,46.8641],[8.4692,46.8637],[8.469,46.863],[8.4693,46.862],[8.4687,46.8617],[8.4679,46.8606],[8.4686,46.8596],[8.4691,46.8594],[8.4692,46.8592],[8.4689,46.8584],[8.4691,46.858],[8.4709,46.8563],[8.4709,46.8559],[8.4707,46.8553],[8.4708,46.8548],[8.4686,46.855],[8.4678,46.8552],[8.4674,46.8554],[8.466,46.8554],[8.4659,46.8551],[8.4648,46.8554],[8.4639,46.855],[8.4631,46.8553],[8.462,46.8553],[8.4614,46.8549],[8.4602,46.855],[8.4575,46.8546],[8.4556,46.854],[8.4542,46.8538],[8.4518,46.854],[8.4488,46.8541],[8.4457,46.8536],[8.4448,46.8536],[8.4438,46.8534],[8.4434,46.853],[8.441,46.8531],[8.4391,46.8535],[8.4367,46.853],[8.4365,46.8524],[8.4358,46.8519],[8.4343,46.8516],[8.4325,46.8507],[8.4306,46.8506],[8.43,46.8502],[8.4276,46.8506],[8.4266,46.8513],[8.4238,46.8516],[8.4234,46.8515],[8.4222,46.8518],[8.4202,46.852],[8.4201,46.8521],[8.4195,46.8522],[8.4187,46.8532],[8.4189,46.8543],[8.4195,46.8547],[8.4204,46.8558],[8.4199,46.8564],[8.4196,46.8571],[8.4197,46.8574],[8.4192,46.8582],[8.4194,46.8596],[8.419,46.8602],[8.4189,46.8606],[8.4184,46.8612],[8.4187,46.8615],[8.4186,46.8618],[8.4188,46.8628],[8.4182,46.8632],[8.4175,46.8643],[8.4176,46.8646],[8.4169,46.8647],[8.4157,46.8654],[8.4148,46.8658],[8.4143,46.8664],[8.4138,46.8678],[8.4136,46.8685],[8.4131,46.869],[8.4132,46.8693],[8.4128,46.8698],[8.4114,46.8684],[8.4108,46.8683],[8.4094,46.8687],[8.4074,46.8672],[8.4059,46.8663],[8.406,46.8654],[8.4016,46.8641],[8.3998,46.8643],[8.3987,46.8647],[8.3953,46.8625],[8.3938,46.8609],[8.3933,46.86],[8.3918,46.8585],[8.3897,46.8578],[8.3874,46.8572],[8.3865,46.8564],[8.3862,46.8558],[8.3863,46.8555],[8.3855,46.8552],[8.3843,46.8544],[8.3813,46.8566],[8.3785,46.8534],[8.3748,46.8479],[8.374,46.8485],[8.3741,46.8491],[8.3739,46.8495],[8.3749,46.852],[8.3749,46.8525],[8.3755,46.8531],[8.3753,46.8537],[8.3755,46.8544],[8.3753,46.8555],[8.3748,46.8566],[8.3751,46.858],[8.3774,46.861],[8.3784,46.8626],[8.3797,46.8634],[8.3801,46.8639],[8.3807,46.8639],[8.3822,46.8641],[8.3847,46.866],[8.3843,46.8664],[8.3818,46.8681],[8.3818,46.869],[8.3802,46.8704],[8.3805,46.8709],[8.3807,46.871],[8.3807,46.8715],[8.3813,46.8716],[8.382,46.872],[8.3811,46.8724],[8.3811,46.8728],[8.3807,46.8736],[8.3801,46.874],[8.3749,46.8746],[8.3734,46.8745],[8.372,46.8736],[8.3702,46.8718],[8.3693,46.8694],[8.3694,46.8676],[8.3679,46.8671],[8.3671,46.8673],[8.3656,46.8673],[8.3649,46.8672],[8.3641,46.8673],[8.3638,46.8655],[8.3637,46.8655],[8.3633,46.8645],[8.3626,46.8639],[8.3624,46.8635],[8.362,46.863],[8.3613,46.8625],[8.3615,46.8622],[8.3639,46.8595],[8.3659,46.8593],[8.3679,46.8594],[8.3696,46.8592],[8.3708,46.8595],[8.3711,46.8572],[8.3708,46.8565],[8.3709,46.8528],[8.3707,46.8518],[8.37,46.851],[8.3686,46.8502],[8.3683,46.8498],[8.3686,46.8494],[8.3688,46.8483],[8.3693,46.8477],[8.3689,46.8468],[8.369,46.8464],[8.3699,46.8456],[8.3703,46.8448],[8.3703,46.8413],[8.3705,46.8399],[8.3708,46.8393],[8.3708,46.8389],[8.3716,46.8378],[8.3709,46.8363],[8.3706,46.836],[8.3709,46.8348],[8.371,46.8344],[8.3716,46.8341],[8.3719,46.833],[8.3725,46.8322],[8.3733,46.8318],[8.3741,46.831],[8.3747,46.8297],[8.3746,46.8295],[8.3753,46.8288],[8.3754,46.8286],[8.3753,46.8284],[8.3756,46.8278],[8.3768,46.8272],[8.3767,46.8265],[8.3764,46.826],[8.377,46.8249],[8.3768,46.8246],[8.3771,46.8243],[8.377,46.824],[8.3776,46.8235],[8.3775,46.8231],[8.3772,46.8229],[8.377,46.8224],[8.3774,46.822],[8.3773,46.8218],[8.3762,46.821],[8.376,46.8206],[8.3753,46.8197],[8.3756,46.8193],[8.3757,46.8183],[8.3754,46.8177],[8.3744,46.817],[8.3739,46.8162],[8.3751,46.8163],[8.376,46.8166],[8.3778,46.8163],[8.3783,46.816],[8.3787,46.8154],[8.3803,46.8144],[8.3819,46.8142],[8.3828,46.8137],[8.3849,46.8135],[8.3867,46.8128],[8.3878,46.8126],[8.388,46.8122],[8.3882,46.8111],[8.3885,46.8106],[8.3883,46.81],[8.3886,46.8099],[8.3887,46.8093],[8.3881,46.8086],[8.3872,46.8067],[8.3852,46.8048],[8.3848,46.8037],[8.3852,46.8035],[8.3859,46.8035],[8.3876,46.803],[8.3885,46.8023],[8.3882,46.8022],[8.3885,46.8019],[8.3891,46.8021],[8.3893,46.8019],[8.3891,46.8017],[8.3897,46.8014],[8.3906,46.8005],[8.3965,46.7955],[8.398,46.7952],[8.4017,46.7956],[8.4027,46.795],[8.4039,46.7938],[8.4045,46.7934],[8.4055,46.7931],[8.4062,46.7926],[8.4061,46.7922],[8.4065,46.792],[8.4063,46.7916],[8.4067,46.7916],[8.408,46.7908],[8.4112,46.7899],[8.4151,46.7899],[8.4173,46.7894],[8.4195,46.7891],[8.4197,46.7884],[8.4195,46.7873],[8.4197,46.7865],[8.4206,46.7856],[8.4215,46.7853],[8.4226,46.784],[8.4231,46.7837],[8.4234,46.7825],[8.4239,46.7817],[8.4245,46.7815],[8.4251,46.7806],[8.4253,46.7779],[8.4264,46.7771],[8.4264,46.7744],[8.4166,46.7784],[8.3952,46.7715],[8.3912,46.7778],[8.3886,46.778],[8.3878,46.7786],[8.387,46.7784],[8.3858,46.7787],[8.3823,46.7802],[8.3818,46.781],[8.3818,46.7814],[8.3814,46.7814],[8.3814,46.7818],[8.3812,46.782],[8.3805,46.7824],[8.38,46.783],[8.3789,46.7835],[8.3787,46.7842],[8.379,46.7843],[8.3789,46.7845],[8.3781,46.7851],[8.3774,46.7858],[8.3759,46.7861],[8.3756,46.7864],[8.3749,46.7864],[8.373,46.7874],[8.3708,46.7883],[8.3694,46.7882],[8.3689,46.7879],[8.3692,46.7887],[8.3692,46.7891],[8.3671,46.79],[8.3665,46.7908],[8.3643,46.7918],[8.3619,46.7932],[8.359,46.7944],[8.3564,46.7948],[8.3552,46.7947],[8.3546,46.7949],[8.354,46.7952],[8.3536,46.7957],[8.3531,46.796],[8.3511,46.7965],[8.3492,46.7971],[8.3477,46.7988],[8.3471,46.7992],[8.3456,46.7998],[8.3443,46.8],[8.3441,46.8007],[8.3434,46.8015],[8.343,46.8022],[8.343,46.8024],[8.344,46.8032],[8.3436,46.8037],[8.3433,46.8045],[8.3413,46.8046],[8.3392,46.8054],[8.3383,46.8067],[8.3368,46.8081],[8.336,46.8085],[8.3357,46.8089],[8.3349,46.809],[8.3339,46.8096],[8.3333,46.8102],[8.3333,46.8104],[8.332,46.8111],[8.3317,46.8124],[8.3311,46.8129],[8.3308,46.8129],[8.3296,46.8136],[8.3279,46.814],[8.3263,46.8149],[8.3262,46.8154],[8.3264,46.8157],[8.3263,46.8158],[8.326,46.8159],[8.3258,46.8163],[8.3253,46.8164],[8.3252,46.8166],[8.3248,46.8167],[8.3239,46.8174],[8.3237,46.818],[8.3232,46.8183],[8.3231,46.8188],[8.3236,46.8198],[8.323,46.8198],[8.3228,46.82],[8.3221,46.8202],[8.322,46.821],[8.3229,46.8217],[8.3229,46.8222],[8.324,46.8224],[8.3243,46.823],[8.3248,46.8232],[8.3256,46.824],[8.3269,46.8243],[8.3278,46.8247],[8.3289,46.8247],[8.3293,46.8252],[8.3322,46.8259],[8.3332,46.8265],[8.3332,46.8267],[8.335,46.8275],[8.3352,46.8284],[8.3352,46.8297],[8.3349,46.8304],[8.3349,46.8312],[8.3359,46.8318],[8.3357,46.8325],[8.3359,46.8331],[8.3352,46.8336],[8.3343,46.8338],[8.3323,46.8337],[8.3326,46.8378],[8.3316,46.8399],[8.3311,46.8404],[8.331,46.8412],[8.3302,46.8418],[8.3292,46.8422],[8.3289,46.8429],[8.3289,46.8437],[8.3285,46.8447],[8.3284,46.8459],[8.3279,46.8469],[8.3283,46.8483],[8.329,46.8489],[8.329,46.8493],[8.3307,46.8515],[8.3308,46.8521],[8.3308,46.8526],[8.3303,46.8531],[8.33,46.8539],[8.3308,46.8567],[8.3346,46.8612],[8.3343,46.8621],[8.3345,46.8633],[8.3343,46.8639],[8.3344,46.8645],[8.3343,46.865],[8.3339,46.8657],[8.334,46.8662],[8.3337,46.8668],[8.3342,46.8673],[8.3334,46.8684],[8.3319,46.8686],[8.3316,46.8697],[8.3307,46.8701],[8.3297,46.8714],[8.3295,46.8718],[8.3296,46.8722],[8.3294,46.8728],[8.3301,46.8742],[8.3288,46.8761],[8.3284,46.878],[8.3296,46.8788],[8.3303,46.8796],[8.333,46.882],[8.3326,46.8841],[8.3328,46.8843],[8.3329,46.8852],[8.3332,46.8862],[8.3351,46.8879],[8.3373,46.8895],[8.3377,46.8898],[8.3381,46.8907],[8.3382,46.8942],[8.3384,46.8949],[8.3384,46.8958],[8.3383,46.8961],[8.3385,46.897],[8.3383,46.8984],[8.3376,46.8998],[8.3372,46.9013],[8.3368,46.9016],[8.3368,46.9026],[8.3363,46.903],[8.3368,46.9037],[8.3366,46.9042],[8.337,46.905],[8.3369,46.9054],[8.3372,46.9063],[8.3399,46.9077],[8.3402,46.9082],[8.3411,46.9087],[8.3426,46.9115],[8.3427,46.9125],[8.3435,46.9149],[8.3418,46.9175],[8.3394,46.9184],[8.3384,46.9184],[8.3396,46.9199],[8.3399,46.9201],[8.3398,46.9203],[8.34,46.9205],[8.3402,46.9209],[8.3404,46.921],[8.3405,46.9216],[8.3403,46.9226],[8.3398,46.9233],[8.3402,46.9237],[8.3404,46.9251],[8.3412,46.9262],[8.3411,46.9267],[8.3402,46.9279],[8.3398,46.9284],[8.3381,46.9293],[8.3346,46.928],[8.3281,46.9269],[8.3264,46.9263],[8.3243,46.9259],[8.3237,46.9255],[8.323,46.9254],[8.3174,46.925],[8.3155,46.9244],[8.3137,46.9253],[8.313,46.9254],[8.3096,46.9243],[8.309,46.9249],[8.3088,46.9252],[8.3054,46.9263],[8.3049,46.9267],[8.3015,46.9284],[8.3008,46.9291],[8.3011,46.9297],[8.3001,46.9302],[8.2971,46.931],[8.2962,46.9315],[8.2946,46.9317],[8.291,46.9327],[8.2898,46.9335],[8.2883,46.9339],[8.2886,46.9348],[8.2893,46.9355],[8.2896,46.9363],[8.2903,46.9367],[8.2906,46.9376],[8.2917,46.9391],[8.2916,46.9392],[8.292,46.9398],[8.293,46.9407],[8.295,46.9419],[8.2955,46.9428],[8.2966,46.9435],[8.2971,46.9442],[8.2975,46.9451],[8.2986,46.9462],[8.2998,46.947],[8.3018,46.9479],[8.3028,46.9487],[8.3046,46.9495],[8.3055,46.9501],[8.3099,46.9522],[8.3083,46.9533],[8.3062,46.9557],[8.311,46.969],[8.3099,46.9703],[8.3096,46.9715],[8.3091,46.9723],[8.3087,46.9724],[8.3069,46.9741],[8.3072,46.9759],[8.3069,46.9761],[8.3065,46.976],[8.3055,46.9766],[8.3037,46.9769],[8.3013,46.9777],[8.3006,46.9774],[8.2997,46.9774],[8.2993,46.9775],[8.2981,46.9774],[8.2974,46.9775],[8.2962,46.9772],[8.2955,46.9772],[8.2946,46.977],[8.2928,46.9772],[8.2923,46.9766],[8.2901,46.9761],[8.2889,46.9761],[8.2878,46.9759],[8.2867,46.9759],[8.2854,46.9762],[8.2842,46.9758],[8.2831,46.976],[8.2818,46.9758],[8.2815,46.9759],[8.2813,46.9764],[8.2809,46.9766],[8.2799,46.9765],[8.2794,46.9769],[8.2761,46.9774],[8.2755,46.9773],[8.2746,46.978],[8.2725,46.9786],[8.2695,46.9789],[8.2687,46.9788],[8.2677,46.9783],[8.2668,46.9785],[8.2654,46.9783],[8.2647,46.9783],[8.2637,46.9787],[8.2625,46.9781],[8.2616,46.979],[8.2617,46.9797],[8.2609,46.9804],[8.2603,46.9801],[8.2592,46.98],[8.2564,46.9795],[8.2543,46.9801],[8.253,46.9795],[8.2523,46.9789],[8.2516,46.9786],[8.2509,46.9779],[8.2481,46.9761],[8.2468,46.9758],[8.2441,46.9743],[8.2419,46.974],[8.2406,46.9736],[8.2388,46.9738],[8.2358,46.9745],[8.2336,46.9744],[8.2324,46.9736],[8.2322,46.9734],[8.2317,46.9733],[8.2311,46.9732],[8.2299,46.9737],[8.2289,46.9731],[8.2259,46.9748],[8.2249,46.975],[8.2231,46.9757],[8.2223,46.9765],[8.2219,46.9772],[8.2207,46.9778],[8.2204,46.9786],[8.2191,46.9792],[8.2186,46.9798],[8.2183,46.9807],[8.2183,46.981],[8.2181,46.9811],[8.2186,46.9815],[8.2192,46.9817],[8.2201,46.9826],[8.221,46.9831],[8.2214,46.9844],[8.2228,46.9854],[8.223,46.9859],[8.2235,46.9863],[8.2235,46.9866],[8.2239,46.9874],[8.2248,46.9879],[8.2249,46.9885],[8.2266,46.9897],[8.2273,46.9911],[8.228,46.9919],[8.2281,46.9926],[8.2311,46.9926],[8.2337,46.992],[8.2355,46.9911],[8.2377,46.9918],[8.2393,46.9904],[8.2395,46.9895],[8.2401,46.9888],[8.2413,46.988],[8.2421,46.9871],[8.244,46.986],[8.2484,46.9874],[8.2483,46.9882],[8.2504,46.9901],[8.2534,46.9918],[8.2539,46.9924],[8.2546,46.9928],[8.2548,46.9937],[8.2553,46.9941],[8.2584,46.9954],[8.26,46.9963],[8.2655,46.9982],[8.2668,46.998],[8.2679,46.9982],[8.27,46.9981],[8.2714,46.9975],[8.2731,46.9977],[8.2738,46.9974],[8.278,46.998],[8.279,46.9973],[8.28,46.9963],[8.2805,46.9962],[8.2813,46.9957],[8.2846,46.9949],[8.2889,46.9946],[8.2892,46.9951],[8.291,46.996],[8.2925,46.9959],[8.294,46.9962],[8.2938,46.9969],[8.2948,46.9981],[8.2956,46.9982],[8.2965,46.9978],[8.297,46.9978],[8.2986,46.9983],[8.2997,46.9982],[8.3,46.9983],[8.3004,46.9981],[8.3032,46.9984],[8.3052,46.9981],[8.3053,46.9979],[8.307,46.9982],[8.3096,46.9981],[8.3101,46.9983],[8.3107,46.9981],[8.3116,46.998],[8.3116,46.9982],[8.3189,46.9996],[8.3345,46.989],[8.3685,47.02],[8.3838,47.0177],[8.3847,47.0029],[8.3842,47.0022],[8.3827,47.0014],[8.3828,47.0005],[8.3856,46.9983],[8.3888,46.999],[8.3904,46.9996],[8.3943,47.0001],[8.3955,47.0007],[8.3964,47.0009],[8.3975,47.0007],[8.3992,46.9999],[8.4,46.9998],[8.4017,46.9998],[8.4031,47.0],[8.4039,46.9997],[8.4056,47.0002],[8.4067,46.9998],[8.4076,46.9998],[8.4098,46.9992],[8.4103,46.9995],[8.4115,46.9988],[8.4122,46.9988],[8.4138,46.9982],[8.4169,46.9984],[8.4218,46.9982],[8.4223,46.9982],[8.4224,46.998],[8.426,46.9981],[8.4274,46.9988],[8.4267,46.9994],[8.427,47.0003],[8.427,47.0017],[8.4268,47.0022],[8.428,47.0172],[8.4691,47.0093],[8.4682,46.9965],[8.4652,46.9843],[8.4966,46.9764],[8.5194,46.9798],[8.5427,46.9796],[8.571,46.9902]]]}}