{"type":"Feature","bbox":[8.0422,46.7532,8.5069,46.9803],"properties":{"iso":"CH","code":"OW","name":"Obwalden","name_de":"Kanton Obwalden","source":"swisstopo","key":"CH-OW"},"geometry":{"type":"MultiPolygon","coordinates":[[[[8.3952,46.7715],[8.4166,46.7784],[8.4264,46.7744],[8.4264,46.7771],[8.4253,46.7779],[8.4251,46.7806],[8.4245,46.7815],[8.4239,46.7817],[8.4234,46.7825],[8.4231,46.7837],[8.4226,46.784],[8.4215,46.7853],[8.4206,46.7856],[8.4197,46.7865],[8.4195,46.7873],[8.4197,46.7884],[8.4195,46.7891],[8.4173,46.7894],[8.4151,46.7899],[8.4112,46.7899],[8.408,46.7908],[8.4067,46.7916],[8.4063,46.7916],[8.4065,46.792],[8.4061,46.7922],[8.4062,46.7926],[8.4055,46.7931],[8.4045,46.7934],[8.4039,46.7938],[8.4027,46.795],[8.4017,46.7956],[8.398,46.7952],[8.3965,46.7955],[8.3906,46.8005],[8.3897,46.8014],[8.3891,46.8017],[8.3893,46.8019],[8.3891,46.8021],[8.3885,46.8019],[8.3882,46.8022],[8.3885,46.8023],[8.3876,46.803],[8.3859,46.8035],[8.3852,46.8035],[8.3848,46.8037],[8.3852,46.8048],[8.3872,46.8067],[8.3881,46.8086],[8.3887,46.8093],[8.3886,46.8099],[8.3883,46.81],[8.3885,46.8106],[8.3882,46.8111],[8.388,46.8122],[8.3878,46.8126],[8.3867,46.8128],[8.3849,46.8135],[8.3828,46.8137],[8.3819,46.8142],[8.3803,46.8144],[8.3787,46.8154],[8.3783,46.816],[8.3778,46.8163],[8.376,46.8166],[8.3751,46.8163],[8.3739,46.8162],[8.3744,46.817],[8.3754,46.8177],[8.3757,46.8183],[8.3756,46.8193],[8.3753,46.8197],[8.376,46.8206],[8.3762,46.821],[8.3773,46.8218],[8.3774,46.822],[8.377,46.8224],[8.3772,46.8229],[8.3775,46.8231],[8.3776,46.8235],[8.377,46.824],[8.3771,46.8243],[8.3768,46.8246],[8.377,46.8249],[8.3764,46.826],[8.3767,46.8265],[8.3768,46.8272],[8.3756,46.8278],[8.3753,46.8284],[8.3754,46.8286],[8.3753,46.8288],[8.3746,46.8295],[8.3747,46.8297],[8.3741,46.831],[8.3733,46.8318],[8.3725,46.8322],[8.3719,46.833],[8.3716,46.8341],[8.371,46.8344],[8.3709,46.8348],[8.3706,46.836],[8.3709,46.8363],[8.3716,46.8378],[8.3708,46.8389],[8.3708,46.8393],[8.3705,46.8399],[8.3703,46.8413],[8.3703,46.8448],[8.3699,46.8456],[8.369,46.8464],[8.3689,46.8468],[8.3693,46.8477],[8.3688,46.8483],[8.3686,46.8494],[8.3683,46.8498],[8.3686,46.8502],[8.37,46.851],[8.3707,46.8518],[8.3709,46.8528],[8.3708,46.8565],[8.3711,46.8572],[8.3708,46.8595],[8.3696,46.8592],[8.3679,46.8594],[8.3659,46.8593],[8.3639,46.8595],[8.3613,46.8625],[8.362,46.863],[8.3624,46.8635],[8.3626,46.8639],[8.3633,46.8645],[8.3637,46.8655],[8.3638,46.8655],[8.3641,46.8673],[8.3649,46.8672],[8.3656,46.8673],[8.3671,46.8673],[8.3679,46.8671],[8.3694,46.8676],[8.3693,46.8694],[8.3699,46.8707],[8.37,46.8714],[8.3715,46.8731],[8.3727,46.8742],[8.3734,46.8745],[8.3749,46.8746],[8.3796,46.8741],[8.3804,46.8739],[8.3807,46.8736],[8.3811,46.8728],[8.3811,46.8724],[8.382,46.872],[8.3813,46.8716],[8.3807,46.8715],[8.3807,46.871],[8.3805,46.8709],[8.3802,46.8704],[8.3818,46.869],[8.3818,46.8681],[8.3843,46.8664],[8.3847,46.866],[8.3822,46.8641],[8.3807,46.8639],[8.3801,46.8639],[8.3797,46.8634],[8.3784,46.8626],[8.3774,46.861],[8.3751,46.858],[8.3748,46.8566],[8.3753,46.8555],[8.3755,46.8544],[8.3753,46.8537],[8.3755,46.8531],[8.3749,46.8525],[8.3749,46.852],[8.3739,46.8495],[8.3741,46.8491],[8.374,46.8485],[8.3748,46.8479],[8.3785,46.8534],[8.3813,46.8566],[8.3843,46.8544],[8.3855,46.8552],[8.3863,46.8555],[8.3862,46.8558],[8.3865,46.8564],[8.3874,46.8572],[8.3897,46.8578],[8.3918,46.8585],[8.3933,46.86],[8.3938,46.8609],[8.3953,46.8625],[8.3987,46.8647],[8.3998,46.8643],[8.4016,46.8641],[8.406,46.8654],[8.4059,46.8663],[8.4074,46.8672],[8.4094,46.8687],[8.4108,46.8683],[8.4114,46.8684],[8.4128,46.8698],[8.4132,46.8693],[8.4131,46.869],[8.4136,46.8685],[8.4138,46.8678],[8.4143,46.8664],[8.4148,46.8658],[8.4157,46.8654],[8.4169,46.8647],[8.4176,46.8646],[8.4175,46.8643],[8.4182,46.8632],[8.4188,46.8628],[8.4186,46.8618],[8.4187,46.8615],[8.4184,46.8612],[8.4189,46.8606],[8.419,46.8602],[8.4194,46.8596],[8.4192,46.8582],[8.4197,46.8574],[8.4196,46.8571],[8.4199,46.8564],[8.4204,46.8558],[8.4195,46.8547],[8.4189,46.8543],[8.4187,46.8532],[8.4195,46.8522],[8.4201,46.8521],[8.4202,46.852],[8.4222,46.8518],[8.4234,46.8515],[8.4238,46.8516],[8.4266,46.8513],[8.4276,46.8506],[8.43,46.8502],[8.4306,46.8506],[8.4325,46.8507],[8.4343,46.8516],[8.4358,46.8519],[8.4365,46.8524],[8.4367,46.853],[8.4391,46.8535],[8.441,46.8531],[8.4434,46.853],[8.4438,46.8534],[8.4448,46.8536],[8.4457,46.8536],[8.4488,46.8541],[8.4518,46.854],[8.4542,46.8538],[8.4556,46.854],[8.4575,46.8546],[8.4602,46.855],[8.4614,46.8549],[8.462,46.8553],[8.4631,46.8553],[8.4639,46.855],[8.4648,46.8554],[8.4659,46.8551],[8.466,46.8554],[8.4667,46.8554],[8.4674,46.8554],[8.4678,46.8552],[8.4693,46.8549],[8.4746,46.8545],[8.4752,46.8547],[8.4756,46.8547],[8.4763,46.855],[8.4767,46.8555],[8.4765,46.8557],[8.4768,46.8558],[8.4768,46.8559],[8.4775,46.8564],[8.4775,46.8566],[8.4782,46.857],[8.4794,46.8572],[8.4801,46.8572],[8.4824,46.8554],[8.4853,46.8551],[8.4864,46.8543],[8.4867,46.854],[8.4902,46.853],[8.492,46.853],[8.4933,46.8527],[8.4951,46.8529],[8.4965,46.8535],[8.4979,46.8537],[8.4985,46.8531],[8.4985,46.8522],[8.4996,46.8513],[8.5003,46.8511],[8.5021,46.8495],[8.5026,46.848],[8.5028,46.8479],[8.5032,46.8473],[8.5046,46.8467],[8.5048,46.8464],[8.5054,46.846],[8.5069,46.8455],[8.5055,46.8449],[8.5055,46.8443],[8.5058,46.8438],[8.5056,46.8435],[8.5058,46.8428],[8.5051,46.842],[8.5049,46.8416],[8.5044,46.8412],[8.5024,46.84],[8.5007,46.8393],[8.4996,46.8392],[8.4993,46.8392],[8.4981,46.8389],[8.4971,46.8385],[8.4937,46.8377],[8.4935,46.8375],[8.4911,46.8367],[8.4908,46.8362],[8.4903,46.836],[8.4904,46.8358],[8.489,46.8357],[8.4885,46.835],[8.4884,46.8345],[8.4881,46.8343],[8.4876,46.8331],[8.4863,46.832],[8.4863,46.831],[8.4858,46.8305],[8.4854,46.8292],[8.4834,46.827],[8.4836,46.8264],[8.4833,46.8258],[8.4836,46.8254],[8.4838,46.824],[8.4835,46.8235],[8.4837,46.8233],[8.4837,46.8217],[8.4833,46.8204],[8.4837,46.8199],[8.4832,46.819],[8.4812,46.8176],[8.4814,46.817],[8.4812,46.8164],[8.4813,46.8162],[8.4804,46.8152],[8.4804,46.815],[8.4797,46.8144],[8.4781,46.8137],[8.4782,46.8126],[8.4807,46.8114],[8.4807,46.8107],[8.4832,46.8088],[8.4833,46.8076],[8.4827,46.8067],[8.4834,46.8057],[8.4833,46.8047],[8.482,46.8033],[8.4807,46.8024],[8.4801,46.8024],[8.48,46.8022],[8.4801,46.8021],[8.4787,46.8013],[8.4763,46.8008],[8.4723,46.7994],[8.4701,46.7994],[8.4643,46.8005],[8.4658,46.7987],[8.4647,46.7985],[8.4669,46.7977],[8.4683,46.7977],[8.4714,46.7959],[8.4713,46.7955],[8.4726,46.7954],[8.4736,46.7958],[8.4755,46.7968],[8.477,46.7973],[8.4778,46.7972],[8.4811,46.7984],[8.4813,46.7973],[8.4819,46.795],[8.4819,46.7939],[8.481,46.7932],[8.4806,46.7927],[8.4793,46.7918],[8.4784,46.7901],[8.4786,46.7893],[8.4807,46.7881],[8.4811,46.7876],[8.4836,46.7863],[8.4841,46.7854],[8.4847,46.7848],[8.4854,46.7833],[8.4869,46.7821],[8.4883,46.7815],[8.4886,46.7809],[8.4914,46.7725],[8.4886,46.7711],[8.4872,46.7709],[8.4865,46.7709],[8.4845,46.7706],[8.4844,46.7703],[8.4829,46.7693],[8.4824,46.7694],[8.4801,46.7686],[8.4789,46.7688],[8.4773,46.7685],[8.4761,46.7682],[8.4758,46.7679],[8.4748,46.7679],[8.4741,46.7677],[8.4707,46.7679],[8.4704,46.7685],[8.4697,46.7689],[8.4689,46.7692],[8.4684,46.7692],[8.4664,46.7696],[8.4646,46.7696],[8.4637,46.7693],[8.4628,46.7686],[8.4604,46.7691],[8.4572,46.7676],[8.4561,46.7673],[8.456,46.7665],[8.455,46.766],[8.4543,46.7661],[8.4536,46.7655],[8.453,46.7655],[8.4514,46.7647],[8.4505,46.7645],[8.4495,46.7639],[8.4483,46.7634],[8.4479,46.7638],[8.4481,46.764],[8.4479,46.7643],[8.4484,46.7649],[8.4484,46.7652],[8.4461,46.7664],[8.4465,46.7669],[8.4464,46.7675],[8.4468,46.7678],[8.4467,46.7682],[8.4471,46.7687],[8.4467,46.769],[8.447,46.7695],[8.4466,46.77],[8.4466,46.7703],[8.4441,46.7699],[8.4422,46.7699],[8.4411,46.7708],[8.4406,46.7711],[8.4399,46.771],[8.4384,46.772],[8.4378,46.772],[8.4371,46.7723],[8.4361,46.7725],[8.4285,46.7719],[8.4265,46.7714],[8.4264,46.7707],[8.4259,46.7704],[8.4251,46.7703],[8.4227,46.7704],[8.4224,46.771],[8.4218,46.7711],[8.4219,46.7719],[8.4211,46.7728],[8.418,46.7741],[8.4169,46.7743],[8.4146,46.7743],[8.4136,46.7737],[8.4124,46.7734],[8.4125,46.7731],[8.4106,46.7715],[8.4108,46.7714],[8.4094,46.7711],[8.4089,46.7705],[8.4075,46.7696],[8.4047,46.7688],[8.4045,46.7685],[8.4037,46.7683],[8.4028,46.7678],[8.4026,46.7675],[8.4008,46.7664],[8.3976,46.7659],[8.3972,46.7655],[8.3964,46.7655],[8.3952,46.7715]]],[[[8.0469,46.7871],[8.0493,46.7882],[8.0497,46.7885],[8.0498,46.7889],[8.051,46.7895],[8.0517,46.7901],[8.0526,46.7907],[8.0529,46.791],[8.0534,46.7913],[8.0535,46.7916],[8.0539,46.7919],[8.055,46.7924],[8.0553,46.7927],[8.0561,46.7929],[8.0567,46.7942],[8.0566,46.7946],[8.0568,46.7949],[8.0569,46.7955],[8.0565,46.7965],[8.0562,46.7968],[8.0556,46.7969],[8.0551,46.7973],[8.0556,46.7979],[8.0554,46.7983],[8.0549,46.7986],[8.0552,46.7989],[8.0553,46.7992],[8.0584,46.8011],[8.0585,46.8007],[8.0607,46.8016],[8.061,46.8028],[8.0639,46.803],[8.0645,46.8061],[8.0642,46.8066],[8.0645,46.8081],[8.0641,46.8081],[8.0642,46.8084],[8.0623,46.8111],[8.0592,46.8148],[8.0584,46.8163],[8.0579,46.8167],[8.0566,46.8182],[8.056,46.8193],[8.0561,46.8195],[8.0553,46.8199],[8.0547,46.8213],[8.0538,46.822],[8.0529,46.8231],[8.0515,46.8252],[8.0504,46.8258],[8.0471,46.829],[8.0468,46.8294],[8.0478,46.8303],[8.0477,46.8316],[8.0466,46.832],[8.0448,46.8338],[8.0443,46.8345],[8.0434,46.8352],[8.0431,46.8358],[8.0422,46.8365],[8.0442,46.8401],[8.0447,46.8414],[8.0448,46.8424],[8.0458,46.8442],[8.0481,46.8449],[8.0498,46.8451],[8.0505,46.8457],[8.0507,46.8461],[8.0517,46.8466],[8.0521,46.8473],[8.0542,46.8485],[8.056,46.8493],[8.0561,46.8496],[8.056,46.8502],[8.057,46.851],[8.0577,46.8523],[8.0583,46.8527],[8.0589,46.8534],[8.0585,46.8537],[8.0578,46.8555],[8.0573,46.856],[8.0579,46.8563],[8.0585,46.8571],[8.0578,46.8572],[8.0575,46.8575],[8.0588,46.8577],[8.0592,46.8583],[8.0595,46.8587],[8.061,46.8584],[8.0615,46.8581],[8.0621,46.8579],[8.0625,46.8582],[8.0628,46.8589],[8.0637,46.8587],[8.065,46.8587],[8.0657,46.8596],[8.066,46.8608],[8.0664,46.8617],[8.0673,46.8624],[8.0661,46.8646],[8.0662,46.8654],[8.0661,46.8655],[8.0662,46.8659],[8.0658,46.8663],[8.066,46.867],[8.0678,46.8674],[8.0688,46.868],[8.0697,46.8688],[8.0699,46.8692],[8.0699,46.8702],[8.0697,46.8708],[8.0691,46.8712],[8.0697,46.8715],[8.0704,46.8726],[8.0716,46.8737],[8.071,46.8745],[8.0707,46.8756],[8.0703,46.8762],[8.0701,46.8769],[8.0705,46.8776],[8.0703,46.8781],[8.0701,46.8803],[8.0708,46.8802],[8.071,46.8816],[8.0702,46.8819],[8.0694,46.882],[8.0692,46.8826],[8.0689,46.8829],[8.0684,46.8846],[8.0676,46.8858],[8.067,46.8878],[8.0689,46.8891],[8.0697,46.8908],[8.0698,46.8957],[8.0719,46.8964],[8.0731,46.8971],[8.076,46.8972],[8.077,46.8974],[8.078,46.8974],[8.0796,46.8979],[8.0805,46.8984],[8.0826,46.8992],[8.0826,46.8995],[8.0832,46.8999],[8.0833,46.9002],[8.0836,46.9003],[8.0839,46.9016],[8.0843,46.9024],[8.0861,46.9043],[8.0858,46.9061],[8.087,46.9068],[8.0871,46.9072],[8.0884,46.9086],[8.0891,46.9091],[8.0915,46.9094],[8.0939,46.9103],[8.0939,46.9105],[8.0947,46.9111],[8.0948,46.912],[8.0984,46.9106],[8.1007,46.9091],[8.102,46.9088],[8.1039,46.9091],[8.1051,46.9089],[8.1062,46.9084],[8.1085,46.9083],[8.1081,46.9063],[8.1073,46.905],[8.1074,46.9042],[8.107,46.9035],[8.1063,46.9014],[8.1064,46.9003],[8.1064,46.8984],[8.1076,46.8949],[8.1103,46.8932],[8.1112,46.8927],[8.1127,46.8938],[8.1136,46.8957],[8.1147,46.897],[8.1158,46.8988],[8.1162,46.9002],[8.1173,46.9019],[8.1175,46.9026],[8.1175,46.9031],[8.118,46.9037],[8.1188,46.904],[8.1191,46.9046],[8.1203,46.9057],[8.1214,46.9068],[8.1218,46.9084],[8.1227,46.9097],[8.1241,46.9107],[8.1252,46.9121],[8.1263,46.9132],[8.1263,46.9134],[8.1284,46.9149],[8.1286,46.9155],[8.1298,46.9172],[8.1323,46.9196],[8.1331,46.92],[8.1338,46.9208],[8.134,46.9215],[8.1347,46.9223],[8.1356,46.9228],[8.1369,46.9227],[8.1392,46.9233],[8.1399,46.9239],[8.1409,46.925],[8.1411,46.9256],[8.1436,46.9272],[8.1454,46.9277],[8.1467,46.9285],[8.148,46.9297],[8.1496,46.9299],[8.1517,46.9309],[8.1541,46.9329],[8.1562,46.9335],[8.1569,46.9334],[8.1574,46.9337],[8.1584,46.935],[8.1592,46.9358],[8.16,46.9358],[8.162,46.9365],[8.1622,46.9368],[8.1638,46.9377],[8.1644,46.9386],[8.1647,46.9388],[8.1648,46.9396],[8.1632,46.9421],[8.1623,46.9431],[8.1617,46.9436],[8.1608,46.9435],[8.1535,46.95],[8.1511,46.9529],[8.1515,46.9558],[8.1512,46.9562],[8.1509,46.9561],[8.1504,46.9563],[8.1506,46.9568],[8.15,46.9569],[8.1502,46.957],[8.1503,46.9573],[8.15,46.9574],[8.1507,46.9579],[8.1531,46.9587],[8.1549,46.959],[8.1555,46.9594],[8.1556,46.9596],[8.1548,46.9601],[8.1549,46.9603],[8.1557,46.9605],[8.1559,46.9607],[8.1561,46.9607],[8.1566,46.9609],[8.157,46.9613],[8.1581,46.9608],[8.159,46.9611],[8.1611,46.9628],[8.1645,46.9647],[8.1657,46.9647],[8.1674,46.9652],[8.1685,46.9653],[8.1721,46.9666],[8.1728,46.9666],[8.1738,46.9672],[8.1748,46.9672],[8.1757,46.9679],[8.1767,46.9684],[8.1781,46.9687],[8.1819,46.9685],[8.1828,46.9693],[8.1873,46.9717],[8.195,46.9687],[8.2023,46.967],[8.203,46.9669],[8.209,46.9676],[8.214,46.9684],[8.2162,46.9691],[8.2203,46.9695],[8.226,46.9691],[8.227,46.9692],[8.2289,46.97],[8.2292,46.9713],[8.2297,46.9721],[8.2289,46.9731],[8.2299,46.9737],[8.2311,46.9732],[8.2317,46.9733],[8.2322,46.9734],[8.2324,46.9736],[8.2336,46.9744],[8.2358,46.9745],[8.2388,46.9738],[8.2406,46.9736],[8.2419,46.974],[8.2441,46.9743],[8.2468,46.9758],[8.2481,46.9761],[8.2509,46.9779],[8.2516,46.9786],[8.2523,46.9789],[8.253,46.9795],[8.2543,46.9801],[8.2564,46.9795],[8.261,46.9803],[8.2617,46.9797],[8.2616,46.979],[8.2625,46.9781],[8.2637,46.9787],[8.2647,46.9783],[8.2654,46.9783],[8.2668,46.9785],[8.2677,46.9783],[8.2687,46.9788],[8.2695,46.9789],[8.2725,46.9786],[8.2746,46.978],[8.2755,46.9773],[8.2761,46.9774],[8.2794,46.9769],[8.2799,46.9765],[8.2809,46.9766],[8.2813,46.9764],[8.2815,46.9759],[8.2818,46.9758],[8.2831,46.976],[8.2842,46.9758],[8.2854,46.9762],[8.2867,46.9759],[8.2878,46.9759],[8.2889,46.9761],[8.2901,46.9761],[8.2923,46.9766],[8.2928,46.9772],[8.2946,46.977],[8.2955,46.9772],[8.2962,46.9772],[8.2974,46.9775],[8.2981,46.9774],[8.2993,46.9775],[8.2997,46.9774],[8.3006,46.9774],[8.3013,46.9777],[8.3037,46.9769],[8.3055,46.9766],[8.3065,46.976],[8.3069,46.9761],[8.3072,46.9759],[8.3069,46.9741],[8.3087,46.9724],[8.3091,46.9723],[8.3096,46.9715],[8.3099,46.9703],[8.311,46.969],[8.3062,46.9557],[8.3083,46.9533],[8.3099,46.9522],[8.3055,46.9501],[8.3046,46.9495],[8.3028,46.9487],[8.3018,46.9479],[8.2998,46.947],[8.2986,46.9462],[8.2975,46.9451],[8.2971,46.9442],[8.2966,46.9435],[8.2955,46.9428],[8.295,46.9419],[8.293,46.9407],[8.292,46.9398],[8.2916,46.9392],[8.2917,46.9391],[8.2906,46.9376],[8.2903,46.9367],[8.2896,46.9363],[8.2893,46.9355],[8.2886,46.9348],[8.2883,46.9339],[8.2898,46.9335],[8.291,46.9327],[8.2946,46.9317],[8.2962,46.9315],[8.2971,46.931],[8.3001,46.9302],[8.3011,46.9297],[8.3008,46.9291],[8.3015,46.9284],[8.3049,46.9267],[8.3054,46.9263],[8.3088,46.9252],[8.309,46.9249],[8.3096,46.9243],[8.313,46.9254],[8.3137,46.9253],[8.3155,46.9244],[8.3174,46.925],[8.323,46.9254],[8.3237,46.9255],[8.3243,46.9259],[8.3264,46.9263],[8.3281,46.9269],[8.3346,46.928],[8.3381,46.9293],[8.3398,46.9284],[8.3411,46.9267],[8.3412,46.9262],[8.3404,46.9251],[8.3402,46.9237],[8.3398,46.9233],[8.3403,46.9226],[8.3405,46.9216],[8.3404,46.921],[8.3402,46.9209],[8.34,46.9205],[8.3398,46.9203],[8.3399,46.9201],[8.3396,46.9199],[8.3384,46.9184],[8.3394,46.9184],[8.3418,46.9175],[8.3435,46.9149],[8.3427,46.9125],[8.3426,46.9115],[8.3411,46.9087],[8.3402,46.9082],[8.3399,46.9077],[8.3372,46.9063],[8.3369,46.9054],[8.337,46.905],[8.3366,46.9042],[8.3368,46.9037],[8.3363,46.903],[8.3368,46.9026],[8.3368,46.9016],[8.3372,46.9013],[8.3376,46.8998],[8.3383,46.8984],[8.3385,46.897],[8.3383,46.8961],[8.3384,46.8958],[8.3384,46.8949],[8.3382,46.8942],[8.3381,46.8907],[8.3377,46.8898],[8.3373,46.8895],[8.3351,46.8879],[8.3332,46.8862],[8.3329,46.8852],[8.3328,46.8843],[8.3326,46.8841],[8.333,46.882],[8.3303,46.8796],[8.3296,46.8788],[8.3284,46.878],[8.3288,46.8761],[8.3301,46.8742],[8.3294,46.8728],[8.3296,46.8722],[8.3295,46.8718],[8.3297,46.8714],[8.3307,46.8701],[8.3316,46.8697],[8.3319,46.8686],[8.3334,46.8684],[8.3342,46.8673],[8.3337,46.8668],[8.334,46.8662],[8.3339,46.8657],[8.3343,46.865],[8.3344,46.8645],[8.3343,46.8639],[8.3345,46.8633],[8.3343,46.8621],[8.3346,46.8612],[8.3308,46.8567],[8.33,46.8539],[8.3303,46.8531],[8.3308,46.8526],[8.3308,46.8521],[8.3307,46.8515],[8.329,46.8493],[8.329,46.8489],[8.3283,46.8483],[8.3279,46.8469],[8.3284,46.8459],[8.3285,46.8447],[8.3289,46.8437],[8.3289,46.8429],[8.3292,46.8422],[8.3302,46.8418],[8.331,46.8412],[8.3311,46.8404],[8.3316,46.8399],[8.3326,46.8378],[8.3323,46.8337],[8.3343,46.8338],[8.3352,46.8336],[8.3359,46.8331],[8.3357,46.8325],[8.3359,46.8318],[8.3349,46.8312],[8.3349,46.8304],[8.3352,46.8297],[8.3352,46.8284],[8.335,46.8275],[8.3332,46.8267],[8.3332,46.8265],[8.3322,46.8259],[8.3293,46.8252],[8.3289,46.8247],[8.3278,46.8247],[8.3269,46.8243],[8.3256,46.824],[8.3248,46.8232],[8.3243,46.823],[8.324,46.8224],[8.3229,46.8222],[8.3229,46.8217],[8.322,46.821],[8.322,46.8206],[8.3221,46.8202],[8.3228,46.82],[8.323,46.8198],[8.3236,46.8198],[8.3231,46.8188],[8.3232,46.8183],[8.3237,46.818],[8.3239,46.8174],[8.3248,46.8167],[8.3252,46.8166],[8.3253,46.8164],[8.3258,46.8163],[8.326,46.8159],[8.3263,46.8158],[8.3264,46.8157],[8.3262,46.8154],[8.3263,46.8149],[8.3279,46.814],[8.3296,46.8136],[8.3308,46.8129],[8.3311,46.8129],[8.3317,46.8124],[8.332,46.8111],[8.3333,46.8104],[8.3333,46.8102],[8.3339,46.8096],[8.3349,46.809],[8.3357,46.8089],[8.336,46.8085],[8.3368,46.8081],[8.3383,46.8067],[8.3392,46.8054],[8.3413,46.8046],[8.3433,46.8045],[8.3436,46.8037],[8.344,46.8032],[8.343,46.8024],[8.343,46.8022],[8.3434,46.8015],[8.3441,46.8007],[8.3443,46.8],[8.3456,46.7998],[8.3471,46.7992],[8.3477,46.7988],[8.3492,46.7971],[8.3511,46.7965],[8.3531,46.796],[8.3536,46.7957],[8.354,46.7952],[8.3546,46.7949],[8.3552,46.7947],[8.3564,46.7948],[8.3585,46.7945],[8.3611,46.7936],[8.3665,46.7908],[8.3671,46.79],[8.3692,46.7891],[8.3692,46.7887],[8.3689,46.7879],[8.3677,46.7876],[8.3674,46.7871],[8.3638,46.7861],[8.3641,46.7851],[8.3635,46.7845],[8.3623,46.7842],[8.3612,46.7838],[8.3599,46.783],[8.3566,46.7826],[8.3557,46.7827],[8.3505,46.7821],[8.3337,46.7806],[8.3332,46.7803],[8.3329,46.7803],[8.3319,46.7799],[8.3314,46.7795],[8.3313,46.7788],[8.331,46.7785],[8.3297,46.778],[8.3289,46.778],[8.3277,46.7774],[8.3268,46.7768],[8.3268,46.7761],[8.3258,46.7756],[8.3208,46.7733],[8.3159,46.7701],[8.3116,46.7683],[8.3069,46.7652],[8.3066,46.7642],[8.3021,46.762],[8.2996,46.7614],[8.2984,46.7623],[8.2982,46.7622],[8.2977,46.7617],[8.2969,46.7602],[8.2959,46.7595],[8.2949,46.7592],[8.293,46.7582],[8.2918,46.758],[8.2913,46.758],[8.2904,46.757],[8.287,46.7553],[8.2865,46.7549],[8.2864,46.7545],[8.2855,46.7541],[8.2842,46.7538],[8.2835,46.7532],[8.282,46.754],[8.281,46.7543],[8.2801,46.7542],[8.2773,46.7544],[8.2755,46.7551],[8.275,46.7547],[8.2737,46.755],[8.2687,46.7543],[8.2689,46.7546],[8.2687,46.7554],[8.2683,46.7555],[8.2676,46.7562],[8.2665,46.7571],[8.2667,46.7576],[8.2644,46.7595],[8.2639,46.7596],[8.2637,46.76],[8.2627,46.7607],[8.2625,46.761],[8.2612,46.7621],[8.2601,46.7634],[8.2594,46.7638],[8.2571,46.7644],[8.2558,46.7644],[8.2552,46.7645],[8.2548,46.7649],[8.2519,46.7661],[8.2484,46.7669],[8.2472,46.7676],[8.2453,46.7676],[8.2453,46.7677],[8.2448,46.7678],[8.2446,46.7681],[8.2424,46.7686],[8.2417,46.7689],[8.2416,46.7692],[8.2409,46.7692],[8.2403,46.7695],[8.2391,46.7696],[8.2339,46.7619],[8.2335,46.7617],[8.2298,46.761],[8.2292,46.7612],[8.228,46.761],[8.2269,46.7615],[8.223,46.7613],[8.222,46.7611],[8.2204,46.7615],[8.2194,46.7635],[8.218,46.7637],[8.2176,46.7641],[8.2164,46.7647],[8.2121,46.7664],[8.2109,46.7671],[8.2102,46.768],[8.2093,46.7681],[8.2086,46.7691],[8.208,46.7695],[8.2066,46.7696],[8.2032,46.7694],[8.2026,46.769],[8.1993,46.7688],[8.1963,46.7679],[8.1932,46.7684],[8.1898,46.7703],[8.1877,46.7697],[8.1858,46.7686],[8.1741,46.7654],[8.1726,46.7647],[8.1721,46.7641],[8.1709,46.7643],[8.1679,46.7654],[8.1672,46.7647],[8.1668,46.764],[8.1662,46.7638],[8.1661,46.7639],[8.1656,46.7639],[8.165,46.7634],[8.1643,46.7634],[8.1637,46.7623],[8.1635,46.7617],[8.1631,46.7613],[8.1629,46.7614],[8.1628,46.7618],[8.1622,46.7619],[8.1624,46.7613],[8.162,46.7613],[8.1609,46.7606],[8.1594,46.7605],[8.1594,46.7599],[8.1588,46.7598],[8.159,46.7596],[8.1583,46.7599],[8.1582,46.7598],[8.158,46.7595],[8.1585,46.7592],[8.1553,46.7586],[8.1544,46.7581],[8.1527,46.758],[8.1497,46.757],[8.1486,46.7563],[8.1469,46.7548],[8.141,46.7586],[8.1402,46.759],[8.1397,46.759],[8.1387,46.7595],[8.1388,46.7599],[8.1386,46.7601],[8.1377,46.7606],[8.1375,46.7607],[8.1377,46.7608],[8.1372,46.7614],[8.1354,46.7626],[8.129,46.7665],[8.1218,46.7704],[8.1183,46.771],[8.1175,46.7714],[8.1165,46.7716],[8.116,46.772],[8.1158,46.772],[8.1145,46.7725],[8.1135,46.7734],[8.1112,46.7738],[8.1101,46.7738],[8.1069,46.7729],[8.1053,46.7729],[8.1024,46.7738],[8.1019,46.7744],[8.1016,46.7761],[8.0996,46.7783],[8.0975,46.7788],[8.0963,46.7795],[8.0936,46.7825],[8.0918,46.7837],[8.0911,46.784],[8.0908,46.7844],[8.0909,46.785],[8.0907,46.7856],[8.09,46.7867],[8.0899,46.7872],[8.09,46.7876],[8.0887,46.7876],[8.0858,46.7869],[8.0828,46.7869],[8.0773,46.7859],[8.0758,46.786],[8.0743,46.7863],[8.0725,46.7873],[8.0695,46.7882],[8.069,46.7886],[8.0684,46.7884],[8.0673,46.7877],[8.0664,46.7877],[8.0646,46.787],[8.0635,46.7873],[8.0598,46.7864],[8.0551,46.7884],[8.0503,46.7883],[8.0469,46.7871]]]]}}