{"type":"Feature","bbox":[8.3863,46.8902,8.9851,47.2206],"properties":{"iso":"CH","code":"SZ","name":"Schwyz","name_de":"Kanton Schwyz","key":"CH-SZ"},"geometry":{"type":"Polygon","coordinates":[[[8.6596,46.9461],[8.6523,46.9468],[8.6312,46.9522],[8.6223,46.9536],[8.6166,46.9554],[8.6092,46.9596],[8.6051,46.9685],[8.5998,46.9861],[8.591,46.9892],[8.5617,46.9881],[8.4895,46.9816],[8.4651,46.9933],[8.4982,47.0053],[8.505,47.0181],[8.5018,47.023],[8.4981,47.0266],[8.4597,47.0508],[8.4197,47.058],[8.4043,47.0531],[8.3933,47.0572],[8.3879,47.0622],[8.3863,47.0677],[8.3877,47.0709],[8.3967,47.0774],[8.4001,47.0807],[8.4017,47.0844],[8.4031,47.0934],[8.4062,47.097],[8.4116,47.1006],[8.4424,47.1133],[8.4527,47.1186],[8.4628,47.122],[8.47,47.1201],[8.4803,47.1195],[8.4978,47.0926],[8.5493,47.0957],[8.5547,47.0949],[8.5671,47.0874],[8.5758,47.0872],[8.5877,47.089],[8.6106,47.0946],[8.6241,47.0964],[8.6375,47.1002],[8.6485,47.1059],[8.6765,47.129],[8.6841,47.1437],[8.7019,47.1567],[8.6835,47.1654],[8.6819,47.1708],[8.6762,47.1762],[8.6751,47.1783],[8.675,47.1809],[8.6773,47.1867],[8.6832,47.1915],[8.6931,47.1976],[8.7321,47.2146],[8.7754,47.2206],[8.83,47.214],[8.9241,47.2205],[8.9553,47.2139],[8.9526,47.2044],[8.9519,47.1957],[8.9585,47.1872],[8.9851,47.1689],[8.9659,47.1268],[8.9659,47.1211],[8.9629,47.1099],[8.9606,47.1059],[8.956,47.1005],[8.9583,47.0875],[8.9574,47.0803],[8.9474,47.0663],[8.9395,47.0581],[8.9308,47.0514],[8.906,47.0433],[8.8947,47.0376],[8.8899,47.0265],[8.9038,47.0177],[8.9319,46.99],[8.932,46.9885],[8.9293,46.985],[8.9296,46.9821],[8.9339,46.9767],[8.9388,46.9733],[8.9547,46.9658],[8.9586,46.9613],[8.9603,46.955],[8.9564,46.9416],[8.9516,46.9296],[8.9303,46.9222],[8.8852,46.9046],[8.8557,46.8956],[8.8492,46.8911],[8.8449,46.8902],[8.8411,46.8921],[8.8387,46.898],[8.8376,46.909],[8.8353,46.9121],[8.8291,46.9124],[8.8233,46.9168],[8.8203,46.9203],[8.8199,46.925],[8.8205,46.9294],[8.8175,46.9332],[8.8106,46.9351],[8.7823,46.9346],[8.7732,46.9357],[8.7665,46.9395],[8.7612,46.9412],[8.7541,46.94],[8.7347,46.9341],[8.7252,46.9305],[8.715,46.9248],[8.7083,46.923],[8.7024,46.9244],[8.6951,46.9318],[8.6903,46.9428],[8.6874,46.9456],[8.6824,46.9472],[8.6596,46.9461]]]}}