{"type":"Feature","bbox":[8.391,47.5605,8.8561,47.8012],"properties":{"iso":"CH","code":"SH","name":"Schaffhausen","name_de":"Kanton Schaffhausen","key":"CH-SH"},"geometry":{"type":"MultiPolygon","coordinates":[[[[8.5582,47.8012],[8.5831,47.8002],[8.6016,47.7946],[8.6032,47.7873],[8.6041,47.7744],[8.6076,47.7623],[8.6174,47.7573],[8.6298,47.7628],[8.635,47.7846],[8.6441,47.791],[8.657,47.7881],[8.6666,47.7783],[8.6745,47.7667],[8.6819,47.7587],[8.6923,47.7572],[8.7033,47.7587],[8.7131,47.7574],[8.7198,47.7473],[8.7171,47.7435],[8.7037,47.73],[8.7004,47.7235],[8.7047,47.7153],[8.7126,47.7087],[8.7171,47.6946],[8.7699,47.6951],[8.7617,47.7013],[8.7707,47.7209],[8.7976,47.72],[8.8302,47.7072],[8.8561,47.6907],[8.8377,47.6878],[8.8378,47.6808],[8.8519,47.6713],[8.8215,47.6823],[8.8099,47.6788],[8.8003,47.6818],[8.7885,47.6626],[8.7817,47.6575],[8.7777,47.6555],[8.7665,47.6543],[8.7547,47.6477],[8.7486,47.6461],[8.7078,47.6472],[8.699,47.6492],[8.692,47.6522],[8.6816,47.6643],[8.68,47.6802],[8.6832,47.6955],[8.64,47.6963],[8.6316,47.6906],[8.6247,47.6816],[8.6076,47.6708],[8.5936,47.6582],[8.5822,47.6613],[8.5682,47.6629],[8.5197,47.6574],[8.5047,47.6523],[8.4908,47.6456],[8.4761,47.6404],[8.4583,47.6399],[8.4376,47.6478],[8.412,47.661],[8.407,47.6616],[8.3913,47.6655],[8.3977,47.6763],[8.3952,47.6848],[8.391,47.6921],[8.3921,47.6995],[8.4019,47.7071],[8.4273,47.7165],[8.4379,47.7232],[8.4455,47.7432],[8.4501,47.7505],[8.4636,47.7639],[8.4715,47.7671],[8.4827,47.7669],[8.5365,47.7741],[8.5516,47.7793],[8.5423,47.795],[8.5582,47.8012]]],[[[8.5607,47.5894],[8.5741,47.5924],[8.5763,47.595],[8.5766,47.5915],[8.5637,47.5685],[8.5559,47.5607],[8.5525,47.5605],[8.549,47.5614],[8.5404,47.5692],[8.5336,47.5737],[8.5294,47.5754],[8.5303,47.5829],[8.5517,47.5969],[8.5607,47.5894]]]]}}