{"type":"Feature","bbox":[8.7754,46.8818,9.6503,47.5354],"properties":{"iso":"CH","code":"SG","name":"Sankt Gallen","name_de":"Kanton St. Gallen","key":"CH-SG"},"geometry":{"type":"Polygon","coordinates":[[[9.5531,47.5169],[9.555,47.5109],[9.5845,47.4807],[9.6217,47.4692],[9.6503,47.4521],[9.6495,47.4097],[9.6398,47.3945],[9.601,47.3613],[9.5964,47.3523],[9.5912,47.3347],[9.5874,47.3278],[9.5533,47.2999],[9.5046,47.2437],[9.4874,47.21],[9.485,47.1763],[9.4926,47.1598],[9.5035,47.1454],[9.5119,47.1294],[9.5124,47.108],[9.5029,47.0947],[9.4876,47.0839],[9.4759,47.0732],[9.4772,47.06],[9.4848,47.0432],[9.4959,47.0266],[9.5264,46.9911],[9.532,46.9833],[9.5244,46.9819],[9.5185,46.9795],[9.5138,46.976],[9.5101,46.9666],[9.5073,46.9625],[9.498,46.9575],[9.4928,46.9532],[9.4809,46.9369],[9.4778,46.925],[9.4783,46.9203],[9.4772,46.9151],[9.4744,46.9097],[9.4612,46.8938],[9.4487,46.8909],[9.4457,46.8827],[9.4426,46.8818],[9.4354,46.8823],[9.4243,46.8881],[9.4038,46.8952],[9.2699,46.9086],[9.2655,46.9069],[9.2602,46.9069],[9.2567,46.9076],[9.2409,46.9203],[9.2429,46.9297],[9.2418,46.9335],[9.234,46.9455],[9.2306,46.9542],[9.2302,46.9579],[9.2331,46.9636],[9.2378,46.9923],[9.2362,46.9994],[9.2319,47.0082],[9.2187,47.0267],[9.2104,47.0344],[9.2024,47.0385],[9.1951,47.0381],[9.1876,47.0365],[9.1765,47.0326],[9.1578,47.0312],[9.1513,47.0325],[9.1329,47.0398],[9.1322,47.0417],[9.1347,47.0441],[9.1693,47.0606],[9.1749,47.0747],[9.1799,47.1222],[9.0747,47.1363],[9.0595,47.1422],[9.007,47.1747],[9.0011,47.1748],[8.9851,47.1689],[8.9585,47.1872],[8.9519,47.1957],[8.9526,47.2044],[8.9553,47.2139],[8.9241,47.2205],[8.83,47.214],[8.7754,47.2206],[8.7892,47.2437],[8.8076,47.2536],[8.8487,47.2497],[8.8618,47.2505],[8.9207,47.2691],[8.93,47.2748],[8.9347,47.2796],[8.9339,47.2878],[8.9395,47.294],[8.947,47.3008],[8.9598,47.3084],[8.966,47.3134],[8.9691,47.3173],[8.9662,47.3251],[8.9605,47.3465],[8.9367,47.3756],[8.9324,47.38],[8.9425,47.3804],[8.9507,47.3879],[8.9645,47.4049],[8.9743,47.4127],[8.9854,47.4299],[8.9891,47.4335],[8.9936,47.4346],[9.0008,47.4335],[9.0143,47.4375],[9.0267,47.4389],[9.0303,47.4405],[9.0321,47.443],[9.0326,47.4464],[9.0312,47.4601],[9.0035,47.4735],[9.0013,47.4768],[9.0004,47.4819],[9.0036,47.4862],[9.0193,47.4897],[9.0276,47.4957],[9.0312,47.4964],[9.0391,47.4944],[9.0452,47.4943],[9.0624,47.4961],[9.0657,47.4957],[9.0727,47.4896],[9.0756,47.4891],[9.0883,47.4901],[9.1009,47.4878],[9.1133,47.4879],[9.1299,47.4896],[9.1378,47.4927],[9.1425,47.4965],[9.1515,47.5076],[9.1664,47.4956],[9.1991,47.485],[9.2381,47.4791],[9.2557,47.4774],[9.2688,47.4829],[9.2746,47.4833],[9.2829,47.4819],[9.2897,47.4834],[9.2952,47.4861],[9.2989,47.49],[9.3012,47.493],[9.3049,47.5008],[9.2998,47.5158],[9.2924,47.5165],[9.2808,47.5142],[9.2702,47.5152],[9.2664,47.5168],[9.2663,47.5194],[9.268,47.5207],[9.2699,47.5212],[9.2737,47.5204],[9.2832,47.526],[9.2952,47.5284],[9.3034,47.5287],[9.3063,47.5295],[9.3113,47.5327],[9.3159,47.5341],[9.3209,47.5351],[9.3351,47.5354],[9.3444,47.5254],[9.3439,47.5176],[9.3407,47.5122],[9.343,47.5075],[9.3653,47.488],[9.374,47.4831],[9.3805,47.4814],[9.3874,47.4907],[9.4384,47.5167],[9.4485,47.5122],[9.444,47.5029],[9.446,47.5001],[9.4559,47.4966],[9.4597,47.4964],[9.5531,47.5169]],[[9.4882,47.3534],[9.4814,47.3685],[9.4866,47.3936],[9.5137,47.4008],[9.5264,47.4021],[9.5405,47.3972],[9.5832,47.4152],[9.5815,47.4244],[9.5832,47.4318],[9.5853,47.4342],[9.6084,47.4498],[9.5677,47.4545],[9.5521,47.4587],[9.5392,47.4652],[9.5309,47.4666],[9.5264,47.4683],[9.5223,47.4681],[9.5169,47.4661],[9.4959,47.4532],[9.4459,47.438],[9.4374,47.4358],[9.4257,47.434],[9.4204,47.4278],[9.4171,47.4217],[9.4154,47.4164],[9.4094,47.4118],[9.3974,47.4093],[9.3754,47.4095],[9.2942,47.3992],[9.278,47.4028],[9.2708,47.4029],[9.235,47.3992],[9.226,47.4003],[9.2174,47.3914],[9.2076,47.3767],[9.2,47.3677],[9.1876,47.3597],[9.1861,47.3577],[9.1991,47.3402],[9.209,47.3419],[9.2134,47.3419],[9.2168,47.3403],[9.218,47.3369],[9.2103,47.328],[9.2038,47.3233],[9.2019,47.3193],[9.2013,47.3129],[9.2083,47.2905],[9.1966,47.2811],[9.2041,47.2751],[9.2083,47.2734],[9.2174,47.2715],[9.2672,47.2671],[9.298,47.2555],[9.3084,47.2501],[9.3147,47.2501],[9.3315,47.2531],[9.3447,47.2466],[9.3534,47.2442],[9.3603,47.2411],[9.3755,47.2397],[9.4038,47.247],[9.4233,47.2539],[9.4377,47.261],[9.4516,47.2715],[9.4711,47.2964],[9.4882,47.3534]]]}}