{"type":"Feature","bbox":[8.3822,45.818,9.1597,46.6325],"properties":{"iso":"CH","code":"TI","name":"Ticino","name_de":"Kanton Tessin","source":"swisstopo","key":"CH-TI"},"geometry":{"type":"Polygon","coordinates":[[[8.4775,46.5274],[8.479,46.5285],[8.4796,46.5287],[8.48,46.5291],[8.4807,46.5293],[8.4819,46.5316],[8.4826,46.5324],[8.4851,46.5323],[8.4865,46.5328],[8.4903,46.5328],[8.4914,46.533],[8.4935,46.5341],[8.4951,46.5346],[8.4968,46.5344],[8.4975,46.5342],[8.4994,46.5344],[8.4998,46.5342],[8.5003,46.5344],[8.5005,46.5348],[8.5013,46.5351],[8.5054,46.5352],[8.5075,46.5358],[8.5079,46.5363],[8.5097,46.5368],[8.5114,46.5376],[8.5118,46.5375],[8.5128,46.5377],[8.5138,46.5382],[8.5156,46.5385],[8.5161,46.5388],[8.5169,46.5389],[8.5172,46.5388],[8.5195,46.5389],[8.5196,46.5397],[8.5194,46.5401],[8.5196,46.5406],[8.5193,46.5412],[8.5194,46.5415],[8.52,46.5419],[8.5204,46.5425],[8.5198,46.5434],[8.5189,46.5437],[8.5187,46.5441],[8.5182,46.5444],[8.5181,46.5449],[8.5177,46.5452],[8.518,46.5455],[8.5181,46.5467],[8.5166,46.5475],[8.5157,46.5486],[8.5152,46.5502],[8.5149,46.5505],[8.5145,46.5515],[8.5149,46.5528],[8.5159,46.5545],[8.5153,46.5556],[8.5142,46.5564],[8.5136,46.5566],[8.5135,46.557],[8.5132,46.5573],[8.5131,46.5581],[8.5134,46.5583],[8.5136,46.5592],[8.5142,46.5601],[8.5152,46.5612],[8.5158,46.5623],[8.5168,46.5629],[8.5181,46.5654],[8.5198,46.5665],[8.521,46.5669],[8.521,46.5701],[8.5203,46.5721],[8.52,46.5727],[8.5219,46.5746],[8.5219,46.576],[8.5212,46.5772],[8.5228,46.5776],[8.525,46.5778],[8.5248,46.5788],[8.5249,46.5792],[8.5261,46.5803],[8.526,46.581],[8.5263,46.5815],[8.5277,46.5825],[8.5302,46.5837],[8.5314,46.5846],[8.5323,46.5848],[8.5342,46.5845],[8.5365,46.5849],[8.5389,46.5864],[8.5392,46.5868],[8.5396,46.5863],[8.5408,46.586],[8.5412,46.5855],[8.545,46.584],[8.5466,46.5825],[8.548,46.5817],[8.5509,46.5807],[8.5547,46.5806],[8.5587,46.5816],[8.5593,46.5815],[8.5596,46.5812],[8.5603,46.5812],[8.5616,46.5816],[8.5639,46.5813],[8.5652,46.5813],[8.5674,46.5818],[8.5724,46.5837],[8.5737,46.5837],[8.5759,46.5822],[8.5767,46.582],[8.5774,46.5816],[8.5773,46.5812],[8.5775,46.5809],[8.5777,46.5807],[8.5785,46.5807],[8.5805,46.5784],[8.5814,46.5771],[8.5837,46.5771],[8.5845,46.5769],[8.5849,46.5765],[8.5857,46.5762],[8.5878,46.5748],[8.5881,46.5748],[8.5892,46.574],[8.59,46.5738],[8.5905,46.5734],[8.5919,46.5736],[8.5934,46.5735],[8.5979,46.5741],[8.5986,46.574],[8.5988,46.5737],[8.5998,46.5735],[8.6014,46.5736],[8.6025,46.5742],[8.6046,46.5741],[8.6077,46.5747],[8.6113,46.575],[8.6113,46.5752],[8.6147,46.577],[8.615,46.5782],[8.6177,46.5775],[8.6204,46.5781],[8.624,46.5771],[8.6253,46.5769],[8.6255,46.5766],[8.6266,46.5764],[8.6266,46.576],[8.6268,46.5758],[8.6268,46.5752],[8.6271,46.5747],[8.6279,46.5742],[8.6296,46.5737],[8.6288,46.5715],[8.6289,46.5708],[8.6298,46.5689],[8.6303,46.5671],[8.6309,46.5658],[8.6315,46.5654],[8.6339,46.5654],[8.634,46.5647],[8.6347,46.5644],[8.638,46.5643],[8.639,46.5645],[8.6408,46.5641],[8.6416,46.5644],[8.6423,46.5645],[8.6427,46.5647],[8.6431,46.5647],[8.6434,46.5654],[8.6445,46.5654],[8.6453,46.5651],[8.648,46.5659],[8.6484,46.5662],[8.6513,46.5667],[8.6546,46.5683],[8.6561,46.5684],[8.6573,46.5691],[8.6579,46.5697],[8.6588,46.5715],[8.6593,46.5717],[8.6597,46.5724],[8.6595,46.5728],[8.6599,46.5731],[8.66,46.5737],[8.6616,46.5736],[8.6628,46.5738],[8.6649,46.5748],[8.665,46.5752],[8.6654,46.5757],[8.6662,46.576],[8.6669,46.5766],[8.6687,46.5769],[8.6689,46.5771],[8.671,46.5775],[8.6724,46.578],[8.6726,46.5785],[8.6764,46.5785],[8.6772,46.5786],[8.6787,46.5792],[8.6804,46.5784],[8.6812,46.5783],[8.682,46.5786],[8.6828,46.5795],[8.6834,46.5799],[8.6856,46.5805],[8.6873,46.5803],[8.6886,46.5805],[8.6906,46.5804],[8.6912,46.5799],[8.6926,46.5797],[8.6952,46.5805],[8.696,46.5806],[8.6963,46.581],[8.6969,46.5811],[8.6984,46.5811],[8.6987,46.5798],[8.6991,46.5795],[8.7027,46.5788],[8.7038,46.5781],[8.704,46.5777],[8.7048,46.5771],[8.705,46.5767],[8.7051,46.5755],[8.705,46.5752],[8.7053,46.5738],[8.7096,46.5734],[8.7112,46.5725],[8.7116,46.5725],[8.7118,46.5722],[8.7154,46.5712],[8.7175,46.5711],[8.7185,46.5716],[8.7194,46.5718],[8.721,46.5727],[8.7222,46.5731],[8.7242,46.5749],[8.7264,46.5757],[8.7277,46.5766],[8.7279,46.5771],[8.7283,46.5765],[8.7291,46.5759],[8.7316,46.5753],[8.7325,46.5749],[8.734,46.5745],[8.7354,46.5739],[8.7361,46.5739],[8.7371,46.5735],[8.7374,46.5734],[8.7374,46.5731],[8.738,46.5726],[8.7392,46.5722],[8.7408,46.5723],[8.7437,46.5722],[8.7442,46.5723],[8.7453,46.573],[8.7458,46.5735],[8.7467,46.5738],[8.7476,46.5747],[8.7485,46.575],[8.7486,46.5752],[8.7497,46.5755],[8.7507,46.5762],[8.7522,46.5759],[8.7532,46.575],[8.7552,46.5742],[8.7571,46.5738],[8.7594,46.5735],[8.762,46.5743],[8.8007,46.5633],[8.8297,46.5714],[8.8297,46.5703],[8.8295,46.5698],[8.8295,46.5692],[8.8298,46.5687],[8.8297,46.5676],[8.8304,46.5664],[8.8303,46.5659],[8.8308,46.5647],[8.8317,46.5639],[8.8334,46.5634],[8.8341,46.5636],[8.8347,46.5634],[8.8359,46.5634],[8.8363,46.5631],[8.8368,46.5633],[8.8375,46.5632],[8.8379,46.5634],[8.8385,46.5632],[8.8432,46.5634],[8.8494,46.5666],[8.8509,46.5678],[8.8529,46.5687],[8.8538,46.5692],[8.854,46.5696],[8.8557,46.5702],[8.8578,46.57],[8.8617,46.5711],[8.8622,46.5715],[8.8627,46.572],[8.8629,46.5724],[8.8629,46.573],[8.8648,46.573],[8.8674,46.5732],[8.8675,46.5734],[8.8699,46.5735],[8.8728,46.5742],[8.8747,46.5742],[8.877,46.5747],[8.8772,46.5751],[8.878,46.5756],[8.8781,46.5759],[8.879,46.5765],[8.8792,46.5774],[8.8794,46.5776],[8.8893,46.5792],[8.8939,46.582],[8.8999,46.5831],[8.9037,46.5841],[8.9104,46.5884],[8.9112,46.5887],[8.912,46.5894],[8.9126,46.5897],[8.9143,46.5916],[8.9156,46.5923],[8.916,46.5924],[8.9163,46.5927],[8.9152,46.5947],[8.9154,46.5958],[8.9164,46.5961],[8.9171,46.5966],[8.917,46.5968],[8.9168,46.5969],[8.9163,46.5982],[8.9156,46.5986],[8.9154,46.5992],[8.9129,46.6004],[8.9127,46.6009],[8.9115,46.6018],[8.9117,46.6021],[8.9109,46.6023],[8.9096,46.6032],[8.9091,46.6038],[8.9091,46.6042],[8.9072,46.6062],[8.9071,46.6075],[8.9059,46.6094],[8.9061,46.61],[8.9056,46.6105],[8.9058,46.6108],[8.9057,46.6115],[8.9054,46.612],[8.9058,46.6122],[8.9063,46.6132],[8.9063,46.6138],[8.9067,46.6143],[8.9067,46.6146],[8.9073,46.6157],[8.9081,46.6161],[8.9094,46.6162],[8.9106,46.6167],[8.9109,46.6179],[8.9117,46.6188],[8.9146,46.6194],[8.9152,46.6194],[8.9159,46.6196],[8.9174,46.6195],[8.9186,46.6198],[8.9194,46.6204],[8.9202,46.6208],[8.921,46.6221],[8.9219,46.6226],[8.923,46.623],[8.9238,46.623],[8.9246,46.6232],[8.9258,46.6216],[8.9269,46.6213],[8.9288,46.6213],[8.9297,46.6215],[8.9331,46.6209],[8.935,46.6204],[8.9357,46.62],[8.938,46.6195],[8.9388,46.619],[8.9415,46.6185],[8.9423,46.6188],[8.9435,46.6196],[8.9444,46.6205],[8.9453,46.6207],[8.946,46.6211],[8.9474,46.6226],[8.9487,46.6233],[8.9504,46.624],[8.9512,46.6253],[8.9513,46.6258],[8.951,46.6271],[8.9515,46.6275],[8.9514,46.628],[8.9515,46.6282],[8.9509,46.6286],[8.951,46.6293],[8.9509,46.6299],[8.9514,46.6308],[8.9513,46.631],[8.9519,46.6313],[8.9518,46.6317],[8.9528,46.6325],[8.953,46.6323],[8.9553,46.6316],[8.9555,46.6313],[8.957,46.6306],[8.9578,46.6299],[8.963,46.6181],[8.9597,46.6107],[8.9622,46.6026],[8.9632,46.6029],[8.9642,46.6035],[8.966,46.6038],[8.9696,46.6033],[8.9711,46.6029],[8.9721,46.6024],[8.9731,46.6027],[8.9837,46.6088],[8.9954,46.6117],[9.0042,46.6113],[9.0062,46.6109],[9.007,46.6106],[9.0076,46.6097],[9.0081,46.6094],[9.0091,46.6093],[9.0097,46.6087],[9.0117,46.608],[9.0114,46.6076],[9.0117,46.6073],[9.0121,46.6072],[9.0145,46.6053],[9.0149,46.6045],[9.0155,46.6042],[9.0162,46.6032],[9.0208,46.6033],[9.0229,46.6018],[9.0241,46.6019],[9.0253,46.6015],[9.0272,46.5994],[9.0293,46.5993],[9.0327,46.6],[9.0341,46.6],[9.0341,46.599],[9.034,46.5983],[9.0338,46.5981],[9.034,46.5978],[9.0339,46.5975],[9.034,46.5967],[9.0343,46.5961],[9.0339,46.5956],[9.0341,46.5947],[9.0337,46.5945],[9.0335,46.5941],[9.0342,46.5938],[9.0348,46.5925],[9.0351,46.5924],[9.0354,46.592],[9.0361,46.5918],[9.0366,46.5915],[9.0375,46.5914],[9.0399,46.5906],[9.0401,46.5904],[9.0411,46.5902],[9.0428,46.5888],[9.0438,46.5872],[9.0435,46.5864],[9.0422,46.5854],[9.0424,46.5845],[9.0439,46.5834],[9.0424,46.5835],[9.04,46.5832],[9.0377,46.5824],[9.0373,46.582],[9.0368,46.5812],[9.0367,46.5808],[9.0362,46.5802],[9.036,46.5796],[9.0361,46.5791],[9.0355,46.5786],[9.0357,46.5784],[9.0352,46.5779],[9.0353,46.5775],[9.0352,46.5772],[9.0356,46.5759],[9.0354,46.5752],[9.035,46.5749],[9.0337,46.5745],[9.0335,46.5741],[9.032,46.573],[9.0315,46.5724],[9.0299,46.5713],[9.0298,46.5705],[9.0296,46.5702],[9.0296,46.5701],[9.0291,46.5698],[9.029,46.569],[9.0283,46.5675],[9.0267,46.566],[9.0265,46.5654],[9.0265,46.5644],[9.0267,46.5641],[9.027,46.5633],[9.0268,46.5627],[9.0267,46.5618],[9.0255,46.5599],[9.0251,46.5596],[9.024,46.5591],[9.0232,46.5582],[9.0239,46.5574],[9.0244,46.5571],[9.024,46.5564],[9.0246,46.556],[9.0246,46.5553],[9.0242,46.5546],[9.0232,46.5539],[9.0232,46.5531],[9.0228,46.5522],[9.0218,46.5508],[9.0213,46.5506],[9.021,46.5501],[9.021,46.5496],[9.0201,46.5488],[9.0193,46.5475],[9.0193,46.5469],[9.0195,46.5464],[9.0207,46.5446],[9.0215,46.5417],[9.0215,46.5412],[9.0212,46.5401],[9.0212,46.5396],[9.0219,46.5385],[9.023,46.5379],[9.0224,46.537],[9.0222,46.536],[9.0215,46.5349],[9.0216,46.5339],[9.0198,46.5334],[9.0166,46.532],[9.0172,46.529],[9.0199,46.5286],[9.0201,46.5285],[9.0202,46.528],[9.0206,46.5278],[9.0209,46.5269],[9.0208,46.5264],[9.0204,46.5261],[9.0203,46.5254],[9.0208,46.5248],[9.0207,46.5235],[9.0209,46.523],[9.0215,46.5226],[9.022,46.5218],[9.0232,46.5191],[9.0221,46.5179],[9.0224,46.5159],[9.0227,46.5153],[9.0222,46.5147],[9.0221,46.5143],[9.0225,46.5138],[9.0222,46.5135],[9.022,46.513],[9.0221,46.5123],[9.0224,46.5121],[9.0228,46.5112],[9.0231,46.5097],[9.0242,46.5079],[9.0247,46.5074],[9.0256,46.507],[9.0264,46.5059],[9.0275,46.5054],[9.0283,46.5046],[9.0282,46.5041],[9.0284,46.5036],[9.029,46.5032],[9.0317,46.5025],[9.0334,46.5016],[9.0347,46.5008],[9.0359,46.4993],[9.0372,46.4982],[9.0379,46.4963],[9.0389,46.4948],[9.0402,46.4939],[9.0401,46.4932],[9.0399,46.4927],[9.039,46.4916],[9.0393,46.4911],[9.0393,46.4907],[9.0403,46.4896],[9.0419,46.4889],[9.0451,46.4882],[9.0461,46.4871],[9.0466,46.486],[9.0475,46.4848],[9.0479,46.4838],[9.0469,46.4823],[9.0453,46.4814],[9.0465,46.4807],[9.0483,46.4798],[9.051,46.4793],[9.052,46.4787],[9.0525,46.4778],[9.0538,46.4769],[9.059,46.4766],[9.0606,46.4763],[9.0617,46.4769],[9.0652,46.4783],[9.0668,46.4784],[9.0682,46.4789],[9.0736,46.4803],[9.0768,46.4788],[9.0772,46.4784],[9.0826,46.477],[9.0854,46.4754],[9.0858,46.4737],[9.0857,46.4725],[9.0851,46.4709],[9.0865,46.4698],[9.087,46.4695],[9.0876,46.4685],[9.0898,46.4671],[9.0917,46.4651],[9.0921,46.4645],[9.0936,46.4632],[9.0936,46.4629],[9.0951,46.4604],[9.0948,46.4601],[9.0943,46.4589],[9.0943,46.4583],[9.094,46.4572],[9.0921,46.4533],[9.0916,46.4512],[9.0916,46.4495],[9.0921,46.4488],[9.0917,46.4488],[9.0899,46.447],[9.0887,46.4454],[9.0876,46.4445],[9.087,46.4437],[9.0875,46.4432],[9.0878,46.4424],[9.0885,46.4396],[9.089,46.4389],[9.0896,46.4369],[9.0884,46.4366],[9.0891,46.4353],[9.089,46.4333],[9.0892,46.4326],[9.089,46.4322],[9.0908,46.4309],[9.0913,46.43],[9.0921,46.4296],[9.0926,46.4289],[9.0929,46.4284],[9.0927,46.4279],[9.0936,46.4273],[9.0935,46.4272],[9.0938,46.4269],[9.0954,46.4253],[9.0963,46.4233],[9.0971,46.4221],[9.0968,46.4216],[9.0979,46.4208],[9.0984,46.4198],[9.0991,46.4194],[9.1009,46.4175],[9.1023,46.4147],[9.1023,46.4141],[9.1029,46.4135],[9.1031,46.4127],[9.1028,46.4126],[9.1028,46.4121],[9.1031,46.4117],[9.1023,46.4108],[9.1011,46.4102],[9.0991,46.41],[9.0981,46.4094],[9.0975,46.4089],[9.094,46.4076],[9.0934,46.4075],[9.0922,46.4076],[9.0913,46.407],[9.0907,46.4068],[9.0905,46.4065],[9.0905,46.4062],[9.09,46.4054],[9.0899,46.4051],[9.0903,46.4047],[9.091,46.4042],[9.0915,46.4037],[9.0914,46.4032],[9.0918,46.4028],[9.093,46.4023],[9.0939,46.4021],[9.0945,46.4015],[9.0956,46.4006],[9.0962,46.3999],[9.0958,46.3993],[9.0959,46.3988],[9.0938,46.3978],[9.0927,46.3967],[9.0912,46.3957],[9.091,46.3953],[9.0908,46.3945],[9.0904,46.3941],[9.089,46.392],[9.0888,46.3908],[9.0885,46.3902],[9.0873,46.3888],[9.0894,46.3871],[9.09,46.3864],[9.0897,46.386],[9.0899,46.3856],[9.0898,46.385],[9.0903,46.385],[9.091,46.3839],[9.0915,46.3836],[9.0915,46.3828],[9.0922,46.3816],[9.092,46.3813],[9.0921,46.3809],[9.0931,46.3797],[9.093,46.3777],[9.0931,46.377],[9.0942,46.3762],[9.0948,46.3752],[9.0952,46.375],[9.0951,46.3748],[9.0953,46.3745],[9.0956,46.373],[9.094,46.3721],[9.093,46.3708],[9.0932,46.3696],[9.0927,46.3676],[9.0931,46.3666],[9.0933,46.3653],[9.0936,46.3648],[9.0939,46.3648],[9.0943,46.3645],[9.0945,46.3641],[9.0937,46.3627],[9.0938,46.3622],[9.0934,46.36],[9.0928,46.3587],[9.0926,46.3574],[9.0919,46.3563],[9.0916,46.3555],[9.0901,46.3546],[9.0887,46.3529],[9.0884,46.3523],[9.0885,46.3514],[9.0882,46.351],[9.0883,46.3492],[9.0847,46.3487],[9.0819,46.349],[9.0818,46.3488],[9.0814,46.3486],[9.0802,46.3474],[9.0791,46.3471],[9.0764,46.3467],[9.076,46.3463],[9.0748,46.3456],[9.0745,46.3452],[9.0734,46.3448],[9.0722,46.3438],[9.0708,46.3435],[9.0693,46.3436],[9.0689,46.3423],[9.0694,46.3418],[9.0696,46.3412],[9.0688,46.3401],[9.0686,46.3393],[9.068,46.3382],[9.0664,46.3364],[9.0672,46.3352],[9.0676,46.3342],[9.0688,46.3335],[9.0697,46.3325],[9.068,46.3313],[9.0655,46.3286],[9.065,46.3284],[9.0644,46.3279],[9.0643,46.3254],[9.0658,46.324],[9.0674,46.3237],[9.0677,46.3231],[9.0679,46.323],[9.0687,46.322],[9.0704,46.3208],[9.0726,46.3188],[9.0734,46.3179],[9.0739,46.3172],[9.074,46.3162],[9.0751,46.3146],[9.0747,46.3128],[9.0739,46.3117],[9.0731,46.3109],[9.0722,46.3093],[9.0722,46.3086],[9.0708,46.3078],[9.0683,46.3074],[9.068,46.3071],[9.0674,46.3058],[9.0659,46.3037],[9.0648,46.3032],[9.0642,46.3021],[9.0635,46.3017],[9.0635,46.3013],[9.0629,46.3008],[9.0627,46.3004],[9.0628,46.3001],[9.062,46.2994],[9.0605,46.2974],[9.06,46.2971],[9.059,46.2967],[9.0556,46.296],[9.0546,46.295],[9.054,46.2948],[9.0545,46.2939],[9.0539,46.2938],[9.054,46.2933],[9.0537,46.293],[9.054,46.2927],[9.0539,46.2922],[9.0545,46.2904],[9.055,46.2899],[9.0555,46.2891],[9.0557,46.2874],[9.0567,46.2855],[9.0576,46.2831],[9.0577,46.2822],[9.0581,46.2813],[9.059,46.2803],[9.0622,46.2777],[9.0621,46.2774],[9.0626,46.2766],[9.0632,46.2738],[9.0636,46.2731],[9.0659,46.2714],[9.0671,46.2711],[9.068,46.2706],[9.0722,46.2677],[9.0728,46.2664],[9.0735,46.2654],[9.0739,46.2652],[9.0746,46.264],[9.0769,46.2611],[9.0778,46.2603],[9.0772,46.2587],[9.076,46.2379],[9.0743,46.2371],[9.0725,46.2366],[9.0727,46.2361],[9.0714,46.2361],[9.0711,46.2357],[9.0714,46.2352],[9.0723,46.2345],[9.0727,46.2339],[9.0729,46.2339],[9.0732,46.2333],[9.0735,46.2332],[9.0734,46.233],[9.0746,46.2317],[9.0766,46.233],[9.0796,46.2333],[9.0828,46.2253],[9.0828,46.225],[9.0834,46.2244],[9.083,46.2227],[9.0836,46.2211],[9.0836,46.2206],[9.084,46.2199],[9.0847,46.2195],[9.0848,46.2182],[9.0857,46.2172],[9.0857,46.217],[9.0864,46.2152],[9.0869,46.2143],[9.0891,46.2124],[9.1083,46.2056],[9.1089,46.2057],[9.1112,46.205],[9.1126,46.2038],[9.1162,46.2022],[9.1175,46.2011],[9.119,46.2004],[9.1198,46.1997],[9.1207,46.1984],[9.121,46.1975],[9.1226,46.196],[9.1229,46.1956],[9.1245,46.1953],[9.125,46.195],[9.1261,46.194],[9.1265,46.1931],[9.1269,46.1928],[9.1269,46.1926],[9.1274,46.1923],[9.1283,46.1914],[9.1289,46.1903],[9.1297,46.1898],[9.1297,46.1893],[9.1311,46.1884],[9.1314,46.1868],[9.1312,46.1863],[9.1315,46.1853],[9.1313,46.1851],[9.1313,46.1848],[9.1319,46.1841],[9.1319,46.1838],[9.1337,46.1825],[9.1355,46.1804],[9.1383,46.1793],[9.1386,46.1787],[9.1394,46.1786],[9.1419,46.1779],[9.1466,46.1744],[9.1474,46.1737],[9.1496,46.1724],[9.1503,46.1718],[9.1526,46.1706],[9.1529,46.1703],[9.1564,46.1698],[9.1582,46.1699],[9.1592,46.1697],[9.1597,46.1692],[9.1595,46.1682],[9.1594,46.168],[9.1595,46.1679],[9.1593,46.1678],[9.159,46.1665],[9.1586,46.1661],[9.1586,46.1649],[9.1574,46.1636],[9.157,46.1626],[9.1565,46.1621],[9.1554,46.1615],[9.1521,46.1612],[9.1495,46.1605],[9.1468,46.159],[9.1445,46.1584],[9.1438,46.1577],[9.1425,46.1569],[9.1418,46.1557],[9.1408,46.155],[9.1383,46.1542],[9.1371,46.1543],[9.1358,46.1536],[9.1345,46.1533],[9.1341,46.1524],[9.134,46.1518],[9.1329,46.1501],[9.1324,46.1496],[9.1324,46.1494],[9.1315,46.149],[9.1312,46.149],[9.131,46.1487],[9.1311,46.1484],[9.129,46.1474],[9.1287,46.1464],[9.1281,46.1457],[9.1269,46.1448],[9.1268,46.1435],[9.127,46.1433],[9.1257,46.142],[9.1251,46.1412],[9.1249,46.1406],[9.1247,46.1405],[9.1243,46.1399],[9.1228,46.1387],[9.1229,46.1374],[9.1223,46.1366],[9.1223,46.1363],[9.1216,46.1355],[9.1215,46.1348],[9.1211,46.1347],[9.121,46.1345],[9.119,46.1352],[9.1182,46.1352],[9.1171,46.1354],[9.1168,46.1352],[9.1155,46.1351],[9.1149,46.1348],[9.1122,46.1347],[9.1109,46.1336],[9.1092,46.1328],[9.1082,46.1325],[9.107,46.1325],[9.1058,46.132],[9.1047,46.132],[9.1046,46.1316],[9.1028,46.1302],[9.1023,46.1297],[9.1013,46.1294],[9.101,46.1289],[9.1006,46.1287],[9.1003,46.128],[9.0996,46.1274],[9.0998,46.1267],[9.0987,46.1272],[9.0974,46.1272],[9.0968,46.127],[9.0956,46.1262],[9.095,46.1261],[9.0929,46.126],[9.0918,46.1257],[9.0911,46.1258],[9.09,46.1256],[9.0885,46.1249],[9.0881,46.125],[9.0878,46.1246],[9.0864,46.1242],[9.0858,46.1238],[9.0853,46.1228],[9.0827,46.1222],[9.0811,46.122],[9.0792,46.1212],[9.0787,46.1212],[9.078,46.121],[9.0768,46.1201],[9.0764,46.1201],[9.076,46.1203],[9.0758,46.1199],[9.0756,46.1197],[9.0754,46.1198],[9.0739,46.1187],[9.0734,46.1188],[9.0725,46.1181],[9.0724,46.118],[9.0729,46.1169],[9.0732,46.1167],[9.0732,46.1159],[9.0737,46.115],[9.0739,46.1141],[9.075,46.1132],[9.0754,46.1124],[9.0764,46.1115],[9.0766,46.1109],[9.0776,46.1106],[9.0779,46.1102],[9.078,46.1093],[9.0789,46.1083],[9.0797,46.1066],[9.0797,46.106],[9.0804,46.1047],[9.0813,46.1022],[9.0891,46.0901],[9.0896,46.087],[9.0894,46.0857],[9.0841,46.0795],[9.0842,46.0787],[9.0832,46.0778],[9.0827,46.0775],[9.0819,46.0771],[9.0803,46.0768],[9.0791,46.0759],[9.0786,46.0749],[9.0786,46.0723],[9.078,46.0709],[9.0779,46.0693],[9.0783,46.0689],[9.0787,46.0669],[9.0783,46.0653],[9.0774,46.0646],[9.0771,46.0641],[9.0766,46.0639],[9.0761,46.0639],[9.0738,46.0625],[9.0728,46.0626],[9.0716,46.0625],[9.0703,46.0626],[9.0681,46.062],[9.0677,46.0617],[9.0667,46.0621],[9.0652,46.0619],[9.0639,46.0617],[9.0604,46.0607],[9.0588,46.061],[9.0577,46.0608],[9.057,46.0612],[9.0564,46.0612],[9.0554,46.0621],[9.0502,46.0624],[9.048,46.0616],[9.0465,46.06],[9.0448,46.059],[9.0436,46.0594],[9.0394,46.0589],[9.0389,46.0586],[9.0387,46.058],[9.0383,46.058],[9.038,46.0576],[9.0376,46.0577],[9.0369,46.0572],[9.0366,46.0573],[9.0344,46.0558],[9.0328,46.0552],[9.0309,46.0542],[9.0298,46.0534],[9.0288,46.053],[9.0273,46.053],[9.0256,46.0525],[9.0249,46.0524],[9.0237,46.0528],[9.0235,46.0526],[9.023,46.0528],[9.0227,46.0527],[9.0225,46.052],[9.022,46.0521],[9.0204,46.0517],[9.019,46.0508],[9.0187,46.0508],[9.0184,46.0507],[9.0172,46.0497],[9.0169,46.048],[9.016,46.0467],[9.0168,46.0454],[9.0175,46.0448],[9.0176,46.0445],[9.0171,46.0441],[9.0169,46.0431],[9.0161,46.0426],[9.0158,46.0421],[9.015,46.0416],[9.0147,46.0411],[9.0131,46.0403],[9.0095,46.0373],[9.0088,46.0316],[9.0084,46.0307],[9.0076,46.0298],[9.0089,46.0285],[9.0097,46.0274],[9.0091,46.0268],[9.0116,46.0253],[9.0127,46.0247],[9.0135,46.0246],[9.0141,46.0241],[9.0148,46.0234],[9.0153,46.0221],[9.0162,46.0218],[9.0184,46.0206],[9.0193,46.0193],[9.0202,46.0187],[9.0208,46.0186],[9.0209,46.0185],[9.0209,46.0181],[9.0213,46.0176],[9.0219,46.0171],[9.0225,46.0169],[9.0245,46.0008],[9.0251,46.0003],[9.0265,45.9971],[9.0285,45.9936],[9.0229,45.9928],[9.0225,45.9895],[9.0181,45.9877],[9.0169,45.9879],[9.0159,45.9879],[9.0132,45.9888],[9.0127,45.9883],[9.0114,45.9879],[9.0116,45.9867],[9.0108,45.9853],[9.0112,45.9832],[9.0088,45.9821],[9.0087,45.9815],[9.0083,45.9808],[9.0073,45.9803],[9.0053,45.9803],[9.005,45.9802],[9.0047,45.9798],[9.0038,45.9798],[9.0023,45.9795],[9.0018,45.9802],[9.0011,45.9804],[8.9953,45.9805],[8.9955,45.9798],[8.996,45.9788],[8.9953,45.9782],[8.9955,45.9777],[8.9951,45.9769],[8.9961,45.9759],[8.9958,45.9751],[8.9963,45.9744],[8.9958,45.9728],[8.9947,45.9716],[8.9933,45.9719],[8.9923,45.9726],[8.991,45.9717],[8.9905,45.9712],[8.9897,45.9715],[8.9891,45.972],[8.9885,45.9728],[8.9883,45.9723],[8.9888,45.9712],[8.989,45.9703],[8.994,45.9666],[9.0092,45.9624],[9.014,45.9605],[9.0153,45.9508],[9.0164,45.9502],[9.0166,45.9497],[9.0171,45.949],[9.0137,45.9445],[9.0122,45.9438],[9.0131,45.9429],[9.0136,45.9415],[9.0146,45.9416],[9.0148,45.9414],[9.015,45.9406],[9.0152,45.9405],[9.0171,45.9406],[9.0198,45.9397],[9.0202,45.9384],[9.0205,45.9382],[9.022,45.9381],[9.0225,45.9371],[9.0223,45.9363],[9.0219,45.9355],[9.0214,45.9352],[9.0211,45.9347],[9.0209,45.9337],[9.0206,45.9335],[9.0205,45.9321],[9.02,45.9313],[9.02,45.9311],[9.0197,45.93],[9.02,45.9295],[9.0199,45.9291],[9.0194,45.9284],[9.0229,45.929],[9.0265,45.9287],[9.0298,45.9265],[9.0327,45.9266],[9.0368,45.9263],[9.0425,45.9274],[9.0427,45.9275],[9.0437,45.9266],[9.0444,45.9264],[9.0448,45.926],[9.045,45.9251],[9.0454,45.9249],[9.0457,45.9244],[9.0466,45.9239],[9.0472,45.9238],[9.0481,45.9227],[9.0494,45.9221],[9.0493,45.9216],[9.0495,45.9212],[9.0491,45.9204],[9.0499,45.9204],[9.0504,45.9201],[9.0516,45.9207],[9.0534,45.9205],[9.0539,45.9207],[9.0553,45.9201],[9.0555,45.9203],[9.0573,45.9205],[9.0577,45.9208],[9.0585,45.9208],[9.059,45.921],[9.0599,45.9209],[9.06,45.9208],[9.0591,45.9165],[9.0626,45.9148],[9.0635,45.9149],[9.0642,45.9148],[9.0663,45.9141],[9.0682,45.9129],[9.0684,45.9127],[9.0678,45.9116],[9.0678,45.9106],[9.0695,45.9105],[9.0694,45.9114],[9.0696,45.9117],[9.0707,45.912],[9.0726,45.9128],[9.0732,45.9128],[9.0745,45.9123],[9.0754,45.9116],[9.0766,45.9114],[9.0767,45.9108],[9.0765,45.9107],[9.0773,45.9092],[9.0755,45.9061],[9.0763,45.9034],[9.0769,45.8993],[9.0868,45.9022],[9.089,45.9007],[9.0883,45.9003],[9.0874,45.8993],[9.0875,45.8985],[9.0883,45.8977],[9.0888,45.8969],[9.088,45.8968],[9.0863,45.8962],[9.0852,45.896],[9.0848,45.8955],[9.0851,45.8947],[9.0841,45.8939],[9.084,45.8934],[9.0819,45.8926],[9.0817,45.8923],[9.0816,45.8918],[9.078,45.892],[9.0772,45.8905],[9.0784,45.8902],[9.0785,45.8899],[9.0793,45.8892],[9.0795,45.8887],[9.0793,45.8883],[9.0784,45.8877],[9.0782,45.8871],[9.0775,45.8865],[9.0773,45.8861],[9.0775,45.8858],[9.0773,45.8854],[9.0778,45.8851],[9.0755,45.8834],[9.0735,45.8826],[9.0722,45.8823],[9.0714,45.8817],[9.0709,45.8802],[9.0698,45.8789],[9.0664,45.8754],[9.0656,45.8761],[9.0619,45.8754],[9.0602,45.8749],[9.0577,45.8752],[9.0565,45.8749],[9.0555,45.8743],[9.0548,45.8736],[9.0547,45.8727],[9.0549,45.8722],[9.0554,45.8718],[9.0555,45.8716],[9.0551,45.8713],[9.0537,45.8698],[9.053,45.8695],[9.0532,45.8686],[9.0537,45.868],[9.0524,45.8678],[9.0515,45.8672],[9.0518,45.8667],[9.0517,45.8665],[9.0511,45.8659],[9.0507,45.865],[9.0503,45.8645],[9.0501,45.8635],[9.0494,45.8631],[9.0492,45.8626],[9.0492,45.862],[9.0491,45.8616],[9.0496,45.8603],[9.0494,45.8585],[9.0506,45.8573],[9.0518,45.8544],[9.0512,45.8544],[9.0505,45.854],[9.0491,45.8537],[9.0482,45.8532],[9.0488,45.8532],[9.0493,45.8528],[9.0499,45.8527],[9.0503,45.8523],[9.0508,45.8522],[9.0483,45.8516],[9.0473,45.851],[9.0463,45.85],[9.0454,45.8496],[9.0451,45.8482],[9.0449,45.8479],[9.0445,45.8479],[9.0438,45.8466],[9.0424,45.8464],[9.0406,45.8465],[9.0402,45.846],[9.04,45.8459],[9.0386,45.8439],[9.0384,45.843],[9.0387,45.842],[9.0373,45.8419],[9.0361,45.8414],[9.0357,45.841],[9.0353,45.8391],[9.0378,45.8359],[9.0379,45.8355],[9.0357,45.8328],[9.0344,45.8323],[9.0346,45.8314],[9.034,45.8307],[9.0347,45.8303],[9.0347,45.83],[9.0338,45.8291],[9.0337,45.8283],[9.0331,45.828],[9.0327,45.8276],[9.0328,45.8272],[9.0324,45.8267],[9.0322,45.826],[9.0325,45.8253],[9.0324,45.8251],[9.0315,45.8252],[9.0309,45.8247],[9.0315,45.8243],[9.0322,45.8241],[9.0324,45.8239],[9.0341,45.8233],[9.0342,45.8231],[9.0345,45.823],[9.0341,45.8226],[9.0316,45.8209],[9.0292,45.8209],[9.0287,45.8206],[9.0277,45.821],[9.026,45.8219],[9.0233,45.822],[9.0221,45.8219],[9.0216,45.8214],[9.0213,45.8207],[9.0184,45.8194],[9.018,45.8181],[9.0173,45.818],[9.0147,45.8182],[9.0133,45.8188],[9.0131,45.819],[9.012,45.819],[9.0106,45.8195],[9.0101,45.8195],[9.0098,45.8197],[9.0079,45.8196],[9.0042,45.8202],[9.0032,45.8207],[9.0025,45.8213],[9.0008,45.8223],[8.9998,45.8222],[8.9984,45.8229],[8.9939,45.822],[8.9929,45.8231],[8.9937,45.8237],[8.9939,45.8242],[8.9946,45.8249],[8.994,45.8252],[8.9942,45.8257],[8.9941,45.8263],[8.9944,45.8266],[8.9947,45.8274],[8.9952,45.8276],[8.995,45.828],[8.9951,45.8289],[8.9959,45.8301],[8.9963,45.8309],[8.9964,45.8319],[8.9978,45.8324],[8.9978,45.8329],[8.9968,45.8336],[8.9969,45.8342],[8.9975,45.8346],[8.9975,45.8349],[8.9942,45.8343],[8.9921,45.8347],[8.9908,45.8354],[8.9899,45.8353],[8.991,45.836],[8.99,45.8362],[8.9896,45.8365],[8.9893,45.8372],[8.9884,45.8381],[8.9867,45.8385],[8.9859,45.8381],[8.9852,45.8379],[8.9844,45.8373],[8.9837,45.8371],[8.9834,45.8365],[8.983,45.8365],[8.9817,45.8357],[8.9794,45.836],[8.9791,45.8366],[8.9781,45.8365],[8.9775,45.8369],[8.9767,45.8365],[8.9764,45.8367],[8.9762,45.8366],[8.975,45.8357],[8.9755,45.8353],[8.9758,45.8347],[8.976,45.8346],[8.9742,45.833],[8.9734,45.8325],[8.9724,45.8331],[8.9716,45.833],[8.97,45.8324],[8.9685,45.8328],[8.9689,45.8332],[8.9681,45.834],[8.968,45.8339],[8.9669,45.8348],[8.9662,45.8344],[8.9652,45.8354],[8.964,45.8349],[8.9615,45.8364],[8.9612,45.8367],[8.9621,45.8376],[8.9623,45.838],[8.962,45.8386],[8.9622,45.8387],[8.9619,45.8389],[8.962,45.839],[8.9615,45.8391],[8.9615,45.8394],[8.9609,45.8393],[8.9607,45.8399],[8.9603,45.84],[8.9583,45.8409],[8.9562,45.8416],[8.9558,45.8429],[8.9562,45.8434],[8.9538,45.8431],[8.9532,45.8423],[8.952,45.8428],[8.9513,45.8429],[8.9496,45.8434],[8.9488,45.8434],[8.9467,45.8426],[8.941,45.8413],[8.9391,45.8413],[8.9373,45.8402],[8.937,45.8399],[8.9363,45.8395],[8.9339,45.8391],[8.9334,45.8392],[8.933,45.839],[8.9329,45.8387],[8.9331,45.8382],[8.932,45.8379],[8.9325,45.8373],[8.932,45.8364],[8.9318,45.8364],[8.9308,45.8356],[8.9292,45.8353],[8.9289,45.8351],[8.9288,45.8343],[8.9294,45.8338],[8.929,45.8334],[8.9276,45.8334],[8.9267,45.8333],[8.9255,45.8335],[8.9238,45.8341],[8.9205,45.8342],[8.9184,45.8336],[8.9153,45.8317],[8.9141,45.8313],[8.913,45.8306],[8.9121,45.8304],[8.9121,45.8317],[8.9127,45.838],[8.9142,45.8422],[8.9207,45.8493],[8.9246,45.8529],[8.9325,45.861],[8.9349,45.8627],[8.9354,45.8624],[8.9371,45.8632],[8.9387,45.8635],[8.9404,45.8641],[8.9435,45.8656],[8.9453,45.867],[8.9443,45.8682],[8.9429,45.8691],[8.9424,45.8696],[8.9425,45.8699],[8.9421,45.8703],[8.9418,45.8702],[8.9416,45.8703],[8.9394,45.8686],[8.9374,45.8674],[8.937,45.8673],[8.9351,45.8698],[8.9346,45.8701],[8.9338,45.8703],[8.9338,45.8709],[8.9346,45.8719],[8.9343,45.8723],[8.9345,45.8724],[8.9344,45.8732],[8.934,45.8733],[8.934,45.8736],[8.9332,45.8748],[8.9331,45.8765],[8.9332,45.8779],[8.9335,45.8787],[8.9332,45.8791],[8.9333,45.8793],[8.9331,45.8798],[8.9333,45.8801],[8.933,45.8809],[8.9325,45.8813],[8.9323,45.8826],[8.9321,45.8842],[8.9316,45.8858],[8.9306,45.887],[8.9297,45.8888],[8.9284,45.8905],[8.9273,45.8917],[8.9241,45.8922],[8.9229,45.8955],[8.9219,45.8952],[8.9215,45.8958],[8.9218,45.8962],[8.9224,45.8967],[8.9249,45.9009],[8.9248,45.9037],[8.9241,45.9056],[8.9227,45.9064],[8.9223,45.9073],[8.9202,45.909],[8.9198,45.9103],[8.9168,45.9137],[8.9143,45.9178],[8.9125,45.9176],[8.9074,45.9178],[8.904,45.922],[8.9024,45.9232],[8.9016,45.9237],[8.9004,45.9241],[8.8976,45.9258],[8.8968,45.9264],[8.8961,45.9272],[8.8933,45.9312],[8.8929,45.9323],[8.8927,45.9343],[8.8935,45.9374],[8.8951,45.9398],[8.8965,45.9414],[8.898,45.9437],[8.8986,45.9463],[8.8985,45.9475],[8.8981,45.9494],[8.8971,45.9504],[8.8967,45.9513],[8.8966,45.9548],[8.8937,45.959],[8.8871,45.9576],[8.8782,45.9566],[8.8766,45.9575],[8.8751,45.9588],[8.8745,45.9591],[8.8724,45.9594],[8.8708,45.9602],[8.8683,45.9606],[8.8676,45.9611],[8.8647,45.9655],[8.8623,45.9657],[8.8607,45.9661],[8.8577,45.968],[8.8562,45.9688],[8.8524,45.9717],[8.8496,45.9729],[8.8485,45.9738],[8.8478,45.9752],[8.8472,45.9758],[8.8459,45.9767],[8.8443,45.9769],[8.8434,45.9776],[8.8432,45.9795],[8.8434,45.9801],[8.8427,45.9815],[8.8401,45.9817],[8.8397,45.9822],[8.8397,45.9831],[8.8392,45.9842],[8.8376,45.9847],[8.8363,45.9847],[8.8341,45.9852],[8.8326,45.9873],[8.8313,45.988],[8.8298,45.9879],[8.8276,45.9873],[8.8262,45.9874],[8.8254,45.9877],[8.8242,45.9879],[8.8235,45.9876],[8.8219,45.9873],[8.8201,45.9874],[8.818,45.9881],[8.8158,45.9892],[8.8139,45.9904],[8.8138,45.991],[8.8123,45.9902],[8.8102,45.9898],[8.8094,45.99],[8.8079,45.9906],[8.8027,45.9912],[8.7999,45.9912],[8.7976,45.9918],[8.7958,45.9921],[8.7937,45.9921],[8.7924,45.9919],[8.7923,45.9916],[8.7924,45.9896],[8.7908,45.9886],[8.7896,45.9885],[8.7881,45.9889],[8.7859,45.9891],[8.7872,45.9913],[8.7931,46.0081],[8.8044,46.0191],[8.8059,46.0219],[8.8119,46.0236],[8.8197,46.0255],[8.8271,46.0323],[8.8282,46.0342],[8.8289,46.0379],[8.83,46.0416],[8.8327,46.0406],[8.8355,46.0438],[8.834,46.0442],[8.8332,46.0449],[8.8319,46.0457],[8.8304,46.046],[8.8296,46.0464],[8.8285,46.0465],[8.8304,46.0474],[8.8328,46.0492],[8.8345,46.0514],[8.8442,46.0485],[8.8546,46.0616],[8.8541,46.0686],[8.8521,46.0756],[8.8475,46.0757],[8.8464,46.0767],[8.8458,46.0768],[8.8453,46.0773],[8.8447,46.0781],[8.8441,46.0786],[8.8431,46.0791],[8.8429,46.0795],[8.8424,46.0799],[8.8405,46.0808],[8.8369,46.0815],[8.8338,46.0829],[8.8329,46.0834],[8.8293,46.0866],[8.8264,46.0895],[8.8259,46.0892],[8.8249,46.0889],[8.8245,46.0889],[8.8233,46.0903],[8.8226,46.0905],[8.8224,46.0913],[8.8214,46.0912],[8.8214,46.092],[8.8216,46.0926],[8.8212,46.0933],[8.8176,46.0943],[8.8172,46.0949],[8.8165,46.0952],[8.8158,46.0958],[8.8158,46.0965],[8.8156,46.0967],[8.8153,46.0973],[8.806,46.1013],[8.8046,46.0994],[8.8017,46.0973],[8.7998,46.0947],[8.7917,46.0948],[8.783,46.0942],[8.7757,46.0969],[8.7751,46.0975],[8.7744,46.0977],[8.774,46.0981],[8.7734,46.0985],[8.7714,46.0992],[8.77,46.0995],[8.7696,46.1],[8.769,46.1001],[8.7682,46.1007],[8.7678,46.1008],[8.7673,46.1004],[8.766,46.1005],[8.7644,46.1009],[8.7624,46.1011],[8.7618,46.1013],[8.76,46.1016],[8.7598,46.1019],[8.7586,46.1024],[8.7585,46.1027],[8.7583,46.103],[8.7571,46.1033],[8.7561,46.1047],[8.7423,46.1223],[8.7363,46.1188],[8.7283,46.1133],[8.7243,46.1102],[8.7177,46.1013],[8.7154,46.0992],[8.714,46.0972],[8.6966,46.102],[8.6957,46.1018],[8.6948,46.1017],[8.6937,46.1012],[8.6935,46.1013],[8.693,46.102],[8.692,46.1019],[8.6916,46.1022],[8.6908,46.1022],[8.6903,46.102],[8.69,46.1022],[8.6895,46.102],[8.6893,46.1016],[8.6885,46.1016],[8.6879,46.1016],[8.6876,46.102],[8.6871,46.1021],[8.6868,46.102],[8.6857,46.102],[8.6856,46.1027],[8.6851,46.1028],[8.6851,46.103],[8.6848,46.1034],[8.6833,46.1046],[8.6831,46.1049],[8.6832,46.1052],[8.6813,46.1057],[8.6814,46.1061],[8.6812,46.1063],[8.6814,46.1066],[8.6812,46.1069],[8.6811,46.1078],[8.6802,46.108],[8.6802,46.1081],[8.6797,46.1084],[8.68,46.1086],[8.6804,46.1086],[8.6804,46.109],[8.6806,46.1093],[8.6805,46.1094],[8.6808,46.1096],[8.6794,46.1104],[8.6779,46.1104],[8.677,46.11],[8.6752,46.1105],[8.6719,46.1097],[8.6714,46.1095],[8.6713,46.1091],[8.6707,46.1091],[8.6703,46.1088],[8.6693,46.109],[8.6691,46.1093],[8.6682,46.1093],[8.6677,46.1096],[8.6675,46.1103],[8.6656,46.1103],[8.6646,46.111],[8.6577,46.1127],[8.6573,46.1134],[8.6572,46.1141],[8.6566,46.1148],[8.6564,46.1159],[8.6547,46.1166],[8.6542,46.1171],[8.6532,46.1189],[8.6524,46.1193],[8.6524,46.1195],[8.652,46.1198],[8.6511,46.1201],[8.6505,46.1205],[8.6504,46.1208],[8.6493,46.1216],[8.6483,46.1225],[8.648,46.1225],[8.6478,46.1227],[8.648,46.1228],[8.648,46.1234],[8.6476,46.1235],[8.6466,46.1235],[8.646,46.1238],[8.6445,46.1236],[8.6434,46.1232],[8.6418,46.1233],[8.64,46.1227],[8.6365,46.1227],[8.6338,46.1224],[8.6331,46.1226],[8.6323,46.1224],[8.6309,46.1222],[8.6297,46.1224],[8.6288,46.1223],[8.6281,46.1228],[8.6274,46.1227],[8.6273,46.1228],[8.6258,46.1226],[8.6253,46.1224],[8.625,46.1221],[8.6244,46.122],[8.6233,46.1222],[8.6231,46.122],[8.6214,46.1221],[8.6198,46.1214],[8.6159,46.1219],[8.6145,46.1217],[8.6118,46.1217],[8.6122,46.1221],[8.6123,46.1225],[8.6121,46.1231],[8.6121,46.1235],[8.6119,46.1238],[8.6112,46.1242],[8.6109,46.1255],[8.61,46.1262],[8.6097,46.1271],[8.6097,46.1275],[8.6106,46.1285],[8.6104,46.1286],[8.6103,46.1295],[8.6104,46.1302],[8.6106,46.1307],[8.6103,46.131],[8.6104,46.1311],[8.6104,46.1317],[8.6097,46.1329],[8.608,46.1335],[8.6071,46.1343],[8.6047,46.1352],[8.6032,46.1366],[8.6028,46.1372],[8.6026,46.1383],[8.6019,46.1386],[8.601,46.1393],[8.5984,46.1403],[8.5972,46.1412],[8.5958,46.1426],[8.5945,46.143],[8.5927,46.1429],[8.5931,46.1432],[8.5933,46.1443],[8.5931,46.1449],[8.5931,46.146],[8.5937,46.1464],[8.5941,46.1471],[8.5945,46.1474],[8.596,46.1477],[8.5964,46.1482],[8.5966,46.1487],[8.5984,46.1489],[8.6,46.1496],[8.6002,46.1498],[8.6,46.1509],[8.6002,46.152],[8.6001,46.1528],[8.6002,46.1533],[8.6006,46.1536],[8.6011,46.1537],[8.6027,46.1535],[8.6037,46.1536],[8.603,46.1543],[8.6034,46.1547],[8.603,46.1551],[8.6032,46.1553],[8.601,46.1555],[8.6002,46.1557],[8.597,46.1557],[8.5956,46.1559],[8.5952,46.1557],[8.5945,46.1557],[8.594,46.1562],[8.5923,46.1562],[8.5916,46.1567],[8.5895,46.1569],[8.5889,46.1566],[8.5881,46.1566],[8.588,46.1568],[8.5883,46.1579],[8.5888,46.1581],[8.589,46.1588],[8.5892,46.159],[8.5891,46.1591],[8.5878,46.1595],[8.5874,46.1601],[8.588,46.1608],[8.5881,46.161],[8.5871,46.1616],[8.5843,46.1629],[8.5837,46.1627],[8.5818,46.1626],[8.5812,46.1623],[8.58,46.1621],[8.5795,46.1617],[8.5782,46.1617],[8.5777,46.1621],[8.5765,46.1627],[8.5764,46.1634],[8.5757,46.1634],[8.5745,46.1642],[8.5736,46.1643],[8.573,46.1652],[8.5721,46.1669],[8.5699,46.1769],[8.5652,46.1814],[8.5648,46.1821],[8.5641,46.1826],[8.5637,46.1839],[8.563,46.184],[8.5619,46.1845],[8.5611,46.1846],[8.5584,46.1855],[8.5561,46.1855],[8.5557,46.1856],[8.5555,46.1859],[8.554,46.1861],[8.555,46.1872],[8.5544,46.1885],[8.5545,46.1896],[8.5539,46.1902],[8.5536,46.192],[8.5509,46.1936],[8.5455,46.1961],[8.5455,46.1963],[8.5442,46.1965],[8.5424,46.1974],[8.5411,46.1972],[8.5405,46.1978],[8.5382,46.2024],[8.5364,46.2043],[8.5363,46.2061],[8.5347,46.2088],[8.5334,46.2137],[8.5327,46.2156],[8.5324,46.2183],[8.5298,46.2192],[8.529,46.2197],[8.5287,46.22],[8.5237,46.2209],[8.522,46.2218],[8.5217,46.2219],[8.5194,46.2214],[8.5196,46.2212],[8.5196,46.221],[8.5179,46.2207],[8.5176,46.2202],[8.5151,46.2202],[8.5138,46.2206],[8.5133,46.2207],[8.5128,46.2209],[8.5109,46.2212],[8.5099,46.2217],[8.5097,46.2221],[8.509,46.2224],[8.5086,46.2229],[8.5048,46.2242],[8.5046,46.2246],[8.5041,46.2247],[8.504,46.225],[8.5031,46.2253],[8.5019,46.2261],[8.4984,46.2269],[8.4972,46.2276],[8.4924,46.2291],[8.4919,46.2292],[8.4919,46.2289],[8.4913,46.2289],[8.4886,46.2299],[8.4869,46.2303],[8.483,46.2305],[8.4808,46.2304],[8.4775,46.2304],[8.4738,46.2312],[8.4735,46.2314],[8.4702,46.2323],[8.4697,46.2327],[8.4687,46.2329],[8.4682,46.2336],[8.4672,46.2343],[8.4672,46.2347],[8.4666,46.2355],[8.4666,46.2357],[8.4662,46.2363],[8.4661,46.2368],[8.4662,46.2371],[8.466,46.238],[8.4663,46.2384],[8.4659,46.2387],[8.466,46.2389],[8.4658,46.2395],[8.466,46.24],[8.4658,46.242],[8.4652,46.2427],[8.4652,46.2433],[8.4644,46.2439],[8.4641,46.2446],[8.4608,46.2448],[8.46,46.2455],[8.459,46.246],[8.4582,46.2463],[8.4563,46.2466],[8.4549,46.2472],[8.4538,46.2475],[8.4528,46.2474],[8.452,46.2476],[8.4502,46.2482],[8.4482,46.248],[8.4476,46.2478],[8.447,46.248],[8.4452,46.2489],[8.4445,46.2489],[8.4441,46.2498],[8.4434,46.2502],[8.443,46.2515],[8.4433,46.2519],[8.443,46.2524],[8.4423,46.253],[8.4425,46.2531],[8.4423,46.2542],[8.4435,46.2544],[8.4438,46.2547],[8.4438,46.2553],[8.4444,46.256],[8.4444,46.2561],[8.445,46.2565],[8.445,46.2567],[8.4458,46.2575],[8.4479,46.258],[8.448,46.2585],[8.4484,46.2587],[8.4483,46.2588],[8.4486,46.2592],[8.4485,46.2595],[8.4482,46.2598],[8.448,46.2607],[8.4483,46.2609],[8.4483,46.2612],[8.4485,46.2614],[8.4488,46.2613],[8.4495,46.2609],[8.4502,46.2615],[8.451,46.2618],[8.451,46.2619],[8.4518,46.2623],[8.4533,46.2624],[8.4537,46.2628],[8.4545,46.263],[8.4546,46.2632],[8.4559,46.2638],[8.4498,46.2743],[8.442,46.2811],[8.441,46.2817],[8.4398,46.2829],[8.4385,46.2837],[8.4363,46.2857],[8.4358,46.2866],[8.4359,46.2869],[8.4354,46.2871],[8.435,46.2875],[8.4345,46.2877],[8.434,46.2885],[8.4341,46.2892],[8.4337,46.2901],[8.434,46.291],[8.4337,46.2912],[8.434,46.2918],[8.4332,46.2925],[8.4329,46.2931],[8.4312,46.2945],[8.4285,46.2973],[8.428,46.2976],[8.4277,46.2983],[8.428,46.2985],[8.4281,46.2989],[8.4284,46.2991],[8.4282,46.2995],[8.4287,46.2998],[8.429,46.3001],[8.4299,46.3006],[8.4313,46.3011],[8.4312,46.3012],[8.4322,46.3016],[8.433,46.3022],[8.4368,46.303],[8.4385,46.3039],[8.4405,46.3041],[8.4403,46.3045],[8.4397,46.3047],[8.4395,46.3051],[8.4393,46.3051],[8.4391,46.3055],[8.439,46.3059],[8.4391,46.3068],[8.4389,46.3071],[8.4395,46.3074],[8.4394,46.3078],[8.4391,46.3081],[8.4395,46.3083],[8.4397,46.3088],[8.4407,46.3092],[8.4409,46.3097],[8.4418,46.3101],[8.4417,46.3107],[8.4424,46.3135],[8.4421,46.3139],[8.4423,46.314],[8.4422,46.3144],[8.4414,46.3156],[8.4418,46.3158],[8.4423,46.3164],[8.4427,46.3176],[8.4435,46.3185],[8.4434,46.3187],[8.4436,46.3188],[8.4437,46.3195],[8.4442,46.3199],[8.4458,46.3201],[8.4471,46.3205],[8.4538,46.3213],[8.4541,46.3225],[8.4537,46.3229],[8.4537,46.3233],[8.4555,46.3244],[8.4554,46.3247],[8.4558,46.3254],[8.4555,46.3263],[8.4557,46.3267],[8.4557,46.3273],[8.4569,46.3277],[8.4592,46.328],[8.4604,46.3284],[8.4611,46.3295],[8.4617,46.3299],[8.4618,46.3302],[8.4617,46.3305],[8.4621,46.3309],[8.4621,46.3312],[8.4627,46.3317],[8.4628,46.332],[8.4635,46.3324],[8.4634,46.3327],[8.4649,46.3334],[8.4654,46.3339],[8.4653,46.3347],[8.4643,46.3353],[8.4637,46.3363],[8.4633,46.3365],[8.4633,46.3368],[8.4638,46.3372],[8.4638,46.3379],[8.4641,46.3385],[8.464,46.339],[8.4637,46.3394],[8.4638,46.3396],[8.4639,46.3402],[8.4636,46.3407],[8.4638,46.3409],[8.4637,46.3411],[8.4639,46.3414],[8.4636,46.3417],[8.4638,46.3424],[8.4639,46.3427],[8.4638,46.3433],[8.4643,46.3441],[8.4641,46.3449],[8.4645,46.3463],[8.4644,46.3469],[8.4645,46.3472],[8.4638,46.3475],[8.4632,46.3482],[8.4629,46.3506],[8.4623,46.3514],[8.4616,46.3533],[8.4617,46.3538],[8.4626,46.3547],[8.4626,46.3548],[8.463,46.3555],[8.4645,46.3562],[8.4644,46.3567],[8.4646,46.3569],[8.4645,46.3576],[8.4647,46.3583],[8.4661,46.3588],[8.467,46.3596],[8.468,46.36],[8.4682,46.3603],[8.4694,46.3609],[8.4693,46.3611],[8.4696,46.3611],[8.4701,46.3617],[8.4702,46.362],[8.47,46.3621],[8.47,46.3623],[8.4702,46.3626],[8.4692,46.3637],[8.4689,46.3639],[8.4687,46.3639],[8.4685,46.3642],[8.4681,46.3651],[8.4683,46.3658],[8.4681,46.3671],[8.467,46.3679],[8.4668,46.3683],[8.4668,46.3686],[8.4672,46.3691],[8.4676,46.3699],[8.4671,46.3702],[8.4672,46.3718],[8.4675,46.3722],[8.4674,46.3727],[8.4669,46.3734],[8.4671,46.3742],[8.4665,46.3763],[8.4661,46.3768],[8.4666,46.3774],[8.4663,46.378],[8.4665,46.3801],[8.4662,46.3802],[8.466,46.381],[8.4654,46.382],[8.4639,46.3835],[8.464,46.3838],[8.4625,46.3851],[8.4624,46.3851],[8.4622,46.3856],[8.4619,46.3857],[8.4619,46.3861],[8.4612,46.3862],[8.4608,46.3865],[8.4608,46.3867],[8.4611,46.3874],[8.4619,46.3882],[8.4618,46.3884],[8.4621,46.3886],[8.4623,46.3889],[8.4644,46.3903],[8.4648,46.3908],[8.466,46.3914],[8.4663,46.3924],[8.4667,46.3927],[8.4671,46.3932],[8.4675,46.3934],[8.4689,46.3943],[8.4693,46.3944],[8.4703,46.3954],[8.4712,46.3959],[8.4709,46.3965],[8.4701,46.3975],[8.4688,46.3985],[8.4678,46.3991],[8.4675,46.3995],[8.4666,46.3999],[8.4662,46.4005],[8.4659,46.4007],[8.4658,46.4011],[8.4655,46.4011],[8.4654,46.4014],[8.4648,46.4016],[8.4642,46.4023],[8.4637,46.4026],[8.4636,46.4041],[8.4631,46.4049],[8.4635,46.4057],[8.4635,46.4061],[8.4639,46.4063],[8.4639,46.4064],[8.4641,46.4065],[8.4645,46.4071],[8.4655,46.4075],[8.467,46.409],[8.4673,46.4098],[8.4683,46.4111],[8.4684,46.4115],[8.4683,46.4117],[8.4671,46.4131],[8.467,46.4133],[8.4663,46.414],[8.4659,46.4149],[8.4657,46.415],[8.4658,46.4152],[8.4656,46.4156],[8.4639,46.4166],[8.463,46.4179],[8.4622,46.4181],[8.461,46.4188],[8.4607,46.4188],[8.4606,46.4189],[8.4602,46.4189],[8.4593,46.4194],[8.4588,46.4195],[8.4579,46.4208],[8.4575,46.4225],[8.4569,46.4232],[8.4571,46.425],[8.4574,46.4255],[8.4586,46.4259],[8.4588,46.4267],[8.4599,46.4273],[8.4603,46.4278],[8.4601,46.428],[8.4608,46.4284],[8.4607,46.4287],[8.4602,46.429],[8.4592,46.4301],[8.4592,46.4302],[8.4599,46.4305],[8.4601,46.4308],[8.46,46.4312],[8.4594,46.4315],[8.4589,46.4319],[8.4584,46.4327],[8.4584,46.4332],[8.4579,46.4339],[8.4578,46.4345],[8.4575,46.4348],[8.4583,46.4352],[8.4583,46.4354],[8.4585,46.4356],[8.4584,46.4358],[8.4593,46.4367],[8.4593,46.437],[8.4617,46.4381],[8.4623,46.4388],[8.4628,46.4386],[8.4629,46.4388],[8.4634,46.4388],[8.464,46.4392],[8.464,46.4397],[8.4647,46.4411],[8.4647,46.4416],[8.4652,46.4418],[8.4652,46.4419],[8.4657,46.4421],[8.4662,46.4427],[8.4662,46.443],[8.4658,46.4431],[8.4655,46.4437],[8.4659,46.4444],[8.4655,46.4445],[8.4654,46.4447],[8.465,46.4447],[8.4649,46.4449],[8.4643,46.445],[8.4641,46.4449],[8.464,46.4452],[8.4624,46.4451],[8.4626,46.4455],[8.4617,46.446],[8.4615,46.4465],[8.4621,46.4471],[8.4622,46.4474],[8.4621,46.4474],[8.4624,46.4478],[8.4626,46.4484],[8.4618,46.4498],[8.4621,46.4502],[8.462,46.4507],[8.4606,46.4514],[8.459,46.4517],[8.4572,46.4527],[8.4563,46.453],[8.4555,46.4534],[8.455,46.4541],[8.4542,46.4543],[8.4528,46.4554],[8.4527,46.4556],[8.4527,46.4562],[8.4523,46.4566],[8.4531,46.4577],[8.4532,46.4582],[8.45,46.4618],[8.4461,46.4637],[8.4452,46.4637],[8.4404,46.463],[8.4393,46.4626],[8.4384,46.4628],[8.4384,46.463],[8.4389,46.4637],[8.4389,46.4639],[8.4385,46.4643],[8.4371,46.4641],[8.4367,46.4639],[8.4356,46.4637],[8.4352,46.4639],[8.4339,46.4638],[8.4325,46.4634],[8.4316,46.4634],[8.4313,46.4632],[8.4308,46.463],[8.4306,46.4628],[8.4289,46.4623],[8.4274,46.4616],[8.4256,46.4616],[8.4237,46.461],[8.4211,46.4609],[8.4204,46.4604],[8.4188,46.4598],[8.4181,46.459],[8.4171,46.4588],[8.415,46.4586],[8.4148,46.4588],[8.4149,46.4589],[8.4146,46.459],[8.4143,46.459],[8.4137,46.4593],[8.413,46.4593],[8.411,46.459],[8.4105,46.4591],[8.4094,46.4585],[8.4084,46.4587],[8.4071,46.4583],[8.4046,46.4572],[8.4041,46.4568],[8.4042,46.4566],[8.4037,46.4558],[8.4031,46.4552],[8.4022,46.4547],[8.3995,46.4552],[8.3993,46.4549],[8.3974,46.4549],[8.396,46.4546],[8.3958,46.4543],[8.3958,46.4538],[8.3946,46.4531],[8.393,46.4516],[8.3925,46.4517],[8.3922,46.4517],[8.3909,46.4522],[8.3908,46.4524],[8.3892,46.4528],[8.3887,46.4525],[8.3882,46.4525],[8.3872,46.4519],[8.3863,46.4518],[8.3862,46.4519],[8.3853,46.4518],[8.3847,46.4522],[8.3847,46.4523],[8.3843,46.4527],[8.3842,46.4538],[8.3837,46.4547],[8.3835,46.456],[8.3822,46.4596],[8.3823,46.4599],[8.3834,46.4602],[8.3857,46.4618],[8.3864,46.4632],[8.386,46.4648],[8.3855,46.4656],[8.3868,46.4664],[8.3885,46.4673],[8.3904,46.4673],[8.3925,46.468],[8.3923,46.4687],[8.3923,46.4696],[8.3909,46.4695],[8.39,46.4697],[8.3893,46.4708],[8.3896,46.4726],[8.389,46.4735],[8.388,46.4744],[8.3874,46.4745],[8.386,46.4757],[8.3868,46.4761],[8.3864,46.4764],[8.3864,46.4767],[8.3865,46.477],[8.3876,46.4771],[8.3883,46.4774],[8.3883,46.4777],[8.3871,46.4779],[8.39,46.4802],[8.3913,46.4817],[8.3915,46.4826],[8.3922,46.483],[8.3938,46.4834],[8.3943,46.4837],[8.3947,46.485],[8.3946,46.486],[8.3942,46.4874],[8.3943,46.4877],[8.394,46.4884],[8.3916,46.4919],[8.3917,46.4935],[8.3922,46.4941],[8.3924,46.4946],[8.3932,46.4943],[8.3937,46.4943],[8.3946,46.4941],[8.3948,46.4939],[8.396,46.4941],[8.3988,46.4942],[8.3999,46.4935],[8.4005,46.4927],[8.4014,46.4924],[8.4056,46.4927],[8.4094,46.4926],[8.4111,46.4928],[8.4116,46.4937],[8.412,46.4939],[8.4144,46.4947],[8.4148,46.4947],[8.4154,46.4942],[8.4166,46.4938],[8.4172,46.4938],[8.4177,46.4932],[8.4186,46.4928],[8.4197,46.4926],[8.4235,46.4943],[8.4264,46.4949],[8.4275,46.495],[8.4286,46.4955],[8.4302,46.4959],[8.4317,46.497],[8.4345,46.4971],[8.4361,46.4968],[8.4376,46.4962],[8.4389,46.496],[8.4405,46.4961],[8.442,46.4956],[8.4431,46.4954],[8.4439,46.4961],[8.4451,46.4969],[8.4448,46.4975],[8.4449,46.4977],[8.4458,46.4987],[8.4494,46.5045],[8.4517,46.5078],[8.453,46.5081],[8.4543,46.5077],[8.4549,46.5079],[8.4587,46.5101],[8.4604,46.5113],[8.4618,46.5126],[8.4627,46.5144],[8.4649,46.5161],[8.4662,46.5168],[8.466,46.5172],[8.4661,46.5176],[8.4668,46.518],[8.4672,46.5181],[8.4676,46.5185],[8.4686,46.5186],[8.4707,46.5199],[8.4711,46.5202],[8.4706,46.5207],[8.471,46.5213],[8.4714,46.5215],[8.4716,46.5221],[8.4721,46.5222],[8.4728,46.5232],[8.4739,46.5235],[8.4749,46.524],[8.4768,46.5243],[8.478,46.5249],[8.4785,46.5256],[8.4785,46.5268],[8.4776,46.5272],[8.4775,46.5274]],[[8.9641,45.9762],[8.9615,45.9724],[8.961,45.9702],[8.9596,45.9679],[8.9585,45.9648],[8.9682,45.963],[8.9689,45.9627],[8.9685,45.9619],[8.9711,45.9616],[8.9726,45.962],[8.9742,45.962],[8.9756,45.9616],[8.9769,45.9637],[8.9774,45.9681],[8.9782,45.9684],[8.9794,45.971],[8.9776,45.9716],[8.9772,45.9719],[8.9774,45.9722],[8.977,45.9733],[8.9766,45.9752],[8.9763,45.9759],[8.9764,45.9796],[8.9773,45.9814],[8.9776,45.9826],[8.9773,45.983],[8.9671,45.9841],[8.9649,45.9798],[8.9641,45.9762]]]}}