{"type":"Feature","bbox":[8.668,47.3759,9.5069,47.6954],"properties":{"iso":"CH","code":"TG","name":"Thurgau","name_de":"Kanton Thurgau","source":"swisstopo","key":"CH-TG"},"geometry":{"type":"MultiPolygon","coordinates":[[[[9.4494,47.4922],[9.4498,47.4932],[9.4482,47.4936],[9.4504,47.497],[9.4481,47.498],[9.4494,47.4996],[9.4485,47.5007],[9.4576,47.5072],[9.472,47.5017],[9.4835,47.4938],[9.4784,47.4903],[9.4673,47.4856],[9.4644,47.4841],[9.4638,47.485],[9.4642,47.4853],[9.4644,47.4859],[9.4642,47.4863],[9.4643,47.4867],[9.4645,47.487],[9.4657,47.488],[9.463,47.4891],[9.4626,47.4882],[9.4592,47.4894],[9.4591,47.4892],[9.4561,47.4897],[9.453,47.49],[9.4529,47.491],[9.4537,47.4916],[9.4494,47.4922]]],[[[8.8754,47.6549],[8.8791,47.655],[8.8824,47.6543],[8.8857,47.6531],[8.89,47.6501],[8.8927,47.6487],[8.8947,47.6482],[8.8985,47.6482],[8.9005,47.6483],[8.9025,47.6487],[8.9053,47.65],[8.9072,47.6506],[8.9121,47.6513],[8.9182,47.6528],[8.9215,47.6532],[8.9252,47.6548],[8.9265,47.6552],[8.9304,47.6556],[8.9371,47.6557],[8.9411,47.6562],[8.9424,47.6567],[8.9445,47.6586],[8.9461,47.6595],[8.9504,47.6604],[8.9543,47.6625],[8.9557,47.663],[8.9616,47.6643],[8.9691,47.6677],[8.9748,47.669],[8.9756,47.6695],[8.9779,47.6723],[8.9791,47.673],[8.9801,47.6735],[8.9835,47.6743],[8.9886,47.6749],[8.9901,47.6753],[8.9993,47.6783],[9.0027,47.6795],[9.0065,47.6812],[9.0126,47.6844],[9.0153,47.6855],[9.0194,47.6865],[9.0238,47.6869],[9.026,47.6868],[9.0287,47.6865],[9.0395,47.6843],[9.0486,47.6827],[9.0594,47.681],[9.0715,47.6796],[9.0759,47.6786],[9.0805,47.6788],[9.0857,47.6797],[9.088,47.6799],[9.0912,47.6799],[9.0942,47.6794],[9.0994,47.678],[9.1043,47.6761],[9.1089,47.6738],[9.1143,47.6703],[9.118,47.6687],[9.1217,47.6678],[9.1263,47.6672],[9.13,47.6664],[9.1328,47.666],[9.1392,47.6642],[9.1407,47.6642],[9.1432,47.6651],[9.1466,47.6668],[9.1484,47.6675],[9.1497,47.6677],[9.1508,47.6676],[9.1578,47.6658],[9.1594,47.6643],[9.16,47.6635],[9.1599,47.6631],[9.16,47.6628],[9.1607,47.6623],[9.1697,47.656],[9.1703,47.655],[9.1706,47.6548],[9.172,47.6554],[9.1734,47.6554],[9.1755,47.6558],[9.176,47.654],[9.1772,47.6545],[9.1773,47.6549],[9.1779,47.6548],[9.1871,47.6575],[9.203,47.6553],[9.2148,47.6551],[9.2566,47.6587],[9.3947,47.6203],[9.4956,47.5515],[9.5069,47.5497],[9.447,47.5113],[9.4356,47.5065],[9.4332,47.506],[9.4333,47.5055],[9.4335,47.5053],[9.4334,47.5052],[9.4315,47.5051],[9.4305,47.5047],[9.4296,47.5034],[9.4273,47.5023],[9.4251,47.5015],[9.4245,47.5006],[9.423,47.4991],[9.4213,47.4962],[9.4188,47.4968],[9.4174,47.4981],[9.4161,47.4977],[9.4163,47.4974],[9.4135,47.4975],[9.4128,47.4955],[9.4119,47.4957],[9.4116,47.4953],[9.4105,47.4946],[9.4103,47.4939],[9.4096,47.4934],[9.4086,47.4934],[9.4065,47.4941],[9.4061,47.4937],[9.406,47.4932],[9.4065,47.4925],[9.4058,47.4916],[9.4059,47.4914],[9.4062,47.4912],[9.4055,47.4908],[9.4046,47.4892],[9.4033,47.4887],[9.4037,47.4882],[9.4036,47.4876],[9.4032,47.4872],[9.4009,47.4865],[9.4004,47.4861],[9.4021,47.4849],[9.4018,47.4834],[9.4011,47.4832],[9.4004,47.4826],[9.4008,47.4825],[9.4012,47.4808],[9.4004,47.4802],[9.4007,47.4798],[9.4006,47.4793],[9.3993,47.4779],[9.3984,47.4781],[9.3972,47.4778],[9.3964,47.4778],[9.3964,47.4773],[9.3963,47.4764],[9.397,47.475],[9.3945,47.4759],[9.3932,47.476],[9.3912,47.4773],[9.3916,47.4786],[9.3916,47.4789],[9.3906,47.4795],[9.3898,47.4806],[9.3888,47.4816],[9.3874,47.482],[9.3856,47.482],[9.385,47.4821],[9.3836,47.4834],[9.3823,47.4839],[9.3822,47.4845],[9.3813,47.485],[9.3796,47.4855],[9.3795,47.4856],[9.3799,47.4857],[9.3808,47.4873],[9.3792,47.4873],[9.3791,47.487],[9.3779,47.4872],[9.375,47.4871],[9.374,47.4864],[9.3731,47.4853],[9.3707,47.4854],[9.3682,47.4847],[9.3672,47.4853],[9.3665,47.4855],[9.3668,47.4862],[9.3682,47.488],[9.3705,47.4892],[9.3715,47.4889],[9.3716,47.4893],[9.3723,47.4897],[9.3728,47.4905],[9.3684,47.4921],[9.3686,47.4928],[9.3692,47.4936],[9.3689,47.494],[9.3698,47.4943],[9.37,47.4945],[9.3715,47.4943],[9.3731,47.4944],[9.3737,47.4948],[9.3741,47.4954],[9.3743,47.4962],[9.3741,47.4965],[9.3745,47.497],[9.3742,47.4977],[9.3744,47.4983],[9.3742,47.4986],[9.3745,47.4997],[9.374,47.5004],[9.3736,47.5003],[9.3722,47.5009],[9.3689,47.5012],[9.3684,47.5009],[9.3681,47.5004],[9.3678,47.5004],[9.3656,47.5015],[9.3619,47.5029],[9.3616,47.5025],[9.3599,47.5029],[9.3569,47.5034],[9.3561,47.5034],[9.3564,47.502],[9.3559,47.5009],[9.3545,47.5009],[9.352,47.5014],[9.3495,47.5014],[9.3477,47.5019],[9.3466,47.5019],[9.3452,47.5026],[9.3433,47.5031],[9.3418,47.5037],[9.3408,47.5034],[9.3403,47.503],[9.3397,47.5032],[9.3389,47.5023],[9.339,47.5017],[9.338,47.5009],[9.3377,47.5008],[9.3369,47.5013],[9.3364,47.5023],[9.3364,47.5025],[9.337,47.5038],[9.3376,47.5043],[9.3376,47.505],[9.338,47.506],[9.3383,47.5062],[9.3383,47.5068],[9.3406,47.5069],[9.3424,47.5064],[9.3433,47.5064],[9.3443,47.5083],[9.3454,47.5079],[9.3462,47.508],[9.3471,47.5091],[9.3472,47.5099],[9.3481,47.5098],[9.3485,47.5112],[9.3476,47.5116],[9.3458,47.5118],[9.3469,47.5128],[9.3471,47.5132],[9.3475,47.5131],[9.3484,47.514],[9.3489,47.5138],[9.35,47.5142],[9.35,47.5148],[9.3505,47.5154],[9.3518,47.5154],[9.352,47.5152],[9.3524,47.515],[9.3534,47.5149],[9.3536,47.5149],[9.3538,47.5153],[9.3547,47.5153],[9.3546,47.5157],[9.3552,47.5163],[9.3558,47.5164],[9.3564,47.5195],[9.3563,47.5197],[9.3559,47.5199],[9.3548,47.5197],[9.3542,47.5193],[9.3532,47.5192],[9.3507,47.5199],[9.3465,47.5204],[9.3454,47.5202],[9.3445,47.5198],[9.3438,47.52],[9.3437,47.5202],[9.3439,47.5208],[9.3422,47.5216],[9.3414,47.5224],[9.3412,47.5231],[9.3412,47.524],[9.3394,47.5245],[9.339,47.5249],[9.3402,47.5264],[9.3403,47.5275],[9.34,47.5282],[9.34,47.5299],[9.3396,47.5315],[9.3393,47.5314],[9.3391,47.531],[9.339,47.5308],[9.3391,47.5305],[9.3388,47.5303],[9.3389,47.53],[9.3386,47.53],[9.3383,47.5289],[9.3369,47.5287],[9.3316,47.5296],[9.3311,47.5296],[9.331,47.5295],[9.3297,47.5296],[9.3296,47.5291],[9.3288,47.5284],[9.3261,47.5289],[9.3261,47.529],[9.3252,47.5289],[9.3253,47.529],[9.3241,47.5293],[9.3231,47.5302],[9.3233,47.5304],[9.3232,47.5306],[9.3233,47.5307],[9.3232,47.5309],[9.3235,47.5316],[9.3229,47.5319],[9.3222,47.5317],[9.3221,47.5314],[9.3222,47.5311],[9.3218,47.5309],[9.3213,47.5312],[9.3187,47.5315],[9.3185,47.5317],[9.3173,47.5313],[9.3175,47.5309],[9.3153,47.5303],[9.3157,47.5299],[9.316,47.5298],[9.3166,47.5287],[9.3141,47.5285],[9.3132,47.5279],[9.3123,47.5276],[9.3127,47.5271],[9.3128,47.5267],[9.3133,47.5264],[9.3137,47.5248],[9.3135,47.5234],[9.3128,47.5221],[9.31,47.5235],[9.3096,47.5245],[9.3084,47.5254],[9.307,47.5258],[9.3028,47.5264],[9.3024,47.5257],[9.3014,47.5241],[9.2996,47.5244],[9.2978,47.5243],[9.2963,47.5245],[9.2963,47.5237],[9.2953,47.5227],[9.2935,47.5229],[9.2823,47.5207],[9.2848,47.5185],[9.284,47.5179],[9.2828,47.5166],[9.2825,47.5154],[9.2827,47.5146],[9.2795,47.514],[9.28,47.5135],[9.2796,47.5118],[9.2805,47.5113],[9.2804,47.5101],[9.2794,47.5099],[9.2783,47.5101],[9.278,47.5103],[9.2778,47.5119],[9.277,47.5119],[9.2764,47.5126],[9.2759,47.5127],[9.2754,47.5132],[9.2743,47.5127],[9.2735,47.5126],[9.2735,47.5123],[9.2724,47.512],[9.2721,47.5115],[9.2715,47.5114],[9.2702,47.5124],[9.2688,47.5117],[9.2687,47.5112],[9.2684,47.5109],[9.2689,47.5103],[9.2706,47.5101],[9.271,47.5094],[9.2716,47.5078],[9.2732,47.5081],[9.2736,47.507],[9.2742,47.5071],[9.2745,47.5068],[9.2779,47.5068],[9.2786,47.5064],[9.2809,47.5064],[9.281,47.5057],[9.2821,47.506],[9.2835,47.5059],[9.2834,47.5061],[9.2864,47.5068],[9.2864,47.5076],[9.2873,47.5076],[9.2876,47.5074],[9.2881,47.5073],[9.2892,47.5074],[9.2895,47.5071],[9.2916,47.5067],[9.292,47.5081],[9.2935,47.5087],[9.2954,47.5096],[9.2965,47.5093],[9.2977,47.5092],[9.2994,47.5121],[9.3009,47.5118],[9.301,47.5124],[9.3014,47.5127],[9.3026,47.5123],[9.3033,47.5136],[9.3019,47.5141],[9.3029,47.515],[9.3034,47.5157],[9.3049,47.5147],[9.3048,47.514],[9.3075,47.5131],[9.31,47.5112],[9.3117,47.5104],[9.3127,47.51],[9.3153,47.5096],[9.3166,47.5096],[9.317,47.5086],[9.316,47.5087],[9.3151,47.5069],[9.3147,47.507],[9.3141,47.5077],[9.3132,47.507],[9.3126,47.507],[9.3102,47.5076],[9.31,47.5062],[9.3084,47.5053],[9.3081,47.5048],[9.3079,47.504],[9.3092,47.5033],[9.3084,47.5015],[9.3091,47.5011],[9.3092,47.5008],[9.309,47.5],[9.3084,47.499],[9.3081,47.4982],[9.3085,47.4977],[9.309,47.4976],[9.3095,47.4977],[9.3135,47.5002],[9.3153,47.5008],[9.3163,47.5008],[9.3174,47.5004],[9.3185,47.4994],[9.32,47.4971],[9.32,47.4965],[9.3194,47.4949],[9.3193,47.4938],[9.3193,47.4935],[9.3205,47.4918],[9.321,47.4908],[9.3196,47.4908],[9.319,47.4905],[9.3173,47.4891],[9.3165,47.4889],[9.3167,47.4887],[9.3168,47.4882],[9.3156,47.4878],[9.316,47.4872],[9.3151,47.4863],[9.309,47.4842],[9.3092,47.4841],[9.3084,47.4832],[9.3085,47.4825],[9.3083,47.4823],[9.3085,47.482],[9.3079,47.4818],[9.3072,47.4813],[9.3052,47.4805],[9.3043,47.4794],[9.3027,47.4788],[9.3012,47.478],[9.2996,47.4777],[9.2987,47.4772],[9.297,47.4784],[9.2962,47.4787],[9.2951,47.4783],[9.2949,47.4787],[9.2943,47.4789],[9.2889,47.4795],[9.2891,47.48],[9.2878,47.4799],[9.2869,47.4815],[9.2868,47.4819],[9.287,47.4822],[9.2859,47.4825],[9.2842,47.4823],[9.2812,47.4831],[9.2802,47.4825],[9.2791,47.4815],[9.2788,47.4797],[9.2784,47.4794],[9.2749,47.4791],[9.2726,47.4785],[9.2724,47.4776],[9.2702,47.4777],[9.2683,47.4769],[9.2671,47.4767],[9.2647,47.4751],[9.2635,47.4747],[9.2619,47.4745],[9.261,47.4748],[9.2593,47.4746],[9.254,47.4751],[9.2523,47.4756],[9.2517,47.4749],[9.2512,47.4745],[9.2486,47.4754],[9.2471,47.4758],[9.2462,47.4773],[9.2452,47.4783],[9.2453,47.4786],[9.2456,47.4787],[9.2455,47.479],[9.2457,47.479],[9.2446,47.4803],[9.2433,47.48],[9.2409,47.4802],[9.2398,47.4806],[9.2379,47.4818],[9.2374,47.4814],[9.2371,47.4809],[9.2322,47.4811],[9.2323,47.4832],[9.2289,47.4842],[9.2279,47.4834],[9.2268,47.4841],[9.2247,47.4846],[9.2218,47.4839],[9.2207,47.4834],[9.2201,47.4833],[9.2197,47.4833],[9.2183,47.4838],[9.2148,47.4817],[9.2146,47.4819],[9.2133,47.4804],[9.2137,47.4799],[9.2132,47.4789],[9.2114,47.4795],[9.2108,47.4798],[9.2097,47.4799],[9.2095,47.4801],[9.209,47.4802],[9.2099,47.482],[9.2084,47.4823],[9.2076,47.4826],[9.2064,47.4825],[9.2069,47.4829],[9.2079,47.4832],[9.2077,47.484],[9.2077,47.4845],[9.2072,47.485],[9.2068,47.4852],[9.2068,47.4859],[9.2064,47.4862],[9.2064,47.4867],[9.2081,47.4876],[9.2083,47.4881],[9.2094,47.4888],[9.2099,47.4893],[9.2088,47.4889],[9.2076,47.4886],[9.206,47.489],[9.2049,47.4888],[9.2031,47.4892],[9.2016,47.4888],[9.2005,47.4892],[9.2001,47.4896],[9.1988,47.489],[9.1968,47.4905],[9.1931,47.4889],[9.1923,47.4896],[9.1934,47.4912],[9.1888,47.4931],[9.1883,47.4926],[9.1874,47.4927],[9.1874,47.4925],[9.1862,47.4921],[9.1829,47.4913],[9.1817,47.4937],[9.1816,47.4949],[9.1811,47.4965],[9.181,47.4974],[9.1804,47.497],[9.1776,47.497],[9.1786,47.4961],[9.1774,47.4948],[9.1749,47.4953],[9.1737,47.4945],[9.1734,47.4954],[9.1729,47.4954],[9.1731,47.496],[9.1728,47.4964],[9.1724,47.4965],[9.1722,47.4968],[9.1717,47.497],[9.1717,47.4972],[9.1711,47.4974],[9.1707,47.4972],[9.1699,47.4976],[9.1701,47.4978],[9.1692,47.4983],[9.1696,47.4993],[9.172,47.5033],[9.1692,47.504],[9.169,47.5038],[9.1686,47.5023],[9.1684,47.5019],[9.1684,47.5015],[9.168,47.5014],[9.168,47.5013],[9.1667,47.5017],[9.1672,47.5021],[9.167,47.5026],[9.1675,47.5035],[9.1659,47.5041],[9.1655,47.5037],[9.1654,47.5033],[9.1652,47.5033],[9.1653,47.5033],[9.1646,47.5027],[9.1642,47.5021],[9.1638,47.5018],[9.1634,47.5017],[9.1634,47.5015],[9.163,47.5015],[9.163,47.5014],[9.1625,47.5012],[9.1622,47.5008],[9.1623,47.5005],[9.1623,47.5004],[9.1607,47.5],[9.1605,47.4991],[9.1606,47.4991],[9.1605,47.4987],[9.1626,47.4972],[9.1627,47.4969],[9.1626,47.4965],[9.1615,47.4956],[9.1605,47.494],[9.1605,47.4937],[9.1607,47.4935],[9.1602,47.4931],[9.1598,47.4926],[9.1595,47.4925],[9.1587,47.4915],[9.1587,47.4909],[9.1581,47.4901],[9.1586,47.4899],[9.1579,47.4891],[9.1572,47.4887],[9.1564,47.4886],[9.1563,47.4882],[9.1554,47.4877],[9.1544,47.4875],[9.154,47.4873],[9.1539,47.487],[9.1537,47.4869],[9.1534,47.487],[9.1533,47.4875],[9.1528,47.4876],[9.152,47.4872],[9.1516,47.4872],[9.1512,47.4875],[9.1502,47.4872],[9.1497,47.4873],[9.1492,47.4871],[9.1485,47.4871],[9.148,47.4867],[9.1463,47.4866],[9.1462,47.4863],[9.1434,47.4854],[9.142,47.4844],[9.1414,47.4848],[9.1403,47.4844],[9.1403,47.4846],[9.1394,47.4848],[9.1397,47.4852],[9.139,47.4854],[9.138,47.4853],[9.1377,47.4854],[9.1373,47.4858],[9.1369,47.4856],[9.1361,47.4856],[9.1357,47.485],[9.1352,47.4849],[9.135,47.4853],[9.133,47.485],[9.1328,47.4852],[9.1324,47.485],[9.1323,47.4854],[9.1317,47.4855],[9.1313,47.4848],[9.1307,47.4846],[9.1303,47.4849],[9.1294,47.4845],[9.129,47.4846],[9.1261,47.484],[9.1254,47.4841],[9.1252,47.4837],[9.1241,47.4836],[9.1243,47.4832],[9.1239,47.4829],[9.1243,47.4825],[9.1246,47.4817],[9.1241,47.4814],[9.1227,47.4807],[9.122,47.4806],[9.1211,47.4802],[9.1185,47.4797],[9.116,47.4797],[9.1159,47.48],[9.1161,47.4801],[9.1157,47.4808],[9.1159,47.481],[9.1157,47.481],[9.1154,47.4813],[9.1151,47.4812],[9.115,47.4817],[9.1146,47.4822],[9.114,47.4823],[9.1144,47.4829],[9.1125,47.4832],[9.1127,47.484],[9.1131,47.4842],[9.1129,47.4844],[9.1114,47.484],[9.1104,47.4845],[9.1104,47.484],[9.1092,47.484],[9.109,47.4843],[9.1075,47.4843],[9.1069,47.4844],[9.1065,47.4848],[9.1062,47.4845],[9.1048,47.4846],[9.1038,47.4843],[9.103,47.4847],[9.0994,47.4852],[9.0992,47.4854],[9.0986,47.4856],[9.0983,47.4851],[9.0978,47.4847],[9.0978,47.4839],[9.0975,47.484],[9.0966,47.4837],[9.0964,47.4839],[9.0953,47.4837],[9.095,47.4839],[9.0935,47.4834],[9.0931,47.4835],[9.0923,47.4833],[9.0919,47.4835],[9.091,47.4831],[9.091,47.4828],[9.0899,47.4828],[9.0894,47.4835],[9.0891,47.4835],[9.089,47.484],[9.0885,47.4844],[9.0882,47.4863],[9.0878,47.4862],[9.0874,47.4869],[9.0863,47.488],[9.0864,47.4883],[9.0844,47.4889],[9.0836,47.489],[9.0843,47.4894],[9.0848,47.4895],[9.0845,47.4899],[9.0851,47.4902],[9.0844,47.4905],[9.0847,47.4908],[9.0838,47.4911],[9.0844,47.4917],[9.0846,47.4921],[9.0837,47.4925],[9.0836,47.4938],[9.0824,47.4939],[9.0824,47.4952],[9.0811,47.4949],[9.0805,47.4951],[9.0796,47.4949],[9.0797,47.4945],[9.0789,47.4943],[9.0773,47.4937],[9.0769,47.4931],[9.0762,47.4927],[9.0745,47.4923],[9.0743,47.4927],[9.074,47.4927],[9.074,47.4931],[9.0735,47.493],[9.0728,47.4936],[9.0714,47.4926],[9.0711,47.4928],[9.0707,47.4928],[9.0693,47.4917],[9.0679,47.4916],[9.0673,47.4914],[9.0668,47.4916],[9.0662,47.4916],[9.0655,47.4911],[9.0644,47.4908],[9.0643,47.4908],[9.0647,47.491],[9.0648,47.4917],[9.064,47.4916],[9.0629,47.4925],[9.0627,47.4925],[9.0624,47.4923],[9.0618,47.4911],[9.061,47.4911],[9.0608,47.4907],[9.0599,47.4912],[9.0593,47.4906],[9.0585,47.4902],[9.0588,47.4894],[9.0595,47.4888],[9.0592,47.4883],[9.0578,47.4878],[9.0558,47.4874],[9.0554,47.4879],[9.0549,47.4888],[9.054,47.4897],[9.0521,47.4896],[9.0519,47.49],[9.0516,47.4899],[9.0512,47.4915],[9.0502,47.4913],[9.0501,47.4916],[9.0504,47.4918],[9.0508,47.4918],[9.0512,47.492],[9.0511,47.4922],[9.0498,47.4918],[9.0481,47.492],[9.0476,47.4918],[9.0469,47.4929],[9.0457,47.4933],[9.0442,47.4928],[9.0428,47.4947],[9.0424,47.4947],[9.0421,47.4954],[9.0421,47.4958],[9.0403,47.4958],[9.0402,47.4956],[9.0405,47.4954],[9.0411,47.4947],[9.0378,47.4933],[9.0364,47.4924],[9.0366,47.4918],[9.036,47.4914],[9.0351,47.4922],[9.0302,47.4904],[9.0301,47.4898],[9.0283,47.4887],[9.0274,47.4895],[9.0263,47.4901],[9.0248,47.4891],[9.0238,47.4889],[9.0213,47.4889],[9.0202,47.4883],[9.0196,47.4889],[9.019,47.4889],[9.0181,47.4893],[9.018,47.4897],[9.0175,47.4901],[9.0161,47.49],[9.0148,47.4901],[9.0145,47.4896],[9.0125,47.49],[9.0119,47.4893],[9.0107,47.4885],[9.0102,47.4877],[9.0116,47.4869],[9.0108,47.4863],[9.0108,47.4855],[9.0102,47.4854],[9.01,47.4848],[9.0083,47.4838],[9.0081,47.4836],[9.0068,47.4842],[9.0065,47.4836],[9.0068,47.4828],[9.0036,47.4812],[9.0037,47.4809],[9.0063,47.4808],[9.0061,47.4802],[9.0073,47.4795],[9.0088,47.4798],[9.009,47.4772],[9.0086,47.476],[9.0087,47.4758],[9.0105,47.4753],[9.012,47.4753],[9.0091,47.4735],[9.0082,47.4724],[9.0102,47.4716],[9.0175,47.4696],[9.0215,47.4691],[9.0235,47.4686],[9.024,47.4687],[9.0242,47.4684],[9.0266,47.4678],[9.0295,47.4667],[9.0288,47.466],[9.0284,47.4653],[9.0284,47.4639],[9.0292,47.4626],[9.03,47.4621],[9.0307,47.4618],[9.0275,47.4609],[9.028,47.4605],[9.0264,47.4601],[9.0275,47.4588],[9.0272,47.4577],[9.0274,47.4577],[9.0336,47.4561],[9.0344,47.4558],[9.0354,47.4551],[9.0358,47.4555],[9.0386,47.4547],[9.0417,47.454],[9.0476,47.4535],[9.0477,47.453],[9.0497,47.4531],[9.0498,47.4528],[9.0504,47.4529],[9.0532,47.451],[9.0543,47.4506],[9.0546,47.4485],[9.058,47.448],[9.0588,47.4473],[9.0622,47.4465],[9.0626,47.4462],[9.0607,47.4452],[9.0596,47.4455],[9.0599,47.4459],[9.0591,47.4461],[9.057,47.4456],[9.0586,47.4445],[9.0588,47.4442],[9.059,47.4432],[9.0573,47.4429],[9.0547,47.4435],[9.0544,47.4434],[9.0543,47.4432],[9.0539,47.4432],[9.0529,47.4439],[9.0517,47.4442],[9.053,47.4426],[9.0475,47.4442],[9.0474,47.444],[9.0476,47.4438],[9.0474,47.4429],[9.0454,47.4431],[9.0451,47.4429],[9.0463,47.4417],[9.0451,47.4407],[9.0455,47.4415],[9.0453,47.4417],[9.0442,47.4418],[9.0439,47.4409],[9.0431,47.4403],[9.0427,47.4401],[9.0404,47.4407],[9.0393,47.4412],[9.0381,47.4414],[9.0382,47.4398],[9.0377,47.4395],[9.0372,47.4396],[9.0366,47.4395],[9.0371,47.4391],[9.0381,47.4386],[9.038,47.4383],[9.0386,47.4381],[9.0383,47.4371],[9.0369,47.4363],[9.0352,47.4358],[9.0345,47.4357],[9.034,47.4355],[9.0337,47.4359],[9.0349,47.4365],[9.0364,47.437],[9.0368,47.4376],[9.035,47.4392],[9.0346,47.4391],[9.0335,47.4396],[9.0333,47.4399],[9.0329,47.4397],[9.0328,47.4387],[9.0324,47.4382],[9.0316,47.4376],[9.0305,47.4376],[9.0278,47.4371],[9.0272,47.4373],[9.0265,47.4372],[9.0253,47.4387],[9.0253,47.4391],[9.0222,47.4417],[9.0213,47.4415],[9.0211,47.4412],[9.0212,47.4409],[9.0197,47.4403],[9.0202,47.4399],[9.0194,47.439],[9.019,47.4375],[9.0187,47.4372],[9.0188,47.4368],[9.0172,47.4365],[9.0143,47.4351],[9.0138,47.4353],[9.0133,47.4342],[9.0129,47.4342],[9.0125,47.4337],[9.012,47.4335],[9.011,47.4334],[9.011,47.4341],[9.0105,47.4344],[9.0101,47.4353],[9.0086,47.4344],[9.0082,47.4343],[9.0072,47.4345],[9.0054,47.4341],[9.0045,47.4348],[9.0042,47.4344],[9.0033,47.434],[9.0029,47.4343],[9.0015,47.4347],[9.0007,47.4347],[9.0004,47.4349],[8.9997,47.4347],[8.9992,47.4351],[8.9986,47.435],[8.9987,47.4343],[8.9985,47.4339],[8.9999,47.4321],[8.997,47.4313],[8.9954,47.4306],[8.9942,47.4305],[8.9943,47.4298],[8.9929,47.4298],[8.992,47.4297],[8.9918,47.4302],[8.9904,47.4304],[8.9903,47.4298],[8.989,47.4299],[8.9875,47.4297],[8.9873,47.4294],[8.9877,47.4292],[8.9891,47.4295],[8.9895,47.4294],[8.9895,47.4292],[8.99,47.4292],[8.9899,47.4289],[8.9899,47.4284],[8.9908,47.4281],[8.9901,47.4271],[8.9912,47.4265],[8.9902,47.4254],[8.99,47.4254],[8.9895,47.425],[8.9917,47.4241],[8.9912,47.4235],[8.9914,47.4233],[8.9935,47.4229],[8.9943,47.4223],[8.9941,47.4222],[8.9935,47.4225],[8.9929,47.4225],[8.9927,47.4218],[8.992,47.4217],[8.9919,47.4215],[8.9917,47.4215],[8.9912,47.4209],[8.992,47.4204],[8.9916,47.4199],[8.9918,47.4198],[8.9915,47.4195],[8.9911,47.4186],[8.9909,47.4171],[8.9906,47.4159],[8.9901,47.4153],[8.9898,47.4145],[8.9893,47.4142],[8.9896,47.4142],[8.9904,47.4138],[8.9898,47.4129],[8.9893,47.4131],[8.989,47.4126],[8.9886,47.4119],[8.9887,47.4113],[8.9871,47.4113],[8.9855,47.4115],[8.9847,47.4112],[8.9842,47.4115],[8.9833,47.4114],[8.9818,47.4125],[8.981,47.4121],[8.979,47.4121],[8.9788,47.4119],[8.9792,47.4111],[8.9788,47.411],[8.9788,47.4108],[8.9777,47.4109],[8.9766,47.4107],[8.9762,47.4099],[8.9768,47.4096],[8.9759,47.4093],[8.975,47.4083],[8.9752,47.4078],[8.9748,47.4073],[8.9743,47.4058],[8.9726,47.4052],[8.9726,47.4051],[8.9729,47.4049],[8.9725,47.4048],[8.9722,47.4043],[8.9723,47.4037],[8.9731,47.4031],[8.9731,47.4027],[8.9739,47.4025],[8.9744,47.4017],[8.9744,47.401],[8.9747,47.4007],[8.9752,47.4005],[8.9757,47.3992],[8.9743,47.3981],[8.9742,47.3975],[8.9737,47.397],[8.9737,47.3963],[8.9732,47.3951],[8.9724,47.3943],[8.9722,47.3936],[8.9716,47.3929],[8.9717,47.3917],[8.9715,47.3913],[8.9703,47.3912],[8.9688,47.3916],[8.9681,47.3913],[8.9675,47.3905],[8.9671,47.3895],[8.9664,47.3888],[8.9663,47.3884],[8.9665,47.3866],[8.9664,47.3857],[8.965,47.3848],[8.964,47.3859],[8.9626,47.386],[8.9615,47.3853],[8.9599,47.386],[8.9574,47.3864],[8.9571,47.3857],[8.9569,47.3848],[8.9562,47.3838],[8.9562,47.3835],[8.9558,47.3835],[8.955,47.3827],[8.9545,47.3819],[8.9549,47.3815],[8.9546,47.3814],[8.9538,47.3809],[8.9519,47.3805],[8.9504,47.38],[8.9486,47.3799],[8.9472,47.3792],[8.9474,47.379],[8.9469,47.3785],[8.9458,47.3781],[8.9449,47.3781],[8.9435,47.3759],[8.9417,47.3778],[8.9411,47.3781],[8.9401,47.3798],[8.9402,47.3801],[8.9409,47.381],[8.9411,47.3815],[8.9416,47.382],[8.9426,47.3825],[8.9437,47.3841],[8.9436,47.3849],[8.9437,47.3849],[8.9436,47.3856],[8.943,47.3861],[8.9425,47.3863],[8.9416,47.3873],[8.9407,47.3875],[8.9404,47.3878],[8.9382,47.3887],[8.9368,47.3896],[8.9361,47.3903],[8.9355,47.3905],[8.9339,47.3906],[8.9319,47.3915],[8.9312,47.3922],[8.9301,47.3927],[8.9301,47.3931],[8.9296,47.3933],[8.9294,47.3936],[8.9289,47.3939],[8.9284,47.3939],[8.9282,47.3942],[8.9278,47.3943],[8.9277,47.3946],[8.9273,47.3947],[8.9274,47.3949],[8.9271,47.3952],[8.9275,47.3956],[8.9274,47.3959],[8.9261,47.3965],[8.926,47.3969],[8.9254,47.397],[8.9248,47.3975],[8.9245,47.3975],[8.9232,47.3984],[8.9222,47.3987],[8.9219,47.399],[8.9212,47.3992],[8.9208,47.3995],[8.9179,47.4],[8.9156,47.3999],[8.9155,47.4002],[8.9145,47.4002],[8.9141,47.4006],[8.9135,47.4004],[8.9133,47.4008],[8.9135,47.4011],[8.9134,47.4012],[8.9122,47.4009],[8.9117,47.401],[8.9114,47.4014],[8.9107,47.4011],[8.9095,47.4013],[8.9088,47.4011],[8.9071,47.401],[8.9066,47.4013],[8.9055,47.4014],[8.9049,47.4017],[8.9042,47.4018],[8.9035,47.4021],[8.9035,47.4024],[8.9037,47.4024],[8.9044,47.4029],[8.9043,47.4033],[8.9045,47.4046],[8.9051,47.4055],[8.9058,47.406],[8.9066,47.407],[8.9076,47.4076],[8.9086,47.4086],[8.9095,47.4091],[8.9096,47.4104],[8.91,47.4107],[8.9108,47.4119],[8.9114,47.4123],[8.9127,47.4128],[8.9129,47.4137],[8.9128,47.4148],[8.9127,47.4152],[8.9124,47.4156],[8.9126,47.4158],[8.9127,47.4168],[8.9139,47.4183],[8.9138,47.4187],[8.9131,47.4193],[8.9126,47.4209],[8.912,47.4216],[8.9119,47.422],[8.9117,47.422],[8.9115,47.4231],[8.9112,47.4236],[8.9119,47.424],[8.9117,47.4247],[8.9119,47.4247],[8.9121,47.4252],[8.9118,47.4253],[8.9138,47.4267],[8.9147,47.427],[8.9146,47.4277],[8.9123,47.4286],[8.91,47.4292],[8.9097,47.4291],[8.9087,47.4295],[8.9077,47.4303],[8.9078,47.4313],[8.9088,47.4318],[8.9098,47.433],[8.911,47.4337],[8.9113,47.4338],[8.9123,47.4338],[8.9128,47.4329],[8.9126,47.4328],[8.9136,47.4315],[8.9142,47.4317],[8.9149,47.4323],[8.917,47.4332],[8.9181,47.4324],[8.9198,47.433],[8.9221,47.433],[8.9231,47.4328],[8.9238,47.4324],[8.9245,47.4323],[8.9253,47.4319],[8.9254,47.4317],[8.9259,47.4315],[8.9269,47.4314],[8.927,47.4315],[8.9285,47.4315],[8.9292,47.4321],[8.9296,47.4317],[8.93,47.4316],[8.931,47.4319],[8.9311,47.4324],[8.9318,47.4333],[8.9331,47.4341],[8.9321,47.4348],[8.9327,47.4353],[8.9327,47.4355],[8.9311,47.4353],[8.927,47.4354],[8.9253,47.4348],[8.9243,47.4351],[8.9237,47.4349],[8.9239,47.435],[8.9217,47.4349],[8.92,47.4354],[8.9188,47.4363],[8.9174,47.4366],[8.9162,47.4364],[8.9144,47.4367],[8.9123,47.4365],[8.911,47.4366],[8.9068,47.4388],[8.9069,47.4393],[8.907,47.4396],[8.906,47.4406],[8.9056,47.4408],[8.9056,47.4414],[8.9054,47.4418],[8.9049,47.4422],[8.9044,47.4424],[8.9029,47.4438],[8.9027,47.4442],[8.9027,47.4444],[8.9033,47.4446],[8.9044,47.4452],[8.9056,47.4468],[8.906,47.4466],[8.9073,47.4473],[8.9086,47.4474],[8.909,47.4477],[8.9088,47.4483],[8.9083,47.4487],[8.908,47.4493],[8.9075,47.4497],[8.9074,47.4501],[8.907,47.4508],[8.9057,47.4513],[8.9052,47.4521],[8.9036,47.4535],[8.9017,47.4541],[8.9003,47.4543],[8.9004,47.4544],[8.9004,47.4546],[8.8994,47.4557],[8.8979,47.4579],[8.8982,47.4583],[8.8958,47.4594],[8.8954,47.4597],[8.8955,47.46],[8.8961,47.4603],[8.8963,47.4606],[8.8956,47.4628],[8.8954,47.4629],[8.8945,47.4629],[8.894,47.4637],[8.8917,47.4644],[8.8919,47.4646],[8.8935,47.4649],[8.8937,47.4651],[8.8918,47.4659],[8.8908,47.468],[8.8907,47.4686],[8.8907,47.4693],[8.8864,47.4697],[8.8866,47.4701],[8.8851,47.4697],[8.8843,47.4697],[8.8836,47.4701],[8.8836,47.4704],[8.884,47.4708],[8.8833,47.4711],[8.884,47.4716],[8.8846,47.4724],[8.8846,47.4732],[8.8847,47.4735],[8.8846,47.4737],[8.881,47.4748],[8.8818,47.4749],[8.8849,47.477],[8.8845,47.479],[8.8846,47.4789],[8.8856,47.4807],[8.8853,47.4817],[8.8879,47.4825],[8.8886,47.4823],[8.8895,47.4826],[8.8907,47.4833],[8.891,47.4832],[8.8944,47.4841],[8.8968,47.4846],[8.8977,47.4851],[8.8976,47.486],[8.8971,47.4867],[8.8968,47.4879],[8.8948,47.4886],[8.8928,47.4884],[8.8931,47.4905],[8.8929,47.4912],[8.8934,47.4916],[8.8932,47.4918],[8.8935,47.4943],[8.8933,47.4944],[8.8935,47.4949],[8.8934,47.4974],[8.8926,47.4975],[8.8927,47.5006],[8.8932,47.5005],[8.8936,47.5007],[8.895,47.5027],[8.8954,47.5027],[8.8953,47.5036],[8.8961,47.5039],[8.8961,47.5041],[8.8965,47.5042],[8.8971,47.505],[8.8969,47.5055],[8.8963,47.5054],[8.8963,47.5057],[8.897,47.5069],[8.8969,47.5077],[8.8975,47.5078],[8.8973,47.5083],[8.8973,47.5106],[8.8976,47.5112],[8.8969,47.512],[8.8964,47.5131],[8.8964,47.5137],[8.8967,47.5153],[8.8966,47.5156],[8.8969,47.5161],[8.8966,47.5173],[8.8971,47.5177],[8.8953,47.5192],[8.8965,47.5203],[8.8965,47.5204],[8.8971,47.5211],[8.8983,47.5242],[8.8978,47.524],[8.8968,47.5256],[8.8959,47.5259],[8.8946,47.5261],[8.8939,47.526],[8.8937,47.5263],[8.8921,47.5268],[8.8905,47.527],[8.8899,47.5268],[8.888,47.5275],[8.8881,47.5277],[8.8876,47.5284],[8.8863,47.5278],[8.8835,47.5294],[8.8815,47.5285],[8.8799,47.5276],[8.8804,47.527],[8.8743,47.5293],[8.8696,47.5303],[8.8654,47.5305],[8.858,47.5303],[8.8575,47.5307],[8.8566,47.5304],[8.8558,47.5304],[8.8557,47.5308],[8.8559,47.5311],[8.8559,47.5315],[8.8515,47.5311],[8.8474,47.5313],[8.8444,47.5318],[8.8408,47.5327],[8.8406,47.5328],[8.8409,47.5328],[8.8411,47.5335],[8.841,47.5347],[8.8412,47.5352],[8.8406,47.5359],[8.8407,47.5364],[8.841,47.5364],[8.8412,47.5369],[8.8407,47.5374],[8.8399,47.5371],[8.8393,47.5372],[8.8395,47.538],[8.8398,47.5384],[8.84,47.5384],[8.8399,47.5393],[8.8382,47.5394],[8.8386,47.5402],[8.8371,47.5413],[8.8363,47.543],[8.8344,47.5429],[8.8342,47.5435],[8.8337,47.5444],[8.8343,47.5446],[8.8341,47.545],[8.8326,47.546],[8.8333,47.5466],[8.8322,47.5474],[8.8321,47.5481],[8.8325,47.5484],[8.8324,47.5485],[8.8327,47.5488],[8.8327,47.5489],[8.8326,47.5491],[8.8319,47.5491],[8.8319,47.5495],[8.8317,47.5495],[8.8317,47.5499],[8.831,47.5498],[8.8308,47.5505],[8.8298,47.5517],[8.8304,47.5521],[8.8307,47.5521],[8.829,47.5543],[8.8279,47.556],[8.8297,47.5562],[8.8295,47.5576],[8.8319,47.5578],[8.838,47.5573],[8.8387,47.5574],[8.8402,47.5579],[8.8407,47.5584],[8.8407,47.5594],[8.8416,47.56],[8.8458,47.5608],[8.8484,47.5607],[8.8511,47.5608],[8.8509,47.5628],[8.851,47.5636],[8.8443,47.5633],[8.8448,47.5661],[8.8422,47.5664],[8.8418,47.5659],[8.8392,47.5654],[8.8393,47.5685],[8.8392,47.5686],[8.8377,47.5686],[8.8388,47.5712],[8.8312,47.5734],[8.8306,47.5727],[8.83,47.5711],[8.8238,47.5725],[8.8225,47.5731],[8.822,47.5716],[8.8205,47.5724],[8.8203,47.5723],[8.82,47.5724],[8.8197,47.5714],[8.8173,47.5719],[8.8166,47.5702],[8.8138,47.5702],[8.8074,47.5716],[8.8081,47.5743],[8.8048,47.5751],[8.8057,47.5772],[8.8053,47.5773],[8.8062,47.5795],[8.8011,47.5805],[8.8022,47.5826],[8.8024,47.5829],[8.8056,47.5821],[8.8061,47.5831],[8.7653,47.5926],[8.762,47.5929],[8.7564,47.5929],[8.7482,47.5923],[8.7473,47.5951],[8.7473,47.5958],[8.7457,47.5963],[8.7457,47.5965],[8.7474,47.5977],[8.7475,47.5985],[8.748,47.5986],[8.748,47.5996],[8.7485,47.5998],[8.7488,47.6],[8.7463,47.6003],[8.7466,47.6009],[8.7463,47.6012],[8.7449,47.6022],[8.7437,47.6026],[8.7435,47.6029],[8.7434,47.6033],[8.7432,47.6036],[8.7421,47.6046],[8.7419,47.6056],[8.7423,47.6062],[8.742,47.6073],[8.7405,47.6076],[8.7394,47.608],[8.7397,47.6085],[8.7402,47.6119],[8.7414,47.6117],[8.7419,47.6121],[8.7427,47.6119],[8.743,47.6124],[8.7431,47.613],[8.7458,47.6129],[8.7458,47.6145],[8.7456,47.6162],[8.7455,47.6164],[8.7463,47.6172],[8.7465,47.618],[8.7459,47.6202],[8.7459,47.6212],[8.7464,47.6219],[8.7481,47.623],[8.7495,47.6215],[8.7499,47.6206],[8.7505,47.62],[8.7509,47.6197],[8.7538,47.6185],[8.7546,47.618],[8.7548,47.6182],[8.7551,47.6177],[8.7552,47.6171],[8.7563,47.6166],[8.7584,47.6184],[8.7594,47.6182],[8.7613,47.6182],[8.7622,47.6181],[8.7667,47.6165],[8.7696,47.6151],[8.7698,47.6152],[8.7703,47.6149],[8.7724,47.6144],[8.7723,47.6147],[8.7725,47.615],[8.7745,47.6149],[8.7746,47.6148],[8.7742,47.6144],[8.7753,47.6143],[8.7752,47.6136],[8.7766,47.6133],[8.7763,47.6128],[8.7775,47.6127],[8.7795,47.6127],[8.7796,47.6123],[8.7812,47.612],[8.7868,47.6095],[8.7879,47.6095],[8.7878,47.609],[8.7886,47.6093],[8.7898,47.6094],[8.7903,47.6084],[8.7887,47.6068],[8.7883,47.6054],[8.7883,47.6049],[8.7881,47.6041],[8.789,47.6041],[8.7888,47.6034],[8.7937,47.6025],[8.7959,47.6024],[8.7965,47.6026],[8.7971,47.6025],[8.7989,47.6022],[8.8004,47.6016],[8.8028,47.6011],[8.8025,47.602],[8.8017,47.603],[8.802,47.6036],[8.803,47.6046],[8.8029,47.6053],[8.803,47.6068],[8.8032,47.6073],[8.804,47.6081],[8.8033,47.6085],[8.8041,47.6094],[8.8038,47.6096],[8.8041,47.6102],[8.8042,47.6107],[8.804,47.6107],[8.8041,47.6116],[8.8045,47.6124],[8.8047,47.6133],[8.8051,47.6137],[8.8068,47.6142],[8.8085,47.6141],[8.8086,47.6152],[8.8106,47.6152],[8.8106,47.6157],[8.8108,47.6157],[8.8113,47.6164],[8.8132,47.6165],[8.8138,47.6168],[8.814,47.6172],[8.8134,47.6171],[8.8124,47.6174],[8.8122,47.6176],[8.8129,47.6182],[8.8116,47.619],[8.8121,47.6195],[8.813,47.6195],[8.8129,47.6206],[8.8136,47.6207],[8.8143,47.6211],[8.8143,47.6217],[8.813,47.6216],[8.813,47.6221],[8.8138,47.6224],[8.8117,47.6226],[8.8123,47.6244],[8.8133,47.6241],[8.8135,47.6245],[8.8133,47.6247],[8.8135,47.6256],[8.813,47.6256],[8.8131,47.6274],[8.8141,47.6272],[8.8145,47.6279],[8.8154,47.6278],[8.8158,47.6287],[8.8176,47.6282],[8.818,47.6298],[8.8178,47.6299],[8.8202,47.6293],[8.8208,47.6304],[8.8202,47.6305],[8.8209,47.6316],[8.8214,47.6315],[8.8227,47.6329],[8.823,47.6331],[8.8232,47.633],[8.8238,47.6332],[8.8247,47.6339],[8.8238,47.6344],[8.8247,47.6353],[8.8254,47.6373],[8.8253,47.6375],[8.8267,47.6379],[8.8268,47.6386],[8.8274,47.6391],[8.8275,47.6401],[8.8278,47.6409],[8.8273,47.6414],[8.8272,47.6422],[8.8268,47.6425],[8.8269,47.6434],[8.8264,47.6436],[8.8259,47.6444],[8.8263,47.6461],[8.8266,47.6462],[8.8264,47.6467],[8.8248,47.6474],[8.8245,47.6476],[8.8246,47.6478],[8.8209,47.6489],[8.8189,47.6489],[8.8167,47.6496],[8.8158,47.6491],[8.8155,47.6498],[8.8156,47.6499],[8.8147,47.6496],[8.8141,47.65],[8.814,47.6499],[8.8114,47.6511],[8.8099,47.6516],[8.8067,47.6519],[8.8049,47.6522],[8.8052,47.6547],[8.8043,47.6549],[8.805,47.6586],[8.8049,47.6604],[8.8034,47.6606],[8.804,47.6624],[8.8042,47.6639],[8.8053,47.6642],[8.8053,47.6647],[8.8038,47.6652],[8.8024,47.6653],[8.7991,47.6649],[8.7967,47.665],[8.793,47.6647],[8.7912,47.6648],[8.7885,47.6654],[8.7878,47.6631],[8.7866,47.6607],[8.7867,47.6593],[8.7866,47.6581],[8.7859,47.6577],[8.786,47.6552],[8.7854,47.6551],[8.7823,47.6524],[8.7809,47.6517],[8.7783,47.6509],[8.7776,47.6503],[8.7772,47.6495],[8.7762,47.6488],[8.7744,47.6488],[8.7731,47.6498],[8.7726,47.6499],[8.7709,47.6498],[8.7688,47.6502],[8.7681,47.65],[8.7663,47.6489],[8.7649,47.6488],[8.7624,47.6462],[8.7598,47.6455],[8.7598,47.6459],[8.7588,47.644],[8.7578,47.6432],[8.7573,47.643],[8.7557,47.6431],[8.7552,47.642],[8.7521,47.6424],[8.7521,47.6412],[8.7498,47.6413],[8.7497,47.6415],[8.7482,47.6408],[8.7472,47.6386],[8.7453,47.6394],[8.7434,47.6398],[8.7433,47.6414],[8.7432,47.6422],[8.7427,47.6422],[8.7435,47.643],[8.7408,47.6422],[8.7381,47.6419],[8.7363,47.6423],[8.7355,47.6421],[8.7357,47.642],[8.7349,47.6412],[8.7307,47.6423],[8.7296,47.6428],[8.7263,47.6429],[8.7247,47.6431],[8.7246,47.6429],[8.7241,47.6425],[8.7236,47.6426],[8.7235,47.6419],[8.722,47.6418],[8.7203,47.6419],[8.7201,47.6411],[8.7198,47.6411],[8.7172,47.6418],[8.7163,47.6432],[8.7147,47.6431],[8.7142,47.6444],[8.7111,47.6436],[8.7104,47.6433],[8.7089,47.642],[8.7087,47.6419],[8.7082,47.6423],[8.7036,47.6441],[8.7028,47.6451],[8.7009,47.6457],[8.701,47.6458],[8.7008,47.6465],[8.7004,47.647],[8.6987,47.647],[8.6984,47.6477],[8.6961,47.648],[8.6948,47.6481],[8.6945,47.6479],[8.6932,47.648],[8.693,47.6484],[8.6904,47.6494],[8.6881,47.65],[8.6882,47.6513],[8.6867,47.6536],[8.6859,47.6536],[8.6846,47.6534],[8.6846,47.6552],[8.6831,47.6557],[8.6824,47.6572],[8.6822,47.6574],[8.6804,47.6581],[8.6793,47.6596],[8.6793,47.6601],[8.6796,47.6609],[8.6793,47.6616],[8.6788,47.6615],[8.6777,47.6626],[8.6774,47.6642],[8.6775,47.6658],[8.6784,47.6657],[8.6787,47.6658],[8.6791,47.6667],[8.6791,47.6678],[8.6788,47.6685],[8.6776,47.6684],[8.6771,47.67],[8.6769,47.6718],[8.6757,47.6723],[8.6735,47.6729],[8.6725,47.6735],[8.6694,47.6747],[8.668,47.6771],[8.6696,47.681],[8.6694,47.6811],[8.6697,47.6816],[8.6695,47.6824],[8.6696,47.6828],[8.6694,47.6829],[8.6697,47.6833],[8.6693,47.6834],[8.6695,47.6837],[8.6694,47.6848],[8.6717,47.6851],[8.6753,47.6865],[8.6784,47.6875],[8.6814,47.6895],[8.6849,47.6914],[8.6863,47.6926],[8.688,47.6946],[8.6895,47.6953],[8.6906,47.6954],[8.6917,47.6953],[8.6951,47.6942],[8.6991,47.6931],[8.7015,47.6922],[8.7052,47.6902],[8.7068,47.6897],[8.7089,47.6895],[8.7151,47.6897],[8.7208,47.6918],[8.7247,47.6925],[8.7322,47.6929],[8.7348,47.6928],[8.7426,47.6911],[8.7517,47.6907],[8.7562,47.6898],[8.759,47.689],[8.7653,47.6867],[8.7679,47.6855],[8.7702,47.6841],[8.772,47.6822],[8.7745,47.6808],[8.7789,47.6792],[8.783,47.6774],[8.7879,47.6757],[8.7893,47.6753],[8.7915,47.6749],[8.793,47.6749],[8.7968,47.6755],[8.7985,47.6761],[8.8019,47.678],[8.8039,47.6784],[8.8054,47.6781],[8.8078,47.6771],[8.8089,47.6768],[8.8145,47.6778],[8.8168,47.6778],[8.8219,47.6766],[8.8263,47.675],[8.8293,47.6748],[8.8307,47.6744],[8.8356,47.6721],[8.8384,47.6702],[8.8391,47.6694],[8.8394,47.6687],[8.8399,47.6664],[8.8407,47.6652],[8.8413,47.6646],[8.8423,47.6642],[8.848,47.663],[8.8504,47.662],[8.8533,47.6613],[8.8546,47.6607],[8.8537,47.6595],[8.8535,47.6595],[8.8529,47.6588],[8.8527,47.6589],[8.8521,47.6581],[8.8517,47.6578],[8.8487,47.6549],[8.8475,47.6554],[8.8468,47.6546],[8.8477,47.6538],[8.8456,47.6531],[8.8465,47.6527],[8.8463,47.6523],[8.8494,47.651],[8.8501,47.6519],[8.8517,47.6512],[8.8579,47.6501],[8.8597,47.6522],[8.8595,47.6523],[8.8606,47.6536],[8.8607,47.6539],[8.8653,47.6561],[8.8671,47.656],[8.8724,47.6539],[8.8754,47.6549]],[[9.3539,47.5118],[9.3539,47.5117],[9.3535,47.5114],[9.3541,47.511],[9.3543,47.5105],[9.3547,47.5102],[9.3544,47.5101],[9.3548,47.5099],[9.3546,47.5094],[9.3581,47.5081],[9.3585,47.5086],[9.3584,47.5088],[9.3588,47.5095],[9.3587,47.5099],[9.359,47.5101],[9.3591,47.5105],[9.3568,47.5114],[9.3569,47.5119],[9.3556,47.512],[9.3539,47.5118]]]]}}