{"type":"Feature","bbox":[8.3974,46.5276,8.9578,46.9934],"properties":{"iso":"CH","code":"UR","name":"Uri","name_de":"Kanton Uri","source":"swisstopo","key":"CH-UR"},"geometry":{"type":"Polygon","coordinates":[[[8.4776,46.5276],[8.4761,46.5278],[8.4735,46.5286],[8.4722,46.5304],[8.4694,46.5328],[8.4686,46.5331],[8.468,46.5339],[8.4675,46.534],[8.4671,46.5337],[8.4666,46.534],[8.4661,46.535],[8.4655,46.5355],[8.4644,46.5358],[8.4637,46.5358],[8.4613,46.5343],[8.4602,46.5338],[8.4582,46.5336],[8.4574,46.5337],[8.4569,46.534],[8.4548,46.5342],[8.4529,46.535],[8.452,46.535],[8.4453,46.5368],[8.4448,46.5376],[8.4437,46.5376],[8.4435,46.5377],[8.4434,46.5381],[8.4427,46.5387],[8.4426,46.5389],[8.4411,46.5397],[8.4406,46.5397],[8.4392,46.5401],[8.4382,46.5397],[8.4372,46.5397],[8.4356,46.5401],[8.4347,46.541],[8.4343,46.5418],[8.4329,46.5429],[8.4309,46.5433],[8.4293,46.5433],[8.4288,46.5436],[8.4285,46.5443],[8.4285,46.5454],[8.4281,46.5456],[8.4277,46.5463],[8.4267,46.5468],[8.4263,46.5473],[8.4263,46.548],[8.4266,46.5482],[8.4266,46.5486],[8.4263,46.549],[8.4261,46.5499],[8.4255,46.5508],[8.4247,46.5511],[8.4241,46.5518],[8.4239,46.5526],[8.424,46.5532],[8.4238,46.5533],[8.4239,46.5536],[8.4236,46.554],[8.4236,46.5548],[8.423,46.556],[8.4234,46.5597],[8.4233,46.5602],[8.423,46.5604],[8.4217,46.5607],[8.4213,46.5611],[8.4204,46.5625],[8.4202,46.5632],[8.4196,46.5636],[8.4192,46.5651],[8.4198,46.5662],[8.4192,46.5668],[8.417,46.5711],[8.4151,46.5727],[8.4124,46.5755],[8.41,46.5775],[8.4098,46.5788],[8.4104,46.5792],[8.4105,46.5797],[8.4077,46.583],[8.4079,46.5834],[8.408,46.5845],[8.4072,46.5853],[8.4063,46.5857],[8.4061,46.586],[8.4069,46.5868],[8.4071,46.5875],[8.4074,46.5877],[8.4076,46.5887],[8.4079,46.589],[8.4078,46.5893],[8.4081,46.5896],[8.4078,46.5904],[8.4081,46.5912],[8.4081,46.5916],[8.4088,46.5931],[8.4085,46.5937],[8.4087,46.5947],[8.4091,46.5952],[8.409,46.5954],[8.4101,46.5964],[8.4103,46.5964],[8.4103,46.5969],[8.4093,46.5975],[8.4076,46.5995],[8.4085,46.6011],[8.408,46.6012],[8.4082,46.6014],[8.4105,46.6022],[8.4112,46.6027],[8.411,46.6031],[8.4133,46.6048],[8.4136,46.6046],[8.4141,46.6047],[8.4145,46.6053],[8.4149,46.6056],[8.4148,46.6058],[8.4151,46.6064],[8.4161,46.6068],[8.4172,46.6095],[8.417,46.6126],[8.4185,46.6147],[8.4195,46.6153],[8.4204,46.6163],[8.4207,46.6176],[8.4204,46.619],[8.421,46.6197],[8.421,46.6201],[8.4208,46.6204],[8.421,46.6209],[8.4205,46.6217],[8.4207,46.623],[8.4204,46.6233],[8.4206,46.624],[8.4203,46.6251],[8.4206,46.6253],[8.4204,46.6256],[8.4206,46.6258],[8.4207,46.6263],[8.4222,46.6269],[8.4224,46.6273],[8.4211,46.6278],[8.4211,46.6281],[8.4209,46.6283],[8.4208,46.6289],[8.4209,46.6295],[8.4207,46.6298],[8.4203,46.6301],[8.4199,46.6309],[8.4198,46.6315],[8.42,46.6331],[8.4194,46.6337],[8.4192,46.6341],[8.4194,46.6345],[8.4193,46.6352],[8.4188,46.6359],[8.4203,46.6372],[8.4199,46.6377],[8.4198,46.6381],[8.4209,46.6398],[8.4208,46.6422],[8.4214,46.6445],[8.4207,46.6466],[8.422,46.6479],[8.4205,46.6486],[8.4202,46.6491],[8.4188,46.6507],[8.4186,46.6519],[8.4182,46.6522],[8.4103,46.6529],[8.4093,46.6568],[8.4095,46.6579],[8.409,46.6594],[8.4092,46.6606],[8.409,46.6609],[8.409,46.6615],[8.4091,46.662],[8.4089,46.6628],[8.4091,46.6632],[8.4088,46.664],[8.4085,46.6642],[8.4084,46.6656],[8.4072,46.6668],[8.4057,46.6674],[8.403,46.6681],[8.4023,46.6687],[8.4011,46.6705],[8.4011,46.671],[8.4008,46.6714],[8.4005,46.6725],[8.3981,46.6742],[8.3979,46.6755],[8.3981,46.6761],[8.3985,46.6768],[8.399,46.6785],[8.3986,46.6787],[8.399,46.6794],[8.3989,46.6803],[8.3985,46.681],[8.3989,46.6816],[8.3976,46.6825],[8.3976,46.6829],[8.3974,46.6832],[8.3977,46.6837],[8.3974,46.6842],[8.3987,46.6856],[8.3989,46.6864],[8.3995,46.6878],[8.3996,46.6882],[8.3987,46.6889],[8.3986,46.6909],[8.399,46.6914],[8.3987,46.6917],[8.3996,46.6929],[8.4083,46.6905],[8.4105,46.6905],[8.4113,46.6907],[8.4122,46.6907],[8.4128,46.6904],[8.4132,46.6903],[8.4136,46.6901],[8.4138,46.6898],[8.4145,46.6896],[8.415,46.6888],[8.4148,46.6883],[8.4151,46.6877],[8.4148,46.6874],[8.4174,46.6874],[8.4181,46.6871],[8.4191,46.687],[8.4199,46.687],[8.4199,46.6874],[8.422,46.6871],[8.423,46.6871],[8.4237,46.6867],[8.4282,46.6861],[8.4316,46.6869],[8.4333,46.6869],[8.4364,46.6864],[8.4377,46.6863],[8.4391,46.6858],[8.4408,46.6855],[8.4446,46.687],[8.4469,46.6874],[8.4488,46.688],[8.45,46.6881],[8.4509,46.6884],[8.4514,46.6884],[8.4523,46.6887],[8.4526,46.6897],[8.4525,46.6905],[8.4531,46.6914],[8.4527,46.6927],[8.4529,46.6936],[8.453,46.694],[8.4536,46.6943],[8.4539,46.6947],[8.4551,46.6975],[8.4545,46.6981],[8.4545,46.6984],[8.4552,46.6989],[8.4547,46.6993],[8.4545,46.6996],[8.4538,46.7],[8.4535,46.7011],[8.4535,46.7017],[8.4532,46.7023],[8.4524,46.7027],[8.4523,46.7031],[8.4526,46.7036],[8.4521,46.7042],[8.4528,46.7064],[8.4531,46.7066],[8.4532,46.7072],[8.4536,46.7075],[8.4538,46.7082],[8.4536,46.7086],[8.4536,46.7096],[8.4537,46.7106],[8.4541,46.7108],[8.4536,46.7109],[8.4531,46.7112],[8.451,46.7114],[8.449,46.7122],[8.4481,46.7129],[8.4474,46.7142],[8.4473,46.7149],[8.4476,46.7153],[8.4474,46.7155],[8.4476,46.7165],[8.4472,46.7178],[8.4471,46.7271],[8.4475,46.7283],[8.4493,46.7288],[8.4497,46.7298],[8.4487,46.7314],[8.4469,46.733],[8.4462,46.733],[8.4457,46.7333],[8.4452,46.7338],[8.4437,46.7343],[8.442,46.7357],[8.442,46.736],[8.4413,46.7368],[8.4407,46.738],[8.4408,46.7384],[8.4407,46.739],[8.441,46.7394],[8.4409,46.7402],[8.4412,46.7408],[8.4411,46.741],[8.4415,46.7414],[8.4412,46.7418],[8.4412,46.7423],[8.4402,46.7426],[8.4403,46.743],[8.4405,46.7431],[8.4404,46.7436],[8.4407,46.7444],[8.4423,46.7458],[8.4426,46.7464],[8.4438,46.7471],[8.4433,46.7481],[8.4422,46.7497],[8.4415,46.7503],[8.4397,46.7514],[8.4397,46.7516],[8.439,46.7524],[8.4393,46.7525],[8.4391,46.753],[8.4399,46.7534],[8.4399,46.7538],[8.4402,46.7538],[8.4412,46.7542],[8.4423,46.7543],[8.4428,46.754],[8.4436,46.7539],[8.4437,46.7545],[8.4442,46.755],[8.4441,46.7554],[8.4451,46.756],[8.4453,46.7566],[8.4462,46.757],[8.4469,46.7577],[8.4473,46.7579],[8.4475,46.7584],[8.447,46.7589],[8.447,46.7591],[8.4474,46.7599],[8.4476,46.7614],[8.4483,46.7634],[8.4495,46.7639],[8.4505,46.7645],[8.4514,46.7647],[8.453,46.7655],[8.4536,46.7655],[8.4543,46.7661],[8.455,46.766],[8.456,46.7665],[8.4561,46.7673],[8.4572,46.7676],[8.4604,46.7691],[8.4628,46.7686],[8.4637,46.7693],[8.4646,46.7696],[8.4664,46.7696],[8.4684,46.7692],[8.4689,46.7692],[8.4697,46.7689],[8.4704,46.7685],[8.4707,46.7679],[8.4741,46.7677],[8.4748,46.7679],[8.4758,46.7679],[8.4761,46.7682],[8.4773,46.7685],[8.4789,46.7688],[8.4801,46.7686],[8.4824,46.7694],[8.4829,46.7693],[8.4844,46.7703],[8.4845,46.7706],[8.4865,46.7709],[8.4872,46.7709],[8.4886,46.7711],[8.4914,46.7725],[8.4886,46.7809],[8.4883,46.7815],[8.4869,46.7821],[8.4854,46.7833],[8.4847,46.7848],[8.4841,46.7854],[8.4836,46.7863],[8.4811,46.7876],[8.4807,46.7881],[8.4786,46.7893],[8.4784,46.7901],[8.4793,46.7918],[8.4806,46.7927],[8.481,46.7932],[8.4819,46.7939],[8.4819,46.795],[8.4813,46.7973],[8.4811,46.7984],[8.4778,46.7972],[8.477,46.7973],[8.4755,46.7968],[8.4736,46.7958],[8.4726,46.7954],[8.4713,46.7955],[8.4714,46.7959],[8.4683,46.7977],[8.4669,46.7977],[8.4647,46.7985],[8.4658,46.7987],[8.4643,46.8005],[8.4701,46.7994],[8.4723,46.7994],[8.4763,46.8008],[8.4787,46.8013],[8.4801,46.8021],[8.48,46.8022],[8.4801,46.8024],[8.4807,46.8024],[8.482,46.8033],[8.4833,46.8047],[8.4834,46.8057],[8.4827,46.8067],[8.4833,46.8076],[8.4832,46.8088],[8.4807,46.8107],[8.4807,46.8114],[8.4782,46.8126],[8.4781,46.8137],[8.4797,46.8144],[8.4804,46.815],[8.4804,46.8152],[8.4813,46.8162],[8.4812,46.8164],[8.4814,46.817],[8.4812,46.8176],[8.4832,46.819],[8.4837,46.8199],[8.4833,46.8204],[8.4837,46.8217],[8.4837,46.8233],[8.4835,46.8235],[8.4838,46.824],[8.4836,46.8254],[8.4833,46.8258],[8.4836,46.8264],[8.4834,46.827],[8.4854,46.8292],[8.4858,46.8305],[8.4863,46.831],[8.4863,46.832],[8.4876,46.8331],[8.4881,46.8343],[8.4884,46.8345],[8.4885,46.835],[8.489,46.8357],[8.4904,46.8358],[8.4903,46.836],[8.4908,46.8362],[8.4911,46.8367],[8.4935,46.8375],[8.4937,46.8377],[8.4971,46.8385],[8.4981,46.8389],[8.4993,46.8392],[8.4996,46.8392],[8.5007,46.8393],[8.5024,46.84],[8.5044,46.8412],[8.5049,46.8416],[8.5051,46.842],[8.5058,46.8428],[8.5056,46.8435],[8.5058,46.8438],[8.5055,46.8443],[8.5055,46.8449],[8.5069,46.8455],[8.5054,46.846],[8.5048,46.8464],[8.5046,46.8467],[8.5032,46.8473],[8.5028,46.8479],[8.5026,46.848],[8.5021,46.8495],[8.5003,46.8511],[8.4996,46.8513],[8.4985,46.8522],[8.4985,46.8531],[8.4979,46.8537],[8.4965,46.8535],[8.4951,46.8529],[8.4933,46.8527],[8.492,46.853],[8.4902,46.853],[8.4867,46.854],[8.4864,46.8543],[8.4853,46.8551],[8.4824,46.8554],[8.4801,46.8572],[8.4785,46.857],[8.4775,46.8566],[8.4775,46.8564],[8.4768,46.8559],[8.4768,46.8558],[8.4765,46.8557],[8.4767,46.8555],[8.4763,46.855],[8.4756,46.8547],[8.4752,46.8547],[8.4746,46.8545],[8.4708,46.8548],[8.4707,46.8553],[8.4709,46.8559],[8.4709,46.8563],[8.4691,46.858],[8.4689,46.8584],[8.4692,46.8592],[8.4691,46.8594],[8.4686,46.8596],[8.4679,46.8606],[8.4687,46.8617],[8.4693,46.862],[8.469,46.863],[8.4692,46.8637],[8.4692,46.8641],[8.4695,46.8649],[8.4703,46.8658],[8.4709,46.8672],[8.4713,46.8676],[8.4713,46.8681],[8.4702,46.8692],[8.4702,46.8709],[8.4701,46.8712],[8.4685,46.8729],[8.4678,46.8734],[8.4672,46.8744],[8.4671,46.8752],[8.4672,46.8762],[8.4679,46.8771],[8.4718,46.8779],[8.4721,46.8782],[8.4727,46.8784],[8.4739,46.8797],[8.4751,46.8803],[8.4759,46.881],[8.4764,46.881],[8.4771,46.8816],[8.4776,46.8817],[8.4791,46.8825],[8.4767,46.8865],[8.4767,46.8874],[8.4765,46.8877],[8.4767,46.8883],[8.4758,46.8886],[8.4748,46.8892],[8.4744,46.89],[8.474,46.8902],[8.473,46.8915],[8.4729,46.8917],[8.4734,46.8922],[8.4733,46.8924],[8.4733,46.8926],[8.4741,46.8934],[8.4727,46.8937],[8.4717,46.8941],[8.4715,46.8945],[8.4705,46.8947],[8.4703,46.8953],[8.4686,46.8967],[8.4684,46.8972],[8.4677,46.8976],[8.466,46.8977],[8.4657,46.8975],[8.4635,46.8973],[8.4613,46.8972],[8.4592,46.8978],[8.4587,46.8981],[8.4583,46.8988],[8.4598,46.8998],[8.4599,46.9003],[8.4604,46.9008],[8.4614,46.9011],[8.462,46.9016],[8.462,46.9019],[8.4633,46.9027],[8.4643,46.9047],[8.4666,46.9053],[8.4678,46.9049],[8.4713,46.9061],[8.4743,46.9069],[8.4747,46.9072],[8.4775,46.9075],[8.4779,46.9077],[8.479,46.9079],[8.48,46.9083],[8.4813,46.9085],[8.4815,46.9087],[8.4815,46.9091],[8.482,46.9099],[8.4841,46.912],[8.4842,46.9128],[8.4846,46.9137],[8.485,46.9172],[8.4861,46.9185],[8.4924,46.9184],[8.4936,46.9185],[8.4944,46.9179],[8.4958,46.918],[8.496,46.9179],[8.4981,46.9188],[8.4998,46.9166],[8.5013,46.9156],[8.502,46.9146],[8.5028,46.9144],[8.5059,46.9152],[8.5062,46.9151],[8.5068,46.9153],[8.5071,46.9152],[8.509,46.9157],[8.5105,46.9163],[8.5109,46.9167],[8.514,46.9179],[8.5153,46.918],[8.5156,46.9182],[8.5156,46.9185],[8.516,46.919],[8.5188,46.92],[8.5195,46.9212],[8.5198,46.9228],[8.5218,46.9229],[8.5239,46.9227],[8.5255,46.9232],[8.5289,46.9233],[8.5294,46.9237],[8.5306,46.9235],[8.5317,46.9235],[8.5344,46.9249],[8.536,46.925],[8.5372,46.9256],[8.5386,46.9258],[8.5411,46.9264],[8.5418,46.9267],[8.5422,46.9272],[8.5428,46.9275],[8.5441,46.9279],[8.5441,46.9287],[8.5438,46.9289],[8.5441,46.9294],[8.5456,46.9304],[8.5459,46.931],[8.5475,46.9325],[8.5469,46.9326],[8.5468,46.9329],[8.5469,46.9334],[8.5475,46.9341],[8.5474,46.9345],[8.5477,46.9348],[8.5472,46.9359],[8.5461,46.9357],[8.5454,46.9364],[8.5444,46.9387],[8.5436,46.9393],[8.5444,46.9395],[8.5489,46.9386],[8.5498,46.9393],[8.5544,46.9393],[8.5549,46.9395],[8.5557,46.9401],[8.5556,46.9398],[8.5559,46.9392],[8.5568,46.9393],[8.5585,46.9399],[8.5588,46.9404],[8.5587,46.9407],[8.5582,46.9409],[8.5559,46.9408],[8.5556,46.9411],[8.5556,46.9421],[8.5561,46.9424],[8.5564,46.9438],[8.5562,46.9443],[8.5571,46.9454],[8.5558,46.9456],[8.5573,46.9475],[8.557,46.9477],[8.5569,46.9486],[8.5556,46.9514],[8.5556,46.9526],[8.5559,46.9547],[8.5557,46.9565],[8.5559,46.9592],[8.5562,46.9599],[8.5559,46.9601],[8.5558,46.9607],[8.5552,46.9612],[8.5548,46.9626],[8.555,46.9632],[8.5564,46.9634],[8.5581,46.9639],[8.5585,46.9642],[8.5591,46.9653],[8.5602,46.9656],[8.5615,46.9681],[8.5622,46.9687],[8.5623,46.9691],[8.5631,46.9702],[8.5622,46.9729],[8.5659,46.9743],[8.5671,46.9746],[8.5675,46.9751],[8.5685,46.9755],[8.5694,46.9766],[8.5705,46.9783],[8.5717,46.9796],[8.5727,46.9801],[8.5733,46.9811],[8.5745,46.9824],[8.5745,46.9825],[8.5749,46.9831],[8.5749,46.9833],[8.5746,46.9834],[8.5743,46.9838],[8.571,46.9902],[8.5824,46.9934],[8.5971,46.9902],[8.6031,46.9868],[8.6041,46.9823],[8.6012,46.9752],[8.6035,46.9686],[8.6044,46.952],[8.6212,46.9525],[8.6224,46.9527],[8.6237,46.9525],[8.6273,46.9509],[8.6277,46.9503],[8.6274,46.9498],[8.6278,46.9498],[8.6282,46.95],[8.6289,46.9499],[8.6292,46.9502],[8.6297,46.9502],[8.6314,46.9499],[8.6318,46.9501],[8.6325,46.9498],[8.6334,46.9497],[8.6348,46.9499],[8.6358,46.9496],[8.6367,46.9498],[8.6382,46.9495],[8.6408,46.9496],[8.6414,46.9494],[8.6418,46.949],[8.6429,46.9493],[8.644,46.949],[8.6454,46.949],[8.6483,46.948],[8.65,46.9478],[8.6506,46.9475],[8.652,46.9472],[8.6525,46.947],[8.6528,46.9471],[8.6551,46.9465],[8.6559,46.9464],[8.6569,46.9459],[8.6579,46.946],[8.6588,46.9464],[8.66,46.9462],[8.6602,46.946],[8.6619,46.9459],[8.6621,46.9457],[8.6647,46.9455],[8.665,46.9456],[8.6652,46.9454],[8.6665,46.9449],[8.668,46.9446],[8.6686,46.9443],[8.6696,46.9441],[8.6707,46.9441],[8.671,46.9444],[8.6721,46.9444],[8.6736,46.945],[8.6753,46.9449],[8.676,46.9452],[8.6765,46.9453],[8.6771,46.9457],[8.6793,46.946],[8.6802,46.9459],[8.6812,46.9461],[8.6816,46.9459],[8.6827,46.9458],[8.6832,46.9456],[8.6843,46.9454],[8.6901,46.9471],[8.691,46.9469],[8.693,46.947],[8.6933,46.9458],[8.6939,46.9452],[8.6941,46.9444],[8.6949,46.9436],[8.6964,46.943],[8.6969,46.9422],[8.6969,46.9416],[8.6966,46.9403],[8.6974,46.9396],[8.6977,46.9387],[8.6998,46.9348],[8.6999,46.9334],[8.7003,46.9326],[8.6965,46.9288],[8.6973,46.9279],[8.6974,46.9275],[8.6977,46.927],[8.6976,46.9264],[8.6983,46.9257],[8.6986,46.9243],[8.6992,46.9238],[8.6996,46.923],[8.7008,46.9224],[8.7009,46.9226],[8.7021,46.9219],[8.7037,46.9213],[8.7039,46.9208],[8.7041,46.9208],[8.7048,46.9201],[8.7054,46.92],[8.7059,46.9196],[8.7058,46.9194],[8.7066,46.9187],[8.7077,46.9172],[8.7088,46.9171],[8.7089,46.9175],[8.7093,46.9176],[8.7099,46.9174],[8.71,46.9176],[8.7107,46.9177],[8.7109,46.918],[8.7115,46.9181],[8.7116,46.9184],[8.7121,46.9183],[8.7126,46.9186],[8.7146,46.9184],[8.7155,46.9181],[8.7164,46.9183],[8.7163,46.9186],[8.7167,46.9186],[8.7177,46.9185],[8.7179,46.9192],[8.7186,46.9192],[8.7186,46.9194],[8.7194,46.9196],[8.7196,46.9199],[8.7202,46.9201],[8.7206,46.9205],[8.7204,46.9211],[8.7205,46.9211],[8.7205,46.9218],[8.7207,46.922],[8.7213,46.9219],[8.7219,46.9221],[8.7226,46.9226],[8.7226,46.9231],[8.7237,46.9237],[8.7237,46.924],[8.724,46.924],[8.724,46.9244],[8.7242,46.9246],[8.7247,46.9244],[8.7246,46.9252],[8.7249,46.9254],[8.7254,46.9253],[8.7254,46.926],[8.7258,46.926],[8.7264,46.9258],[8.7272,46.9263],[8.7275,46.9262],[8.7281,46.9265],[8.728,46.9268],[8.7287,46.9269],[8.729,46.9279],[8.7285,46.9284],[8.7308,46.9281],[8.7314,46.9284],[8.7317,46.9289],[8.732,46.929],[8.7326,46.9295],[8.7326,46.9297],[8.7336,46.93],[8.7338,46.9302],[8.7344,46.9301],[8.7346,46.9303],[8.7358,46.9303],[8.7367,46.9306],[8.7363,46.9309],[8.7365,46.9315],[8.7374,46.9324],[8.7378,46.9325],[8.7385,46.9323],[8.7394,46.9318],[8.74,46.932],[8.7407,46.9326],[8.7416,46.9325],[8.7421,46.932],[8.7436,46.9324],[8.7448,46.933],[8.7449,46.9333],[8.7451,46.9335],[8.7451,46.9352],[8.746,46.9353],[8.7461,46.9349],[8.747,46.9346],[8.7491,46.9337],[8.7512,46.9344],[8.7523,46.935],[8.7523,46.9351],[8.7529,46.9352],[8.7538,46.9357],[8.7563,46.9366],[8.7566,46.9363],[8.7568,46.9362],[8.7572,46.9366],[8.7574,46.9366],[8.7581,46.937],[8.7586,46.9367],[8.7589,46.9375],[8.7595,46.9372],[8.7608,46.9373],[8.7609,46.9376],[8.7614,46.9377],[8.7623,46.9384],[8.7652,46.9387],[8.7662,46.9394],[8.7666,46.9401],[8.7689,46.9404],[8.7709,46.9415],[8.7745,46.9397],[8.7743,46.9383],[8.7778,46.9331],[8.7781,46.9332],[8.7785,46.9328],[8.7793,46.9325],[8.7811,46.9324],[8.783,46.9316],[8.7834,46.9317],[8.785,46.9311],[8.7863,46.931],[8.7877,46.9304],[8.792,46.9308],[8.7918,46.9317],[8.7947,46.9333],[8.7962,46.9347],[8.7963,46.9352],[8.796,46.9355],[8.798,46.9367],[8.8,46.9374],[8.8013,46.9375],[8.8014,46.9376],[8.8013,46.9377],[8.8033,46.9383],[8.8042,46.9383],[8.8088,46.9403],[8.8107,46.9415],[8.8142,46.9386],[8.8201,46.9374],[8.8211,46.9362],[8.8268,46.9357],[8.8273,46.9341],[8.8272,46.9337],[8.8287,46.9328],[8.8298,46.9316],[8.8301,46.9305],[8.8298,46.9298],[8.8299,46.9293],[8.8296,46.928],[8.8292,46.9277],[8.8292,46.9273],[8.8287,46.9265],[8.8284,46.925],[8.8298,46.9241],[8.8288,46.9229],[8.8275,46.9224],[8.8278,46.9193],[8.8287,46.9179],[8.8301,46.9167],[8.8334,46.9114],[8.8353,46.9097],[8.8361,46.9077],[8.8396,46.9083],[8.8427,46.9095],[8.8425,46.9097],[8.8426,46.91],[8.8432,46.9102],[8.8438,46.9108],[8.8438,46.9111],[8.8442,46.9113],[8.8451,46.9115],[8.8455,46.9119],[8.8462,46.9121],[8.8467,46.9126],[8.8468,46.913],[8.8471,46.9132],[8.8469,46.9135],[8.8471,46.9138],[8.848,46.9135],[8.8481,46.9131],[8.8488,46.9128],[8.8488,46.9122],[8.8494,46.9111],[8.8495,46.9105],[8.8493,46.9103],[8.8495,46.9096],[8.8494,46.9087],[8.8489,46.9077],[8.849,46.9073],[8.8487,46.9069],[8.8488,46.9065],[8.8484,46.9059],[8.8482,46.9052],[8.8483,46.904],[8.8486,46.9035],[8.8482,46.9024],[8.849,46.9009],[8.849,46.9003],[8.8492,46.9001],[8.8485,46.8954],[8.8478,46.893],[8.8478,46.891],[8.8496,46.8882],[8.8532,46.8854],[8.8536,46.8853],[8.8542,46.8856],[8.8548,46.8857],[8.8547,46.8861],[8.8544,46.8866],[8.8546,46.8869],[8.8545,46.8871],[8.8555,46.8879],[8.8554,46.8882],[8.8562,46.8886],[8.8589,46.8894],[8.8593,46.8897],[8.8595,46.89],[8.8604,46.8905],[8.8609,46.8913],[8.8614,46.8916],[8.8612,46.8918],[8.861,46.8931],[8.8615,46.8936],[8.8621,46.8938],[8.8613,46.8945],[8.8617,46.8945],[8.8618,46.8947],[8.8635,46.8949],[8.8637,46.895],[8.8655,46.8951],[8.8658,46.8949],[8.8666,46.8949],[8.8685,46.8942],[8.8711,46.894],[8.8714,46.8945],[8.8744,46.895],[8.881,46.8979],[8.8825,46.8991],[8.8835,46.9008],[8.887,46.9024],[8.8886,46.9026],[8.8894,46.9025],[8.8895,46.9027],[8.8901,46.9028],[8.8904,46.9026],[8.891,46.9028],[8.891,46.9031],[8.8933,46.9028],[8.8952,46.9029],[8.8954,46.9033],[8.8954,46.9036],[8.8956,46.9037],[8.8956,46.9041],[8.896,46.9045],[8.8973,46.9043],[8.8974,46.9048],[8.8984,46.9045],[8.8986,46.9047],[8.899,46.9047],[8.8989,46.9051],[8.8987,46.9054],[8.8992,46.9058],[8.8988,46.9063],[8.9011,46.9074],[8.9017,46.9078],[8.903,46.9082],[8.904,46.9082],[8.9042,46.9084],[8.9053,46.9084],[8.906,46.9083],[8.906,46.9082],[8.9075,46.9075],[8.9076,46.9076],[8.9074,46.9079],[8.9075,46.9083],[8.9073,46.9087],[8.9074,46.9089],[8.9089,46.9089],[8.9096,46.9087],[8.9098,46.9088],[8.9103,46.9092],[8.9101,46.9094],[8.9103,46.9094],[8.9103,46.9096],[8.9112,46.9101],[8.9113,46.9107],[8.9123,46.9111],[8.9134,46.9112],[8.9141,46.9116],[8.915,46.9111],[8.9153,46.9114],[8.9159,46.9114],[8.916,46.9118],[8.9169,46.9121],[8.9172,46.9128],[8.9195,46.9141],[8.9208,46.9139],[8.9211,46.9136],[8.9215,46.9141],[8.9214,46.9145],[8.9216,46.9149],[8.9228,46.9157],[8.9247,46.9153],[8.9248,46.9156],[8.9252,46.9159],[8.9265,46.916],[8.9288,46.9173],[8.9297,46.9173],[8.9302,46.9178],[8.932,46.9183],[8.9325,46.9188],[8.933,46.919],[8.9335,46.9193],[8.9343,46.9195],[8.9347,46.9193],[8.9354,46.9198],[8.9399,46.9123],[8.9424,46.9097],[8.9436,46.9062],[8.9457,46.9049],[8.9469,46.9027],[8.9472,46.9027],[8.9477,46.9022],[8.9486,46.9016],[8.9497,46.9015],[8.9509,46.9017],[8.9518,46.9016],[8.9522,46.9011],[8.9527,46.9008],[8.9534,46.9007],[8.9528,46.8984],[8.9542,46.897],[8.954,46.8965],[8.9546,46.8945],[8.9562,46.8904],[8.9562,46.89],[8.9573,46.8879],[8.9568,46.8863],[8.9578,46.8795],[8.9559,46.8753],[8.9504,46.8732],[8.949,46.8731],[8.9485,46.873],[8.9475,46.8723],[8.9459,46.8721],[8.9453,46.8714],[8.9443,46.8713],[8.9437,46.8711],[8.9431,46.8711],[8.9417,46.8709],[8.9406,46.87],[8.9402,46.8699],[8.9401,46.8696],[8.9388,46.8687],[8.9357,46.8674],[8.9354,46.867],[8.934,46.8661],[8.9341,46.8658],[8.9334,46.8653],[8.9325,46.8655],[8.9315,46.8654],[8.9309,46.865],[8.9288,46.8646],[8.9281,46.8643],[8.9267,46.8642],[8.9231,46.8633],[8.9209,46.8621],[8.9206,46.8621],[8.9194,46.8615],[8.9178,46.8605],[8.9174,46.8606],[8.9159,46.8602],[8.9137,46.8601],[8.9128,46.8604],[8.9113,46.8603],[8.9093,46.861],[8.9089,46.8607],[8.9076,46.8602],[8.9074,46.8599],[8.906,46.8587],[8.9037,46.8572],[8.9029,46.8564],[8.9028,46.8561],[8.9015,46.8555],[8.9002,46.8545],[8.9004,46.8541],[8.8994,46.8532],[8.8992,46.8525],[8.8964,46.8508],[8.8963,46.8503],[8.8957,46.85],[8.8957,46.8496],[8.8931,46.849],[8.8914,46.8484],[8.8911,46.8486],[8.8888,46.8483],[8.888,46.848],[8.8881,46.8476],[8.8875,46.8476],[8.8862,46.8473],[8.884,46.8462],[8.8833,46.8461],[8.8809,46.8452],[8.8796,46.845],[8.8777,46.8441],[8.8753,46.8437],[8.8743,46.8432],[8.8735,46.8424],[8.8727,46.8421],[8.8712,46.842],[8.873,46.8414],[8.8733,46.8408],[8.8737,46.8405],[8.8741,46.8396],[8.8737,46.8386],[8.8739,46.8378],[8.8745,46.8374],[8.8746,46.8367],[8.8744,46.8365],[8.8745,46.8361],[8.8744,46.8352],[8.8771,46.8335],[8.8816,46.8291],[8.8802,46.8201],[8.8763,46.8169],[8.8756,46.816],[8.8771,46.8129],[8.8763,46.8122],[8.8758,46.8115],[8.8755,46.8113],[8.8742,46.8089],[8.8729,46.8082],[8.8714,46.8079],[8.8703,46.8075],[8.8697,46.8071],[8.8695,46.8067],[8.8661,46.8067],[8.865,46.8064],[8.8629,46.806],[8.8599,46.8057],[8.8588,46.8048],[8.8575,46.804],[8.8575,46.8032],[8.857,46.8031],[8.8564,46.8026],[8.8552,46.802],[8.8548,46.8013],[8.8528,46.8002],[8.8525,46.7997],[8.8493,46.7988],[8.8473,46.798],[8.8475,46.7978],[8.8471,46.7975],[8.8474,46.7973],[8.847,46.7965],[8.8482,46.7934],[8.8411,46.7937],[8.8387,46.7951],[8.8345,46.7952],[8.834,46.795],[8.8331,46.794],[8.8323,46.7937],[8.8318,46.7931],[8.8307,46.7926],[8.8282,46.7921],[8.8277,46.7916],[8.8272,46.7895],[8.8263,46.7883],[8.8266,46.7872],[8.8279,46.7862],[8.8279,46.7854],[8.829,46.7835],[8.8288,46.7823],[8.8291,46.7818],[8.828,46.7802],[8.8279,46.7792],[8.8282,46.7786],[8.8293,46.7772],[8.8292,46.7767],[8.8299,46.7757],[8.83,46.7739],[8.8306,46.7735],[8.8305,46.7733],[8.8304,46.7711],[8.8315,46.7695],[8.8329,46.7687],[8.8346,46.7669],[8.8328,46.7655],[8.8325,46.7652],[8.8325,46.7649],[8.8317,46.7643],[8.8306,46.7645],[8.8254,46.766],[8.8239,46.765],[8.823,46.7646],[8.8224,46.7639],[8.8226,46.7636],[8.8205,46.7632],[8.8186,46.7625],[8.8182,46.7617],[8.8186,46.7605],[8.819,46.7599],[8.8187,46.7596],[8.8189,46.7593],[8.8186,46.7588],[8.8186,46.7584],[8.8178,46.7581],[8.8173,46.758],[8.8161,46.7571],[8.8156,46.7564],[8.8145,46.7553],[8.8146,46.7551],[8.814,46.754],[8.8142,46.7533],[8.8137,46.7528],[8.8142,46.75],[8.814,46.7498],[8.8139,46.7494],[8.813,46.7482],[8.8129,46.7476],[8.8118,46.747],[8.8104,46.7449],[8.8111,46.7416],[8.813,46.7373],[8.8117,46.7369],[8.8086,46.7351],[8.8083,46.7353],[8.8076,46.735],[8.8068,46.7351],[8.8036,46.734],[8.8033,46.7336],[8.8006,46.7322],[8.7995,46.7314],[8.799,46.7317],[8.7976,46.7316],[8.7948,46.7317],[8.7936,46.7314],[8.7921,46.7314],[8.7892,46.7304],[8.7861,46.7298],[8.7854,46.7294],[8.782,46.7283],[8.7805,46.7312],[8.7794,46.7317],[8.7774,46.7322],[8.7775,46.7325],[8.7774,46.7326],[8.7768,46.733],[8.7768,46.7336],[8.7764,46.7338],[8.7765,46.7344],[8.7755,46.735],[8.7757,46.7359],[8.7735,46.7377],[8.7733,46.7389],[8.7728,46.7398],[8.7718,46.7401],[8.7702,46.7403],[8.7697,46.7406],[8.7694,46.7409],[8.7698,46.7418],[8.7694,46.7426],[8.7695,46.7431],[8.7688,46.7435],[8.7694,46.7438],[8.7696,46.7443],[8.7691,46.7446],[8.7681,46.7445],[8.7675,46.7447],[8.7661,46.7448],[8.761,46.7429],[8.7589,46.7418],[8.7578,46.7416],[8.7567,46.741],[8.753,46.7381],[8.751,46.7375],[8.7496,46.7364],[8.7476,46.7359],[8.7479,46.7352],[8.7476,46.7347],[8.7473,46.7338],[8.7473,46.7335],[8.7451,46.7317],[8.7455,46.7315],[8.7448,46.7302],[8.7444,46.7289],[8.7484,46.7225],[8.7491,46.7219],[8.7491,46.7207],[8.7475,46.7184],[8.7463,46.7177],[8.7457,46.7171],[8.7442,46.7167],[8.743,46.7161],[8.743,46.7155],[8.7421,46.7155],[8.7408,46.7146],[8.7375,46.7141],[8.7353,46.713],[8.7345,46.7124],[8.7332,46.7118],[8.7324,46.7111],[8.7315,46.7105],[8.73,46.7092],[8.7297,46.7087],[8.7281,46.7079],[8.7276,46.7074],[8.7261,46.7069],[8.7244,46.7067],[8.7231,46.7069],[8.7222,46.7067],[8.7201,46.7069],[8.7195,46.7065],[8.7177,46.7061],[8.7174,46.7053],[8.7175,46.7044],[8.7177,46.704],[8.7172,46.7026],[8.7165,46.7024],[8.7151,46.7015],[8.7129,46.7008],[8.7113,46.7003],[8.7101,46.7002],[8.7097,46.6995],[8.709,46.699],[8.7049,46.7009],[8.704,46.7021],[8.703,46.7026],[8.7025,46.7027],[8.7012,46.7034],[8.7002,46.7036],[8.6986,46.7035],[8.6967,46.7029],[8.6955,46.7028],[8.6926,46.7018],[8.6916,46.701],[8.6907,46.6986],[8.6893,46.6962],[8.6863,46.6942],[8.685,46.6943],[8.6839,46.6946],[8.6825,46.6944],[8.6815,46.6946],[8.6806,46.695],[8.6783,46.6949],[8.6763,46.6942],[8.6744,46.6921],[8.6737,46.6909],[8.674,46.6889],[8.6738,46.6882],[8.6746,46.6861],[8.6751,46.6853],[8.675,46.685],[8.6752,46.6845],[8.675,46.684],[8.674,46.6833],[8.6732,46.6823],[8.6728,46.6812],[8.6738,46.6795],[8.6742,46.6783],[8.6737,46.6767],[8.6742,46.6758],[8.6735,46.6726],[8.6736,46.6714],[8.674,46.6707],[8.6771,46.6681],[8.6786,46.6643],[8.6754,46.6629],[8.6715,46.6589],[8.6662,46.656],[8.6614,46.656],[8.6549,46.65],[8.6561,46.6485],[8.6582,46.6478],[8.6584,46.6472],[8.6582,46.6463],[8.6576,46.6456],[8.6576,46.645],[8.6564,46.6437],[8.6564,46.6432],[8.6575,46.6416],[8.6565,46.6408],[8.6557,46.6397],[8.6538,46.6393],[8.6535,46.6388],[8.6524,46.6384],[8.6519,46.6379],[8.6511,46.6346],[8.6513,46.634],[8.6515,46.634],[8.6531,46.6332],[8.6537,46.6327],[8.6545,46.6324],[8.655,46.632],[8.6566,46.6313],[8.6566,46.6307],[8.6564,46.6302],[8.6565,46.6298],[8.6571,46.6291],[8.658,46.6285],[8.658,46.6275],[8.6582,46.627],[8.658,46.6262],[8.6583,46.626],[8.6593,46.6249],[8.661,46.6245],[8.6626,46.6234],[8.6639,46.6231],[8.6637,46.6225],[8.664,46.6217],[8.6678,46.6201],[8.6713,46.6196],[8.674,46.62],[8.6754,46.6197],[8.6767,46.62],[8.6787,46.616],[8.6783,46.6145],[8.6778,46.6094],[8.6785,46.6089],[8.6787,46.6081],[8.6792,46.6074],[8.6791,46.6072],[8.6796,46.6053],[8.6793,46.6047],[8.6784,46.604],[8.6777,46.6032],[8.6778,46.6031],[8.6777,46.6028],[8.6773,46.6026],[8.6776,46.6023],[8.6775,46.6019],[8.6772,46.6016],[8.6773,46.6014],[8.6771,46.6012],[8.6773,46.6009],[8.6773,46.6003],[8.6767,46.5994],[8.6773,46.5983],[8.6806,46.595],[8.6806,46.593],[8.6819,46.5885],[8.6787,46.5792],[8.6772,46.5786],[8.6764,46.5785],[8.6726,46.5785],[8.6724,46.578],[8.671,46.5775],[8.6689,46.5771],[8.6687,46.5769],[8.6669,46.5766],[8.6662,46.576],[8.6654,46.5757],[8.665,46.5752],[8.6649,46.5748],[8.6628,46.5738],[8.6616,46.5736],[8.66,46.5737],[8.6599,46.5731],[8.6595,46.5728],[8.6597,46.5724],[8.6593,46.5717],[8.6588,46.5715],[8.6579,46.5697],[8.6573,46.5691],[8.6561,46.5684],[8.6546,46.5683],[8.6513,46.5667],[8.6484,46.5662],[8.648,46.5659],[8.6453,46.5651],[8.6445,46.5654],[8.6434,46.5654],[8.6431,46.5647],[8.6427,46.5647],[8.6423,46.5645],[8.6416,46.5644],[8.6408,46.5641],[8.639,46.5645],[8.638,46.5643],[8.6347,46.5644],[8.634,46.5647],[8.6339,46.5654],[8.6315,46.5654],[8.6309,46.5658],[8.6303,46.5671],[8.6298,46.5689],[8.6289,46.5708],[8.6288,46.5715],[8.6296,46.5737],[8.6279,46.5742],[8.6271,46.5747],[8.6268,46.5752],[8.6268,46.5758],[8.6266,46.576],[8.6266,46.5764],[8.6255,46.5766],[8.6253,46.5769],[8.624,46.5771],[8.6204,46.5781],[8.6177,46.5775],[8.615,46.5782],[8.6147,46.577],[8.6113,46.5752],[8.6113,46.575],[8.6077,46.5747],[8.6046,46.5741],[8.6025,46.5742],[8.6014,46.5736],[8.5998,46.5735],[8.5988,46.5737],[8.5986,46.574],[8.5979,46.5741],[8.5934,46.5735],[8.5919,46.5736],[8.5905,46.5734],[8.59,46.5738],[8.5892,46.574],[8.5881,46.5748],[8.5878,46.5748],[8.5857,46.5762],[8.5849,46.5765],[8.5845,46.5769],[8.5837,46.5771],[8.5814,46.5771],[8.5805,46.5784],[8.5785,46.5807],[8.5777,46.5807],[8.5775,46.5809],[8.5773,46.5812],[8.5774,46.5816],[8.5767,46.582],[8.5759,46.5822],[8.5737,46.5837],[8.5724,46.5837],[8.5674,46.5818],[8.5652,46.5813],[8.5639,46.5813],[8.5616,46.5816],[8.5603,46.5812],[8.5596,46.5812],[8.5593,46.5815],[8.5587,46.5816],[8.5547,46.5806],[8.5509,46.5807],[8.548,46.5817],[8.5466,46.5825],[8.545,46.584],[8.5412,46.5855],[8.5408,46.586],[8.5396,46.5863],[8.5392,46.5868],[8.5389,46.5864],[8.5365,46.5849],[8.5342,46.5845],[8.5323,46.5848],[8.5314,46.5846],[8.5302,46.5837],[8.5277,46.5825],[8.5263,46.5815],[8.526,46.581],[8.5261,46.5803],[8.5249,46.5792],[8.5248,46.5788],[8.525,46.5778],[8.5228,46.5776],[8.5212,46.5772],[8.5219,46.576],[8.5219,46.5746],[8.52,46.5727],[8.5203,46.5721],[8.521,46.5701],[8.521,46.5669],[8.5198,46.5665],[8.5181,46.5654],[8.5168,46.5629],[8.5158,46.5623],[8.5152,46.5612],[8.5142,46.5601],[8.5136,46.5592],[8.5134,46.5583],[8.5131,46.5581],[8.5132,46.5573],[8.5135,46.557],[8.5136,46.5566],[8.5142,46.5564],[8.5153,46.5556],[8.5159,46.5545],[8.5149,46.5528],[8.5145,46.5515],[8.5149,46.5505],[8.5152,46.5502],[8.5157,46.5486],[8.5166,46.5475],[8.5181,46.5467],[8.518,46.5455],[8.5177,46.5452],[8.5181,46.5449],[8.5182,46.5444],[8.5187,46.5441],[8.5189,46.5437],[8.5198,46.5434],[8.5204,46.5425],[8.52,46.5419],[8.5194,46.5415],[8.5193,46.5412],[8.5196,46.5406],[8.5194,46.5401],[8.5196,46.5397],[8.5195,46.5389],[8.5172,46.5388],[8.5169,46.5389],[8.5161,46.5388],[8.5156,46.5385],[8.5138,46.5382],[8.5128,46.5377],[8.5118,46.5375],[8.5114,46.5376],[8.5097,46.5368],[8.5079,46.5363],[8.5075,46.5358],[8.5054,46.5352],[8.5013,46.5351],[8.5005,46.5348],[8.5003,46.5344],[8.4998,46.5342],[8.4994,46.5344],[8.4975,46.5342],[8.4968,46.5344],[8.4951,46.5346],[8.4935,46.5341],[8.4914,46.533],[8.4903,46.5328],[8.4865,46.5328],[8.4851,46.5323],[8.4826,46.5324],[8.4819,46.5316],[8.4807,46.5293],[8.48,46.5291],[8.4796,46.5287],[8.479,46.5285],[8.4776,46.5276]]]}}