{"type":"Feature","bbox":[6.0639,46.1871,7.2492,46.9869],"properties":{"iso":"CH","code":"VD","name":"Vaud","name_de":"Kanton Waadt","source":"swisstopo","key":"CH-VD"},"geometry":{"type":"MultiPolygon","coordinates":[[[[7.0024,46.9869],[7.0521,46.9771],[7.0562,46.9749],[7.0603,46.9732],[7.063,46.9711],[7.0602,46.9687],[7.0608,46.9682],[7.0613,46.9668],[7.0579,46.9654],[7.0596,46.9631],[7.0575,46.9621],[7.0591,46.9601],[7.0574,46.9596],[7.0583,46.9582],[7.0587,46.9583],[7.0596,46.9558],[7.0565,46.9552],[7.0571,46.9544],[7.0587,46.9538],[7.0592,46.9519],[7.0595,46.9515],[7.0606,46.949],[7.0604,46.9486],[7.0606,46.9471],[7.0608,46.9471],[7.0611,46.9462],[7.0614,46.944],[7.0613,46.9423],[7.0611,46.9418],[7.0599,46.9406],[7.0589,46.9393],[7.0579,46.9386],[7.085,46.9124],[7.0867,46.9103],[7.0883,46.9089],[7.0909,46.9072],[7.0921,46.9075],[7.0934,46.9058],[7.0908,46.9045],[7.0909,46.9038],[7.0907,46.9037],[7.0862,46.9019],[7.0888,46.8997],[7.0868,46.899],[7.0876,46.8983],[7.0872,46.8982],[7.0875,46.8976],[7.0869,46.8974],[7.0871,46.8971],[7.0847,46.8963],[7.0815,46.896],[7.0791,46.8962],[7.0789,46.8958],[7.0782,46.8956],[7.0768,46.8955],[7.0764,46.8957],[7.0758,46.8958],[7.075,46.8955],[7.0746,46.8951],[7.0744,46.8953],[7.0743,46.8946],[7.0749,46.8939],[7.0763,46.8944],[7.0765,46.8941],[7.0771,46.8943],[7.0773,46.894],[7.0791,46.8947],[7.0798,46.8941],[7.0779,46.8931],[7.0776,46.8926],[7.0759,46.8917],[7.0709,46.8898],[7.0721,46.8887],[7.0684,46.8872],[7.0685,46.8879],[7.0643,46.8871],[7.0645,46.8862],[7.0648,46.8858],[7.0643,46.8852],[7.0639,46.885],[7.064,46.8848],[7.062,46.8838],[7.0617,46.8796],[7.0644,46.8801],[7.0642,46.8805],[7.0673,46.8809],[7.0677,46.8799],[7.0667,46.8798],[7.0672,46.8787],[7.0672,46.8774],[7.0682,46.8771],[7.0692,46.8764],[7.0689,46.8762],[7.0698,46.8748],[7.0709,46.8737],[7.071,46.8734],[7.0701,46.872],[7.0703,46.8717],[7.0698,46.8716],[7.0694,46.871],[7.0689,46.8706],[7.0684,46.8708],[7.0678,46.8706],[7.0676,46.8705],[7.0675,46.8702],[7.067,46.87],[7.0665,46.8694],[7.0662,46.8693],[7.0665,46.8689],[7.0669,46.8688],[7.0664,46.8685],[7.0665,46.8682],[7.0651,46.8679],[7.0648,46.8675],[7.0641,46.8674],[7.0636,46.867],[7.063,46.8672],[7.0625,46.8671],[7.0618,46.8652],[7.0603,46.8643],[7.0601,46.8634],[7.0594,46.8634],[7.059,46.8631],[7.0591,46.8629],[7.0583,46.8623],[7.0584,46.862],[7.0577,46.8616],[7.0575,46.8612],[7.0572,46.8611],[7.0572,46.8607],[7.0565,46.8604],[7.0565,46.8598],[7.0561,46.8592],[7.0558,46.8593],[7.0555,46.8591],[7.0555,46.8586],[7.0551,46.8576],[7.0542,46.8568],[7.054,46.8562],[7.0534,46.8562],[7.0535,46.856],[7.0531,46.8559],[7.0532,46.8556],[7.0522,46.8558],[7.051,46.8554],[7.0507,46.8549],[7.0504,46.8548],[7.0503,46.8545],[7.0491,46.8549],[7.0473,46.8516],[7.0464,46.8509],[7.0465,46.8507],[7.045,46.8496],[7.0454,46.849],[7.0448,46.8484],[7.0443,46.8484],[7.0444,46.848],[7.0429,46.8469],[7.0396,46.8483],[7.0375,46.8455],[7.0371,46.8457],[7.0371,46.8456],[7.0354,46.8465],[7.0332,46.8487],[7.0319,46.8478],[7.0305,46.849],[7.0299,46.8498],[7.0298,46.8502],[7.0291,46.8509],[7.0298,46.8511],[7.0297,46.8527],[7.0316,46.8536],[7.032,46.8536],[7.0319,46.8539],[7.0341,46.8553],[7.0333,46.8571],[7.0348,46.8581],[7.0351,46.858],[7.037,46.8583],[7.0386,46.859],[7.039,46.8593],[7.0397,46.8606],[7.0362,46.8618],[7.036,46.8621],[7.0355,46.8623],[7.0311,46.8651],[7.0299,46.8662],[7.0311,46.867],[7.0309,46.8672],[7.0311,46.8676],[7.0317,46.8686],[7.0323,46.8692],[7.0334,46.871],[7.0345,46.8722],[7.0358,46.873],[7.0357,46.8733],[7.0351,46.8736],[7.0347,46.8742],[7.0322,46.8759],[7.0304,46.8753],[7.0295,46.8756],[7.0285,46.8757],[7.0255,46.8766],[7.0252,46.8778],[7.0213,46.8767],[7.0182,46.8794],[7.0177,46.8801],[7.0162,46.8808],[7.0158,46.8789],[7.0153,46.8785],[7.0155,46.877],[7.0153,46.8768],[7.0146,46.8773],[7.014,46.8775],[7.0135,46.8768],[7.0131,46.8766],[7.0125,46.8766],[7.0118,46.8763],[7.0122,46.8756],[7.0117,46.8752],[7.0107,46.8755],[7.0097,46.8753],[7.0094,46.8746],[7.0087,46.8743],[7.0086,46.8741],[7.0087,46.8735],[7.0084,46.8732],[7.007,46.873],[7.0037,46.8738],[7.0017,46.8738],[6.9998,46.8744],[6.9993,46.8743],[6.9972,46.8763],[6.9938,46.879],[6.9993,46.8823],[6.9999,46.8819],[7.0053,46.8861],[7.0059,46.8857],[7.008,46.8876],[7.0095,46.889],[7.0089,46.8894],[7.009,46.8895],[7.0078,46.8902],[7.0024,46.8939],[6.9963,46.8979],[6.9931,46.9002],[6.9913,46.9017],[6.99,46.9025],[6.9902,46.9025],[6.9893,46.9032],[6.9879,46.9038],[6.9869,46.9046],[6.9855,46.9065],[6.9847,46.9072],[6.9812,46.9094],[6.9845,46.912],[6.9818,46.9136],[6.9875,46.9182],[6.9867,46.9196],[6.9858,46.9203],[6.9849,46.9208],[6.983,46.9213],[6.9811,46.9222],[6.9789,46.9226],[6.9781,46.9234],[6.9765,46.9227],[6.9742,46.9211],[6.9733,46.9219],[6.9715,46.9212],[6.9695,46.9229],[6.9692,46.9233],[6.9677,46.9236],[6.9671,46.9235],[6.9658,46.9243],[6.9649,46.9244],[6.9617,46.9275],[6.9282,46.9534],[7.0024,46.9869]]],[[[6.7798,46.853],[6.7419,46.8279],[6.7673,46.8088],[6.7707,46.8065],[6.771,46.8065],[6.772,46.8058],[6.773,46.8048],[6.7731,46.8049],[6.777,46.8024],[6.7788,46.8006],[6.7809,46.8013],[6.7835,46.8028],[6.7836,46.8027],[6.7852,46.8015],[6.7873,46.7996],[6.7861,46.7987],[6.7867,46.7984],[6.7848,46.7971],[6.7845,46.7973],[6.7786,46.7939],[6.7776,46.7926],[6.7767,46.7906],[6.776,46.7898],[6.7771,46.7891],[6.7787,46.7901],[6.7803,46.7914],[6.7808,46.7926],[6.7813,46.7922],[6.783,46.7934],[6.7842,46.7926],[6.7837,46.7923],[6.7854,46.7911],[6.7858,46.7912],[6.7889,46.7889],[6.7899,46.7884],[6.7906,46.7876],[6.792,46.7868],[6.7918,46.7866],[6.7931,46.7857],[6.7979,46.7829],[6.799,46.7837],[6.7999,46.7846],[6.8011,46.7838],[6.8036,46.7851],[6.8043,46.7849],[6.8047,46.7856],[6.8087,46.7836],[6.8089,46.7835],[6.8092,46.7837],[6.8113,46.7818],[6.8134,46.7803],[6.8129,46.7797],[6.8133,46.7793],[6.8124,46.7789],[6.813,46.7783],[6.8143,46.7786],[6.8154,46.7779],[6.8162,46.7779],[6.8167,46.7778],[6.8175,46.7785],[6.8185,46.7782],[6.8187,46.7781],[6.8184,46.7777],[6.821,46.7767],[6.8211,46.7764],[6.8217,46.7763],[6.8233,46.7752],[6.8233,46.775],[6.8238,46.7747],[6.8243,46.774],[6.8245,46.7736],[6.8253,46.7731],[6.8254,46.7728],[6.8256,46.7729],[6.8262,46.7743],[6.8281,46.7766],[6.8331,46.7745],[6.8341,46.7752],[6.8363,46.7761],[6.8355,46.7769],[6.8362,46.7771],[6.8365,46.777],[6.8372,46.7782],[6.8379,46.778],[6.8387,46.7797],[6.8387,46.7801],[6.8395,46.781],[6.8426,46.7792],[6.8428,46.7792],[6.8432,46.7787],[6.8441,46.7789],[6.8463,46.7801],[6.8468,46.7806],[6.8472,46.7812],[6.8485,46.7809],[6.8493,46.782],[6.8505,46.7824],[6.8501,46.7829],[6.8508,46.7832],[6.8504,46.7835],[6.8492,46.7841],[6.8516,46.7859],[6.8526,46.7853],[6.8562,46.7867],[6.8564,46.7866],[6.8578,46.7874],[6.8591,46.788],[6.8625,46.7858],[6.8631,46.7861],[6.8638,46.7853],[6.8639,46.7844],[6.8633,46.7839],[6.8628,46.7839],[6.8619,46.7832],[6.8628,46.7824],[6.8624,46.7822],[6.8638,46.7811],[6.8649,46.7806],[6.866,46.7804],[6.8679,46.7796],[6.8693,46.7796],[6.8695,46.7792],[6.8703,46.7787],[6.8718,46.7781],[6.8726,46.7787],[6.8744,46.7773],[6.8759,46.7764],[6.8772,46.7759],[6.8786,46.7764],[6.8796,46.7763],[6.8797,46.7761],[6.8795,46.7753],[6.8829,46.7768],[6.883,46.7766],[6.8881,46.7783],[6.8903,46.7781],[6.8942,46.7773],[6.895,46.7791],[6.8978,46.7794],[6.8998,46.7801],[6.8991,46.7816],[6.9035,46.7819],[6.9051,46.7815],[6.9059,46.7827],[6.9073,46.7838],[6.9088,46.7835],[6.9097,46.7835],[6.91,46.7832],[6.9082,46.782],[6.911,46.7797],[6.9126,46.7818],[6.9154,46.7831],[6.9171,46.7847],[6.9172,46.7853],[6.9164,46.7878],[6.9165,46.7887],[6.917,46.7894],[6.9185,46.7908],[6.9194,46.7927],[6.9208,46.7948],[6.921,46.7953],[6.921,46.7965],[6.9211,46.7968],[6.9217,46.7972],[6.926,46.7985],[6.9265,46.7991],[6.9268,46.8005],[6.9273,46.8013],[6.9282,46.802],[6.93,46.8027],[6.9311,46.8037],[6.9316,46.8049],[6.9314,46.8059],[6.9306,46.8065],[6.9289,46.8071],[6.9282,46.8075],[6.9276,46.8083],[6.9274,46.8091],[6.9249,46.8087],[6.9225,46.8087],[6.9214,46.8095],[6.9211,46.8095],[6.92,46.8106],[6.9188,46.8101],[6.9172,46.8093],[6.9148,46.8074],[6.9158,46.8067],[6.9134,46.805],[6.9137,46.8048],[6.9113,46.8031],[6.9072,46.805],[6.9049,46.8056],[6.9052,46.8059],[6.9049,46.8065],[6.9071,46.808],[6.9069,46.8082],[6.9094,46.8107],[6.9109,46.8125],[6.9095,46.8141],[6.9088,46.8154],[6.9089,46.8158],[6.9085,46.8162],[6.9087,46.8167],[6.9095,46.8171],[6.9096,46.8174],[6.9076,46.8176],[6.9093,46.8189],[6.9085,46.8194],[6.9083,46.82],[6.9077,46.8199],[6.9064,46.8224],[6.9051,46.8242],[6.9049,46.825],[6.9053,46.826],[6.9054,46.827],[6.9067,46.8274],[6.9066,46.8276],[6.906,46.8277],[6.9063,46.8284],[6.907,46.8286],[6.9074,46.8342],[6.9106,46.8386],[6.9102,46.8388],[6.9204,46.8481],[6.9306,46.8532],[6.9288,46.8549],[6.9271,46.8545],[6.9253,46.8579],[6.925,46.8579],[6.9242,46.8595],[6.9224,46.859],[6.9215,46.8608],[6.9199,46.8604],[6.9178,46.8632],[6.9168,46.8634],[6.9157,46.863],[6.9129,46.8659],[6.8965,46.8612],[6.8959,46.8627],[6.8944,46.8622],[6.8941,46.8631],[6.8938,46.8634],[6.8919,46.865],[6.8966,46.8659],[6.8985,46.867],[6.9008,46.8664],[6.9036,46.8675],[6.9053,46.8686],[6.9075,46.8688],[6.9095,46.8695],[6.9118,46.8671],[6.9166,46.8688],[6.9158,46.8695],[6.921,46.8713],[6.9129,46.8787],[6.912,46.8793],[6.9108,46.8806],[6.907,46.8786],[6.9053,46.8803],[6.9037,46.8794],[6.9011,46.8821],[6.9006,46.8819],[6.8992,46.8834],[6.8984,46.8828],[6.8973,46.8839],[6.8964,46.883],[6.8947,46.8848],[6.8946,46.885],[6.8917,46.8867],[6.8657,46.9096],[6.8962,46.9255],[6.9214,46.9056],[6.9268,46.9011],[6.9274,46.9009],[6.9278,46.9009],[6.9283,46.9006],[6.9285,46.9007],[6.9288,46.9003],[6.9296,46.9],[6.93,46.8995],[6.9303,46.8995],[6.93,46.8993],[6.93,46.8991],[6.9294,46.8986],[6.929,46.8979],[6.9283,46.8978],[6.9281,46.8974],[6.9275,46.8976],[6.9274,46.8974],[6.9275,46.8973],[6.9272,46.897],[6.9267,46.8972],[6.9268,46.8969],[6.9253,46.8962],[6.9255,46.8959],[6.9248,46.8958],[6.9237,46.8953],[6.9236,46.895],[6.9239,46.8948],[6.9238,46.8947],[6.924,46.8946],[6.924,46.8941],[6.9245,46.8938],[6.9244,46.8934],[6.925,46.8932],[6.9252,46.893],[6.9255,46.8931],[6.9254,46.893],[6.9255,46.8927],[6.9259,46.8927],[6.9265,46.8928],[6.9273,46.8927],[6.9283,46.8928],[6.9289,46.8933],[6.9293,46.8933],[6.9302,46.8928],[6.9314,46.8924],[6.9331,46.8925],[6.936,46.8888],[6.9384,46.89],[6.9396,46.8879],[6.9391,46.8872],[6.9396,46.8867],[6.9402,46.8867],[6.9415,46.8861],[6.9421,46.885],[6.9415,46.8846],[6.9419,46.8841],[6.9425,46.8837],[6.9433,46.8835],[6.9443,46.8834],[6.9457,46.883],[6.9464,46.8819],[6.9473,46.881],[6.9474,46.8804],[6.948,46.8801],[6.9483,46.8797],[6.9486,46.879],[6.9493,46.8788],[6.9499,46.8783],[6.9517,46.8776],[6.9512,46.8773],[6.9516,46.877],[6.9515,46.8768],[6.9524,46.8762],[6.9524,46.876],[6.9505,46.8758],[6.9511,46.8748],[6.9518,46.875],[6.9521,46.8746],[6.954,46.8754],[6.9545,46.8747],[6.9544,46.8745],[6.9566,46.872],[6.9568,46.8721],[6.9579,46.8708],[6.9602,46.8714],[6.963,46.8681],[6.9628,46.868],[6.9649,46.8654],[6.9694,46.8673],[6.9671,46.8699],[6.9651,46.8724],[6.9643,46.8732],[6.9644,46.8733],[6.9644,46.8735],[6.9649,46.8737],[6.9622,46.8773],[6.9612,46.8772],[6.9591,46.8787],[6.9591,46.8789],[6.9597,46.8792],[6.9581,46.8815],[6.9607,46.8826],[6.9618,46.884],[6.9621,46.8841],[6.9628,46.8833],[6.9628,46.8831],[6.9632,46.8831],[6.9633,46.8828],[6.9659,46.8837],[6.9664,46.8834],[6.9711,46.8851],[6.9704,46.8865],[6.9738,46.8873],[6.9742,46.8864],[6.9749,46.886],[6.9753,46.8852],[6.976,46.8844],[6.9764,46.8841],[6.977,46.8843],[6.9777,46.8842],[6.9803,46.8821],[6.9889,46.8735],[6.9859,46.8711],[6.9865,46.8707],[6.9826,46.8677],[6.9792,46.8658],[6.9769,46.8605],[6.9806,46.858],[6.9778,46.855],[6.9793,46.8533],[6.9786,46.8528],[6.9778,46.8519],[6.9775,46.8509],[6.9776,46.8499],[6.9779,46.85],[6.9804,46.8482],[6.9793,46.847],[6.9815,46.8457],[6.9824,46.8464],[6.9829,46.846],[6.9833,46.8464],[6.9835,46.8462],[6.9844,46.8467],[6.9856,46.8456],[6.9859,46.8456],[6.987,46.8446],[6.9866,46.8444],[6.9869,46.8441],[6.9877,46.8444],[6.9887,46.8436],[6.9874,46.8428],[6.9885,46.8421],[6.986,46.8401],[6.9844,46.841],[6.9831,46.8398],[6.9862,46.8378],[6.986,46.8375],[6.987,46.8372],[6.9866,46.8358],[6.986,46.8352],[6.9861,46.8347],[6.9868,46.8347],[6.9886,46.8339],[6.9924,46.8332],[6.9928,46.8325],[6.9928,46.8319],[6.9919,46.831],[6.9924,46.8304],[6.991,46.8295],[6.9907,46.8291],[6.9897,46.8282],[6.9898,46.8278],[6.9896,46.8273],[6.9897,46.8267],[6.9896,46.8266],[6.9897,46.8264],[6.9882,46.8254],[6.9879,46.8253],[6.9879,46.825],[6.9871,46.8245],[6.986,46.8238],[6.9858,46.8238],[6.9857,46.8237],[6.9859,46.8236],[6.9854,46.8235],[6.9851,46.823],[6.9853,46.8227],[6.985,46.822],[6.9834,46.822],[6.982,46.8222],[6.9817,46.8225],[6.9801,46.8229],[6.9783,46.8229],[6.9781,46.8231],[6.9767,46.8229],[6.9761,46.823],[6.9748,46.823],[6.9743,46.8233],[6.9739,46.8241],[6.973,46.8247],[6.9726,46.8246],[6.9721,46.824],[6.9719,46.8239],[6.971,46.8241],[6.9708,46.8246],[6.9705,46.8248],[6.9698,46.8248],[6.9695,46.8251],[6.9695,46.8257],[6.9683,46.8265],[6.968,46.827],[6.9665,46.8275],[6.9654,46.8277],[6.9653,46.8279],[6.9655,46.8281],[6.9651,46.8282],[6.9611,46.8239],[6.9578,46.8187],[6.9584,46.8184],[6.9602,46.8178],[6.9596,46.8176],[6.9582,46.8165],[6.9579,46.8162],[6.9575,46.8161],[6.9565,46.8149],[6.9568,46.8145],[6.9566,46.8144],[6.9572,46.8139],[6.9574,46.8133],[6.9593,46.8122],[6.9578,46.8112],[6.9588,46.8105],[6.9588,46.8099],[6.9596,46.8096],[6.9612,46.808],[6.9626,46.8074],[6.9631,46.8068],[6.9632,46.8064],[6.9647,46.8055],[6.9635,46.8045],[6.9635,46.8044],[6.9667,46.8027],[6.9655,46.8018],[6.966,46.8011],[6.9635,46.7998],[6.9629,46.7997],[6.9623,46.7992],[6.9619,46.7987],[6.9603,46.7976],[6.9589,46.7963],[6.9584,46.7956],[6.9582,46.7949],[6.9569,46.7947],[6.956,46.7934],[6.9564,46.7931],[6.9564,46.7928],[6.9569,46.7926],[6.9566,46.7922],[6.9564,46.7916],[6.9569,46.7909],[6.9564,46.7905],[6.9586,46.7903],[6.9572,46.7897],[6.9572,46.7889],[6.9576,46.7883],[6.9571,46.7876],[6.9567,46.7873],[6.9548,46.7866],[6.9543,46.7867],[6.9515,46.7852],[6.9512,46.7843],[6.9505,46.7836],[6.9501,46.7828],[6.9494,46.7829],[6.9492,46.7831],[6.9486,46.7829],[6.9476,46.783],[6.9471,46.7837],[6.9465,46.7839],[6.9457,46.7845],[6.9439,46.7839],[6.9435,46.7842],[6.9428,46.784],[6.9411,46.7831],[6.9412,46.7829],[6.94,46.7817],[6.9394,46.7808],[6.9389,46.7811],[6.9387,46.7815],[6.9381,46.7812],[6.938,46.7804],[6.9376,46.7795],[6.9369,46.7787],[6.9371,46.7786],[6.9355,46.7777],[6.9341,46.7766],[6.9336,46.7769],[6.9315,46.7754],[6.9331,46.7747],[6.9312,46.7725],[6.9332,46.772],[6.934,46.7726],[6.9353,46.7715],[6.9321,46.7702],[6.9309,46.7695],[6.9307,46.7692],[6.9308,46.7692],[6.9284,46.7672],[6.926,46.7649],[6.9241,46.7632],[6.9231,46.762],[6.9201,46.7599],[6.9171,46.7611],[6.9181,46.7617],[6.9174,46.7626],[6.9165,46.762],[6.9144,46.7627],[6.9116,46.761],[6.9092,46.7588],[6.9083,46.7575],[6.9082,46.7572],[6.9106,46.756],[6.909,46.7548],[6.9094,46.7542],[6.9098,46.7543],[6.9102,46.754],[6.9105,46.7533],[6.9118,46.7546],[6.9147,46.7533],[6.9167,46.7546],[6.9176,46.7543],[6.9175,46.754],[6.9196,46.7522],[6.9195,46.7517],[6.92,46.7513],[6.9216,46.7516],[6.9222,46.752],[6.9243,46.7522],[6.9267,46.7533],[6.9292,46.7541],[6.9303,46.7542],[6.9309,46.754],[6.9315,46.7532],[6.9322,46.7527],[6.9324,46.7523],[6.934,46.7514],[6.935,46.7505],[6.9358,46.7505],[6.938,46.7495],[6.938,46.7485],[6.9394,46.7462],[6.9396,46.7457],[6.9403,46.7456],[6.9411,46.7451],[6.9406,46.7437],[6.9405,46.7437],[6.9398,46.7427],[6.9395,46.7416],[6.9369,46.7391],[6.9361,46.7379],[6.9359,46.7367],[6.935,46.7359],[6.9366,46.7344],[6.9363,46.7339],[6.9356,46.7332],[6.9304,46.7302],[6.9242,46.725],[6.9225,46.7239],[6.92,46.7206],[6.9194,46.7208],[6.9185,46.72],[6.9177,46.7187],[6.9176,46.7191],[6.9172,46.7197],[6.9165,46.72],[6.9157,46.7194],[6.9153,46.7186],[6.9114,46.7179],[6.9091,46.7162],[6.9087,46.7162],[6.907,46.7148],[6.905,46.7139],[6.9045,46.7142],[6.9038,46.7134],[6.901,46.7114],[6.899,46.7096],[6.8966,46.7063],[6.8961,46.7065],[6.8944,46.7056],[6.8923,46.7026],[6.8932,46.7022],[6.8944,46.7012],[6.8916,46.6975],[6.8919,46.6972],[6.8912,46.6965],[6.8916,46.6961],[6.8903,46.6949],[6.8896,46.6939],[6.8879,46.6943],[6.8866,46.693],[6.8861,46.6918],[6.8853,46.6918],[6.8851,46.6917],[6.8837,46.69],[6.881,46.6901],[6.8753,46.6848],[6.8731,46.6833],[6.8707,46.6849],[6.8692,46.6853],[6.8684,46.6857],[6.8664,46.6846],[6.8657,46.6837],[6.8651,46.6826],[6.8653,46.6813],[6.8627,46.6809],[6.8632,46.6797],[6.8641,46.6768],[6.8657,46.6758],[6.8666,46.6756],[6.8681,46.6749],[6.869,46.675],[6.8697,46.6744],[6.8709,46.6739],[6.8717,46.6733],[6.8702,46.6719],[6.87,46.6719],[6.8675,46.6693],[6.8667,46.6679],[6.8644,46.6648],[6.8683,46.663],[6.8673,46.6621],[6.868,46.6608],[6.8659,46.6589],[6.8656,46.6591],[6.8647,46.6585],[6.864,46.6588],[6.863,46.6584],[6.8594,46.66],[6.8586,46.6589],[6.8577,46.6586],[6.8568,46.658],[6.8567,46.6574],[6.8547,46.656],[6.8535,46.6555],[6.8513,46.6562],[6.851,46.6565],[6.8508,46.6564],[6.8481,46.6575],[6.8478,46.6573],[6.8452,46.6584],[6.8443,46.6577],[6.8422,46.6588],[6.8441,46.6608],[6.8422,46.6608],[6.8415,46.6613],[6.8418,46.6616],[6.8384,46.6626],[6.8382,46.6619],[6.8375,46.6621],[6.8367,46.6618],[6.8363,46.6615],[6.8334,46.6622],[6.8314,46.6598],[6.8289,46.6606],[6.8274,46.6598],[6.8247,46.6569],[6.8209,46.6518],[6.8191,46.6507],[6.8173,46.6492],[6.8176,46.6485],[6.8184,46.6484],[6.8185,46.6478],[6.8175,46.6478],[6.8161,46.6475],[6.8161,46.6474],[6.8146,46.6475],[6.8142,46.6482],[6.8142,46.6486],[6.8134,46.6495],[6.8119,46.6492],[6.8111,46.6497],[6.8112,46.6504],[6.8108,46.6504],[6.8106,46.6501],[6.8086,46.6502],[6.8069,46.6506],[6.8057,46.6501],[6.8049,46.6501],[6.8038,46.6498],[6.802,46.6489],[6.7989,46.6492],[6.7985,46.6486],[6.7988,46.6478],[6.8002,46.6473],[6.8006,46.6466],[6.8028,46.6461],[6.8037,46.6457],[6.8032,46.6448],[6.8038,46.6445],[6.8032,46.6438],[6.8024,46.6439],[6.8017,46.6442],[6.8002,46.6413],[6.7989,46.6396],[6.7987,46.6386],[6.7988,46.6379],[6.7985,46.6365],[6.7982,46.6356],[6.7976,46.6356],[6.7974,46.6352],[6.7969,46.6331],[6.7984,46.6302],[6.7995,46.6303],[6.8004,46.6299],[6.8007,46.6284],[6.8017,46.6285],[6.8017,46.6277],[6.8023,46.6277],[6.8018,46.6262],[6.802,46.6251],[6.8031,46.6228],[6.8035,46.6224],[6.8035,46.6212],[6.8032,46.6213],[6.8026,46.6188],[6.8024,46.6188],[6.803,46.6162],[6.8026,46.6157],[6.8018,46.6156],[6.803,46.6128],[6.8034,46.6101],[6.8039,46.6094],[6.8039,46.609],[6.8024,46.6025],[6.8024,46.6014],[6.8019,46.6007],[6.7983,46.5999],[6.8002,46.5936],[6.8012,46.5925],[6.8011,46.5916],[6.7999,46.5906],[6.8001,46.5905],[6.7999,46.5902],[6.8,46.5899],[6.7995,46.5894],[6.8,46.5894],[6.7999,46.5887],[6.7988,46.5865],[6.7985,46.5862],[6.7988,46.5857],[6.7991,46.5858],[6.7995,46.5856],[6.7993,46.5849],[6.7989,46.5846],[6.7991,46.5845],[6.7989,46.5843],[6.7988,46.5839],[6.7993,46.5838],[6.7989,46.5821],[6.7977,46.5804],[6.7961,46.5793],[6.7961,46.5788],[6.7958,46.5784],[6.7963,46.5773],[6.7955,46.5761],[6.7948,46.5754],[6.7949,46.5753],[6.7973,46.5745],[6.7972,46.5743],[6.7977,46.5746],[6.7995,46.5741],[6.8016,46.5746],[6.8017,46.5752],[6.8026,46.5749],[6.803,46.5756],[6.8034,46.5769],[6.8043,46.5766],[6.8049,46.5779],[6.8079,46.5776],[6.8094,46.5789],[6.8108,46.579],[6.8132,46.5782],[6.8128,46.5794],[6.8116,46.5806],[6.8115,46.581],[6.8126,46.5822],[6.8131,46.5834],[6.8142,46.584],[6.814,46.5846],[6.8141,46.5857],[6.8163,46.5848],[6.8176,46.5847],[6.8189,46.5841],[6.8195,46.5843],[6.82,46.5838],[6.8206,46.5837],[6.8212,46.5829],[6.8214,46.5825],[6.8213,46.5822],[6.8215,46.5821],[6.8214,46.5819],[6.8215,46.5819],[6.8214,46.5816],[6.822,46.5808],[6.8221,46.5801],[6.8227,46.58],[6.823,46.5791],[6.8236,46.5784],[6.8237,46.5775],[6.8244,46.5775],[6.8251,46.5778],[6.8257,46.5779],[6.8269,46.578],[6.8281,46.5773],[6.8287,46.5772],[6.8293,46.5764],[6.8306,46.576],[6.8348,46.5753],[6.8374,46.5768],[6.8369,46.5775],[6.8399,46.579],[6.8401,46.5792],[6.8401,46.5797],[6.8409,46.5802],[6.8411,46.5807],[6.8419,46.5815],[6.8424,46.5824],[6.8432,46.5827],[6.8438,46.5824],[6.8444,46.5827],[6.8453,46.5828],[6.8464,46.5839],[6.8486,46.5833],[6.849,46.583],[6.8488,46.5828],[6.8492,46.5824],[6.8493,46.582],[6.8509,46.5811],[6.8514,46.5811],[6.8526,46.582],[6.8555,46.5807],[6.8575,46.5801],[6.86,46.5799],[6.8597,46.5795],[6.8604,46.5793],[6.8628,46.5782],[6.863,46.5785],[6.8642,46.578],[6.864,46.5778],[6.8655,46.5772],[6.8651,46.5762],[6.8677,46.575],[6.8679,46.5752],[6.869,46.5735],[6.8703,46.5721],[6.8745,46.565],[6.877,46.5659],[6.8774,46.5662],[6.8794,46.5671],[6.8802,46.5664],[6.8802,46.5661],[6.881,46.5656],[6.8845,46.562],[6.8864,46.5628],[6.8864,46.5631],[6.8868,46.5634],[6.8867,46.564],[6.8869,46.5646],[6.8864,46.565],[6.8869,46.5658],[6.8871,46.566],[6.8873,46.5659],[6.8876,46.5666],[6.8875,46.5671],[6.8882,46.5677],[6.8903,46.5675],[6.8921,46.5679],[6.894,46.5688],[6.8954,46.5692],[6.898,46.5706],[6.8989,46.5705],[6.9007,46.5699],[6.9009,46.5701],[6.9016,46.5697],[6.9003,46.5685],[6.9005,46.5677],[6.8992,46.5667],[6.9001,46.5657],[6.8988,46.565],[6.8995,46.5642],[6.8997,46.5635],[6.9023,46.5614],[6.902,46.5612],[6.9006,46.5602],[6.8998,46.5601],[6.8991,46.5597],[6.8976,46.5597],[6.8973,46.5603],[6.8969,46.5606],[6.8965,46.5602],[6.8957,46.5601],[6.8954,46.5594],[6.8946,46.5591],[6.8944,46.5591],[6.8946,46.5597],[6.8939,46.5599],[6.894,46.5596],[6.8927,46.5587],[6.8915,46.5584],[6.8915,46.5581],[6.8919,46.5577],[6.8917,46.5573],[6.8914,46.5577],[6.8911,46.5579],[6.8899,46.5576],[6.8895,46.5577],[6.8889,46.5583],[6.8882,46.5581],[6.8881,46.5577],[6.887,46.5571],[6.8849,46.5547],[6.8844,46.5546],[6.8824,46.5527],[6.8806,46.5515],[6.8806,46.551],[6.8798,46.5509],[6.8794,46.5507],[6.8795,46.5501],[6.8784,46.5497],[6.8781,46.5486],[6.8774,46.5481],[6.8758,46.5477],[6.8756,46.5476],[6.8756,46.5471],[6.875,46.5465],[6.8742,46.5461],[6.8741,46.5456],[6.8726,46.5457],[6.8725,46.5455],[6.8723,46.5448],[6.8713,46.5445],[6.8692,46.5433],[6.8691,46.5425],[6.8686,46.5421],[6.8684,46.5416],[6.8679,46.5412],[6.8668,46.5408],[6.8667,46.5406],[6.8669,46.5405],[6.8664,46.5401],[6.8662,46.5397],[6.8659,46.5395],[6.8656,46.5396],[6.865,46.539],[6.8644,46.5381],[6.8649,46.5377],[6.8639,46.5366],[6.8639,46.536],[6.8637,46.5355],[6.8637,46.535],[6.8625,46.5352],[6.8621,46.5335],[6.862,46.5311],[6.8611,46.5307],[6.8599,46.5309],[6.859,46.5309],[6.8587,46.5318],[6.8588,46.5322],[6.8592,46.5328],[6.8591,46.5331],[6.8586,46.5332],[6.8585,46.5334],[6.8601,46.536],[6.8582,46.5363],[6.8579,46.5365],[6.8577,46.5371],[6.857,46.5368],[6.8566,46.5369],[6.8564,46.537],[6.8563,46.5373],[6.8568,46.5383],[6.8562,46.5387],[6.8559,46.5396],[6.8552,46.54],[6.8551,46.5404],[6.8556,46.5409],[6.8554,46.5413],[6.855,46.5414],[6.8527,46.5415],[6.8525,46.541],[6.8522,46.5408],[6.8513,46.5408],[6.8509,46.5411],[6.8445,46.539],[6.8443,46.5391],[6.8407,46.5382],[6.8389,46.5384],[6.8366,46.538],[6.8364,46.5377],[6.8331,46.5379],[6.8324,46.5378],[6.8323,46.5375],[6.8318,46.5376],[6.8304,46.5374],[6.8294,46.5378],[6.8252,46.538],[6.8252,46.5387],[6.8251,46.5386],[6.8248,46.5394],[6.826,46.5411],[6.8262,46.541],[6.8278,46.543],[6.8273,46.5433],[6.8266,46.5435],[6.8255,46.5436],[6.8253,46.5435],[6.8256,46.5429],[6.8255,46.5427],[6.8249,46.542],[6.8248,46.5416],[6.8246,46.5416],[6.8246,46.5414],[6.8241,46.5411],[6.8235,46.5411],[6.8237,46.541],[6.8236,46.5408],[6.8236,46.5406],[6.8231,46.5405],[6.823,46.5403],[6.8227,46.5402],[6.8222,46.5397],[6.8219,46.5397],[6.8219,46.5395],[6.8217,46.5395],[6.8217,46.5393],[6.8214,46.5391],[6.8211,46.5391],[6.821,46.5385],[6.8207,46.5384],[6.8213,46.5379],[6.821,46.538],[6.82,46.5375],[6.8197,46.5376],[6.819,46.5368],[6.8191,46.5366],[6.8186,46.5367],[6.8183,46.5365],[6.8187,46.5361],[6.8183,46.5359],[6.8188,46.5357],[6.8184,46.5353],[6.8185,46.5351],[6.8181,46.5351],[6.8178,46.5349],[6.8181,46.5347],[6.8178,46.5344],[6.8183,46.5343],[6.8181,46.5337],[6.8178,46.5338],[6.8177,46.5332],[6.8178,46.533],[6.8173,46.5327],[6.8173,46.5326],[6.8174,46.5327],[6.8177,46.5326],[6.8171,46.5323],[6.8171,46.532],[6.8174,46.5319],[6.817,46.5316],[6.8171,46.5314],[6.8166,46.5312],[6.8165,46.531],[6.8163,46.5309],[6.8162,46.5305],[6.8152,46.5294],[6.8149,46.5292],[6.8146,46.5288],[6.8144,46.5288],[6.8144,46.5285],[6.8141,46.5284],[6.8142,46.5282],[6.8139,46.5282],[6.8139,46.528],[6.8137,46.5277],[6.8133,46.5276],[6.8135,46.5274],[6.8128,46.5271],[6.8129,46.5269],[6.8127,46.5268],[6.8129,46.5265],[6.8128,46.5265],[6.8128,46.5262],[6.8123,46.526],[6.8122,46.5258],[6.8118,46.5258],[6.812,46.5256],[6.8116,46.5254],[6.8113,46.5255],[6.811,46.5254],[6.8109,46.5251],[6.8121,46.524],[6.8132,46.5236],[6.8133,46.5228],[6.8143,46.5226],[6.8153,46.5214],[6.8181,46.5165],[6.8192,46.5161],[6.8226,46.5141],[6.8232,46.5131],[6.8243,46.5121],[6.8248,46.5122],[6.8279,46.5121],[6.8289,46.5124],[6.8303,46.5125],[6.8308,46.512],[6.8311,46.5105],[6.8314,46.51],[6.8322,46.5074],[6.8324,46.5054],[6.835,46.5023],[6.8378,46.4995],[6.8394,46.4986],[6.8417,46.4968],[6.8429,46.4963],[6.8446,46.4968],[6.8451,46.4965],[6.8455,46.4967],[6.8462,46.496],[6.8463,46.496],[6.8469,46.4951],[6.8471,46.4952],[6.8477,46.4937],[6.8489,46.4934],[6.8573,46.4931],[6.8591,46.4934],[6.8617,46.4936],[6.8628,46.4938],[6.8647,46.4985],[6.8663,46.5008],[6.8695,46.5023],[6.8724,46.5043],[6.8743,46.5064],[6.8762,46.5079],[6.878,46.5094],[6.8796,46.5103],[6.8817,46.5126],[6.8833,46.5135],[6.8953,46.5193],[6.8967,46.5204],[6.8977,46.5201],[6.8977,46.5195],[6.8972,46.5192],[6.8971,46.5177],[6.8973,46.5169],[6.8971,46.5159],[6.8977,46.5148],[6.896,46.513],[6.8956,46.5112],[6.8952,46.5108],[6.8953,46.5103],[6.895,46.5098],[6.895,46.5093],[6.8957,46.5078],[6.8965,46.508],[6.8968,46.5089],[6.8976,46.5094],[6.8981,46.5097],[6.8985,46.5097],[6.8997,46.5104],[6.8999,46.511],[6.9004,46.5114],[6.9004,46.5117],[6.9014,46.5123],[6.9014,46.5125],[6.901,46.5128],[6.901,46.5132],[6.9011,46.5133],[6.9042,46.5132],[6.9054,46.5125],[6.9066,46.5128],[6.908,46.5124],[6.909,46.5126],[6.9101,46.5123],[6.9106,46.5125],[6.911,46.5131],[6.9114,46.5132],[6.9126,46.5127],[6.9128,46.5123],[6.9128,46.5116],[6.9131,46.5111],[6.9142,46.5112],[6.9145,46.5111],[6.9146,46.5106],[6.9156,46.5103],[6.916,46.5107],[6.9167,46.5106],[6.9171,46.5104],[6.9172,46.5101],[6.9178,46.5099],[6.9179,46.5097],[6.9188,46.5096],[6.9198,46.5088],[6.9213,46.5085],[6.9218,46.5082],[6.9227,46.5086],[6.923,46.5085],[6.9234,46.508],[6.9252,46.5077],[6.9258,46.5071],[6.9265,46.5059],[6.9276,46.5047],[6.9283,46.5045],[6.9295,46.5049],[6.9312,46.5046],[6.9309,46.5043],[6.932,46.5032],[6.933,46.5033],[6.9335,46.503],[6.9331,46.5026],[6.9333,46.5019],[6.9346,46.5014],[6.9367,46.501],[6.9377,46.5011],[6.9386,46.501],[6.9394,46.5013],[6.9405,46.5013],[6.9412,46.5015],[6.9413,46.5018],[6.9419,46.5021],[6.9421,46.5019],[6.9432,46.5017],[6.9436,46.5012],[6.9442,46.5012],[6.9446,46.5015],[6.9451,46.5013],[6.9455,46.5015],[6.946,46.5013],[6.9479,46.5013],[6.9487,46.5016],[6.9489,46.5019],[6.95,46.502],[6.9503,46.5026],[6.9506,46.5026],[6.9516,46.502],[6.9528,46.5021],[6.9531,46.5019],[6.9542,46.5019],[6.9543,46.5018],[6.9542,46.5012],[6.9554,46.5008],[6.9557,46.5005],[6.9559,46.4997],[6.9561,46.4995],[6.9575,46.4991],[6.9598,46.4981],[6.9608,46.4973],[6.9616,46.4972],[6.9634,46.4962],[6.9634,46.4957],[6.9645,46.4952],[6.9642,46.4946],[6.9647,46.4944],[6.9648,46.4939],[6.9653,46.4938],[6.9656,46.4932],[6.9665,46.4929],[6.9684,46.492],[6.969,46.492],[6.9697,46.4912],[6.9703,46.4911],[6.9716,46.4915],[6.9721,46.4912],[6.9724,46.4906],[6.973,46.4902],[6.9728,46.4899],[6.9735,46.4892],[6.9732,46.4889],[6.9724,46.4888],[6.9724,46.4885],[6.9729,46.4882],[6.9726,46.4877],[6.9731,46.4873],[6.9727,46.4868],[6.9729,46.4861],[6.9724,46.4857],[6.9727,46.4852],[6.9727,46.4843],[6.9739,46.483],[6.9738,46.4812],[6.9746,46.4805],[6.9751,46.4791],[6.9758,46.4784],[6.9797,46.4759],[6.9813,46.4754],[6.9803,46.4745],[6.9793,46.4742],[6.9784,46.4737],[6.9779,46.4732],[6.9778,46.4729],[6.9789,46.4704],[6.9784,46.4696],[6.9781,46.4683],[6.9782,46.4675],[6.9789,46.4667],[6.979,46.4658],[6.9786,46.4644],[6.979,46.4624],[6.9791,46.4611],[6.98,46.4597],[6.9799,46.4593],[6.9802,46.459],[6.981,46.4588],[6.9827,46.4589],[6.9844,46.4568],[6.9897,46.4529],[6.9901,46.4523],[6.9902,46.4514],[6.9909,46.4514],[6.9915,46.4499],[6.9921,46.4489],[6.9901,46.4467],[6.9896,46.4458],[6.989,46.4453],[6.9882,46.444],[6.9859,46.4419],[6.9847,46.4405],[6.9836,46.4387],[6.9839,46.438],[6.9875,46.4379],[6.9888,46.4381],[6.9928,46.4389],[6.9948,46.4396],[6.9962,46.4406],[6.997,46.4407],[6.998,46.4413],[6.9991,46.4415],[6.9997,46.4421],[7.0009,46.4424],[7.002,46.443],[7.0025,46.4434],[7.0064,46.4445],[7.0076,46.4447],[7.0095,46.4456],[7.0103,46.4457],[7.0121,46.4466],[7.0172,46.4479],[7.0179,46.4471],[7.0193,46.4516],[7.0198,46.4526],[7.021,46.4573],[7.0212,46.4586],[7.0202,46.4594],[7.022,46.4611],[7.0249,46.4633],[7.0268,46.4642],[7.0285,46.4668],[7.0385,46.4743],[7.042,46.4761],[7.0441,46.4766],[7.0458,46.4778],[7.0465,46.478],[7.0477,46.479],[7.0486,46.4802],[7.0509,46.4818],[7.0544,46.4827],[7.0591,46.4852],[7.0596,46.4859],[7.0611,46.4873],[7.0658,46.489],[7.07,46.487],[7.0724,46.4864],[7.0776,46.4888],[7.0824,46.4878],[7.087,46.4878],[7.0889,46.4869],[7.0927,46.4875],[7.095,46.4881],[7.098,46.4884],[7.1004,46.487],[7.103,46.4879],[7.1054,46.4893],[7.1062,46.4902],[7.1063,46.4913],[7.1067,46.4922],[7.1085,46.4929],[7.1097,46.4943],[7.1103,46.4948],[7.1114,46.4952],[7.1126,46.4953],[7.1181,46.4975],[7.1228,46.4987],[7.1265,46.5028],[7.1263,46.5032],[7.1292,46.5043],[7.131,46.5047],[7.1354,46.5076],[7.1363,46.5086],[7.1371,46.5131],[7.1437,46.5221],[7.145,46.5269],[7.147,46.5275],[7.1483,46.5285],[7.1492,46.5285],[7.1508,46.5278],[7.1529,46.5273],[7.1542,46.5274],[7.1546,46.5273],[7.1559,46.5274],[7.1568,46.527],[7.1579,46.5268],[7.1589,46.5269],[7.1593,46.5272],[7.1596,46.5272],[7.1615,46.5278],[7.1619,46.5282],[7.1634,46.5285],[7.1644,46.5295],[7.1654,46.5299],[7.1664,46.5306],[7.167,46.5309],[7.1671,46.5311],[7.1699,46.5322],[7.1702,46.5321],[7.172,46.5332],[7.1728,46.5333],[7.1762,46.5353],[7.1769,46.5359],[7.1789,46.5368],[7.1808,46.538],[7.1823,46.5384],[7.1873,46.5426],[7.1906,46.5449],[7.1922,46.5466],[7.1934,46.5461],[7.2008,46.5417],[7.2011,46.54],[7.2076,46.5329],[7.2099,46.5342],[7.2124,46.5364],[7.2125,46.5366],[7.2123,46.5368],[7.2133,46.5376],[7.2137,46.5378],[7.2142,46.5376],[7.2147,46.5385],[7.2169,46.5405],[7.2169,46.5407],[7.2181,46.5421],[7.2201,46.5439],[7.2204,46.544],[7.2209,46.5444],[7.2217,46.5448],[7.2223,46.5464],[7.2227,46.5466],[7.2225,46.547],[7.2234,46.5479],[7.2238,46.5479],[7.2244,46.5483],[7.2255,46.5493],[7.2273,46.55],[7.2289,46.5504],[7.2296,46.5507],[7.2301,46.5507],[7.2309,46.5513],[7.2315,46.5513],[7.2319,46.5511],[7.2326,46.5514],[7.2334,46.5521],[7.2336,46.5525],[7.2341,46.5526],[7.2361,46.554],[7.2364,46.5541],[7.2367,46.5538],[7.2371,46.5538],[7.2372,46.5464],[7.2376,46.5464],[7.2382,46.5457],[7.2389,46.5455],[7.24,46.544],[7.2427,46.5412],[7.2434,46.5408],[7.2439,46.5408],[7.2441,46.5404],[7.2446,46.5401],[7.2447,46.5389],[7.2454,46.5385],[7.2459,46.5378],[7.246,46.5375],[7.2457,46.5371],[7.246,46.5359],[7.2456,46.5349],[7.2452,46.5345],[7.2451,46.5338],[7.2447,46.5332],[7.2457,46.5322],[7.2462,46.532],[7.2463,46.5317],[7.2468,46.531],[7.2468,46.5299],[7.2466,46.5292],[7.247,46.5287],[7.247,46.5285],[7.2473,46.5282],[7.2474,46.5274],[7.2476,46.5271],[7.2475,46.5268],[7.2478,46.526],[7.2478,46.5257],[7.2479,46.5256],[7.248,46.5245],[7.2479,46.5238],[7.2484,46.5233],[7.248,46.5223],[7.2482,46.5219],[7.249,46.5215],[7.2492,46.5211],[7.2488,46.5205],[7.249,46.5198],[7.2486,46.5189],[7.2488,46.5185],[7.249,46.5172],[7.2483,46.517],[7.2483,46.5159],[7.2478,46.5156],[7.2474,46.5143],[7.2477,46.5139],[7.2477,46.5133],[7.2487,46.5129],[7.2485,46.5121],[7.2481,46.5119],[7.248,46.5114],[7.2483,46.5105],[7.2476,46.5101],[7.2475,46.5096],[7.2468,46.5093],[7.2464,46.5085],[7.2463,46.5079],[7.2461,46.5076],[7.2463,46.5072],[7.2468,46.5068],[7.2466,46.5062],[7.2456,46.5057],[7.245,46.5052],[7.2448,46.5042],[7.245,46.5038],[7.2445,46.5033],[7.2445,46.5028],[7.2445,46.5027],[7.2453,46.5024],[7.2453,46.5022],[7.2446,46.5019],[7.2446,46.5013],[7.2438,46.5009],[7.2434,46.5],[7.2425,46.4996],[7.2424,46.4984],[7.2412,46.498],[7.2415,46.4974],[7.2413,46.497],[7.24,46.4966],[7.2396,46.4958],[7.2392,46.4959],[7.2392,46.4965],[7.239,46.4965],[7.2382,46.496],[7.2375,46.4961],[7.2374,46.4957],[7.2365,46.4954],[7.2359,46.4956],[7.2351,46.4954],[7.2345,46.4951],[7.2326,46.4948],[7.2344,46.4941],[7.2356,46.4928],[7.236,46.4913],[7.2359,46.4898],[7.2362,46.488],[7.2313,46.4877],[7.2293,46.4874],[7.2292,46.487],[7.2275,46.4872],[7.2276,46.4863],[7.2272,46.4863],[7.2256,46.4868],[7.2241,46.4869],[7.2246,46.4848],[7.225,46.4775],[7.2273,46.4724],[7.2309,46.4665],[7.2309,46.4662],[7.2301,46.4642],[7.2289,46.4623],[7.2298,46.4616],[7.2289,46.4589],[7.2264,46.4575],[7.2275,46.4571],[7.2285,46.4566],[7.2299,46.4555],[7.2301,46.455],[7.2308,46.4549],[7.2323,46.4539],[7.2318,46.4536],[7.2297,46.4534],[7.2273,46.4521],[7.226,46.4516],[7.2265,46.4508],[7.2266,46.45],[7.227,46.4495],[7.2262,46.4481],[7.2261,46.447],[7.2257,46.4456],[7.2251,46.4443],[7.2231,46.4423],[7.2226,46.442],[7.2189,46.4414],[7.2131,46.4395],[7.21,46.4395],[7.2051,46.4391],[7.204,46.4393],[7.2039,46.4396],[7.2041,46.44],[7.204,46.4402],[7.2031,46.4403],[7.2022,46.4406],[7.2021,46.4408],[7.2005,46.4408],[7.2,46.4405],[7.1992,46.4404],[7.1988,46.4402],[7.1973,46.4404],[7.1967,46.4404],[7.1965,46.4406],[7.1957,46.4404],[7.1951,46.4407],[7.195,46.4406],[7.1931,46.4363],[7.1925,46.4352],[7.1928,46.4338],[7.1932,46.4334],[7.1948,46.4324],[7.1955,46.4316],[7.1966,46.4312],[7.1969,46.4306],[7.1984,46.4299],[7.1992,46.4293],[7.1999,46.4282],[7.2001,46.4267],[7.2004,46.426],[7.2018,46.4239],[7.2036,46.4221],[7.2052,46.4215],[7.2063,46.4212],[7.2063,46.4206],[7.2067,46.4198],[7.2068,46.4193],[7.2079,46.418],[7.2092,46.417],[7.2099,46.4163],[7.2097,46.4159],[7.2088,46.415],[7.2088,46.4147],[7.2084,46.4139],[7.2083,46.413],[7.208,46.4125],[7.2082,46.4122],[7.2075,46.4111],[7.2072,46.4101],[7.2072,46.409],[7.2069,46.4084],[7.2076,46.4062],[7.2078,46.403],[7.207,46.4022],[7.2045,46.4004],[7.2046,46.3995],[7.2037,46.3972],[7.2032,46.3965],[7.2019,46.3955],[7.2014,46.3943],[7.2012,46.3933],[7.2009,46.3929],[7.1984,46.3907],[7.1985,46.3895],[7.1968,46.3869],[7.1949,46.3849],[7.1946,46.3841],[7.1944,46.384],[7.1945,46.3838],[7.1942,46.3832],[7.1942,46.382],[7.1939,46.3805],[7.194,46.3801],[7.1937,46.3789],[7.2013,46.3789],[7.2023,46.3787],[7.2034,46.3787],[7.2056,46.3796],[7.2067,46.3794],[7.2083,46.3787],[7.2074,46.3776],[7.2076,46.3774],[7.2075,46.3767],[7.2075,46.3759],[7.2078,46.3754],[7.2074,46.3751],[7.2074,46.3745],[7.2071,46.3738],[7.2072,46.3735],[7.209,46.3727],[7.2096,46.3723],[7.2103,46.371],[7.2104,46.3694],[7.211,46.3676],[7.2144,46.3641],[7.2163,46.3618],[7.2165,46.3619],[7.217,46.3616],[7.2176,46.3616],[7.2186,46.362],[7.219,46.3619],[7.2197,46.3621],[7.2226,46.3636],[7.2256,46.3646],[7.2263,46.365],[7.2261,46.3645],[7.2262,46.3641],[7.2277,46.3633],[7.2281,46.3624],[7.229,46.3623],[7.2297,46.362],[7.2301,46.3619],[7.2298,46.3615],[7.2295,46.3614],[7.2288,46.3611],[7.2278,46.3611],[7.227,46.3602],[7.2267,46.3595],[7.2262,46.3591],[7.2244,46.3593],[7.224,46.3589],[7.2234,46.3586],[7.2219,46.3585],[7.2188,46.3575],[7.2197,46.3561],[7.2227,46.3486],[7.2215,46.3292],[7.1891,46.3039],[7.1892,46.2952],[7.1969,46.2891],[7.1944,46.2891],[7.1939,46.2884],[7.1941,46.2871],[7.1948,46.2857],[7.194,46.2857],[7.194,46.2852],[7.193,46.2849],[7.1903,46.285],[7.1891,46.2845],[7.1888,46.2842],[7.1868,46.2836],[7.1863,46.2828],[7.1874,46.2784],[7.1893,46.2734],[7.1894,46.2729],[7.1884,46.2707],[7.1863,46.2694],[7.1837,46.2685],[7.1824,46.2684],[7.1816,46.2685],[7.1811,46.2684],[7.1792,46.269],[7.1781,46.2686],[7.1772,46.2677],[7.1771,46.2671],[7.1767,46.2667],[7.1761,46.2664],[7.1757,46.2658],[7.1745,46.2653],[7.1738,46.2644],[7.172,46.2626],[7.1718,46.2618],[7.1715,46.2611],[7.1704,46.2608],[7.1692,46.2603],[7.1685,46.2598],[7.1682,46.2594],[7.1673,46.2588],[7.1666,46.2579],[7.1661,46.2576],[7.1652,46.2563],[7.1628,46.2548],[7.1619,46.2539],[7.1615,46.2538],[7.1613,46.2535],[7.1606,46.2532],[7.1576,46.253],[7.1567,46.2527],[7.1552,46.2528],[7.155,46.2524],[7.1546,46.2521],[7.1534,46.2503],[7.1524,46.2493],[7.1518,46.2481],[7.1513,46.2464],[7.1516,46.2458],[7.1513,46.2455],[7.1514,46.2447],[7.15,46.2435],[7.1502,46.2431],[7.1475,46.2421],[7.1449,46.2414],[7.1447,46.2412],[7.1439,46.2408],[7.1438,46.2402],[7.1425,46.2389],[7.141,46.2379],[7.1377,46.237],[7.1351,46.2366],[7.1304,46.2368],[7.1274,46.2371],[7.1269,46.2371],[7.1265,46.2372],[7.1256,46.237],[7.1242,46.2359],[7.1238,46.2343],[7.1233,46.2332],[7.1234,46.2325],[7.1224,46.2312],[7.1218,46.2299],[7.1212,46.2293],[7.1218,46.2276],[7.1218,46.2264],[7.1215,46.2259],[7.1213,46.2249],[7.1218,46.2243],[7.1219,46.224],[7.1225,46.2238],[7.1225,46.2235],[7.12,46.2228],[7.1196,46.2222],[7.1189,46.2219],[7.1192,46.2216],[7.119,46.2212],[7.1183,46.2208],[7.1177,46.2201],[7.1168,46.2197],[7.1149,46.2184],[7.1157,46.2177],[7.1152,46.2173],[7.1139,46.2167],[7.1134,46.2163],[7.1128,46.2161],[7.112,46.2151],[7.1114,46.2147],[7.1114,46.2141],[7.1111,46.2139],[7.1102,46.2137],[7.1086,46.2127],[7.1086,46.2123],[7.1084,46.2122],[7.1067,46.2116],[7.1063,46.211],[7.1036,46.2102],[7.103,46.2102],[7.1027,46.2099],[7.1017,46.2096],[7.1012,46.2092],[7.1012,46.209],[7.0996,46.2079],[7.0986,46.2077],[7.0977,46.2078],[7.0963,46.2075],[7.0954,46.2069],[7.0944,46.2055],[7.0936,46.2048],[7.0933,46.2048],[7.0901,46.2025],[7.0895,46.2024],[7.0884,46.2016],[7.086,46.2014],[7.0852,46.201],[7.0832,46.2006],[7.0817,46.1998],[7.0782,46.1996],[7.0778,46.1991],[7.077,46.199],[7.0764,46.199],[7.0765,46.1994],[7.0755,46.1993],[7.0749,46.1996],[7.0738,46.1998],[7.0735,46.2001],[7.0729,46.2003],[7.0726,46.2006],[7.0722,46.2006],[7.0712,46.201],[7.0651,46.1996],[7.0645,46.1996],[7.0607,46.1977],[7.0599,46.1966],[7.0596,46.1963],[7.059,46.196],[7.0577,46.1957],[7.0562,46.1957],[7.0544,46.1947],[7.0527,46.1941],[7.0522,46.1937],[7.0521,46.1933],[7.0519,46.193],[7.0496,46.1927],[7.0465,46.1913],[7.0463,46.1911],[7.0459,46.191],[7.0455,46.1907],[7.0433,46.1899],[7.0412,46.1899],[7.0407,46.1894],[7.0408,46.189],[7.0397,46.1889],[7.0394,46.1886],[7.0384,46.1884],[7.0375,46.188],[7.036,46.1879],[7.0346,46.1881],[7.034,46.1879],[7.0332,46.1871],[7.0323,46.1881],[7.0316,46.1901],[7.031,46.1906],[7.0296,46.1914],[7.0289,46.192],[7.0277,46.1935],[7.0261,46.1964],[7.025,46.1977],[7.0204,46.2015],[7.0161,46.2037],[7.0129,46.2047],[7.0118,46.2056],[7.0114,46.2065],[7.0114,46.2088],[7.0105,46.211],[7.0097,46.215],[7.0085,46.218],[7.008,46.2205],[7.0075,46.2212],[7.0069,46.2217],[7.0047,46.2225],[7.0039,46.223],[7.0032,46.2239],[7.0027,46.225],[7.0024,46.2265],[7.0028,46.2293],[7.0025,46.2318],[7.0021,46.233],[7.0012,46.2339],[7.0002,46.2346],[6.9974,46.2356],[6.9962,46.2364],[6.9955,46.2372],[6.9948,46.239],[6.994,46.2401],[6.9895,46.244],[6.9889,46.2455],[6.9881,46.2512],[6.9877,46.2519],[6.987,46.2528],[6.986,46.2536],[6.981,46.2562],[6.975,46.2601],[6.9665,46.2673],[6.9656,46.2682],[6.9648,46.2693],[6.9643,46.2704],[6.9634,46.2743],[6.9611,46.2818],[6.9607,46.2829],[6.9599,46.284],[6.9585,46.2852],[6.9502,46.2909],[6.9475,46.2922],[6.9418,46.2943],[6.9384,46.2962],[6.937,46.2976],[6.9365,46.2985],[6.936,46.3002],[6.936,46.3035],[6.9358,46.3045],[6.9342,46.3083],[6.9333,46.3125],[6.9319,46.3161],[6.9318,46.3179],[6.9324,46.3222],[6.9324,46.3237],[6.9311,46.3283],[6.9301,46.33],[6.9213,46.3378],[6.9203,46.3385],[6.9191,46.339],[6.9173,46.3395],[6.9156,46.3396],[6.9044,46.3385],[6.9017,46.3386],[6.8997,46.3389],[6.8979,46.3396],[6.8958,46.3406],[6.8945,46.3416],[6.8935,46.3427],[6.8907,46.3466],[6.8883,46.3493],[6.887,46.3503],[6.8841,46.3518],[6.8832,46.3524],[6.8823,46.3535],[6.8818,46.3545],[6.8817,46.3556],[6.8819,46.3566],[6.8857,46.3622],[6.8865,46.364],[6.8869,46.3656],[6.8869,46.3676],[6.8862,46.3726],[6.8856,46.3747],[6.8848,46.3761],[6.8838,46.3769],[6.8804,46.3794],[6.8791,46.38],[6.8757,46.3812],[6.8744,46.382],[6.8688,46.3869],[6.8625,46.391],[6.8579,46.3957],[6.8547,46.3983],[6.8548,46.3984],[6.8249,46.4246],[6.8232,46.4259],[6.8217,46.427],[6.8211,46.4272],[6.6819,46.4543],[6.5191,46.4564],[6.4256,46.4158],[6.3352,46.4037],[6.253,46.3604],[6.2414,46.3437],[6.2127,46.3532],[6.2126,46.3534],[6.2121,46.3535],[6.2121,46.3537],[6.2119,46.3538],[6.2115,46.3536],[6.2105,46.3539],[6.2102,46.3539],[6.2095,46.3543],[6.2071,46.3551],[6.2066,46.355],[6.205,46.3553],[6.2021,46.3548],[6.2005,46.3556],[6.2,46.3556],[6.1997,46.3566],[6.1993,46.3571],[6.1989,46.3573],[6.199,46.3575],[6.1979,46.3586],[6.1985,46.359],[6.1986,46.3592],[6.1979,46.3599],[6.1981,46.3603],[6.1967,46.3606],[6.1945,46.3608],[6.1922,46.3607],[6.1885,46.3603],[6.1869,46.3605],[6.1859,46.3613],[6.1857,46.3617],[6.1841,46.3627],[6.1802,46.3646],[6.1784,46.3638],[6.1744,46.3624],[6.1746,46.3622],[6.174,46.3618],[6.1762,46.36],[6.1711,46.3584],[6.1726,46.3549],[6.1755,46.3537],[6.1803,46.3528],[6.1833,46.3512],[6.1829,46.3507],[6.1863,46.3495],[6.187,46.3495],[6.1875,46.3498],[6.1888,46.3501],[6.1895,46.3495],[6.1906,46.3491],[6.1909,46.3488],[6.1914,46.3486],[6.1934,46.3489],[6.1942,46.3486],[6.1949,46.3486],[6.1931,46.3437],[6.2036,46.3388],[6.2042,46.3397],[6.2061,46.3394],[6.206,46.3391],[6.2323,46.3304],[6.2196,46.3119],[6.1987,46.2844],[6.1703,46.2948],[6.1669,46.2952],[6.1596,46.2977],[6.1534,46.2992],[6.1506,46.301],[6.1407,46.3047],[6.1406,46.3049],[6.1408,46.3054],[6.1347,46.3089],[6.1336,46.3101],[6.1338,46.3104],[6.1337,46.3105],[6.1298,46.3129],[6.13,46.3131],[6.1281,46.3144],[6.1288,46.3153],[6.1259,46.3162],[6.1267,46.317],[6.1258,46.3175],[6.1258,46.3177],[6.1261,46.3177],[6.1261,46.318],[6.1254,46.3187],[6.1253,46.3193],[6.126,46.3197],[6.1264,46.3204],[6.1268,46.3207],[6.1269,46.3212],[6.1284,46.3217],[6.1289,46.3224],[6.1298,46.3228],[6.1302,46.3234],[6.1315,46.3241],[6.1316,46.3248],[6.1326,46.3255],[6.134,46.3276],[6.1339,46.3281],[6.1361,46.3285],[6.1361,46.3286],[6.1351,46.3288],[6.1357,46.3291],[6.1352,46.3294],[6.1372,46.3308],[6.1364,46.3312],[6.1363,46.3322],[6.1377,46.3333],[6.1388,46.333],[6.1392,46.3332],[6.139,46.3344],[6.1392,46.3348],[6.1381,46.3354],[6.1374,46.3355],[6.1372,46.3357],[6.1376,46.3363],[6.1384,46.3364],[6.1376,46.337],[6.1377,46.3374],[6.1394,46.3377],[6.1393,46.3379],[6.138,46.338],[6.1378,46.3383],[6.1379,46.3387],[6.1388,46.3387],[6.139,46.3397],[6.1399,46.3392],[6.1404,46.3396],[6.1408,46.3404],[6.1423,46.3408],[6.1432,46.3409],[6.1441,46.3413],[6.1448,46.3414],[6.1449,46.3408],[6.1452,46.3406],[6.1455,46.3406],[6.146,46.341],[6.1457,46.3415],[6.1459,46.3417],[6.1475,46.342],[6.1483,46.3425],[6.1494,46.3427],[6.1496,46.3431],[6.1495,46.3434],[6.1496,46.3437],[6.1511,46.3444],[6.1513,46.3448],[6.1511,46.3453],[6.1519,46.346],[6.1521,46.3465],[6.1516,46.3471],[6.1515,46.3474],[6.1518,46.3475],[6.153,46.3471],[6.1535,46.3472],[6.1542,46.3478],[6.1544,46.3482],[6.1551,46.3482],[6.1556,46.3486],[6.1564,46.3489],[6.1562,46.3493],[6.1564,46.3495],[6.1577,46.3499],[6.1577,46.3506],[6.1583,46.3508],[6.1583,46.3511],[6.1585,46.3515],[6.1577,46.3523],[6.1575,46.3528],[6.1577,46.3533],[6.1581,46.3537],[6.158,46.3542],[6.1584,46.3552],[6.1589,46.3554],[6.1585,46.3559],[6.1591,46.3561],[6.1592,46.3568],[6.1595,46.3571],[6.1593,46.3573],[6.1615,46.3599],[6.1687,46.3653],[6.1699,46.3661],[6.17,46.3671],[6.1697,46.3678],[6.1657,46.3721],[6.1633,46.3735],[6.1629,46.3738],[6.163,46.374],[6.1625,46.3745],[6.1611,46.3749],[6.1611,46.3757],[6.1608,46.3759],[6.1611,46.3762],[6.1611,46.3765],[6.1608,46.3769],[6.1604,46.377],[6.1606,46.3774],[6.1605,46.3775],[6.1602,46.3775],[6.1604,46.3779],[6.1603,46.3785],[6.1605,46.3787],[6.1592,46.3792],[6.1593,46.3797],[6.1589,46.3798],[6.1584,46.3797],[6.157,46.3777],[6.1565,46.3778],[6.1548,46.3786],[6.1539,46.3776],[6.1535,46.3777],[6.1534,46.3774],[6.1517,46.3773],[6.1497,46.3775],[6.1488,46.3785],[6.1468,46.3796],[6.1467,46.3801],[6.1347,46.3887],[6.1317,46.39],[6.113,46.3999],[6.1131,46.3987],[6.1146,46.3976],[6.1148,46.3972],[6.1138,46.3968],[6.1088,46.3995],[6.1069,46.3994],[6.1064,46.3992],[6.1057,46.3994],[6.1048,46.4004],[6.104,46.401],[6.1031,46.4022],[6.1026,46.4023],[6.1017,46.4036],[6.1006,46.4042],[6.1001,46.4047],[6.0998,46.4054],[6.0998,46.4058],[6.0991,46.4063],[6.0991,46.4067],[6.0995,46.4072],[6.0993,46.4075],[6.0987,46.408],[6.0982,46.4078],[6.0979,46.4079],[6.0975,46.4085],[6.0976,46.409],[6.0824,46.4122],[6.0676,46.4149],[6.0639,46.4164],[6.0706,46.4255],[6.0739,46.4284],[6.0746,46.4322],[6.0856,46.4408],[6.0864,46.4439],[6.0844,46.4474],[6.0786,46.4504],[6.0744,46.4535],[6.0769,46.4576],[6.0735,46.4599],[6.0739,46.4635],[6.0731,46.4642],[6.0728,46.4654],[6.0769,46.4674],[6.0855,46.4736],[6.0969,46.4813],[6.099,46.4845],[6.1036,46.4941],[6.11,46.5041],[6.1126,46.5096],[6.1213,46.5175],[6.138,46.531],[6.1437,46.5277],[6.1535,46.5368],[6.1486,46.5394],[6.152,46.5421],[6.1567,46.5453],[6.1275,46.5648],[6.1105,46.5764],[6.115,46.5799],[6.1219,46.584],[6.1239,46.5874],[6.1265,46.5899],[6.1299,46.5916],[6.1325,46.5933],[6.1396,46.5976],[6.1418,46.5981],[6.148,46.6022],[6.1516,46.6034],[6.1537,46.6037],[6.1538,46.604],[6.1564,46.6062],[6.1579,46.6077],[6.1595,46.6086],[6.1612,46.61],[6.1638,46.6099],[6.1649,46.6102],[6.1653,46.6101],[6.1689,46.6116],[6.1717,46.6125],[6.179,46.6158],[6.1797,46.6182],[6.1791,46.6189],[6.1795,46.6201],[6.1834,46.6214],[6.1856,46.6237],[6.1871,46.6241],[6.1884,46.6246],[6.1893,46.6258],[6.1908,46.6255],[6.1922,46.6262],[6.1937,46.6268],[6.1952,46.628],[6.1963,46.6282],[6.1965,46.6287],[6.1958,46.6295],[6.1972,46.6301],[6.2006,46.6336],[6.1995,46.6345],[6.204,46.6363],[6.2056,46.635],[6.2067,46.6357],[6.2074,46.6356],[6.208,46.636],[6.2081,46.6367],[6.2086,46.6366],[6.2116,46.6392],[6.213,46.6401],[6.2127,46.6407],[6.2129,46.641],[6.2155,46.6417],[6.2167,46.6417],[6.2174,46.6423],[6.2172,46.6429],[6.2167,46.6431],[6.219,46.6451],[6.2238,46.6462],[6.2276,46.6482],[6.2308,46.6516],[6.2328,46.6545],[6.236,46.6566],[6.2381,46.6576],[6.2424,46.6609],[6.2532,46.6672],[6.2673,46.6762],[6.268,46.6781],[6.2688,46.6779],[6.2693,46.6786],[6.2702,46.6786],[6.2705,46.6791],[6.2704,46.6798],[6.2688,46.6801],[6.2693,46.6817],[6.2691,46.6825],[6.2759,46.6857],[6.279,46.6875],[6.282,46.6907],[6.2857,46.6913],[6.2925,46.6931],[6.2955,46.6945],[6.2971,46.6943],[6.3156,46.7026],[6.3251,46.7065],[6.3271,46.7062],[6.3324,46.7078],[6.3412,46.7101],[6.3494,46.7144],[6.3521,46.7149],[6.3538,46.7182],[6.3573,46.7197],[6.3602,46.7231],[6.3609,46.7229],[6.3613,46.7223],[6.3623,46.7224],[6.3628,46.7221],[6.3633,46.7223],[6.3642,46.7218],[6.3651,46.7226],[6.3656,46.7226],[6.366,46.7223],[6.3663,46.7226],[6.3661,46.7229],[6.3667,46.7227],[6.3667,46.7232],[6.3717,46.7241],[6.3713,46.7292],[6.3678,46.7292],[6.371,46.7307],[6.3727,46.7307],[6.3748,46.7311],[6.3768,46.7306],[6.379,46.7304],[6.3797,46.7308],[6.3811,46.7306],[6.3826,46.731],[6.3839,46.731],[6.3849,46.7314],[6.3851,46.7316],[6.3848,46.7317],[6.3894,46.7351],[6.392,46.739],[6.3912,46.7411],[6.3902,46.7422],[6.3885,46.7424],[6.3884,46.7433],[6.3952,46.7485],[6.3999,46.7497],[6.4004,46.7506],[6.4009,46.7509],[6.4034,46.75],[6.4193,46.7531],[6.4246,46.7545],[6.4303,46.7568],[6.4382,46.7618],[6.4394,46.7628],[6.4379,46.7631],[6.4384,46.7667],[6.4489,46.7733],[6.4523,46.7742],[6.4517,46.7786],[6.4584,46.7888],[6.4348,46.8015],[6.431,46.8124],[6.4408,46.8158],[6.4395,46.824],[6.4432,46.8327],[6.46,46.8513],[6.4654,46.8508],[6.4665,46.8478],[6.4707,46.8471],[6.4821,46.8466],[6.5044,46.8524],[6.5143,46.8548],[6.5233,46.8566],[6.5253,46.8579],[6.526,46.858],[6.5273,46.8587],[6.5278,46.8587],[6.5287,46.8591],[6.5297,46.8599],[6.5306,46.8604],[6.5331,46.8629],[6.5378,46.8668],[6.5395,46.867],[6.5452,46.8686],[6.5463,46.8692],[6.5496,46.8718],[6.5514,46.8728],[6.5532,46.8733],[6.5549,46.8734],[6.5553,46.8731],[6.5563,46.8732],[6.5571,46.8737],[6.5599,46.8741],[6.5628,46.8755],[6.5649,46.8763],[6.5726,46.8797],[6.5876,46.8843],[6.5934,46.8844],[6.597,46.8835],[6.5986,46.8836],[6.6065,46.8867],[6.6146,46.8889],[6.6271,46.8887],[6.6455,46.9062],[6.6469,46.9103],[6.6472,46.9107],[6.654,46.9134],[6.6548,46.9141],[6.6685,46.9206],[6.6799,46.924],[6.684,46.9256],[6.7156,46.9348],[6.7208,46.9361],[6.7209,46.9353],[6.7206,46.9348],[6.7204,46.9348],[6.7202,46.9338],[6.7204,46.9333],[6.7219,46.9317],[6.7237,46.9311],[6.7209,46.9258],[6.7175,46.9159],[6.7178,46.9117],[6.7167,46.9061],[6.721,46.9054],[6.7267,46.9019],[6.7401,46.8948],[6.738,46.8846],[6.7386,46.8844],[6.74,46.8844],[6.7405,46.8838],[6.7407,46.8833],[6.7402,46.8827],[6.7399,46.8821],[6.7394,46.8789],[6.739,46.8785],[6.7379,46.8766],[6.7368,46.8738],[6.7361,46.8732],[6.7357,46.8726],[6.7339,46.8716],[6.7332,46.8694],[6.7325,46.8683],[6.7329,46.8683],[6.7334,46.8679],[6.7346,46.8691],[6.74,46.872],[6.7406,46.8718],[6.7506,46.8711],[6.7519,46.8706],[6.7553,46.8705],[6.7798,46.853]],[[6.971,46.8266],[6.9711,46.826],[6.9712,46.826],[6.972,46.8266],[6.971,46.8274],[6.9708,46.8271],[6.971,46.8266]],[[6.1668,46.3431],[6.1713,46.3406],[6.1715,46.341],[6.1724,46.3412],[6.1726,46.3416],[6.1727,46.342],[6.1724,46.3424],[6.1725,46.3426],[6.1722,46.3432],[6.1722,46.3444],[6.1736,46.3452],[6.1743,46.3463],[6.1743,46.3466],[6.1745,46.3469],[6.1766,46.3458],[6.1766,46.3456],[6.1769,46.3454],[6.1808,46.3438],[6.1811,46.3442],[6.1817,46.3437],[6.1844,46.3458],[6.1836,46.3462],[6.1817,46.3477],[6.1808,46.348],[6.1756,46.3513],[6.1752,46.3511],[6.1747,46.3505],[6.1747,46.3498],[6.174,46.3489],[6.1718,46.3498],[6.1668,46.3431]],[[6.773,46.7514],[6.7702,46.7473],[6.7694,46.7455],[6.7683,46.7445],[6.7666,46.7436],[6.7653,46.743],[6.7596,46.7391],[6.7596,46.7386],[6.759,46.7375],[6.7541,46.737],[6.7527,46.7366],[6.7522,46.7359],[6.7516,46.7357],[6.7513,46.7351],[6.7513,46.7347],[6.7508,46.7344],[6.7504,46.7335],[6.7487,46.7318],[6.7495,46.7301],[6.7498,46.73],[6.7506,46.729],[6.7517,46.7282],[6.7559,46.7269],[6.7578,46.7261],[6.7588,46.7255],[6.7593,46.7249],[6.7603,46.7231],[6.7586,46.722],[6.7593,46.7212],[6.7607,46.7204],[6.7605,46.7201],[6.761,46.7199],[6.7606,46.7195],[6.7618,46.7188],[6.7613,46.7186],[6.7618,46.7182],[6.762,46.7182],[6.7624,46.7174],[6.7663,46.7191],[6.7666,46.7188],[6.7707,46.7207],[6.7762,46.7253],[6.7774,46.7261],[6.7763,46.7267],[6.7767,46.7269],[6.7773,46.7276],[6.7768,46.7287],[6.7776,46.7298],[6.78,46.7316],[6.7821,46.7325],[6.7827,46.733],[6.7828,46.7338],[6.783,46.7342],[6.7844,46.7354],[6.7833,46.736],[6.7843,46.7371],[6.7845,46.7376],[6.7841,46.7388],[6.7847,46.7415],[6.7845,46.7423],[6.7849,46.7458],[6.7842,46.7458],[6.7852,46.7463],[6.7852,46.7465],[6.7857,46.7473],[6.7863,46.7476],[6.7845,46.7486],[6.7829,46.7488],[6.7788,46.7512],[6.7786,46.7505],[6.7761,46.7494],[6.773,46.7514]],[[6.8062,46.7269],[6.8096,46.7274],[6.8105,46.7279],[6.8113,46.7279],[6.8118,46.7285],[6.8168,46.7324],[6.8175,46.7333],[6.8217,46.7343],[6.8247,46.7347],[6.8273,46.7347],[6.8284,46.7355],[6.8303,46.7347],[6.8316,46.7351],[6.8326,46.735],[6.8337,46.734],[6.8352,46.7334],[6.8361,46.7335],[6.8367,46.7333],[6.8369,46.733],[6.8379,46.7328],[6.8432,46.7298],[6.8438,46.7291],[6.8442,46.7292],[6.8463,46.7275],[6.8472,46.7279],[6.852,46.7264],[6.8572,46.726],[6.8598,46.7255],[6.8597,46.7254],[6.8619,46.7246],[6.8627,46.7258],[6.8645,46.7252],[6.8654,46.7261],[6.8672,46.7271],[6.8679,46.7284],[6.8672,46.7285],[6.8666,46.7287],[6.8664,46.729],[6.8654,46.7293],[6.8668,46.7309],[6.8655,46.7317],[6.8665,46.7329],[6.8662,46.733],[6.8821,46.7498],[6.8801,46.7518],[6.8756,46.7539],[6.8765,46.7549],[6.8764,46.7549],[6.877,46.7559],[6.8745,46.7573],[6.8743,46.7572],[6.8726,46.7576],[6.8693,46.7587],[6.8688,46.7594],[6.8677,46.7601],[6.8673,46.7601],[6.8668,46.761],[6.8654,46.7626],[6.864,46.7627],[6.8638,46.7631],[6.8635,46.7631],[6.8634,46.7635],[6.863,46.7636],[6.8628,46.7636],[6.8629,46.7632],[6.8625,46.763],[6.8623,46.7627],[6.8606,46.7629],[6.8603,46.7623],[6.8591,46.7621],[6.8589,46.7619],[6.8592,46.7618],[6.8593,46.7615],[6.8588,46.7615],[6.8577,46.7627],[6.858,46.7631],[6.8596,46.7638],[6.8597,46.7646],[6.8602,46.7664],[6.859,46.7668],[6.857,46.7679],[6.8562,46.769],[6.8565,46.7696],[6.8562,46.7706],[6.8545,46.7717],[6.8544,46.772],[6.8516,46.7723],[6.8518,46.7726],[6.8519,46.7735],[6.8525,46.7742],[6.8531,46.7747],[6.8509,46.7736],[6.8504,46.7731],[6.8489,46.7731],[6.8476,46.7732],[6.8488,46.7749],[6.8476,46.7749],[6.8469,46.7737],[6.847,46.7736],[6.8465,46.7723],[6.8462,46.7724],[6.8456,46.7717],[6.8462,46.7713],[6.8482,46.7715],[6.8482,46.7712],[6.8488,46.7711],[6.8455,46.7677],[6.8436,46.7666],[6.8455,46.7659],[6.8438,46.7645],[6.8421,46.7635],[6.8414,46.7632],[6.8413,46.7633],[6.8406,46.7627],[6.8366,46.761],[6.8318,46.7573],[6.8293,46.7561],[6.8286,46.7549],[6.8282,46.7545],[6.8303,46.754],[6.8304,46.7538],[6.8296,46.7533],[6.8295,46.753],[6.8291,46.7531],[6.8286,46.7525],[6.829,46.7524],[6.8286,46.7518],[6.8265,46.7523],[6.8263,46.7513],[6.8265,46.7509],[6.8273,46.7506],[6.8268,46.7502],[6.8236,46.7481],[6.8243,46.7474],[6.8238,46.7471],[6.8231,46.7469],[6.8226,46.7469],[6.8222,46.7471],[6.8214,46.7458],[6.8213,46.7448],[6.8211,46.7444],[6.8196,46.7433],[6.8181,46.7423],[6.8177,46.7422],[6.8169,46.7414],[6.815,46.7405],[6.8155,46.7404],[6.8163,46.7387],[6.8163,46.7383],[6.8158,46.7381],[6.8153,46.7381],[6.8151,46.7379],[6.8153,46.7376],[6.8148,46.7375],[6.8146,46.7373],[6.812,46.7375],[6.8117,46.7377],[6.8114,46.7374],[6.8105,46.7374],[6.8093,46.7365],[6.8089,46.7364],[6.8087,46.7365],[6.808,46.7364],[6.8078,46.7362],[6.8079,46.736],[6.8077,46.7358],[6.8063,46.7357],[6.8059,46.7354],[6.804,46.7369],[6.8034,46.7365],[6.8027,46.7359],[6.8026,46.736],[6.8013,46.7351],[6.8005,46.7348],[6.8003,46.735],[6.7981,46.7341],[6.7971,46.7345],[6.7967,46.7352],[6.7966,46.7363],[6.7956,46.7363],[6.7955,46.7358],[6.795,46.735],[6.7942,46.7356],[6.7935,46.7357],[6.7933,46.7355],[6.7932,46.7346],[6.7928,46.7338],[6.7921,46.7333],[6.7914,46.7331],[6.7909,46.7327],[6.7917,46.7324],[6.7905,46.7313],[6.7911,46.731],[6.7895,46.7298],[6.7879,46.7294],[6.7881,46.7286],[6.7887,46.7284],[6.7885,46.728],[6.7912,46.7271],[6.7922,46.7264],[6.792,46.726],[6.793,46.7256],[6.7936,46.7257],[6.7935,46.7259],[6.7942,46.7261],[6.7955,46.7259],[6.7958,46.7263],[6.7973,46.7262],[6.7985,46.7264],[6.799,46.7262],[6.7998,46.7268],[6.8018,46.7262],[6.8045,46.7274],[6.8062,46.7269]]]]}}