{"type":"Feature","bbox":[6.7504,45.8761,8.4769,46.6557],"properties":{"iso":"CH","code":"VS","name":"Valais","name_de":"Kanton Wallis","key":"CH-VS"},"geometry":{"type":"Polygon","coordinates":[[[7.8496,45.9397],[7.8484,45.9381],[7.8453,45.9278],[7.8461,45.9226],[7.8437,45.9192],[7.8312,45.9145],[7.8254,45.9147],[7.8076,45.9185],[7.7801,45.9181],[7.732,45.9304],[7.7222,45.9296],[7.7146,45.9271],[7.7063,45.9257],[7.694,45.9287],[7.6925,45.9312],[7.6737,45.9503],[7.6587,45.96],[7.643,45.9663],[7.5411,45.9841],[7.5244,45.9781],[7.5147,45.9667],[7.5037,45.9567],[7.4827,45.9549],[7.453,45.9459],[7.3938,45.9157],[7.3618,45.9078],[7.2867,45.9134],[7.2735,45.9103],[7.2454,45.8981],[7.1837,45.8805],[7.1535,45.8765],[7.1209,45.8761],[7.0902,45.8805],[7.0669,45.8902],[7.0221,45.9253],[7.0152,45.9333],[7.0098,45.9434],[7.0028,45.9617],[6.9913,45.9825],[6.9877,45.9931],[6.9828,45.9954],[6.9151,46.0486],[6.8924,46.0556],[6.884,46.0532],[6.8769,46.0481],[6.8692,46.0441],[6.8597,46.045],[6.8509,46.0496],[6.8503,46.0527],[6.8524,46.0569],[6.852,46.0647],[6.8534,46.0657],[6.8531,46.0761],[6.8513,46.086],[6.8486,46.085],[6.8682,46.1047],[6.8692,46.1123],[6.8539,46.1226],[6.7743,46.1348],[6.7657,46.1516],[6.7749,46.1859],[6.7922,46.2217],[6.8277,46.2695],[6.8049,46.2966],[6.7695,46.3227],[6.7504,46.3455],[6.7557,46.3571],[6.7821,46.3785],[6.7892,46.3952],[6.7881,46.405],[6.807,46.4042],[6.8546,46.3977],[6.8666,46.4027],[6.8733,46.3955],[6.8881,46.3833],[6.8945,46.3748],[6.8943,46.3696],[6.8919,46.363],[6.8908,46.3555],[6.8945,46.3481],[6.9069,46.3422],[6.9203,46.3402],[6.931,46.3343],[6.9355,46.3167],[6.9401,46.3076],[7.0037,46.2309],[7.0261,46.21],[7.0335,46.2002],[7.0449,46.1899],[7.0832,46.2049],[7.1161,46.2198],[7.1396,46.2401],[7.1512,46.2436],[7.1702,46.257],[7.1842,46.2706],[7.196,46.2849],[7.1997,46.2925],[7.198,46.3057],[7.1985,46.3089],[7.2278,46.3314],[7.2626,46.3457],[7.2703,46.3547],[7.2711,46.3612],[7.2725,46.3626],[7.2759,46.364],[7.3083,46.3716],[7.3143,46.3716],[7.3171,46.3694],[7.3177,46.3623],[7.3166,46.3542],[7.3177,46.3519],[7.3296,46.3485],[7.3673,46.3572],[7.3901,46.3682],[7.3997,46.3762],[7.4042,46.3786],[7.4186,46.3807],[7.4623,46.381],[7.4947,46.374],[7.5009,46.3741],[7.5096,46.3757],[7.5453,46.3862],[7.5599,46.3952],[7.5469,46.4003],[7.541,46.4056],[7.5639,46.4155],[7.5978,46.4226],[7.6116,46.4309],[7.6137,46.433],[7.6165,46.4397],[7.6244,46.4434],[7.6452,46.4414],[7.7113,46.4194],[7.7231,46.4202],[7.8449,46.4813],[7.8566,46.4788],[7.8717,46.4789],[7.8808,46.48],[7.9019,46.4856],[7.9385,46.5035],[7.9661,46.5157],[7.9729,46.5236],[7.9728,46.5268],[7.9714,46.5302],[7.965,46.5386],[7.9652,46.5399],[7.9704,46.5435],[8.0031,46.5574],[8.0288,46.5584],[8.1142,46.5472],[8.1227,46.5421],[8.1467,46.5348],[8.1734,46.5328],[8.1748,46.5322],[8.1761,46.5246],[8.1793,46.5228],[8.1844,46.5218],[8.1903,46.5219],[8.2425,46.5293],[8.2664,46.5352],[8.3124,46.553],[8.323,46.5593],[8.3387,46.5663],[8.3491,46.5735],[8.3542,46.5785],[8.3584,46.5842],[8.3635,46.6061],[8.3695,46.6218],[8.3736,46.6297],[8.3795,46.6381],[8.3986,46.6545],[8.4094,46.6557],[8.4177,46.6529],[8.42,46.6503],[8.4217,46.6459],[8.4212,46.6374],[8.4191,46.6251],[8.4156,46.6142],[8.4085,46.598],[8.4076,46.5932],[8.4088,46.5874],[8.4116,46.5812],[8.4222,46.563],[8.4374,46.5466],[8.4769,46.5318],[8.4476,46.5046],[8.431,46.497],[8.408,46.495],[8.3992,46.4932],[8.396,46.4909],[8.3955,46.4885],[8.397,46.4846],[8.3964,46.4824],[8.3913,46.4757],[8.3871,46.4685],[8.3846,46.4621],[8.3859,46.4502],[8.3434,46.4439],[8.3163,46.4337],[8.295,46.418],[8.2866,46.4054],[8.2904,46.4011],[8.297,46.3976],[8.2975,46.3875],[8.2915,46.3784],[8.2815,46.3701],[8.2701,46.364],[8.2417,46.3541],[8.1926,46.3092],[8.1719,46.2992],[8.1285,46.2925],[8.1069,46.2855],[8.0873,46.2718],[8.0773,46.262],[8.0731,46.2536],[8.0766,46.2497],[8.0999,46.2356],[8.1295,46.196],[8.1323,46.1594],[8.1106,46.127],[8.0669,46.1006],[8.056,46.0981],[8.0354,46.0965],[8.0253,46.0911],[8.0182,46.0809],[8.016,46.0694],[8.0159,46.0582],[8.0107,46.0297],[7.9991,46.0128],[7.9984,46.0106],[7.9858,45.9993],[7.9787,45.9952],[7.9691,45.9931],[7.8982,45.9819],[7.8838,45.9739],[7.8729,45.9594],[7.8702,45.9404],[7.8496,45.9397]]]}}