{"type":"Feature","bbox":[8.3577,47.1594,8.985,47.6944],"properties":{"iso":"CH","code":"ZH","name":"Zürich","name_de":"Kanton Zürich","source":"swisstopo","key":"CH-ZH"},"geometry":{"type":"Polygon","coordinates":[[[8.9435,47.3759],[8.9448,47.375],[8.9455,47.3747],[8.9466,47.375],[8.9474,47.375],[8.9476,47.3748],[8.9483,47.3747],[8.949,47.3739],[8.9492,47.3732],[8.9495,47.3729],[8.9504,47.3725],[8.9512,47.3717],[8.9516,47.3707],[8.9515,47.3701],[8.9519,47.3688],[8.9518,47.3684],[8.9524,47.3677],[8.9524,47.3674],[8.9523,47.3673],[8.9524,47.3669],[8.9534,47.3656],[8.9534,47.3654],[8.9547,47.3641],[8.9546,47.364],[8.9551,47.3627],[8.9557,47.3617],[8.9557,47.3615],[8.9561,47.3612],[8.956,47.3608],[8.9569,47.36],[8.957,47.3597],[8.958,47.3591],[8.9579,47.3586],[8.9585,47.3583],[8.9593,47.3577],[8.9598,47.3563],[8.9602,47.3559],[8.9606,47.3557],[8.96,47.3552],[8.9598,47.3543],[8.9603,47.3537],[8.9609,47.354],[8.9634,47.3545],[8.9656,47.3544],[8.9663,47.3542],[8.967,47.3543],[8.9689,47.3537],[8.9692,47.3529],[8.9698,47.3525],[8.9709,47.3523],[8.9718,47.3525],[8.9716,47.3519],[8.9723,47.3504],[8.9744,47.3474],[8.9736,47.3468],[8.9733,47.3462],[8.9738,47.3449],[8.9739,47.3428],[8.9742,47.3422],[8.974,47.3414],[8.9731,47.3399],[8.9747,47.3394],[8.9774,47.3383],[8.9793,47.3379],[8.9789,47.3356],[8.9791,47.3351],[8.9785,47.3339],[8.9773,47.3326],[8.9771,47.3305],[8.9767,47.3295],[8.9767,47.3293],[8.9772,47.3282],[8.9773,47.3272],[8.9776,47.3268],[8.9782,47.3266],[8.9798,47.3255],[8.9797,47.3241],[8.9809,47.3227],[8.9841,47.3206],[8.985,47.3194],[8.9842,47.3188],[8.9822,47.3165],[8.9817,47.3151],[8.9802,47.3134],[8.9778,47.311],[8.9776,47.3105],[8.9763,47.3087],[8.9753,47.3078],[8.975,47.307],[8.967,47.3058],[8.9644,47.3063],[8.9608,47.3057],[8.9576,47.3048],[8.9565,47.3043],[8.9553,47.3031],[8.9548,47.3018],[8.9531,47.2988],[8.9526,47.299],[8.9524,47.2989],[8.9519,47.2978],[8.9519,47.2965],[8.9509,47.2953],[8.949,47.2944],[8.9484,47.2933],[8.9489,47.2922],[8.9475,47.2918],[8.9472,47.2916],[8.9467,47.2916],[8.9464,47.2914],[8.9456,47.2912],[8.9456,47.2911],[8.9452,47.2911],[8.9453,47.2909],[8.9449,47.2909],[8.9447,47.2908],[8.9443,47.2909],[8.9436,47.2908],[8.943,47.2913],[8.9423,47.291],[8.9415,47.2903],[8.9408,47.29],[8.9384,47.2896],[8.9379,47.2893],[8.9371,47.2892],[8.9368,47.2893],[8.9365,47.2891],[8.9361,47.2892],[8.9355,47.2892],[8.9348,47.2886],[8.9337,47.2883],[8.9344,47.2878],[8.9352,47.2878],[8.9365,47.2872],[8.9369,47.2866],[8.9376,47.2861],[8.9381,47.2855],[8.9406,47.2844],[8.9404,47.2837],[8.9409,47.2836],[8.9412,47.2834],[8.9412,47.2832],[8.9417,47.2827],[8.9417,47.2823],[8.942,47.2821],[8.9418,47.2819],[8.9419,47.2818],[8.9417,47.2805],[8.9414,47.2805],[8.9412,47.2801],[8.9414,47.2799],[8.9426,47.2795],[8.9436,47.2796],[8.9456,47.282],[8.9475,47.2818],[8.9481,47.2812],[8.9488,47.2809],[8.9487,47.2805],[8.9481,47.2803],[8.9482,47.2797],[8.9477,47.279],[8.948,47.2778],[8.9476,47.2767],[8.9477,47.2761],[8.9474,47.2759],[8.9475,47.2755],[8.9471,47.2749],[8.9461,47.2744],[8.9449,47.2742],[8.9448,47.2739],[8.9439,47.2733],[8.9437,47.273],[8.9424,47.2724],[8.9412,47.2722],[8.9409,47.2717],[8.9426,47.2705],[8.9427,47.2699],[8.9445,47.2695],[8.9436,47.2684],[8.9431,47.268],[8.9429,47.2674],[8.9403,47.2673],[8.9406,47.2665],[8.9403,47.2664],[8.9401,47.266],[8.9409,47.266],[8.9407,47.2655],[8.9405,47.2657],[8.9402,47.2653],[8.9377,47.2643],[8.9377,47.2636],[8.9382,47.2636],[8.9381,47.2634],[8.9376,47.2633],[8.9375,47.2626],[8.937,47.2625],[8.937,47.2622],[8.9359,47.2619],[8.9371,47.2616],[8.9371,47.2612],[8.9365,47.261],[8.9358,47.2603],[8.9354,47.2604],[8.9349,47.2603],[8.9341,47.26],[8.9331,47.2589],[8.9317,47.2591],[8.9305,47.2597],[8.9299,47.2597],[8.9291,47.26],[8.9286,47.2596],[8.9284,47.2589],[8.9249,47.2583],[8.922,47.2573],[8.9202,47.2571],[8.9205,47.2568],[8.9174,47.2562],[8.9173,47.2563],[8.917,47.2563],[8.9133,47.2552],[8.9092,47.2545],[8.9086,47.2544],[8.908,47.2552],[8.9088,47.2555],[8.9083,47.2562],[8.9083,47.2567],[8.9051,47.2557],[8.8997,47.2552],[8.899,47.255],[8.8991,47.2547],[8.8977,47.2542],[8.8973,47.2542],[8.8972,47.2543],[8.8951,47.2542],[8.8917,47.2534],[8.8846,47.2527],[8.879,47.2524],[8.8781,47.2522],[8.8749,47.2522],[8.8735,47.252],[8.8734,47.2509],[8.8739,47.2497],[8.8738,47.2487],[8.8739,47.2481],[8.8736,47.248],[8.8738,47.2477],[8.8706,47.2469],[8.8703,47.2467],[8.8709,47.2466],[8.871,47.2459],[8.8705,47.2455],[8.8698,47.245],[8.8669,47.244],[8.8666,47.244],[8.8663,47.2449],[8.8621,47.244],[8.8607,47.2433],[8.8603,47.2435],[8.86,47.2436],[8.8599,47.2436],[8.8601,47.2438],[8.86,47.244],[8.8593,47.2443],[8.8587,47.2445],[8.8578,47.2444],[8.8569,47.245],[8.8563,47.2448],[8.8556,47.2444],[8.8552,47.2444],[8.8547,47.2451],[8.8542,47.2454],[8.8544,47.246],[8.8534,47.2466],[8.8527,47.2466],[8.8525,47.2469],[8.853,47.2478],[8.8528,47.2485],[8.8529,47.2493],[8.8519,47.2493],[8.8521,47.2508],[8.8517,47.2511],[8.8507,47.2506],[8.8469,47.2496],[8.847,47.2495],[8.8447,47.2486],[8.845,47.2479],[8.8447,47.2473],[8.8447,47.247],[8.8377,47.247],[8.8374,47.2472],[8.8373,47.2477],[8.8369,47.248],[8.8356,47.2478],[8.8352,47.249],[8.8347,47.2494],[8.834,47.2494],[8.8335,47.2491],[8.8331,47.2495],[8.832,47.2498],[8.832,47.25],[8.8305,47.25],[8.8301,47.2502],[8.8295,47.2499],[8.829,47.2499],[8.8283,47.2505],[8.8279,47.2504],[8.8272,47.2513],[8.8268,47.2515],[8.8216,47.2508],[8.8206,47.2503],[8.8185,47.2498],[8.8167,47.2497],[8.8158,47.249],[8.813,47.2488],[8.8119,47.2484],[8.809,47.248],[8.8086,47.2477],[8.8027,47.2467],[8.8025,47.2467],[8.8028,47.2454],[8.8026,47.245],[8.8023,47.2448],[8.8019,47.245],[8.8006,47.2445],[8.8004,47.2437],[8.7996,47.2431],[8.7991,47.2431],[8.7993,47.2421],[8.7965,47.2425],[8.7963,47.2422],[8.7965,47.2421],[8.7963,47.2408],[8.7959,47.2402],[8.796,47.2401],[8.7957,47.24],[8.7957,47.2391],[8.8086,47.2201],[8.7934,47.2226],[8.7772,47.2188],[8.7405,47.2116],[8.717,47.2035],[8.7131,47.203],[8.7109,47.201],[8.7107,47.2009],[8.7104,47.201],[8.7101,47.2004],[8.7083,47.2009],[8.707,47.2016],[8.7061,47.2023],[8.7051,47.2025],[8.7041,47.2023],[8.7037,47.2017],[8.7031,47.2017],[8.7029,47.2015],[8.703,47.2009],[8.7028,47.2007],[8.703,47.2003],[8.7028,47.1997],[8.703,47.1994],[8.7034,47.1991],[8.7029,47.1987],[8.7029,47.1985],[8.7026,47.1981],[8.7015,47.1978],[8.701,47.1974],[8.7006,47.1975],[8.6996,47.197],[8.6981,47.1968],[8.6979,47.1966],[8.6959,47.1967],[8.6942,47.1964],[8.6876,47.1885],[8.6856,47.1865],[8.6835,47.1859],[8.6822,47.185],[8.6811,47.1841],[8.6813,47.1816],[8.6804,47.1799],[8.6804,47.179],[8.6804,47.1787],[8.6812,47.1779],[8.6816,47.177],[8.6821,47.1765],[8.6822,47.1759],[8.6825,47.1757],[8.6827,47.1751],[8.6824,47.1746],[8.6824,47.1743],[8.6831,47.1735],[8.6859,47.1715],[8.6897,47.1701],[8.6914,47.169],[8.6912,47.1682],[8.6917,47.1668],[8.6921,47.1667],[8.692,47.1645],[8.6922,47.1634],[8.6888,47.1627],[8.6871,47.1626],[8.6847,47.1626],[8.6824,47.1621],[8.6803,47.162],[8.6777,47.161],[8.6764,47.1607],[8.6761,47.1601],[8.675,47.1594],[8.6726,47.1595],[8.672,47.1597],[8.6673,47.1595],[8.6652,47.1598],[8.6635,47.1605],[8.6623,47.1605],[8.6614,47.1608],[8.6612,47.1609],[8.661,47.1624],[8.6604,47.1639],[8.6608,47.1643],[8.6607,47.1645],[8.661,47.1654],[8.6608,47.1666],[8.6609,47.1674],[8.6612,47.168],[8.6609,47.1687],[8.6608,47.1687],[8.6604,47.1693],[8.6607,47.1703],[8.6585,47.1706],[8.6565,47.1699],[8.6557,47.1699],[8.6549,47.17],[8.6529,47.171],[8.6523,47.171],[8.6503,47.1703],[8.6459,47.1698],[8.6428,47.169],[8.6417,47.1689],[8.6399,47.1693],[8.6395,47.1695],[8.6394,47.17],[8.6398,47.1711],[8.6396,47.1714],[8.6391,47.1715],[8.6366,47.1717],[8.6338,47.1716],[8.631,47.1722],[8.6279,47.1721],[8.6258,47.1724],[8.6244,47.1729],[8.6239,47.1736],[8.624,47.1747],[8.6246,47.1753],[8.6252,47.1766],[8.627,47.1778],[8.628,47.1789],[8.6281,47.1795],[8.6277,47.1799],[8.6261,47.1807],[8.6256,47.1822],[8.6206,47.1877],[8.6205,47.1887],[8.621,47.1899],[8.6209,47.1903],[8.619,47.1912],[8.6174,47.1923],[8.6173,47.1928],[8.6181,47.1939],[8.6181,47.1946],[8.6171,47.1956],[8.6163,47.1968],[8.6156,47.1989],[8.6146,47.1999],[8.6134,47.2006],[8.613,47.2012],[8.6129,47.2019],[8.6125,47.2022],[8.6108,47.2027],[8.6102,47.203],[8.6097,47.2034],[8.6093,47.2041],[8.6089,47.2044],[8.6061,47.2052],[8.6051,47.2049],[8.6044,47.2041],[8.6031,47.203],[8.602,47.2028],[8.6,47.2016],[8.5994,47.2014],[8.5986,47.2016],[8.5982,47.202],[8.5979,47.2027],[8.5974,47.2029],[8.5968,47.2037],[8.5963,47.2049],[8.5964,47.2053],[8.5966,47.2055],[8.597,47.2055],[8.5974,47.2057],[8.5973,47.2061],[8.5966,47.2068],[8.5967,47.2072],[8.5976,47.2083],[8.5977,47.2089],[8.5974,47.2093],[8.5961,47.2101],[8.5953,47.2112],[8.5945,47.2119],[8.5939,47.2121],[8.5932,47.2121],[8.5914,47.2115],[8.59,47.2118],[8.5889,47.2125],[8.5882,47.2126],[8.5875,47.2124],[8.5862,47.2112],[8.5851,47.2107],[8.5832,47.2105],[8.5824,47.2108],[8.582,47.2126],[8.5812,47.2139],[8.581,47.2146],[8.5814,47.2153],[8.5834,47.2169],[8.5834,47.2175],[8.5828,47.2179],[8.5821,47.2179],[8.5804,47.2175],[8.5792,47.2176],[8.5781,47.2179],[8.5775,47.2182],[8.5772,47.2187],[8.5767,47.2187],[8.5768,47.2179],[8.5766,47.2175],[8.5746,47.217],[8.5743,47.2171],[8.5744,47.2176],[8.5729,47.2184],[8.5671,47.2185],[8.5663,47.219],[8.5642,47.2196],[8.5604,47.2195],[8.5588,47.2203],[8.5582,47.2213],[8.5577,47.2216],[8.5538,47.2232],[8.553,47.2217],[8.5487,47.222],[8.547,47.222],[8.5459,47.2214],[8.5452,47.2215],[8.5451,47.2217],[8.5444,47.2219],[8.5432,47.2221],[8.5393,47.2231],[8.5391,47.2227],[8.5385,47.2224],[8.5367,47.2218],[8.5367,47.2212],[8.5364,47.2206],[8.5336,47.2215],[8.5325,47.2221],[8.5326,47.2214],[8.5325,47.2206],[8.5319,47.2201],[8.5317,47.2191],[8.5319,47.2183],[8.5311,47.2176],[8.5301,47.2178],[8.53,47.2181],[8.5288,47.2186],[8.5267,47.2187],[8.5259,47.2186],[8.5258,47.2189],[8.5254,47.2187],[8.5251,47.2188],[8.5243,47.2187],[8.5237,47.2189],[8.5232,47.2188],[8.5231,47.2187],[8.5229,47.2189],[8.522,47.2189],[8.5218,47.2193],[8.5214,47.2195],[8.5217,47.2197],[8.5217,47.22],[8.5212,47.2202],[8.5206,47.2193],[8.5175,47.2196],[8.5126,47.2194],[8.5124,47.2187],[8.5128,47.2171],[8.5126,47.2166],[8.5128,47.2165],[8.5123,47.2155],[8.5104,47.2157],[8.5094,47.215],[8.5086,47.2149],[8.5073,47.2144],[8.5051,47.2148],[8.5059,47.2139],[8.5039,47.2126],[8.5032,47.2124],[8.5033,47.2122],[8.5013,47.2118],[8.4984,47.2121],[8.4981,47.2123],[8.4954,47.2119],[8.4931,47.2119],[8.4918,47.2114],[8.4893,47.2109],[8.4855,47.209],[8.4838,47.2084],[8.4837,47.2085],[8.4834,47.2088],[8.48,47.2086],[8.4772,47.2093],[8.4762,47.21],[8.4755,47.2096],[8.4752,47.2089],[8.4733,47.2085],[8.4727,47.2096],[8.473,47.2097],[8.4729,47.2102],[8.4738,47.2106],[8.4723,47.2118],[8.4715,47.212],[8.4704,47.2119],[8.4701,47.2134],[8.4689,47.2132],[8.4683,47.213],[8.4669,47.2143],[8.4655,47.214],[8.4635,47.2139],[8.462,47.2136],[8.4614,47.2136],[8.4604,47.2153],[8.4587,47.217],[8.4578,47.2173],[8.4573,47.2177],[8.4567,47.2186],[8.456,47.2184],[8.4556,47.2185],[8.453,47.2178],[8.4526,47.2179],[8.4516,47.2184],[8.453,47.2186],[8.4521,47.2196],[8.4503,47.2195],[8.4503,47.2202],[8.4501,47.2201],[8.4478,47.22],[8.4477,47.2211],[8.4464,47.2221],[8.4466,47.2234],[8.4446,47.2231],[8.4438,47.2226],[8.4432,47.2231],[8.4429,47.2236],[8.4426,47.2236],[8.4411,47.2252],[8.44,47.2243],[8.4391,47.2239],[8.4372,47.2237],[8.4361,47.2238],[8.4355,47.2237],[8.4323,47.2241],[8.4298,47.2249],[8.4256,47.2238],[8.4217,47.2233],[8.4214,47.2247],[8.4209,47.2256],[8.42,47.2258],[8.4192,47.2263],[8.4185,47.2262],[8.4182,47.2266],[8.4184,47.227],[8.418,47.2284],[8.4172,47.229],[8.4174,47.2294],[8.417,47.2307],[8.4168,47.2321],[8.417,47.2338],[8.4166,47.2345],[8.4168,47.2353],[8.4162,47.2361],[8.4165,47.237],[8.4152,47.2384],[8.4145,47.2387],[8.4142,47.2392],[8.4143,47.2394],[8.4147,47.2397],[8.4156,47.2401],[8.4165,47.2411],[8.4165,47.2413],[8.416,47.2417],[8.4158,47.2423],[8.4145,47.2428],[8.4134,47.2444],[8.4131,47.2452],[8.413,47.2461],[8.4123,47.247],[8.4111,47.2479],[8.4101,47.2484],[8.4076,47.2507],[8.4038,47.2535],[8.4032,47.2541],[8.4028,47.2549],[8.4026,47.2557],[8.4027,47.2565],[8.4043,47.259],[8.4045,47.2598],[8.4045,47.2605],[8.4041,47.2613],[8.4036,47.2621],[8.4011,47.2639],[8.4006,47.2647],[8.4005,47.2653],[8.4006,47.266],[8.4023,47.2704],[8.4024,47.2713],[8.4022,47.2723],[8.4017,47.2731],[8.4008,47.2739],[8.3965,47.2767],[8.395,47.2781],[8.3942,47.2797],[8.3928,47.2842],[8.3911,47.2874],[8.3904,47.2884],[8.3886,47.29],[8.39,47.2905],[8.3899,47.2907],[8.3905,47.2906],[8.3913,47.291],[8.3927,47.2909],[8.3941,47.2902],[8.3947,47.2896],[8.3945,47.2895],[8.3965,47.2885],[8.3972,47.2879],[8.4015,47.2895],[8.4041,47.2908],[8.4036,47.2918],[8.407,47.2925],[8.4131,47.293],[8.4155,47.2939],[8.4172,47.2939],[8.4188,47.2946],[8.4193,47.2952],[8.419,47.2954],[8.4202,47.2957],[8.42,47.2966],[8.4204,47.2971],[8.4216,47.2978],[8.4217,47.298],[8.4222,47.2978],[8.4232,47.2984],[8.4246,47.2989],[8.4253,47.2993],[8.4268,47.2997],[8.428,47.3004],[8.4291,47.3007],[8.4286,47.3012],[8.4294,47.3022],[8.4301,47.3037],[8.4303,47.3037],[8.4308,47.3052],[8.4297,47.306],[8.4295,47.3069],[8.4293,47.3072],[8.431,47.3078],[8.4321,47.3084],[8.4322,47.3093],[8.432,47.3106],[8.4318,47.3108],[8.4321,47.3115],[8.4327,47.3122],[8.436,47.3142],[8.4362,47.3147],[8.4362,47.3152],[8.4371,47.3153],[8.4384,47.3152],[8.4413,47.3158],[8.4411,47.3167],[8.4405,47.3176],[8.4405,47.3178],[8.4424,47.3184],[8.4458,47.32],[8.4467,47.3216],[8.4477,47.3219],[8.4484,47.3228],[8.4481,47.323],[8.4492,47.3234],[8.4486,47.3243],[8.4493,47.3248],[8.45,47.3255],[8.4485,47.326],[8.4524,47.3287],[8.4516,47.3291],[8.4547,47.333],[8.4551,47.3341],[8.4541,47.3348],[8.4532,47.3339],[8.453,47.3333],[8.451,47.3336],[8.4509,47.3326],[8.45,47.3311],[8.4499,47.3305],[8.4462,47.3298],[8.445,47.3294],[8.4444,47.3289],[8.4435,47.3292],[8.4421,47.3274],[8.4413,47.3272],[8.4406,47.3276],[8.4398,47.3273],[8.4395,47.3271],[8.4367,47.3267],[8.4348,47.3253],[8.4317,47.327],[8.4313,47.3265],[8.4294,47.3274],[8.4277,47.3266],[8.4249,47.3264],[8.4209,47.3254],[8.4211,47.3253],[8.4201,47.3251],[8.419,47.3247],[8.4163,47.3245],[8.4157,47.3249],[8.4155,47.3259],[8.4153,47.3263],[8.4144,47.3263],[8.4142,47.3262],[8.4132,47.3264],[8.4124,47.3271],[8.4126,47.3286],[8.4134,47.3287],[8.414,47.3307],[8.4167,47.3338],[8.4168,47.3344],[8.4159,47.3357],[8.4164,47.3363],[8.4166,47.3369],[8.4164,47.3371],[8.4155,47.3371],[8.4148,47.3368],[8.4142,47.3375],[8.4137,47.3378],[8.4137,47.338],[8.4133,47.3383],[8.4129,47.3385],[8.412,47.3382],[8.4122,47.3388],[8.4114,47.3389],[8.4114,47.3391],[8.4105,47.3402],[8.4096,47.3406],[8.4085,47.3413],[8.4073,47.3416],[8.4078,47.3424],[8.407,47.3423],[8.4067,47.3431],[8.4063,47.3431],[8.4067,47.344],[8.4061,47.3443],[8.4059,47.3446],[8.4048,47.345],[8.4049,47.3452],[8.4039,47.3466],[8.4044,47.3476],[8.4056,47.3488],[8.4058,47.3511],[8.4081,47.3533],[8.4093,47.3551],[8.4074,47.3555],[8.4074,47.357],[8.4068,47.358],[8.407,47.3585],[8.4073,47.36],[8.4068,47.3601],[8.4069,47.3613],[8.4065,47.3623],[8.4055,47.3636],[8.4049,47.3641],[8.4053,47.3643],[8.4054,47.365],[8.4063,47.366],[8.4082,47.3666],[8.408,47.3672],[8.4073,47.3679],[8.4071,47.3684],[8.4071,47.3688],[8.4079,47.3698],[8.407,47.3702],[8.403,47.37],[8.4019,47.3706],[8.4013,47.3704],[8.4004,47.3705],[8.4003,47.3712],[8.4006,47.3715],[8.4003,47.3724],[8.4003,47.373],[8.4001,47.373],[8.4,47.3732],[8.4008,47.3742],[8.4003,47.3743],[8.3995,47.3748],[8.3992,47.3748],[8.3983,47.3751],[8.3974,47.376],[8.3971,47.3767],[8.3968,47.3766],[8.3964,47.377],[8.3964,47.3774],[8.3967,47.3777],[8.3965,47.378],[8.3966,47.3789],[8.3961,47.3794],[8.3956,47.3802],[8.3951,47.3804],[8.3949,47.3807],[8.395,47.3812],[8.3955,47.3817],[8.3951,47.3823],[8.3951,47.3828],[8.3949,47.3833],[8.3951,47.3844],[8.3948,47.3853],[8.3948,47.3855],[8.3954,47.3859],[8.3954,47.3862],[8.3949,47.3871],[8.3951,47.3876],[8.3949,47.3878],[8.3948,47.3882],[8.3947,47.39],[8.3949,47.3902],[8.394,47.3912],[8.3945,47.3914],[8.3954,47.3914],[8.3958,47.3915],[8.3965,47.3926],[8.3962,47.3931],[8.3966,47.3936],[8.3966,47.3939],[8.3961,47.3941],[8.3964,47.3938],[8.3954,47.3935],[8.3948,47.3935],[8.3946,47.3943],[8.3939,47.395],[8.393,47.3949],[8.3926,47.3954],[8.3919,47.3958],[8.391,47.3955],[8.3903,47.3949],[8.3898,47.3946],[8.389,47.3953],[8.388,47.3956],[8.3874,47.3957],[8.3863,47.3952],[8.385,47.3952],[8.3837,47.3954],[8.3832,47.3946],[8.3825,47.3954],[8.3828,47.3958],[8.3826,47.3966],[8.3816,47.3972],[8.3812,47.3979],[8.3805,47.3983],[8.3807,47.3986],[8.3806,47.3989],[8.3799,47.3996],[8.3793,47.3999],[8.3785,47.4],[8.3782,47.3996],[8.3776,47.4],[8.3763,47.4],[8.3753,47.3994],[8.3734,47.399],[8.3707,47.3992],[8.3696,47.3991],[8.3689,47.3993],[8.3675,47.3988],[8.3671,47.399],[8.3664,47.3988],[8.365,47.3995],[8.3651,47.3998],[8.3647,47.4002],[8.3643,47.4006],[8.3633,47.401],[8.3628,47.4016],[8.3625,47.4023],[8.3649,47.4023],[8.3658,47.4025],[8.3674,47.4007],[8.368,47.4014],[8.3678,47.4022],[8.3684,47.4022],[8.3691,47.4033],[8.3706,47.4038],[8.3761,47.4048],[8.3773,47.4039],[8.3775,47.4035],[8.378,47.4034],[8.3793,47.4024],[8.3802,47.4027],[8.38,47.403],[8.381,47.403],[8.382,47.4035],[8.382,47.404],[8.3825,47.4042],[8.3827,47.4044],[8.3827,47.4048],[8.3846,47.4062],[8.3824,47.4077],[8.3816,47.4085],[8.3811,47.4094],[8.3812,47.4103],[8.3816,47.4112],[8.3831,47.4125],[8.3824,47.4129],[8.3826,47.4131],[8.3834,47.4128],[8.3854,47.4145],[8.385,47.4145],[8.3818,47.4163],[8.3838,47.418],[8.3876,47.4164],[8.3915,47.4198],[8.3921,47.4207],[8.3923,47.4217],[8.3919,47.4228],[8.3914,47.4234],[8.3906,47.424],[8.3905,47.4243],[8.3895,47.4251],[8.389,47.4253],[8.389,47.4255],[8.388,47.4268],[8.3876,47.4276],[8.3876,47.428],[8.3833,47.4281],[8.3801,47.4291],[8.3776,47.4293],[8.376,47.4299],[8.3751,47.4307],[8.3747,47.4322],[8.3752,47.4323],[8.3758,47.4328],[8.3762,47.4335],[8.3766,47.4333],[8.3771,47.4338],[8.3792,47.433],[8.3809,47.4328],[8.381,47.4333],[8.3829,47.4329],[8.384,47.4346],[8.3839,47.435],[8.3845,47.4353],[8.385,47.4359],[8.385,47.4367],[8.384,47.4373],[8.3838,47.4382],[8.3845,47.4384],[8.3838,47.4399],[8.382,47.4405],[8.3819,47.4417],[8.382,47.4422],[8.3817,47.4441],[8.381,47.4464],[8.3822,47.4465],[8.3818,47.4487],[8.3859,47.4493],[8.3869,47.4496],[8.3867,47.4497],[8.3856,47.4518],[8.3849,47.4537],[8.3851,47.4538],[8.3848,47.4541],[8.3843,47.4539],[8.3844,47.4549],[8.383,47.455],[8.3831,47.4551],[8.3829,47.4562],[8.3802,47.4561],[8.3794,47.4573],[8.3789,47.4593],[8.3781,47.4593],[8.3779,47.4595],[8.3728,47.4592],[8.3726,47.4601],[8.3722,47.4611],[8.371,47.4618],[8.3707,47.4624],[8.3695,47.4634],[8.3698,47.4639],[8.3697,47.4639],[8.3694,47.4648],[8.3695,47.4653],[8.3689,47.4654],[8.3689,47.4658],[8.3674,47.4662],[8.3672,47.4657],[8.3657,47.4662],[8.3659,47.467],[8.3658,47.4675],[8.3678,47.4682],[8.3681,47.469],[8.3679,47.4693],[8.3663,47.4695],[8.3671,47.4698],[8.3678,47.4704],[8.3701,47.4704],[8.3717,47.4701],[8.3753,47.4711],[8.3753,47.4716],[8.3743,47.473],[8.3741,47.4743],[8.3736,47.4749],[8.3741,47.4781],[8.3742,47.4805],[8.3733,47.4815],[8.3633,47.4809],[8.3628,47.4832],[8.362,47.4857],[8.3621,47.4876],[8.3623,47.4882],[8.3621,47.4885],[8.3627,47.4906],[8.3619,47.4914],[8.3617,47.4925],[8.3613,47.4935],[8.3613,47.4942],[8.3611,47.4952],[8.3609,47.4956],[8.3601,47.4964],[8.3583,47.4975],[8.3596,47.4981],[8.3606,47.4988],[8.3622,47.4996],[8.3628,47.5001],[8.3628,47.5007],[8.3631,47.5011],[8.3601,47.5008],[8.3592,47.5009],[8.3586,47.5013],[8.3577,47.5025],[8.3587,47.503],[8.3584,47.5035],[8.3592,47.5045],[8.3588,47.5053],[8.3591,47.5061],[8.3617,47.5078],[8.3609,47.5089],[8.3609,47.5096],[8.3612,47.5101],[8.3637,47.5109],[8.3662,47.5108],[8.3666,47.5115],[8.3682,47.5112],[8.3684,47.5115],[8.3672,47.5121],[8.3673,47.5122],[8.3684,47.512],[8.3687,47.5122],[8.3704,47.5115],[8.3707,47.5117],[8.371,47.5115],[8.3716,47.5118],[8.3722,47.5114],[8.3738,47.511],[8.3741,47.5111],[8.3742,47.5116],[8.3747,47.5122],[8.3765,47.5125],[8.3771,47.5124],[8.3776,47.513],[8.3788,47.5137],[8.3796,47.5149],[8.3793,47.5159],[8.3804,47.516],[8.3806,47.5185],[8.3804,47.52],[8.3811,47.5219],[8.3814,47.5249],[8.3816,47.5255],[8.3824,47.5265],[8.3842,47.5282],[8.3851,47.5286],[8.3867,47.5289],[8.3875,47.5283],[8.3881,47.5283],[8.3887,47.5278],[8.3898,47.5273],[8.3893,47.527],[8.3889,47.5263],[8.3907,47.5263],[8.3921,47.5254],[8.3921,47.5251],[8.3933,47.5257],[8.3947,47.5274],[8.3957,47.5283],[8.3953,47.5286],[8.3951,47.5292],[8.3951,47.5302],[8.3949,47.5315],[8.3951,47.5318],[8.3957,47.5321],[8.3977,47.5326],[8.3983,47.5325],[8.3983,47.5328],[8.399,47.533],[8.4004,47.5332],[8.4026,47.5332],[8.4039,47.5334],[8.404,47.5339],[8.4044,47.5343],[8.4042,47.5351],[8.4035,47.5357],[8.4024,47.5374],[8.4014,47.5381],[8.4015,47.5391],[8.401,47.54],[8.4013,47.5401],[8.4019,47.5398],[8.4033,47.5384],[8.4042,47.5382],[8.4043,47.5384],[8.4041,47.5392],[8.4055,47.5395],[8.4058,47.5396],[8.4049,47.5402],[8.405,47.5403],[8.4059,47.5402],[8.4061,47.5404],[8.4051,47.5419],[8.4064,47.542],[8.4066,47.5417],[8.4069,47.5417],[8.4069,47.5422],[8.4074,47.5427],[8.4075,47.5435],[8.4082,47.5437],[8.4085,47.5434],[8.4087,47.5434],[8.4087,47.5439],[8.4098,47.5447],[8.4104,47.5455],[8.411,47.5458],[8.4111,47.5461],[8.4116,47.546],[8.4114,47.5457],[8.4126,47.5457],[8.4127,47.5462],[8.4174,47.5459],[8.4155,47.5477],[8.4151,47.5484],[8.4155,47.5493],[8.4162,47.55],[8.4169,47.5503],[8.4156,47.551],[8.4146,47.552],[8.4145,47.5522],[8.4148,47.553],[8.4145,47.5539],[8.4149,47.5549],[8.4156,47.5557],[8.4164,47.5573],[8.4163,47.5578],[8.4177,47.5585],[8.4179,47.5591],[8.4176,47.5601],[8.4179,47.5607],[8.4169,47.5609],[8.4185,47.5639],[8.4184,47.5645],[8.4188,47.5652],[8.4236,47.5664],[8.4257,47.5679],[8.4278,47.5672],[8.4295,47.5668],[8.4314,47.5666],[8.4342,47.5667],[8.4392,47.5675],[8.4499,47.5709],[8.453,47.5715],[8.4562,47.5724],[8.4615,47.572],[8.4632,47.5721],[8.4649,47.5723],[8.4694,47.574],[8.4767,47.5778],[8.4778,47.578],[8.479,47.5781],[8.4834,47.5771],[8.4853,47.5772],[8.4868,47.5776],[8.4922,47.5803],[8.4947,47.581],[8.4942,47.5822],[8.4929,47.5837],[8.4904,47.5864],[8.4887,47.5878],[8.4873,47.5874],[8.4833,47.5869],[8.4818,47.586],[8.481,47.5852],[8.4801,47.5852],[8.4796,47.5853],[8.4755,47.5845],[8.4737,47.5844],[8.4703,47.5846],[8.4696,47.5844],[8.4692,47.584],[8.4683,47.5839],[8.4669,47.5842],[8.4648,47.588],[8.4627,47.588],[8.4626,47.5884],[8.4605,47.5884],[8.4604,47.5896],[8.4606,47.5896],[8.4607,47.591],[8.4612,47.5927],[8.4606,47.5933],[8.46,47.595],[8.4593,47.5961],[8.4581,47.597],[8.457,47.5974],[8.4565,47.5999],[8.4567,47.6023],[8.4592,47.602],[8.4636,47.6023],[8.4665,47.6029],[8.4685,47.6039],[8.4681,47.6045],[8.4682,47.6048],[8.4681,47.6054],[8.4701,47.6054],[8.471,47.6065],[8.4714,47.6066],[8.4714,47.607],[8.4706,47.6076],[8.4702,47.6083],[8.4703,47.6086],[8.4739,47.6084],[8.475,47.6077],[8.4753,47.6079],[8.4781,47.611],[8.4783,47.6119],[8.4786,47.6122],[8.4787,47.6133],[8.478,47.6136],[8.4792,47.6152],[8.4796,47.615],[8.4801,47.6151],[8.4815,47.6143],[8.4833,47.6137],[8.4841,47.614],[8.4846,47.6147],[8.4871,47.6143],[8.4885,47.6151],[8.4933,47.6144],[8.5009,47.6165],[8.5021,47.6166],[8.5031,47.6173],[8.5055,47.6173],[8.5057,47.6171],[8.5083,47.6175],[8.5072,47.6183],[8.509,47.6186],[8.5089,47.6189],[8.5083,47.6189],[8.508,47.6198],[8.5082,47.6221],[8.5074,47.6238],[8.5109,47.6233],[8.5132,47.6233],[8.5135,47.6235],[8.5146,47.6236],[8.5151,47.6234],[8.5151,47.6246],[8.5129,47.6249],[8.5128,47.6256],[8.5135,47.6268],[8.5141,47.6263],[8.5154,47.6271],[8.5148,47.6278],[8.5149,47.6282],[8.5159,47.6285],[8.5158,47.6288],[8.515,47.6295],[8.5149,47.6302],[8.5153,47.6313],[8.5158,47.6315],[8.5165,47.632],[8.5158,47.6326],[8.516,47.633],[8.5157,47.6338],[8.5167,47.6341],[8.5179,47.6343],[8.5208,47.6343],[8.5219,47.6334],[8.5245,47.6324],[8.5256,47.6317],[8.5279,47.6318],[8.53,47.6317],[8.5311,47.632],[8.5317,47.6319],[8.5327,47.6314],[8.5336,47.6313],[8.5346,47.6313],[8.5356,47.631],[8.5368,47.6309],[8.5382,47.6312],[8.539,47.631],[8.5393,47.6283],[8.5387,47.6263],[8.5429,47.627],[8.5439,47.6255],[8.5443,47.6252],[8.5476,47.6255],[8.5484,47.6251],[8.5486,47.6253],[8.5496,47.6252],[8.5505,47.6254],[8.5526,47.6248],[8.554,47.6248],[8.5547,47.6246],[8.5555,47.6247],[8.5579,47.6245],[8.5585,47.6236],[8.5592,47.6219],[8.5599,47.6211],[8.5613,47.6208],[8.5611,47.6201],[8.562,47.6193],[8.5621,47.6185],[8.5629,47.6167],[8.5659,47.617],[8.5683,47.617],[8.5693,47.6172],[8.5697,47.6168],[8.57,47.6161],[8.5707,47.6153],[8.5702,47.6149],[8.5703,47.6142],[8.5705,47.614],[8.5715,47.614],[8.5716,47.6137],[8.5709,47.6135],[8.5712,47.6125],[8.5744,47.6123],[8.5745,47.612],[8.5743,47.6117],[8.5728,47.6109],[8.57,47.6108],[8.5664,47.6099],[8.5666,47.608],[8.5664,47.6061],[8.566,47.6052],[8.565,47.6044],[8.5639,47.6029],[8.5617,47.6013],[8.5622,47.6003],[8.5631,47.5994],[8.5619,47.5991],[8.5604,47.5992],[8.5585,47.5984],[8.557,47.5975],[8.5568,47.5975],[8.5566,47.5978],[8.5563,47.5976],[8.5558,47.5967],[8.5559,47.5946],[8.5555,47.594],[8.5553,47.5941],[8.5529,47.593],[8.5505,47.5923],[8.5478,47.5927],[8.5467,47.5924],[8.5443,47.5912],[8.541,47.5901],[8.5394,47.5887],[8.5382,47.5883],[8.537,47.5874],[8.5354,47.5871],[8.536,47.5858],[8.5363,47.5844],[8.5366,47.5846],[8.537,47.5834],[8.5342,47.5829],[8.5336,47.5822],[8.5347,47.5817],[8.5346,47.5812],[8.5347,47.5811],[8.5358,47.5808],[8.536,47.5794],[8.5366,47.5796],[8.5367,47.5794],[8.5395,47.5786],[8.5401,47.5782],[8.5399,47.5776],[8.5376,47.578],[8.5374,47.5776],[8.5368,47.5774],[8.5369,47.5768],[8.535,47.5758],[8.5348,47.5755],[8.535,47.5753],[8.5396,47.5744],[8.5405,47.5748],[8.543,47.5745],[8.5445,47.5749],[8.5464,47.5742],[8.5465,47.5737],[8.5457,47.5729],[8.5463,47.5725],[8.5468,47.5723],[8.5462,47.5713],[8.5444,47.5712],[8.5431,47.5706],[8.5425,47.5705],[8.5416,47.5699],[8.5459,47.5671],[8.5485,47.5642],[8.5497,47.562],[8.5505,47.5592],[8.5506,47.5569],[8.551,47.556],[8.5514,47.5555],[8.5543,47.553],[8.5552,47.5525],[8.5571,47.5524],[8.558,47.5526],[8.5589,47.553],[8.561,47.555],[8.5675,47.5626],[8.5692,47.5664],[8.5697,47.5701],[8.57,47.5711],[8.5704,47.572],[8.5719,47.5742],[8.5728,47.575],[8.5737,47.5754],[8.5748,47.5757],[8.5787,47.5761],[8.5795,47.5764],[8.58,47.577],[8.5802,47.5778],[8.5801,47.5785],[8.5782,47.5817],[8.5774,47.5835],[8.5772,47.5845],[8.5771,47.5856],[8.5773,47.5872],[8.5784,47.5895],[8.5802,47.5913],[8.582,47.5925],[8.5836,47.5933],[8.5862,47.5941],[8.5925,47.5955],[8.5935,47.5959],[8.5943,47.5964],[8.5948,47.5971],[8.5951,47.5981],[8.5944,47.6004],[8.5943,47.6014],[8.5952,47.6046],[8.5957,47.6056],[8.5968,47.6066],[8.5995,47.6081],[8.6031,47.6107],[8.6041,47.6117],[8.6048,47.6129],[8.6052,47.6148],[8.605,47.6167],[8.6044,47.6177],[8.6014,47.6212],[8.5996,47.6238],[8.5984,47.6262],[8.5971,47.6301],[8.5968,47.6321],[8.5967,47.636],[8.5956,47.6392],[8.5953,47.6407],[8.5954,47.642],[8.5959,47.6431],[8.5972,47.6441],[8.6002,47.6451],[8.6017,47.646],[8.6027,47.6472],[8.6033,47.6494],[8.6044,47.6513],[8.6051,47.652],[8.6058,47.6523],[8.6068,47.6525],[8.6077,47.6524],[8.6093,47.6519],[8.6107,47.6513],[8.6119,47.6504],[8.6128,47.6494],[8.6135,47.6484],[8.6139,47.6474],[8.6141,47.6459],[8.6141,47.6447],[8.6136,47.6437],[8.6131,47.6431],[8.6121,47.6424],[8.6112,47.642],[8.6093,47.6416],[8.6077,47.6415],[8.6055,47.6416],[8.6042,47.6413],[8.6036,47.6408],[8.6033,47.6403],[8.6034,47.6388],[8.604,47.6382],[8.605,47.6376],[8.607,47.6371],[8.6112,47.6372],[8.6156,47.6377],[8.6184,47.6384],[8.6202,47.639],[8.6219,47.6399],[8.6234,47.6409],[8.625,47.6427],[8.6275,47.6473],[8.6287,47.6491],[8.6289,47.65],[8.6289,47.652],[8.6283,47.6531],[8.6277,47.6538],[8.6217,47.658],[8.6196,47.6592],[8.6145,47.6616],[8.6128,47.6608],[8.6088,47.6634],[8.6081,47.6641],[8.6069,47.6665],[8.6061,47.6691],[8.6065,47.6702],[8.6073,47.6711],[8.6081,47.6726],[8.6084,47.6723],[8.6096,47.672],[8.6103,47.6746],[8.6108,47.6757],[8.6136,47.6785],[8.6142,47.6786],[8.6149,47.6781],[8.6157,47.678],[8.6168,47.677],[8.617,47.6764],[8.6177,47.6756],[8.6184,47.6752],[8.6193,47.6751],[8.6203,47.6752],[8.6243,47.6765],[8.6255,47.6771],[8.6263,47.6778],[8.6272,47.6794],[8.6273,47.6806],[8.6272,47.6813],[8.6264,47.6828],[8.6241,47.6897],[8.6242,47.6908],[8.6251,47.6917],[8.6257,47.6913],[8.627,47.6918],[8.6307,47.692],[8.6374,47.6931],[8.6415,47.6944],[8.6433,47.6944],[8.6449,47.694],[8.646,47.6936],[8.6512,47.6908],[8.6542,47.6889],[8.6602,47.6861],[8.6631,47.6853],[8.6634,47.6858],[8.6694,47.6848],[8.6695,47.6837],[8.6693,47.6834],[8.6697,47.6833],[8.6694,47.6829],[8.6696,47.6828],[8.6695,47.6824],[8.6697,47.6816],[8.6694,47.6811],[8.6696,47.681],[8.668,47.6771],[8.6694,47.6747],[8.6725,47.6735],[8.6735,47.6729],[8.6757,47.6723],[8.6769,47.6718],[8.6771,47.67],[8.6776,47.6684],[8.6788,47.6685],[8.6791,47.6678],[8.6791,47.6667],[8.6787,47.6658],[8.6784,47.6657],[8.6775,47.6658],[8.6774,47.6642],[8.6777,47.6626],[8.6788,47.6615],[8.6793,47.6616],[8.6796,47.6609],[8.6793,47.6601],[8.6793,47.6596],[8.6804,47.6581],[8.6822,47.6574],[8.6824,47.6572],[8.6831,47.6557],[8.6846,47.6552],[8.6846,47.6534],[8.6859,47.6536],[8.6867,47.6536],[8.6882,47.6513],[8.6881,47.65],[8.6904,47.6494],[8.693,47.6484],[8.6932,47.648],[8.6945,47.6479],[8.6948,47.6481],[8.6961,47.648],[8.6984,47.6477],[8.6987,47.647],[8.7004,47.647],[8.7008,47.6465],[8.701,47.6458],[8.7009,47.6457],[8.7028,47.6451],[8.7035,47.6442],[8.7082,47.6423],[8.7087,47.6419],[8.7104,47.6432],[8.7111,47.6436],[8.7142,47.6444],[8.7147,47.6431],[8.7163,47.6432],[8.7172,47.6418],[8.7198,47.6411],[8.7201,47.6411],[8.7203,47.6419],[8.722,47.6418],[8.7235,47.6419],[8.7236,47.6426],[8.7241,47.6425],[8.7246,47.6429],[8.7247,47.6431],[8.7263,47.6429],[8.7296,47.6428],[8.7307,47.6423],[8.7349,47.6412],[8.7357,47.642],[8.7355,47.6421],[8.7363,47.6423],[8.7381,47.6419],[8.7408,47.6422],[8.7435,47.643],[8.7427,47.6422],[8.7432,47.6422],[8.7433,47.6414],[8.7434,47.6398],[8.7453,47.6394],[8.7472,47.6386],[8.7482,47.6408],[8.7497,47.6415],[8.7498,47.6413],[8.7521,47.6412],[8.7521,47.6424],[8.7552,47.642],[8.7557,47.6431],[8.7573,47.643],[8.7578,47.6432],[8.7588,47.644],[8.7598,47.6459],[8.7598,47.6455],[8.7624,47.6462],[8.7649,47.6488],[8.7663,47.6489],[8.7681,47.65],[8.7688,47.6502],[8.7709,47.6498],[8.7726,47.6499],[8.7731,47.6498],[8.7744,47.6488],[8.7762,47.6488],[8.7772,47.6495],[8.7776,47.6503],[8.7783,47.6509],[8.7809,47.6517],[8.7823,47.6524],[8.7854,47.6551],[8.786,47.6552],[8.7859,47.6577],[8.7866,47.6581],[8.7867,47.6593],[8.7866,47.6607],[8.7878,47.6631],[8.7885,47.6654],[8.7912,47.6648],[8.793,47.6647],[8.7967,47.665],[8.7991,47.6649],[8.8024,47.6653],[8.8038,47.6652],[8.8053,47.6647],[8.8053,47.6642],[8.8042,47.6639],[8.804,47.6624],[8.8034,47.6606],[8.8049,47.6604],[8.805,47.6586],[8.8043,47.6549],[8.8052,47.6547],[8.8049,47.6522],[8.8067,47.6519],[8.8099,47.6516],[8.8114,47.6511],[8.814,47.6499],[8.8141,47.65],[8.8147,47.6496],[8.8156,47.6499],[8.8155,47.6498],[8.8158,47.6491],[8.8165,47.6495],[8.817,47.6495],[8.8189,47.6489],[8.8209,47.6489],[8.8246,47.6478],[8.8245,47.6476],[8.8262,47.6469],[8.8266,47.6465],[8.8266,47.6462],[8.8263,47.6461],[8.8259,47.6443],[8.8264,47.6436],[8.8269,47.6434],[8.8268,47.6425],[8.8271,47.6422],[8.8273,47.6414],[8.8278,47.6408],[8.8275,47.6401],[8.8274,47.6391],[8.8268,47.6386],[8.8267,47.6379],[8.8253,47.6375],[8.8254,47.6373],[8.8247,47.6353],[8.8238,47.6344],[8.8247,47.6339],[8.8238,47.6332],[8.8232,47.633],[8.823,47.6331],[8.8227,47.6329],[8.8214,47.6315],[8.8209,47.6316],[8.8202,47.6305],[8.8208,47.6304],[8.8202,47.6293],[8.8178,47.6299],[8.818,47.6298],[8.8176,47.6282],[8.8158,47.6287],[8.8154,47.6278],[8.8145,47.6279],[8.8141,47.6272],[8.8131,47.6274],[8.813,47.6256],[8.8135,47.6256],[8.8133,47.6247],[8.8135,47.6245],[8.8133,47.6241],[8.8123,47.6244],[8.8117,47.6226],[8.8138,47.6224],[8.813,47.6221],[8.813,47.6216],[8.8143,47.6217],[8.8143,47.6211],[8.8136,47.6207],[8.8129,47.6206],[8.813,47.6195],[8.8121,47.6195],[8.8116,47.619],[8.8129,47.6182],[8.8122,47.6176],[8.8124,47.6174],[8.8134,47.6171],[8.814,47.6172],[8.8138,47.6168],[8.8132,47.6165],[8.8113,47.6164],[8.8108,47.6157],[8.8106,47.6157],[8.8106,47.6152],[8.8086,47.6152],[8.8085,47.6141],[8.8068,47.6142],[8.8051,47.6137],[8.8047,47.6133],[8.8045,47.6124],[8.8041,47.6116],[8.804,47.6107],[8.8042,47.6107],[8.8041,47.6102],[8.8038,47.6096],[8.8041,47.6094],[8.8033,47.6085],[8.804,47.6081],[8.8032,47.6073],[8.803,47.6068],[8.8029,47.6053],[8.803,47.6046],[8.802,47.6036],[8.8017,47.603],[8.8025,47.602],[8.8028,47.6011],[8.8004,47.6016],[8.7989,47.6022],[8.7971,47.6025],[8.7965,47.6026],[8.7959,47.6024],[8.7937,47.6025],[8.7888,47.6034],[8.789,47.6041],[8.7881,47.6041],[8.7883,47.6049],[8.7883,47.6054],[8.7887,47.6068],[8.7903,47.6084],[8.7898,47.6094],[8.7886,47.6093],[8.7878,47.609],[8.7879,47.6095],[8.7868,47.6095],[8.7812,47.612],[8.7796,47.6123],[8.7795,47.6127],[8.7775,47.6127],[8.7763,47.6128],[8.7766,47.6133],[8.7752,47.6136],[8.7753,47.6143],[8.7742,47.6144],[8.7746,47.6148],[8.7745,47.6149],[8.7725,47.615],[8.7723,47.6147],[8.7724,47.6144],[8.7703,47.6149],[8.7698,47.6152],[8.7696,47.6151],[8.7667,47.6165],[8.7622,47.6181],[8.7613,47.6182],[8.7594,47.6182],[8.7584,47.6184],[8.7563,47.6166],[8.7552,47.6171],[8.7551,47.6177],[8.7548,47.6182],[8.7546,47.618],[8.7538,47.6185],[8.7509,47.6197],[8.7505,47.62],[8.7499,47.6206],[8.7495,47.6215],[8.7481,47.623],[8.7464,47.6219],[8.7459,47.6212],[8.7459,47.6202],[8.7465,47.618],[8.7463,47.6172],[8.7455,47.6164],[8.7456,47.6162],[8.7458,47.6145],[8.7458,47.6129],[8.7431,47.613],[8.743,47.6124],[8.7427,47.6119],[8.7419,47.6121],[8.7414,47.6117],[8.7402,47.6119],[8.7397,47.6085],[8.7394,47.608],[8.7405,47.6076],[8.742,47.6073],[8.7423,47.6062],[8.7419,47.6056],[8.7421,47.6046],[8.7432,47.6036],[8.7434,47.6033],[8.7435,47.6029],[8.7437,47.6026],[8.7449,47.6022],[8.7463,47.6012],[8.7466,47.6009],[8.7463,47.6003],[8.7488,47.6],[8.7485,47.5998],[8.748,47.5996],[8.748,47.5986],[8.7475,47.5985],[8.7474,47.5977],[8.7457,47.5965],[8.7457,47.5963],[8.7473,47.5958],[8.7473,47.5951],[8.7482,47.5923],[8.7564,47.5929],[8.762,47.5929],[8.7653,47.5926],[8.8061,47.5831],[8.8056,47.5821],[8.8024,47.5829],[8.8022,47.5826],[8.8011,47.5805],[8.8062,47.5795],[8.8053,47.5773],[8.8057,47.5772],[8.8048,47.5751],[8.8081,47.5743],[8.8074,47.5716],[8.8138,47.5702],[8.8166,47.5702],[8.8173,47.5719],[8.8197,47.5714],[8.82,47.5724],[8.8203,47.5723],[8.8205,47.5724],[8.822,47.5716],[8.8225,47.5731],[8.8238,47.5725],[8.83,47.5711],[8.8306,47.5727],[8.8312,47.5734],[8.8388,47.5712],[8.8377,47.5686],[8.8392,47.5686],[8.8393,47.5685],[8.8392,47.5654],[8.8418,47.5659],[8.8422,47.5664],[8.8448,47.5661],[8.8443,47.5633],[8.851,47.5636],[8.8509,47.5628],[8.8511,47.5608],[8.8484,47.5607],[8.8458,47.5608],[8.8416,47.56],[8.8407,47.5594],[8.8407,47.5584],[8.8402,47.5579],[8.8387,47.5574],[8.838,47.5573],[8.8319,47.5578],[8.8295,47.5576],[8.8297,47.5562],[8.8279,47.556],[8.829,47.5543],[8.8307,47.5521],[8.8304,47.5521],[8.8298,47.5517],[8.8308,47.5505],[8.831,47.5498],[8.8317,47.5499],[8.8317,47.5495],[8.8319,47.5495],[8.8319,47.5491],[8.8326,47.5491],[8.8327,47.5489],[8.8327,47.5488],[8.8324,47.5485],[8.8325,47.5484],[8.8321,47.5481],[8.8322,47.5474],[8.8333,47.5466],[8.8326,47.546],[8.8341,47.545],[8.8343,47.5446],[8.8337,47.5444],[8.8342,47.5435],[8.8344,47.5429],[8.8363,47.543],[8.8371,47.5413],[8.8386,47.5402],[8.8382,47.5394],[8.8399,47.5393],[8.84,47.5384],[8.8398,47.5384],[8.8395,47.538],[8.8393,47.5372],[8.8399,47.5371],[8.8407,47.5374],[8.8412,47.5369],[8.841,47.5364],[8.8407,47.5364],[8.8406,47.5359],[8.8412,47.5352],[8.841,47.5347],[8.8411,47.5335],[8.8409,47.5328],[8.8406,47.5328],[8.8408,47.5327],[8.8444,47.5318],[8.8474,47.5313],[8.8515,47.5311],[8.8559,47.5315],[8.8559,47.5311],[8.8557,47.5308],[8.8558,47.5304],[8.8566,47.5304],[8.8575,47.5307],[8.858,47.5303],[8.8654,47.5305],[8.8696,47.5303],[8.8743,47.5293],[8.8804,47.527],[8.8799,47.5276],[8.8815,47.5285],[8.8835,47.5294],[8.8863,47.5278],[8.8876,47.5284],[8.8881,47.5277],[8.888,47.5275],[8.8899,47.5268],[8.8905,47.527],[8.8921,47.5268],[8.8937,47.5263],[8.8939,47.526],[8.8946,47.5261],[8.8959,47.5259],[8.8968,47.5256],[8.8978,47.524],[8.8983,47.5242],[8.8971,47.5211],[8.8965,47.5204],[8.8965,47.5203],[8.8953,47.5192],[8.8971,47.5177],[8.8966,47.5173],[8.8969,47.5161],[8.8966,47.5156],[8.8967,47.5153],[8.8964,47.5137],[8.8964,47.5131],[8.8969,47.512],[8.8976,47.5112],[8.8973,47.5106],[8.8973,47.5083],[8.8975,47.5078],[8.8969,47.5077],[8.897,47.5069],[8.8963,47.5057],[8.8963,47.5054],[8.8969,47.5055],[8.8971,47.505],[8.8965,47.5042],[8.8961,47.5041],[8.8961,47.5039],[8.8953,47.5036],[8.8954,47.5027],[8.895,47.5027],[8.8936,47.5007],[8.8932,47.5005],[8.8927,47.5006],[8.8926,47.4975],[8.8934,47.4974],[8.8935,47.4949],[8.8933,47.4944],[8.8935,47.4943],[8.8932,47.4918],[8.8934,47.4916],[8.8929,47.4912],[8.8931,47.4905],[8.8928,47.4884],[8.8948,47.4886],[8.8968,47.4879],[8.8971,47.4867],[8.8976,47.486],[8.8977,47.4851],[8.8968,47.4846],[8.8944,47.4841],[8.891,47.4832],[8.8907,47.4833],[8.8895,47.4826],[8.8886,47.4823],[8.8879,47.4825],[8.8853,47.4817],[8.8856,47.4807],[8.8846,47.4789],[8.8845,47.479],[8.8849,47.477],[8.8818,47.4749],[8.881,47.4748],[8.8846,47.4737],[8.8847,47.4735],[8.8846,47.4732],[8.8846,47.4724],[8.884,47.4716],[8.8833,47.4711],[8.884,47.4708],[8.8836,47.4704],[8.8836,47.4701],[8.8843,47.4697],[8.8851,47.4697],[8.8866,47.4701],[8.8864,47.4697],[8.8907,47.4693],[8.8907,47.4686],[8.8908,47.468],[8.8918,47.4659],[8.8937,47.4651],[8.8935,47.4649],[8.8919,47.4646],[8.8917,47.4644],[8.894,47.4637],[8.8945,47.4629],[8.8954,47.4629],[8.8956,47.4628],[8.8963,47.4606],[8.8961,47.4603],[8.8955,47.46],[8.8954,47.4597],[8.8958,47.4594],[8.8982,47.4583],[8.8979,47.4579],[8.8994,47.4557],[8.9004,47.4546],[8.9004,47.4544],[8.9003,47.4543],[8.9017,47.4541],[8.9036,47.4535],[8.9052,47.4521],[8.9057,47.4513],[8.907,47.4508],[8.9074,47.4501],[8.9075,47.4497],[8.908,47.4493],[8.9083,47.4487],[8.9088,47.4483],[8.909,47.4477],[8.9086,47.4474],[8.9073,47.4473],[8.906,47.4466],[8.9056,47.4468],[8.9044,47.4452],[8.9033,47.4446],[8.9027,47.4444],[8.9027,47.4442],[8.9029,47.4438],[8.9044,47.4424],[8.9049,47.4422],[8.9054,47.4418],[8.9056,47.4414],[8.9056,47.4408],[8.906,47.4406],[8.907,47.4396],[8.9069,47.4393],[8.9068,47.4388],[8.911,47.4366],[8.9123,47.4365],[8.9144,47.4367],[8.9162,47.4364],[8.9174,47.4366],[8.9188,47.4363],[8.92,47.4354],[8.9217,47.4349],[8.9239,47.435],[8.9237,47.4349],[8.9243,47.4351],[8.9253,47.4348],[8.927,47.4354],[8.9311,47.4353],[8.9327,47.4355],[8.9327,47.4353],[8.9321,47.4348],[8.9331,47.4341],[8.9318,47.4333],[8.9311,47.4324],[8.931,47.4319],[8.93,47.4316],[8.9296,47.4317],[8.9292,47.4321],[8.9285,47.4315],[8.927,47.4315],[8.9269,47.4314],[8.9259,47.4315],[8.9254,47.4317],[8.9253,47.4319],[8.9245,47.4323],[8.9238,47.4324],[8.9231,47.4328],[8.9221,47.433],[8.9198,47.433],[8.9181,47.4324],[8.917,47.4332],[8.9149,47.4323],[8.9142,47.4317],[8.9136,47.4315],[8.9126,47.4328],[8.9128,47.4329],[8.9123,47.4338],[8.9113,47.4338],[8.911,47.4337],[8.9098,47.433],[8.9088,47.4318],[8.9078,47.4313],[8.9077,47.4303],[8.9087,47.4295],[8.9097,47.4291],[8.91,47.4292],[8.9123,47.4286],[8.9146,47.4277],[8.9147,47.427],[8.9138,47.4267],[8.9118,47.4253],[8.9121,47.4252],[8.9119,47.4247],[8.9117,47.4247],[8.9119,47.424],[8.9112,47.4236],[8.9115,47.4231],[8.9117,47.422],[8.9119,47.422],[8.912,47.4216],[8.9126,47.4209],[8.9131,47.4193],[8.9138,47.4187],[8.9139,47.4183],[8.9127,47.4168],[8.9126,47.4158],[8.9124,47.4156],[8.9127,47.4152],[8.9128,47.4148],[8.9129,47.4137],[8.9127,47.4128],[8.9114,47.4123],[8.9108,47.4119],[8.91,47.4107],[8.9096,47.4104],[8.9095,47.4091],[8.9086,47.4086],[8.9076,47.4076],[8.9066,47.407],[8.9058,47.406],[8.9051,47.4055],[8.9045,47.4046],[8.9043,47.4033],[8.9044,47.4029],[8.9037,47.4024],[8.9035,47.4024],[8.9035,47.4021],[8.9042,47.4018],[8.9049,47.4017],[8.9055,47.4014],[8.9066,47.4013],[8.9071,47.401],[8.9088,47.4011],[8.9095,47.4013],[8.9107,47.4011],[8.9114,47.4014],[8.9117,47.401],[8.9122,47.4009],[8.9134,47.4012],[8.9135,47.4011],[8.9133,47.4008],[8.9135,47.4004],[8.9141,47.4006],[8.9145,47.4002],[8.9155,47.4002],[8.9156,47.3999],[8.9179,47.4],[8.9208,47.3995],[8.9212,47.3992],[8.9219,47.399],[8.9222,47.3987],[8.9232,47.3984],[8.9245,47.3975],[8.9248,47.3975],[8.9254,47.397],[8.926,47.3969],[8.9261,47.3965],[8.9274,47.3959],[8.9275,47.3956],[8.9271,47.3952],[8.9274,47.3949],[8.9273,47.3947],[8.9277,47.3946],[8.9278,47.3943],[8.9282,47.3942],[8.9284,47.3939],[8.9289,47.3939],[8.9294,47.3936],[8.9296,47.3933],[8.9301,47.3931],[8.9301,47.3927],[8.9312,47.3922],[8.9319,47.3915],[8.9339,47.3906],[8.9355,47.3905],[8.9361,47.3903],[8.9368,47.3896],[8.9382,47.3887],[8.9404,47.3878],[8.9407,47.3875],[8.9416,47.3873],[8.9425,47.3863],[8.943,47.3861],[8.9436,47.3856],[8.9437,47.3849],[8.9436,47.3849],[8.9437,47.3841],[8.9426,47.3825],[8.9416,47.382],[8.9411,47.3815],[8.9409,47.381],[8.9402,47.3801],[8.9401,47.3798],[8.9411,47.3781],[8.9417,47.3778],[8.9435,47.3759]],[[8.438,47.4075],[8.4394,47.4079],[8.4398,47.4083],[8.4404,47.4085],[8.4398,47.409],[8.4391,47.4088],[8.438,47.4081],[8.438,47.4075]]]}}